{"type":"FeatureCollection","features":[{"type":"Feature","properties":{"sourceId":"1159310217","regionId":"region.60a1a81f-69ab-49a5-98cb-3e3a6bffc6cb","countryId":"country.mgrohe"},"geometry":{"type":"Polygon","coordinates":[[[-90.0983,13.7314],[-89.9535,13.6651],[-89.8198,13.6797],[-89.7707,13.894],[-89.7188,13.909],[-89.748,14.0449],[-89.8801,14.0427],[-90.099,13.8585],[-90.0983,13.7314]]]}},{"type":"Feature","properties":{"sourceId":"1159310221","regionId":"region.dbc52e0f-feea-4ce3-80b7-1f22b8e963fa","countryId":"country.mgrohe"},"geometry":{"type":"Polygon","coordinates":[[[-89.748,14.0449],[-89.7188,13.909],[-89.5934,13.8084],[-89.4566,13.7751],[-89.4309,13.9212],[-89.3714,14.0406],[-89.338,14.1705],[-89.2465,14.3228],[-89.3462,14.4131],[-89.3616,14.4155],[-89.4961,14.4229],[-89.5984,14.328],[-89.5309,14.2256],[-89.7099,14.1487],[-89.748,14.0449]]]}},{"type":"Feature","properties":{"sourceId":"1159310219","regionId":"region.19e3b2bb-50e1-4bbb-bc3c-875a62cabfa1","countryId":"country.mgrohe"},"geometry":{"type":"Polygon","coordinates":[[[-89.3462,14.4131],[-89.2465,14.3228],[-89.338,14.1705],[-89.3714,14.0406],[-89.2673,14.0521],[-89.1413,14.067],[-88.9297,13.9479],[-88.6908,14.0118],[-88.7392,14.0999],[-88.8388,14.1004],[-88.8813,14.1842],[-88.9702,14.2102],[-89.0266,14.3113],[-89.3462,14.4131]]]}},{"type":"Feature","properties":{"sourceId":"1159309039","regionId":"region.81cf3bf4-d6a6-4dfd-a83a-aa09040db27a","countryId":"country.mgrohe"},"geometry":{"type":"Polygon","coordinates":[[[-88.6908,14.0118],[-88.9297,13.9479],[-88.9765,13.891],[-88.8503,13.7506],[-88.7356,13.8123],[-88.5323,13.7594],[-88.4968,13.8512],[-88.4971,13.9691],[-88.6908,14.0118]]]}},{"type":"Feature","properties":{"sourceId":"1159309055","regionId":"region.1cebf508-e7ec-4b88-988a-0760aec7265a","countryId":"country.mgrohe"},"geometry":{"type":"Polygon","coordinates":[[[-88.2177,13.9908],[-88.2742,13.9191],[-88.2594,13.6858],[-88.0919,13.5425],[-88.0085,13.5514],[-87.9364,13.7403],[-87.9526,13.892],[-88.0153,13.8664],[-88.0875,13.9805],[-88.2177,13.9908]]]}},{"type":"Feature","properties":{"sourceId":"1159309057","regionId":"region.6bd3b388-a7e3-47d9-a502-77a41bf2e06f","countryId":"country.mgrohe"},"geometry":{"type":"Polygon","coordinates":[[[-88.2742,13.9191],[-88.4968,13.8512],[-88.5323,13.7594],[-88.4873,13.6883],[-88.3724,13.6538],[-88.3827,13.4244],[-88.3339,13.3388],[-88.2222,13.3023],[-88.1125,13.1712],[-88.0915,13.1727],[-88.0389,13.2562],[-88.0085,13.5514],[-88.0919,13.5425],[-88.2594,13.6858],[-88.2742,13.9191]]]}},{"type":"Feature","properties":{"sourceId":"1159309051","regionId":"region.6300dd1a-4315-4576-93e0-d67359c98536","countryId":"country.mgrohe"},"geometry":{"type":"Polygon","coordinates":[[[-87.7495,13.8456],[-87.8329,13.9153],[-87.9526,13.892],[-87.9364,13.7403],[-88.0085,13.5514],[-88.0389,13.2562],[-88.0915,13.1727],[-87.9282,13.1586],[-87.7981,13.2657],[-87.8738,13.3653],[-87.8172,13.4066],[-87.7126,13.8005],[-87.7495,13.8456]]]}},{"type":"Feature","properties":{"sourceId":"1159309047","regionId":"region.c15bb4b7-2414-4d10-ad3b-ee3d469a257e","countryId":"country.mgrohe"},"geometry":{"type":"Polygon","coordinates":[[[-89.6094,13.5131],[-89.4566,13.7751],[-89.5934,13.8084],[-89.7188,13.909],[-89.7707,13.894],[-89.8198,13.6797],[-89.9535,13.6651],[-89.8371,13.5968],[-89.808,13.5269],[-89.6094,13.5131]]]}},{"type":"Feature","properties":{"sourceId":"1159309043","regionId":"region.c43281b7-2a97-4b09-a99c-1d3fb902c4fb","countryId":"country.mgrohe"},"geometry":{"type":"Polygon","coordinates":[[[-89.1357,13.4145],[-89.1444,13.4893],[-89.2114,13.5287],[-89.2045,13.6565],[-89.2627,13.7421],[-89.2104,13.9456],[-89.2673,14.0521],[-89.3714,14.0406],[-89.4309,13.9212],[-89.4566,13.7751],[-89.6094,13.5131],[-89.2515,13.4723],[-89.1357,13.4145]]]}},{"type":"Feature","properties":{"sourceId":"1159309045","regionId":"region.f8d5c38a-c95c-47a7-9ab4-e2db59d926c7","countryId":"country.mgrohe"},"geometry":{"type":"Polygon","coordinates":[[[-88.8316,13.2661],[-88.7813,13.4055],[-88.8092,13.5481],[-88.8961,13.6626],[-89.0236,13.6729],[-89.1444,13.4893],[-89.1357,13.4145],[-88.8316,13.2661]]]}},{"type":"Feature","properties":{"sourceId":"1159309059","regionId":"region.9479d836-cd67-48c0-97aa-36378d7861c7","countryId":"country.mgrohe"},"geometry":{"type":"Polygon","coordinates":[[[-88.8166,13.2593],[-88.7319,13.3415],[-88.6651,13.5471],[-88.4873,13.6883],[-88.5323,13.7594],[-88.7356,13.8123],[-88.8503,13.7506],[-88.8961,13.6626],[-88.8092,13.5481],[-88.7813,13.4055],[-88.8316,13.2661],[-88.8166,13.2593]]]}},{"type":"Feature","properties":{"sourceId":"1159309061","regionId":"region.bebc9462-8b11-477b-b54b-57b3b3efb58a","countryId":"country.mgrohe"},"geometry":{"type":"Polygon","coordinates":[[[-88.1125,13.1712],[-88.2222,13.3023],[-88.3339,13.3388],[-88.3827,13.4244],[-88.3724,13.6538],[-88.4873,13.6883],[-88.6651,13.5471],[-88.7319,13.3415],[-88.8166,13.2593],[-88.5275,13.1984],[-88.4692,13.2231],[-88.2083,13.1604],[-88.1125,13.1712]]]}},{"type":"Feature","properties":{"sourceId":"1159309041","regionId":"region.4cd7eee1-f491-4e1d-8548-e4c176b4a220","countryId":"country.mgrohe"},"geometry":{"type":"Polygon","coordinates":[[[-88.9297,13.9479],[-89.1413,14.067],[-89.1577,13.9525],[-89.0504,13.7779],[-89.0236,13.6729],[-88.8961,13.6626],[-88.8503,13.7506],[-88.9765,13.891],[-88.9297,13.9479]]]}},{"type":"Feature","properties":{"sourceId":"1159309049","regionId":"region.908e02e1-b5a1-4f18-be3e-c3fe9062b221","countryId":"country.mgrohe"},"geometry":{"type":"Polygon","coordinates":[[[-89.1413,14.067],[-89.2673,14.0521],[-89.2104,13.9456],[-89.2627,13.7421],[-89.2045,13.6565],[-89.2114,13.5287],[-89.1444,13.4893],[-89.0236,13.6729],[-89.0504,13.7779],[-89.1577,13.9525],[-89.1413,14.067]]]}}]}