{"type":"FeatureCollection","features":[{"type":"Feature","properties":{"sourceId":"1159310033","regionId":"region.0a9318c1-8731-44f3-ba47-ff806aa1cfbe","countryId":"country.1a1ajo"},"geometry":{"type":"MultiPolygon","coordinates":[[[[117.7036,4.1634],[117.907,4.1567],[117.7854,4.2466],[117.7036,4.1634]]],[[[115.6391,4.146],[115.8788,4.3521],[116.0206,4.2709],[116.1258,4.3789],[116.3107,4.3834],[116.3911,4.2947],[116.4941,4.3249],[117.1647,4.3331],[117.2172,4.3534],[117.4129,4.2001],[117.5671,4.1597],[117.6521,4.2849],[117.6058,4.382],[117.6712,4.426],[117.8923,4.257],[118.0046,4.2316],[118.1371,4.2987],[118.5428,4.36],[118.6453,4.444],[118.5996,4.5192],[118.3335,4.6516],[118.219,4.7563],[118.1365,4.8823],[118.217,4.9658],[118.3572,5.0388],[118.509,4.9311],[118.585,4.9719],[118.6815,4.9443],[119.1559,5.1062],[119.2671,5.2011],[119.2743,5.3612],[119.2048,5.4433],[119.0857,5.4099],[118.9709,5.4283],[118.7366,5.5478],[118.594,5.6821],[118.4107,5.7961],[118.2622,5.8279],[118.1763,5.8052],[118.1267,5.6935],[117.9649,5.6862],[117.938,5.8145],[118.0588,5.809],[118.1252,5.8639],[118.0169,6.061],[117.884,5.9547],[117.6546,5.9587],[117.6655,6.0799],[117.6056,6.1818],[117.723,6.2546],[117.7438,6.3899],[117.6409,6.5217],[117.5098,6.6022],[117.4422,6.553],[117.3089,6.6288],[117.2284,6.8381],[117.2468,6.9505],[117.1438,7.0037],[117.0293,6.91],[117.0525,6.8308],[116.9738,6.7081],[116.8245,6.5817],[116.7785,6.6265],[116.8587,6.8179],[116.832,6.9733],[116.7464,7.0104],[116.6692,6.8764],[116.645,6.7169],[116.5032,6.4952],[116.3477,6.3796],[116.2013,6.218],[116.0664,5.9307],[116.0508,5.8423],[115.9199,5.7468],[115.8486,5.56],[115.6741,5.5294],[115.5501,5.5402],[115.4043,5.4239],[115.3596,5.3196],[115.5608,5.2078],[115.557,5.0672],[115.4216,4.9623],[115.6225,4.9578],[115.6585,4.8248],[115.5598,4.5869],[115.5967,4.3803],[115.6754,4.3125],[115.6391,4.146]]],[[[117.1712,7.3427],[117.0641,7.2707],[117.0641,7.1267],[117.2297,7.1918],[117.2832,7.3088],[117.1712,7.3427]]]]}},{"type":"Feature","properties":{"sourceId":"1159310067","regionId":"region.518ff112-49bd-46b6-9ea1-a4f34ff97928","countryId":"country.1a1ajo"},"geometry":{"type":"Polygon","coordinates":[[[100.1992,6.6994],[100.1668,6.6951],[100.1273,6.4423],[100.1987,6.2605],[100.3655,6.4558],[100.3777,6.5268],[100.2808,6.6889],[100.1992,6.6994]]]}},{"type":"Feature","properties":{"sourceId":"1159310065","regionId":"region.24dcd22e-a190-49bf-91a7-f3ab53851a3e","countryId":"country.1a1ajo"},"geometry":{"type":"MultiPolygon","coordinates":[[[[100.3777,6.5268],[100.3655,6.4558],[100.1987,6.2605],[100.3491,6.0127],[100.3757,5.8109],[100.3543,5.569],[100.5332,5.5498],[100.5249,5.4692],[100.5591,5.1468],[100.5037,5.1342],[100.5571,5.0809],[100.7629,5.3208],[100.8398,5.3396],[100.8735,5.4645],[100.9469,5.5506],[100.9724,5.7729],[101.0153,5.8983],[101.0711,5.9198],[101.0943,6.0858],[101.0817,6.2465],[100.9101,6.2358],[100.8237,6.2986],[100.8056,6.4148],[100.7129,6.493],[100.6484,6.4472],[100.3777,6.5268]]],[[[99.9006,6.3643],[99.8511,6.4656],[99.719,6.3532],[99.7287,6.2615],[99.9006,6.3643]]]]}},{"type":"Feature","properties":{"sourceId":"1159310069","regionId":"region.48dbbd48-e4d4-40ad-b231-2597d76535ec","countryId":"country.1a1ajo"},"geometry":{"type":"Polygon","coordinates":[[[102.0731,6.2575],[102.06,6.0948],[101.9594,6.0116],[101.9129,5.8593],[101.8005,5.7399],[101.6976,5.7671],[101.6705,5.5181],[101.7533,5.4853],[101.7471,5.3625],[101.6205,5.3601],[101.532,5.2743],[101.4106,4.8307],[101.3791,4.6128],[101.6601,4.5674],[101.8874,4.6752],[101.9563,4.7519],[102.1161,4.7591],[102.1996,4.6438],[102.3433,4.645],[102.4029,4.7182],[102.5163,4.6756],[102.6606,4.7684],[102.6418,4.8493],[102.5112,4.9151],[102.5033,5.0703],[102.4148,5.18],[102.4403,5.3694],[102.3961,5.4215],[102.3863,5.686],[102.542,5.8548],[102.3799,6.133],[102.3157,6.1904],[102.0731,6.2575]]]}},{"type":"Feature","properties":{"sourceId":"1159308887","regionId":"region.26e948c2-de3e-4c2e-857f-20d179892719","countryId":"country.1a1ajo"},"geometry":{"type":"Polygon","coordinates":[[[100.9724,5.7729],[100.9469,5.5506],[100.8735,5.4645],[100.8398,5.3396],[100.7629,5.3208],[100.5571,5.0809],[100.5037,5.1342],[100.4041,5.1202],[100.3645,5.0843],[100.4539,4.9089],[100.5774,4.8543],[100.6326,4.5329],[100.5654,4.3192],[100.6326,4.1555],[100.7761,4.0865],[100.7188,3.9909],[100.7207,3.8681],[100.8406,3.8428],[100.9354,3.8617],[101.2562,3.6727],[101.3471,3.7033],[101.348,3.7931],[101.5249,3.6769],[101.6269,3.7718],[101.5608,4.0042],[101.5849,4.082],[101.4676,4.2172],[101.4393,4.3871],[101.342,4.4315],[101.3791,4.6128],[101.4106,4.8307],[101.532,5.2743],[101.6205,5.3601],[101.7471,5.3625],[101.7533,5.4853],[101.6705,5.5181],[101.6976,5.7671],[101.5793,5.9063],[101.5002,5.8927],[101.249,5.787],[101.225,5.6992],[101.1054,5.6376],[100.9724,5.7729]]]}},{"type":"Feature","properties":{"sourceId":"1159310021","regionId":"region.dc7d97ee-f251-4097-8fd0-b99b4a9709fd","countryId":"country.1a1ajo"},"geometry":{"type":"MultiPolygon","coordinates":[[[[115.1462,4.9085],[115.2074,4.8256],[115.2727,4.6368],[115.2725,4.4747],[115.3438,4.3717],[115.3244,4.3146],[115.113,4.3824],[115.0355,4.6212],[115.0298,4.8206],[114.9817,4.8891],[114.7432,4.7306],[114.7822,4.4978],[114.8364,4.3572],[114.7942,4.3002],[114.7669,4.1318],[114.6749,4.0441],[114.5866,4.0214],[114.4774,4.145],[114.4199,4.2601],[114.2967,4.3167],[114.2456,4.4814],[113.9988,4.6011],[113.9468,4.2738],[113.7368,4.0013],[113.4343,3.7532],[113.2776,3.4842],[113.0693,3.279],[112.9744,3.1442],[112.0135,2.8859],[111.6696,2.8431],[111.4403,2.6801],[111.4046,2.484],[111.4483,2.3724],[111.3655,2.3408],[111.2547,2.4193],[111.2085,2.3889],[111.1847,2.1451],[111.2113,2.0739],[111.096,1.7745],[110.9679,1.5032],[110.8396,1.566],[110.7267,1.5474],[110.3665,1.7159],[109.9277,1.6923],[109.8867,1.7602],[109.7318,1.8396],[109.6546,1.937],[109.6453,2.0832],[109.5284,1.89],[109.5466,1.8143],[109.6472,1.7619],[109.6773,1.5729],[109.8428,1.4033],[109.9325,1.3785],[109.9763,1.2877],[110.0935,1.1916],[110.1704,1.1745],[110.2566,1.0391],[110.4226,0.9095],[110.5539,0.8514],[110.6134,0.894],[110.784,0.9082],[110.8527,0.9972],[111.1976,1.0752],[111.3518,1.0139],[111.5389,0.9977],[111.6552,1.0308],[111.8231,1.0085],[111.9101,1.114],[112.1001,1.1549],[112.184,1.369],[112.1801,1.449],[112.4705,1.5677],[112.7689,1.5522],[112.855,1.5827],[113.0234,1.537],[112.9732,1.4151],[113.089,1.4313],[113.3237,1.3514],[113.3976,1.2939],[113.5034,1.3145],[113.6495,1.2333],[113.8082,1.3397],[113.9097,1.4425],[114.0539,1.4651],[114.2074,1.4394],[114.3982,1.5036],[114.5006,1.436],[114.669,1.694],[114.6714,1.821],[114.832,1.9025],[114.8453,2.025],[114.753,2.1348],[114.7788,2.2472],[114.9196,2.2957],[115.1265,2.4792],[115.1619,2.5904],[115.0565,2.6086],[115.0669,2.8282],[115.2421,3.0416],[115.3415,2.9911],[115.4641,3.0308],[115.517,3.1573],[115.4828,3.2065],[115.5176,3.3572],[115.6006,3.4412],[115.5485,3.6053],[115.6391,4.146],[115.6754,4.3125],[115.5967,4.3803],[115.5598,4.5869],[115.6585,4.8248],[115.6225,4.9578],[115.4216,4.9623],[115.3584,4.9028],[115.1989,4.9508],[115.1462,4.9085]]],[[[111.4114,2.3911],[111.381,2.6979],[111.299,2.7027],[111.3081,2.4521],[111.4114,2.3911]]]]}},{"type":"Feature","properties":{"sourceId":"1159310059","regionId":"region.630d7600-4416-4bd4-80b3-798faff163f2","countryId":"country.1a1ajo"},"geometry":{"type":"MultiPolygon","coordinates":[[[[100.4041,5.1202],[100.5037,5.1342],[100.5591,5.1468],[100.5249,5.4692],[100.5332,5.5498],[100.3543,5.569],[100.3853,5.3769],[100.43,5.3029],[100.4041,5.1202]]],[[[100.3098,5.4508],[100.1931,5.3993],[100.195,5.2723],[100.2887,5.2627],[100.3434,5.4176],[100.3098,5.4508]]]]}},{"type":"Feature","properties":{"sourceId":"1159310027","regionId":"region.11553497-2535-4b30-aaca-e0d868d8235c","countryId":"country.1a1ajo"},"geometry":{"type":"Polygon","coordinates":[[[101.7212,2.5959],[101.7726,2.7382],[101.7595,2.8628],[101.861,2.8585],[101.9645,3.0371],[101.916,3.2606],[101.765,3.3733],[101.7642,3.4927],[101.8134,3.5976],[101.7658,3.6742],[101.6269,3.7718],[101.5249,3.6769],[101.348,3.7931],[101.3471,3.7033],[101.2562,3.6727],[100.9354,3.8617],[100.8406,3.8428],[100.928,3.6966],[101.0405,3.622],[101.1084,3.4739],[101.2976,3.2746],[101.3728,3.0023],[101.2831,2.9112],[101.3992,2.8191],[101.5423,2.6613],[101.7212,2.5959]],[[101.7164,3.2061],[101.7631,3.176],[101.731,3.0298],[101.6224,3.1821],[101.7164,3.2061]],[[101.6815,2.8742],[101.6739,2.9661],[101.7304,2.9289],[101.6815,2.8742]]]}},{"type":"Feature","properties":{"sourceId":"1159310073","regionId":"region.84a97aec-1148-48a6-a697-c74d86819416","countryId":"country.1a1ajo"},"geometry":{"type":"Polygon","coordinates":[[[101.9885,2.3913],[102.1838,2.4918],[102.3837,2.4879],[102.5994,2.4217],[102.6341,2.6339],[102.7046,2.839],[102.6681,2.8918],[102.4663,3.0292],[102.3886,3.1179],[102.3045,3.132],[101.916,3.2606],[101.9645,3.0371],[101.861,2.8585],[101.7595,2.8628],[101.7726,2.7382],[101.7212,2.5959],[101.7831,2.5759],[101.8582,2.4194],[101.9885,2.3913]]]}},{"type":"Feature","properties":{"sourceId":"1159310071","regionId":"region.286641fc-2278-48d5-8cd4-c054b9717d91","countryId":"country.1a1ajo"},"geometry":{"type":"Polygon","coordinates":[[[102.4889,2.093],[102.5197,2.3498],[102.5994,2.4217],[102.3837,2.4879],[102.1838,2.4918],[101.9885,2.3913],[102.188,2.2164],[102.4889,2.093]]]}},{"type":"Feature","properties":{"sourceId":"1159310023","regionId":"region.b27e6dd0-af12-475d-a603-013a23d25261","countryId":"country.1a1ajo"},"geometry":{"type":"Polygon","coordinates":[[[103.6403,2.6713],[103.6099,2.4492],[103.3645,2.5939],[103.1587,2.5298],[102.9921,2.5952],[102.8144,2.7947],[102.7046,2.839],[102.6341,2.6339],[102.5994,2.4217],[102.5197,2.3498],[102.4889,2.093],[102.7219,1.8471],[102.8045,1.8601],[102.9346,1.7475],[103.0371,1.7155],[103.3674,1.5384],[103.5041,1.2899],[103.6814,1.4418],[103.8397,1.4765],[104.2192,1.3462],[104.2947,1.4465],[104.2552,1.6378],[104.1209,1.954],[103.9764,2.1924],[103.949,2.3399],[103.8377,2.4638],[103.7671,2.6238],[103.6403,2.6713]]]}},{"type":"Feature","properties":{"sourceId":"1159310075","regionId":"region.12227c98-e99f-4530-91bb-6ebcaf479d47","countryId":"country.1a1ajo"},"geometry":{"type":"Polygon","coordinates":[[[103.4428,4.169],[103.3452,4.18],[103.3074,4.1103],[103.3384,3.9281],[103.1153,4.0886],[102.917,4.1615],[102.934,4.2732],[103.0118,4.336],[102.9751,4.4753],[102.8875,4.4699],[102.8433,4.5471],[102.8439,4.6759],[102.6904,4.7174],[102.6606,4.7684],[102.5163,4.6756],[102.4029,4.7182],[102.3433,4.645],[102.1996,4.6438],[102.1161,4.7591],[101.9563,4.7519],[101.8874,4.6752],[101.6601,4.5674],[101.3791,4.6128],[101.342,4.4315],[101.4393,4.3871],[101.4676,4.2172],[101.5849,4.082],[101.5608,4.0042],[101.6269,3.7718],[101.7658,3.6742],[101.8134,3.5976],[101.7642,3.4927],[101.765,3.3733],[101.916,3.2606],[102.3045,3.132],[102.3886,3.1179],[102.4663,3.0292],[102.6681,2.8918],[102.7046,2.839],[102.8144,2.7947],[102.9921,2.5952],[103.1587,2.5298],[103.3645,2.5939],[103.6099,2.4492],[103.6403,2.6713],[103.4736,2.851],[103.4346,2.9618],[103.4561,3.2038],[103.4281,3.3672],[103.4822,3.5118],[103.4046,3.6],[103.3387,3.7582],[103.438,3.975],[103.3952,4.1163],[103.4428,4.169]]]}},{"type":"Feature","properties":{"sourceId":"1159310077","regionId":"region.7afbab95-08c8-4894-9bbd-f2e62f86c109","countryId":"country.1a1ajo"},"geometry":{"type":"Polygon","coordinates":[[[102.542,5.8548],[102.3863,5.686],[102.3961,5.4215],[102.4403,5.3694],[102.4148,5.18],[102.5033,5.0703],[102.5112,4.9151],[102.6418,4.8493],[102.6606,4.7684],[102.6904,4.7174],[102.8439,4.6759],[102.8433,4.5471],[102.8875,4.4699],[102.9751,4.4753],[103.0118,4.336],[102.934,4.2732],[102.917,4.1615],[103.1153,4.0886],[103.3384,3.9281],[103.3074,4.1103],[103.3452,4.18],[103.4428,4.169],[103.4942,4.3366],[103.4486,4.7951],[103.1203,5.3813],[102.9595,5.5421],[102.8757,5.5714],[102.542,5.8548]]]}},{"type":"Feature","properties":{"sourceId":"1159315889","regionId":"region.4440bdfe-f3a5-4947-97b6-f588ec3755ba","countryId":"country.1a1ajo"},"geometry":{"type":"Polygon","coordinates":[[[115.2485,5.3655],[115.1891,5.3448],[115.1609,5.267],[115.2593,5.2912],[115.2485,5.3655]]]}},{"type":"Feature","properties":{"sourceId":"1159315885","regionId":"region.176a9eca-e7ee-472d-958a-bc948416ca23","countryId":"country.1a1ajo"},"geometry":{"type":"Polygon","coordinates":[[[101.7164,3.2061],[101.6224,3.1821],[101.731,3.0298],[101.7631,3.176],[101.7164,3.2061]]]}},{"type":"Feature","properties":{"sourceId":"1159315887","regionId":"region.74996073-0bc2-468e-8234-9fd29bef03e5","countryId":"country.1a1ajo"},"geometry":{"type":"Polygon","coordinates":[[[101.6815,2.8742],[101.7304,2.9289],[101.6739,2.9661],[101.6815,2.8742]]]}}]}