{"type":"FeatureCollection","features":[{"type":"Feature","properties":{"sourceId":"1159316215","regionId":"region.c0f64ba8-866f-48df-b866-00cd2d7bbc00","countryId":"country.feb9ab4a-93bc-49fa-b4aa-282b2cf5b8b5"},"geometry":{"type":"Polygon","coordinates":[[[-170.6926,-14.3148],[-170.7215,-14.2892],[-170.8312,-14.3194],[-170.7555,-14.3671],[-170.6926,-14.3148]]]}},{"type":"Feature","properties":{"sourceId":"1159316219","regionId":"region.04e451f0-1d47-4fbc-9485-d0117e1c8c13","countryId":"country.feb9ab4a-93bc-49fa-b4aa-282b2cf5b8b5"},"geometry":{"type":"Polygon","coordinates":[[[-170.7215,-14.2892],[-170.6926,-14.3148],[-170.6201,-14.2546],[-170.6985,-14.2605],[-170.7215,-14.2892]]]}},{"type":"Feature","properties":{"sourceId":"1159316221","regionId":"region.706542d2-12f4-405c-adac-00896451c22a","countryId":"country.feb9ab4a-93bc-49fa-b4aa-282b2cf5b8b5"},"geometry":{"type":"Polygon","coordinates":[[[-169.4639,-14.2232],[-169.5427,-14.2367],[-169.5228,-14.2709],[-169.4639,-14.2232]]]}},{"type":"Feature","properties":{"sourceId":"1159315493","regionId":"region.0533752a-0786-4f46-a57e-fb657760fb55","countryId":"country.feb9ab4a-93bc-49fa-b4aa-282b2cf5b8b5"},"geometry":{"type":"Polygon","coordinates":[[[-168.1616,-14.5329],[-168.1605,-14.5209],[-168.1731,-14.5237],[-168.1616,-14.5329]]]}},{"type":"Feature","properties":{"sourceId":"1159316213","regionId":"region.187d9444-3829-4dc5-9917-efcd323be243","countryId":"country.feb9ab4a-93bc-49fa-b4aa-282b2cf5b8b5"},"geometry":{"type":"Polygon","coordinates":[[[-171.0728,-11.0525],[-171.0856,-11.0514],[-171.0815,-11.0661],[-171.0735,-11.0621],[-171.0728,-11.0525]]]}}]}