{"type":"FeatureCollection","features":[{"type":"Feature","properties":{"sourceId":"1159316225","regionId":"region.04cad245-edca-4f7a-b9a7-5b57068690c3","countryId":"country.56c8424f-4640-4fb6-8584-1655d6feb9db"},"geometry":{"type":"Polygon","coordinates":[[[-72.3372,21.801],[-72.2197,21.7703],[-72.3079,21.8522],[-72.3372,21.801]]]}},{"type":"Feature","properties":{"sourceId":"1159316227","regionId":"region.c1a62229-d1e6-49e1-975b-5aa074b9d0b8","countryId":"country.56c8424f-4640-4fb6-8584-1655d6feb9db"},"geometry":{"type":"Polygon","coordinates":[[[-71.508,21.7054],[-71.4713,21.6622],[-71.4519,21.6902],[-71.4809,21.7255],[-71.508,21.7054]]]}},{"type":"Feature","properties":{"sourceId":"1159315567","regionId":"region.b6b0ba3e-769a-4e85-9db1-c4dfe190c470","countryId":"country.56c8424f-4640-4fb6-8584-1655d6feb9db"},"geometry":{"type":"Polygon","coordinates":[[[-71.8028,21.7879],[-71.7411,21.7949],[-71.6309,21.7743],[-71.6788,21.8419],[-71.8094,21.84],[-71.8028,21.7879]]]}},{"type":"Feature","properties":{"sourceId":"1159316223","regionId":"region.d29f4ad8-070b-4598-aa69-2cfb074c820d","countryId":"country.56c8424f-4640-4fb6-8584-1655d6feb9db"},"geometry":{"type":"Polygon","coordinates":[[[-72.022,21.9046],[-71.9034,21.8665],[-71.911,21.9484],[-72.022,21.9046]]]}},{"type":"Feature","properties":{"sourceId":"1159316229","regionId":"region.bf562241-f40e-4b93-8ea6-1bc229a18e4b","countryId":"country.56c8424f-4640-4fb6-8584-1655d6feb9db"},"geometry":{"type":"Polygon","coordinates":[[[-71.1381,21.5136],[-71.1517,21.4506],[-71.1336,21.4465],[-71.1381,21.5136]]]}},{"type":"Feature","properties":{"sourceId":"1159316231","regionId":"region.8046e70c-b56f-4f5a-8b3b-d0737b182055","countryId":"country.56c8424f-4640-4fb6-8584-1655d6feb9db"},"geometry":{"type":"Polygon","coordinates":[[[-71.2098,21.3414],[-71.2192,21.3144],[-71.2137,21.3106],[-71.1925,21.335],[-71.2098,21.3414]]]}}]}