{"type":"FeatureCollection","features":[{"type":"Feature","properties":{"sourceId":"1159313843","regionId":"region.26542ef8-f690-419a-82ac-246d5c0757f8","countryId":"country.1wvxlzg"},"geometry":{"type":"Polygon","coordinates":[[[3.5964,11.6958],[3.5049,11.5566],[3.4833,11.3923],[3.6625,11.1431],[3.7056,11.1207],[3.8042,11.1176],[4.0052,11.0122],[4.5368,11.0018],[4.7221,10.9042],[4.689,10.6458],[4.5006,10.4604],[4.5137,10.3135],[4.561,10.2709],[4.5395,10.1244],[4.6319,10.0993],[4.6554,10.2011],[4.8694,10.2692],[4.8942,10.3347],[4.8166,10.4633],[4.8271,10.6731],[4.9283,10.6749],[5.0931,10.7478],[5.0303,10.8638],[5.0783,10.9238],[5.0541,11.0334],[4.763,11.1638],[4.7794,11.2269],[4.9167,11.2876],[5.2123,11.3466],[5.3443,11.3093],[5.4415,11.1176],[5.4767,10.9572],[5.643,10.9689],[6.0271,11.1112],[6.0182,11.2642],[5.8832,11.4298],[5.9133,11.5731],[5.7543,11.6434],[5.5698,11.6205],[5.3853,11.7184],[5.2615,11.7199],[5.1425,11.6548],[5.0235,11.6806],[4.8751,11.6923],[4.685,11.6077],[4.6064,11.5383],[4.5294,11.589],[4.6157,11.9341],[4.6091,12.3185],[4.6449,12.381],[4.8295,12.3994],[4.8031,12.6356],[4.8259,12.7826],[4.7699,12.9014],[4.8184,13.1065],[4.672,13.0545],[4.4638,13.1398],[4.3409,13.2281],[4.1203,13.2106],[4.0888,12.9962],[3.9291,12.7504],[3.6457,12.5285],[3.6515,12.269],[3.624,12.0943],[3.6536,11.9868],[3.6039,11.9056],[3.667,11.7597],[3.5964,11.6958]]]}},{"type":"Feature","properties":{"sourceId":"1159313785","regionId":"region.515f2f74-60d1-4dd9-8fee-b0ceaceba046","countryId":"country.1wvxlzg"},"geometry":{"type":"Polygon","coordinates":[[[3.8372,10.6306],[3.7569,10.4053],[3.6521,10.4358],[3.5724,10.2857],[3.6648,10.1287],[3.9176,10.1504],[4.0141,10.118],[4.3504,9.7251],[4.4158,9.7034],[4.4207,9.4811],[4.4536,9.4254],[4.6144,9.4219],[4.6215,9.3413],[4.7426,9.2749],[4.7986,9.1399],[4.9792,9.1997],[5.1356,9.1241],[5.1974,9.0167],[5.3865,8.9923],[5.538,8.9294],[5.65,8.8238],[5.7905,8.7457],[6.0924,8.7586],[6.2159,8.73],[6.3705,8.6809],[6.4654,8.4317],[6.5722,8.3536],[6.6885,8.2135],[6.835,8.4068],[6.759,8.4722],[6.7496,9.1856],[6.7783,9.2252],[7.0234,9.2138],[7.1702,9.0992],[7.3108,9.2974],[7.2183,9.4166],[7.3381,9.5866],[7.2952,9.686],[7.2792,9.9776],[7.2308,10.0111],[7.0085,10.0171],[6.8921,10.1052],[7.041,10.233],[6.9659,10.3448],[6.956,10.4824],[6.8499,10.5225],[6.8352,10.6231],[6.5685,10.5347],[6.4267,10.5736],[6.1738,10.3612],[6.0931,10.4826],[6.126,10.6471],[6.1137,10.8061],[6.1619,10.8627],[6.0271,11.1112],[5.643,10.9689],[5.4767,10.9572],[5.4415,11.1176],[5.3443,11.3093],[5.2123,11.3466],[4.9167,11.2876],[4.7794,11.2269],[4.763,11.1638],[5.0541,11.0334],[5.0783,10.9238],[5.0303,10.8638],[5.0931,10.7478],[4.9283,10.6749],[4.8271,10.6731],[4.8166,10.4633],[4.8942,10.3347],[4.8694,10.2692],[4.6554,10.2011],[4.6319,10.0993],[4.5395,10.1244],[4.561,10.2709],[4.5137,10.3135],[4.5006,10.4604],[4.689,10.6458],[4.7221,10.9042],[4.5368,11.0018],[4.0052,11.0122],[3.8042,11.1176],[3.7056,11.1207],[3.7541,10.9071],[3.7313,10.825],[3.8372,10.6306]]]}},{"type":"Feature","properties":{"sourceId":"1159313781","regionId":"region.8e05876e-6077-4e86-9357-97b2ce176c1f","countryId":"country.1wvxlzg"},"geometry":{"type":"Polygon","coordinates":[[[3.6648,10.1287],[3.5996,9.9687],[3.5131,9.8466],[3.3171,9.7817],[3.3386,9.6782],[3.1286,9.4296],[3.1514,9.2886],[3.0913,9.1264],[2.9831,9.0606],[2.7692,9.057],[2.7523,8.8123],[2.7229,8.7712],[2.7424,8.5275],[2.9193,8.5946],[3.145,8.7689],[3.2437,8.7477],[3.3615,8.8007],[3.7381,9.0265],[3.773,9.1403],[3.9114,9.157],[3.9631,9.0766],[4.164,8.9791],[4.3313,8.9541],[4.2004,8.8148],[4.201,8.6934],[4.3253,8.4447],[4.3591,8.311],[4.4445,8.2211],[4.5556,8.0341],[4.6853,8.0306],[4.9409,8.0804],[5.0641,8.0306],[5.2302,7.9756],[5.3537,7.9743],[5.4288,8.066],[5.536,8.0696],[5.5288,8.1295],[5.3792,8.2586],[5.3569,8.3482],[5.5157,8.5307],[5.6058,8.4656],[5.8051,8.4052],[6.0534,8.3737],[6.1171,8.4339],[6.1735,8.6758],[6.2159,8.73],[6.0924,8.7586],[5.7905,8.7457],[5.65,8.8238],[5.538,8.9294],[5.3865,8.9923],[5.1974,9.0167],[5.1356,9.1241],[4.9792,9.1997],[4.7986,9.1399],[4.7426,9.2749],[4.6215,9.3413],[4.6144,9.4219],[4.4536,9.4254],[4.4207,9.4811],[4.4158,9.7034],[4.3504,9.7251],[4.0141,10.118],[3.9176,10.1504],[3.6648,10.1287]]]}},{"type":"Feature","properties":{"sourceId":"1159313789","regionId":"region.f208a00d-ad2e-46ee-8350-7033e28f6541","countryId":"country.1wvxlzg"},"geometry":{"type":"Polygon","coordinates":[[[2.7176,7.6585],[2.7923,7.4776],[2.7412,7.4082],[2.7739,7.0508],[2.7151,6.9798],[2.7236,6.7997],[2.7786,6.6988],[2.7311,6.6418],[2.7188,6.5043],[2.7119,6.474],[2.8359,6.4669],[2.8921,6.5257],[3.1688,6.5245],[3.2453,6.6926],[3.3689,6.6447],[3.448,6.6868],[4.0321,6.69],[4.0876,6.5443],[4.342,6.3706],[4.493,6.3205],[4.5146,6.4171],[4.595,6.4853],[4.5671,6.6288],[4.4831,6.5674],[4.3549,6.6174],[4.3795,6.7138],[4.5385,6.8573],[4.5611,6.9883],[4.3641,6.9805],[4.3016,7.0897],[4.1769,7.0589],[4.0771,7.1124],[3.8958,7.0597],[3.7121,7.0471],[3.7762,7.1437],[3.7488,7.27],[3.6906,7.3069],[3.6543,7.4287],[3.4952,7.4021],[3.412,7.4948],[3.2902,7.3334],[3.1794,7.3498],[2.9896,7.5712],[2.9689,7.644],[2.9994,7.8337],[2.8922,7.7962],[2.8618,7.9547],[2.7648,7.958],[2.6717,7.8934],[2.7272,7.7933],[2.7176,7.6585]]]}},{"type":"Feature","properties":{"sourceId":"1159313801","regionId":"region.814db2b1-4781-4cc8-a9da-c1854265a49c","countryId":"country.1wvxlzg"},"geometry":{"type":"Polygon","coordinates":[[[2.6717,7.8934],[2.7648,7.958],[2.8618,7.9547],[2.8922,7.7962],[2.9994,7.8337],[2.9689,7.644],[2.9896,7.5712],[3.1794,7.3498],[3.2902,7.3334],[3.412,7.4948],[3.4952,7.4021],[3.6543,7.4287],[3.6906,7.3069],[3.7488,7.27],[3.7762,7.1437],[3.7121,7.0471],[3.8958,7.0597],[4.0771,7.1124],[4.1455,7.4744],[4.0341,7.6251],[4.0864,7.8477],[4.1539,7.8299],[4.2635,7.954],[4.3999,7.8506],[4.561,7.9659],[4.5556,8.0341],[4.4445,8.2211],[4.3591,8.311],[4.3253,8.4447],[4.201,8.6934],[4.2004,8.8148],[4.3313,8.9541],[4.164,8.9791],[3.9631,9.0766],[3.9114,9.157],[3.773,9.1403],[3.7381,9.0265],[3.3615,8.8007],[3.2437,8.7477],[3.145,8.7689],[2.9193,8.5946],[2.7424,8.5275],[2.6971,8.3207],[2.735,8.2119],[2.6717,7.8934]]]}},{"type":"Feature","properties":{"sourceId":"1159313783","regionId":"region.288eb337-9e87-403c-aef6-c1c74ce4b950","countryId":"country.1wvxlzg"},"geometry":{"type":"Polygon","coordinates":[[[2.7038,6.3684],[2.9277,6.3891],[3.3845,6.3977],[3.4024,6.5522],[3.4519,6.5818],[3.5414,6.4548],[4.1258,6.4103],[4.342,6.3706],[4.0876,6.5443],[4.0321,6.69],[3.448,6.6868],[3.3689,6.6447],[3.2453,6.6926],[3.1688,6.5245],[2.8921,6.5257],[2.8359,6.4669],[2.7119,6.474],[2.7038,6.3684]]]}},{"type":"Feature","properties":{"sourceId":"1159313795","regionId":"region.a96891fc-4e34-439e-9e13-787970388566","countryId":"country.1wvxlzg"},"geometry":{"type":"Polygon","coordinates":[[[13.6073,13.7041],[13.36,13.7144],[13.2661,13.638],[13.2281,13.548],[13.0549,13.5484],[12.8838,13.496],[12.6831,13.2889],[12.5611,13.2428],[12.4727,13.0642],[12.3867,13.0786],[12.3629,12.8853],[12.479,12.7342],[12.4185,12.5518],[12.3083,12.4496],[12.3289,12.2999],[12.2828,11.9635],[12.3011,11.8197],[12.2357,11.6632],[12.3363,11.6467],[12.3883,11.542],[12.1975,11.2843],[12.1972,11.1157],[12.1044,11.0008],[11.8685,10.9191],[11.8118,10.8577],[11.7938,10.6592],[11.701,10.5942],[11.7134,10.5071],[11.6395,10.3888],[11.6891,10.2632],[11.8071,10.1963],[11.9456,10.0447],[12.1069,10.036],[12.2342,10.1243],[12.3947,10.305],[12.6201,10.3614],[12.8409,10.5632],[12.923,10.5815],[13.0772,10.5408],[13.1911,10.455],[13.3097,10.4679],[13.4005,10.7357],[13.4222,10.9303],[13.5464,10.9071],[13.7498,10.9424],[13.7549,11.0167],[13.9823,11.2763],[14.1655,11.2383],[14.3682,11.383],[14.5938,11.4964],[14.6214,11.6298],[14.5465,11.7186],[14.6234,11.9165],[14.6043,12.0304],[14.6699,12.1674],[14.5485,12.2416],[14.5144,12.3235],[14.1798,12.3856],[14.1774,12.5456],[14.0649,13.078],[13.6073,13.7041]]]}},{"type":"Feature","properties":{"sourceId":"1159313845","regionId":"region.0528ee6c-5aa3-49cf-b36d-ecb6873110f5","countryId":"country.1wvxlzg"},"geometry":{"type":"Polygon","coordinates":[[[13.7498,10.9424],[13.5464,10.9071],[13.4222,10.9303],[13.4005,10.7357],[13.3097,10.4679],[13.1911,10.455],[13.0772,10.5408],[12.923,10.5815],[12.8409,10.5632],[12.6201,10.3614],[12.3947,10.305],[12.2342,10.1243],[12.1069,10.036],[11.9456,10.0447],[11.9404,9.8257],[11.8878,9.7538],[11.7027,9.644],[11.5259,9.592],[11.6184,9.4202],[11.7673,9.3301],[11.8606,9.0696],[11.9654,8.9882],[11.9715,8.919],[11.871,8.7127],[11.8593,8.5739],[11.7922,8.5194],[11.4043,8.0584],[11.4879,7.8803],[11.5479,7.849],[11.6477,7.9436],[11.805,7.8064],[11.8532,7.6916],[11.9035,7.4536],[12.025,7.5966],[12.055,7.7839],[12.1978,7.9752],[12.1883,8.1178],[12.2337,8.1885],[12.227,8.3863],[12.4039,8.4965],[12.377,8.5951],[12.558,8.6057],[12.6604,8.6593],[12.8057,8.8315],[12.8221,9.0968],[12.8884,9.2267],[12.862,9.3829],[12.9824,9.4746],[13.1955,9.5422],[13.2629,9.8017],[13.2127,9.8701],[13.248,10.0794],[13.3927,10.117],[13.4349,10.1534],[13.5013,10.4963],[13.5663,10.679],[13.7498,10.9424]]]}},{"type":"Feature","properties":{"sourceId":"1159313779","regionId":"region.13a706ce-26c9-4fc9-b299-15c3a05e111d","countryId":"country.1wvxlzg"},"geometry":{"type":"Polygon","coordinates":[[[11.9035,7.4536],[11.8532,7.6916],[11.805,7.8064],[11.6477,7.9436],[11.5479,7.849],[11.4879,7.8803],[11.4043,8.0584],[11.7922,8.5194],[11.8593,8.5739],[11.871,8.7127],[11.9715,8.919],[11.9654,8.9882],[11.8606,9.0696],[11.7673,9.3301],[11.6184,9.4202],[11.5259,9.592],[11.0686,9.5864],[10.9303,9.6026],[10.7408,9.5345],[10.5604,9.4967],[10.5923,9.257],[10.646,9.1051],[10.653,8.9446],[10.6185,8.8801],[10.4603,8.8028],[10.2289,8.7467],[10.0773,8.5666],[9.8175,8.3731],[9.6155,8.3512],[9.5475,8.282],[9.3352,8.317],[9.3039,8.2381],[9.3696,8.0579],[9.1694,7.9145],[9.2648,7.8554],[9.5712,7.8423],[9.6847,7.7644],[9.8766,7.5625],[9.921,7.4464],[9.8747,7.209],[9.7096,7.0241],[9.6767,6.85],[9.6448,6.5212],[9.694,6.5343],[9.7698,6.7737],[9.8746,6.7877],[10.1195,6.9944],[10.2384,6.871],[10.496,6.8747],[10.6025,7.0581],[10.8319,6.9452],[10.8775,6.8161],[11.0026,6.7673],[11.0559,6.7004],[11.0971,6.4491],[11.2023,6.4367],[11.3894,6.4739],[11.4168,6.572],[11.5098,6.6123],[11.5715,6.7662],[11.5381,6.8239],[11.6232,6.9323],[11.8813,7.102],[11.7802,7.2411],[11.7827,7.3045],[11.9035,7.4536]]]}},{"type":"Feature","properties":{"sourceId":"1159313775","regionId":"region.c1112ae1-495e-467d-a3c3-679a7a38bbf1","countryId":"country.1wvxlzg"},"geometry":{"type":"Polygon","coordinates":[[[9.6448,6.5212],[9.6767,6.85],[9.7096,7.0241],[9.8747,7.209],[9.921,7.4464],[9.8766,7.5625],[9.6847,7.7644],[9.5712,7.8423],[9.2648,7.8554],[9.1694,7.9145],[8.9789,8.0555],[8.8326,8.0507],[8.558,8.1334],[8.4262,8.1185],[8.3544,8.0012],[8.4248,7.8265],[7.9682,7.9644],[7.666,8.0257],[7.6757,7.8649],[7.7585,7.72],[7.7837,7.4461],[7.8792,7.4162],[7.7855,7.1711],[7.6528,7.0993],[7.607,7.0062],[7.4937,7.0745],[7.5424,6.9546],[7.6404,6.8621],[7.7847,6.88],[7.8511,6.8203],[7.8277,6.6302],[7.9291,6.5192],[7.9986,6.6957],[8.1191,6.7107],[8.2484,6.7735],[8.2919,6.6756],[8.4113,6.7461],[8.6105,6.7689],[8.6959,6.8917],[8.8365,6.8604],[8.9566,6.7902],[8.9716,6.6788],[9.0747,6.6573],[9.2325,6.6869],[9.3209,6.6423],[9.4886,6.4182],[9.6448,6.5212]]]}},{"type":"Feature","properties":{"sourceId":"1159313777","regionId":"region.57c9acd7-3624-4e25-ad04-f8ea4479de97","countryId":"country.1wvxlzg"},"geometry":{"type":"Polygon","coordinates":[[[9.4886,6.4182],[9.3209,6.6423],[9.2325,6.6869],[9.0747,6.6573],[8.9716,6.6788],[8.9566,6.7902],[8.8365,6.8604],[8.6959,6.8917],[8.6105,6.7689],[8.4113,6.7461],[8.2919,6.6756],[8.3996,6.5179],[8.4389,6.4012],[8.3768,6.3663],[8.3799,6.2356],[8.2816,6.1195],[8.2465,6.0179],[7.9668,5.8916],[7.8778,5.6903],[7.9084,5.4836],[7.8971,5.365],[7.9168,5.257],[8.0625,5.2135],[8.0551,5.0911],[8.1316,4.9349],[8.2992,4.7823],[8.5183,4.704],[8.5942,4.8153],[8.6022,4.8813],[8.7583,5.1349],[8.7989,5.1596],[8.8937,5.6218],[8.8193,5.7035],[8.8559,5.8475],[8.9885,5.9373],[9.2733,6.2028],[9.3274,6.2985],[9.4886,6.4182]]]}},{"type":"Feature","properties":{"sourceId":"1159313835","regionId":"region.34344f2f-c872-4926-b944-fc5913d9ae06","countryId":"country.1wvxlzg"},"geometry":{"type":"Polygon","coordinates":[[[6.2842,13.6677],[6.1204,13.6541],[5.5543,13.8734],[5.3741,13.8553],[5.2735,13.7525],[4.9251,13.7331],[4.8569,13.7741],[4.6258,13.7232],[4.4058,13.6412],[4.2485,13.4941],[4.1258,13.473],[4.1203,13.2106],[4.3409,13.2281],[4.4638,13.1398],[4.672,13.0545],[4.8184,13.1065],[4.7699,12.9014],[4.8259,12.7826],[4.8031,12.6356],[4.8295,12.3994],[4.6449,12.381],[4.6091,12.3185],[4.6157,11.9341],[4.5294,11.589],[4.6064,11.5383],[4.685,11.6077],[4.8751,11.6923],[5.0235,11.6806],[5.0312,12.1494],[5.0681,12.2693],[5.2152,12.2455],[5.5208,12.2579],[5.5708,12.3097],[5.5527,12.5274],[5.7402,12.7218],[5.9655,12.7431],[6.0683,12.8232],[6.0507,12.9944],[6.1252,13.0572],[6.2621,13.0577],[6.2793,13.1504],[6.6259,13.0923],[6.7539,13.1749],[6.6725,13.3212],[6.3689,13.6263],[6.2842,13.6677]]]}},{"type":"Feature","properties":{"sourceId":"1159313837","regionId":"region.b2338423-9266-48f2-a9da-46e846c3a187","countryId":"country.1wvxlzg"},"geometry":{"type":"Polygon","coordinates":[[[6.7539,13.1749],[6.6259,13.0923],[6.2793,13.1504],[6.2621,13.0577],[6.1252,13.0572],[6.0507,12.9944],[6.0683,12.8232],[5.9655,12.7431],[5.7402,12.7218],[5.5527,12.5274],[5.5708,12.3097],[5.5208,12.2579],[5.2152,12.2455],[5.0681,12.2693],[5.0312,12.1494],[5.0235,11.6806],[5.1425,11.6548],[5.2615,11.7199],[5.3853,11.7184],[5.5698,11.6205],[5.7543,11.6434],[5.9133,11.5731],[5.8832,11.4298],[6.0182,11.2642],[6.0271,11.1112],[6.1619,10.8627],[6.2224,10.8912],[6.3427,11.0396],[6.4741,11.0095],[6.6686,11.0657],[6.7747,11.2732],[6.8818,11.3661],[6.9099,11.5258],[6.8754,11.5872],[6.9134,11.7663],[7.0663,11.7792],[7.222,11.9545],[7.113,12.0384],[7.1575,12.154],[7.0779,12.4785],[7.0463,12.8903],[7.0629,12.9951],[6.9066,13.0069],[6.7539,13.1749]]]}},{"type":"Feature","properties":{"sourceId":"1159313839","regionId":"region.cdcc658e-8b15-4b44-9c59-92136a47af05","countryId":"country.1wvxlzg"},"geometry":{"type":"Polygon","coordinates":[[[12.3867,13.0786],[12.2014,13.1254],[12.0576,13.1168],[11.8528,13.2454],[11.44,13.3644],[10.6479,13.3694],[10.1615,13.2672],[9.9301,13.146],[9.6477,12.8305],[9.7699,12.7925],[9.8843,12.8814],[10.1593,12.9839],[10.2269,12.9328],[10.2627,12.8077],[10.5116,12.7934],[10.5699,12.7087],[10.6095,12.5024],[10.7352,12.4023],[10.7702,12.2101],[10.8104,12.1397],[10.8479,11.867],[10.9681,11.5753],[10.9393,11.3361],[11.0142,11.2947],[11.1528,11.3308],[11.354,11.2159],[11.5625,10.9888],[11.5903,10.9282],[11.593,10.5972],[11.701,10.5942],[11.7938,10.6592],[11.8118,10.8577],[11.8685,10.9191],[12.1044,11.0008],[12.1972,11.1157],[12.1975,11.2843],[12.3883,11.542],[12.3363,11.6467],[12.2357,11.6632],[12.3011,11.8197],[12.2828,11.9635],[12.3289,12.2999],[12.3083,12.4496],[12.4185,12.5518],[12.479,12.7342],[12.3629,12.8853],[12.3867,13.0786]]]}},{"type":"Feature","properties":{"sourceId":"1159313833","regionId":"region.3c081a5e-132b-4614-9495-777b34484640","countryId":"country.1wvxlzg"},"geometry":{"type":"Polygon","coordinates":[[[8.2467,13.2113],[8.0775,13.31],[7.824,13.3453],[7.7556,13.3271],[7.392,13.1125],[7.1982,13.1174],[7.0629,12.9951],[7.0463,12.8903],[7.0779,12.4785],[7.1575,12.154],[7.113,12.0384],[7.222,11.9545],[7.0663,11.7792],[6.9134,11.7663],[6.8754,11.5872],[6.9099,11.5258],[6.8818,11.3661],[7.005,11.3367],[6.9931,11.2098],[7.1865,11.1122],[7.2438,11.1557],[7.2422,11.2634],[7.3818,11.2646],[7.4668,11.3688],[7.6606,11.2746],[7.7762,11.3592],[7.6922,11.4673],[7.7465,11.6008],[7.8937,11.6508],[7.8331,11.9144],[7.8413,12.2661],[8.0938,12.3827],[8.1873,12.5557],[8.2828,12.5696],[8.2493,12.6224],[8.1172,12.6562],[8.1373,12.8137],[8.5354,12.8299],[8.5992,12.7152],[8.822,12.6905],[8.9779,12.8432],[8.6793,12.9236],[8.5335,13.0646],[8.3978,13.0754],[8.2467,13.2113]]]}},{"type":"Feature","properties":{"sourceId":"1159313829","regionId":"region.873e20ab-5268-4042-a4a5-12ddb892381a","countryId":"country.1wvxlzg"},"geometry":{"type":"Polygon","coordinates":[[[8.9779,12.8432],[8.822,12.6905],[8.5992,12.7152],[8.5354,12.8299],[8.1373,12.8137],[8.1172,12.6562],[8.2493,12.6224],[8.2828,12.5696],[8.3622,12.4252],[8.4207,12.5376],[8.5301,12.5747],[8.6783,12.5393],[8.6903,12.4393],[8.7654,12.3909],[8.7851,12.2987],[8.9462,12.2218],[8.9564,12.0506],[9.0372,12.012],[9.1812,12.0303],[9.2071,11.942],[9.1433,11.7764],[9.3416,11.5327],[9.253,11.4536],[9.2247,11.3424],[9.4081,11.2991],[9.5339,11.3047],[9.6238,11.2378],[9.8105,11.2614],[9.8764,11.1613],[9.8676,11.0322],[9.9483,10.9537],[10.106,10.9654],[10.1798,10.9334],[10.2165,11.0541],[10.3269,11.0966],[10.3902,11.1776],[10.0006,11.2623],[9.8631,11.4598],[9.8145,11.6813],[9.6677,11.7013],[9.6463,11.8034],[9.6997,11.8512],[10.155,12.0085],[10.1691,12.1164],[10.2647,12.4027],[10.394,12.4489],[10.4774,12.4163],[10.6095,12.5024],[10.5699,12.7087],[10.5116,12.7934],[10.2627,12.8077],[10.2269,12.9328],[10.1593,12.9839],[9.8843,12.8814],[9.7699,12.7925],[9.6477,12.8305],[9.5903,12.8014],[9.3779,12.8258],[9.2694,12.8098],[8.9779,12.8432]]]}},{"type":"Feature","properties":{"sourceId":"1159313791","regionId":"region.de9ea25d-5b9d-4284-a369-199719f9503b","countryId":"country.1wvxlzg"},"geometry":{"type":"Polygon","coordinates":[[[5.003,5.8548],[5.1152,6.1269],[4.9793,6.2844],[5.1208,6.5141],[5.0799,6.6843],[5.2156,6.8724],[5.4956,6.8723],[5.541,6.7171],[5.7329,6.7894],[5.7861,7.031],[5.8766,7.2281],[5.9527,7.299],[5.9346,7.4922],[6.0284,7.5734],[5.8921,7.7704],[5.8114,7.7561],[5.6237,7.6197],[5.5378,7.3685],[5.4325,7.2801],[5.3306,7.4199],[5.0615,7.4375],[4.9915,7.4148],[4.8982,7.3391],[4.8693,7.0982],[4.7321,7.1465],[4.6501,7.1017],[4.5611,6.9883],[4.5385,6.8573],[4.3795,6.7138],[4.3549,6.6174],[4.4831,6.5674],[4.5671,6.6288],[4.595,6.4853],[4.5146,6.4171],[4.493,6.3205],[4.7171,6.1636],[4.8859,6.0065],[5.003,5.8548]]]}},{"type":"Feature","properties":{"sourceId":"1159313811","regionId":"region.cc2a493f-78f0-49c5-95a4-250c1c448077","countryId":"country.1wvxlzg"},"geometry":{"type":"Polygon","coordinates":[[[5.4602,5.1338],[5.6413,5.0284],[5.9017,5.1067],[6.0234,5.1081],[6.2153,5.1938],[6.3496,5.3426],[6.4931,5.393],[6.5519,5.5138],[6.6057,5.7232],[6.6853,5.9058],[6.7037,6.0759],[6.7609,6.1671],[6.6767,6.5351],[6.546,6.4933],[6.2428,6.3392],[6.0528,6.2639],[6.1305,6.0844],[6.2224,6.0135],[6.2107,5.9367],[6.0215,5.7619],[5.9235,5.7411],[5.8961,5.8784],[5.6634,6.0399],[5.5301,5.9821],[5.4633,6.0185],[5.2324,6.0385],[5.1152,6.1269],[5.003,5.8548],[5.198,5.5015],[5.3402,5.3439],[5.3636,5.1716],[5.4602,5.1338]]]}},{"type":"Feature","properties":{"sourceId":"1159313773","regionId":"region.0021aa3b-7f1e-4608-8969-0ad1b8c853a2","countryId":"country.1wvxlzg"},"geometry":{"type":"Polygon","coordinates":[[[6.7226,4.5914],[6.5652,4.7513],[6.4514,4.7176],[6.3858,4.8174],[6.4321,5.0644],[6.49,5.2023],[6.6201,5.341],[6.4931,5.393],[6.3496,5.3426],[6.2153,5.1938],[6.0234,5.1081],[5.9017,5.1067],[5.6413,5.0284],[5.4602,5.1338],[5.386,5.1256],[5.4863,4.835],[5.5949,4.6365],[5.7824,4.456],[5.9463,4.3352],[6.0967,4.2781],[6.6951,4.3472],[6.6541,4.5117],[6.7226,4.5914]]]}},{"type":"Feature","properties":{"sourceId":"1159313763","regionId":"region.339c941e-82f0-4ad0-88bd-de4013567302","countryId":"country.1wvxlzg"},"geometry":{"type":"Polygon","coordinates":[[[7.5335,4.7027],[7.4963,4.8174],[7.3383,4.8786],[7.1765,4.8737],[7.1633,4.9514],[7.2662,5.1094],[7.2515,5.1947],[6.8702,5.1949],[6.7244,5.3051],[6.7459,5.4431],[6.6262,5.502],[6.6688,5.6943],[6.6057,5.7232],[6.5519,5.5138],[6.4931,5.393],[6.6201,5.341],[6.49,5.2023],[6.4321,5.0644],[6.3858,4.8174],[6.4514,4.7176],[6.5652,4.7513],[6.7226,4.5914],[6.7156,4.3547],[6.9695,4.3746],[7.2637,4.5738],[7.4541,4.5532],[7.5311,4.6011],[7.5335,4.7027]]]}},{"type":"Feature","properties":{"sourceId":"1159313767","regionId":"region.89a1a6e7-5da5-4c14-9fe7-d412060e5149","countryId":"country.1wvxlzg"},"geometry":{"type":"Polygon","coordinates":[[[8.2992,4.7823],[8.1316,4.9349],[8.0551,5.0911],[8.0625,5.2135],[7.9168,5.257],[7.8971,5.365],[7.7053,5.5241],[7.6408,5.5111],[7.6209,5.3104],[7.5253,5.3053],[7.5177,5.0504],[7.4628,4.9817],[7.4963,4.8174],[7.5335,4.7027],[7.5584,4.5253],[7.7645,4.5192],[8.032,4.5588],[8.2983,4.5533],[8.3565,4.6256],[8.2992,4.7823]]]}},{"type":"Feature","properties":{"sourceId":"1159313797","regionId":"region.bdcc7005-b2cf-4b3c-9e9f-fcb496d225cf","countryId":"country.1wvxlzg"},"geometry":{"type":"Polygon","coordinates":[[[7.8778,5.6903],[7.7309,5.8188],[7.5262,5.8503],[7.5335,5.973],[7.3637,6.0206],[7.2501,5.9263],[7.3879,5.8421],[7.405,5.5432],[7.3244,5.4055],[7.2515,5.1947],[7.2662,5.1094],[7.1633,4.9514],[7.1765,4.8737],[7.3383,4.8786],[7.4963,4.8174],[7.4628,4.9817],[7.5177,5.0504],[7.5253,5.3053],[7.6209,5.3104],[7.6408,5.5111],[7.7053,5.5241],[7.8971,5.365],[7.9084,5.4836],[7.8778,5.6903]]]}},{"type":"Feature","properties":{"sourceId":"1159313817","regionId":"region.337b70b2-248b-455f-9b21-9fddc646ab47","countryId":"country.1wvxlzg"},"geometry":{"type":"Polygon","coordinates":[[[8.2919,6.6756],[8.2484,6.7735],[8.1191,6.7107],[7.9986,6.6957],[7.9291,6.5192],[7.8277,6.6302],[7.6957,6.6065],[7.7341,6.4076],[7.6905,6.2749],[7.7325,6.101],[7.6932,5.9419],[7.5335,5.973],[7.5262,5.8503],[7.7309,5.8188],[7.8778,5.6903],[7.9668,5.8916],[8.2465,6.0179],[8.2816,6.1195],[8.3799,6.2356],[8.3768,6.3663],[8.4389,6.4012],[8.3996,6.5179],[8.2919,6.6756]]]}},{"type":"Feature","properties":{"sourceId":"1159313803","regionId":"region.4182133c-1270-4709-912f-e228476f1dfd","countryId":"country.1wvxlzg"},"geometry":{"type":"Polygon","coordinates":[[[6.6057,5.7232],[6.6688,5.6943],[6.7357,5.7477],[6.8958,5.762],[6.9485,5.8845],[7.0772,5.9235],[7.2501,5.9263],[7.3637,6.0206],[7.2651,6.0417],[7.0854,6.4187],[7.0132,6.4651],[7.1003,6.6678],[6.9137,6.716],[6.906,6.7761],[6.8381,6.712],[6.7924,6.5668],[6.6767,6.5351],[6.7609,6.1671],[6.7037,6.0759],[6.6853,5.9058],[6.6057,5.7232]]]}},{"type":"Feature","properties":{"sourceId":"1159313813","regionId":"region.af11e5df-93fa-4193-a085-63846ee72a53","countryId":"country.1wvxlzg"},"geometry":{"type":"Polygon","coordinates":[[[6.6767,6.5351],[6.6492,6.8438],[6.7194,7.1489],[6.6284,7.279],[6.5112,7.2507],[6.4327,7.3843],[6.351,7.3786],[6.2641,7.4633],[6.1324,7.4267],[6.1186,7.5047],[6.0284,7.5734],[5.9346,7.4922],[5.9527,7.299],[5.8766,7.2281],[5.7861,7.031],[5.7329,6.7894],[5.541,6.7171],[5.4956,6.8723],[5.2156,6.8724],[5.0799,6.6843],[5.1208,6.5141],[4.9793,6.2844],[5.1152,6.1269],[5.2324,6.0385],[5.4633,6.0185],[5.5301,5.9821],[5.6634,6.0399],[5.8961,5.8784],[5.9235,5.7411],[6.0215,5.7619],[6.2107,5.9367],[6.2224,6.0135],[6.1305,6.0844],[6.0528,6.2639],[6.2428,6.3392],[6.546,6.4933],[6.6767,6.5351]]]}},{"type":"Feature","properties":{"sourceId":"1159313807","regionId":"region.1a73abfa-d578-46be-8fb7-7b88ca36cbcb","countryId":"country.1wvxlzg"},"geometry":{"type":"Polygon","coordinates":[[[10.5604,9.4967],[10.7408,9.5345],[10.9303,9.6026],[11.0686,9.5864],[10.9714,9.8878],[10.7651,10.0394],[10.7293,10.1303],[10.8432,10.1876],[10.8234,10.4456],[10.6876,10.5187],[10.6457,10.6664],[10.5386,10.7116],[10.6738,11.0414],[10.7792,11.0895],[11.0142,11.2947],[10.9393,11.3361],[10.9681,11.5753],[10.8479,11.867],[10.8104,12.1397],[10.7702,12.2101],[10.7352,12.4023],[10.6095,12.5024],[10.4774,12.4163],[10.394,12.4489],[10.2647,12.4027],[10.1691,12.1164],[10.155,12.0085],[9.6997,11.8512],[9.6463,11.8034],[9.6677,11.7013],[9.8145,11.6813],[9.8631,11.4598],[10.0006,11.2623],[10.3902,11.1776],[10.3269,11.0966],[10.2165,11.0541],[10.1798,10.9334],[10.106,10.9654],[9.9483,10.9537],[9.8676,11.0322],[9.8764,11.1613],[9.8105,11.2614],[9.6238,11.2378],[9.5339,11.3047],[9.4081,11.2991],[9.2247,11.3424],[9.0319,11.2961],[8.8632,11.1044],[8.7677,11.0848],[8.734,10.8628],[8.8154,10.6641],[8.7413,10.549],[8.6967,10.4238],[8.785,10.3356],[8.9011,10.3301],[8.9618,10.1827],[8.9605,10.0231],[9.1772,9.996],[9.203,9.8457],[9.1597,9.7289],[9.2991,9.5822],[9.5024,9.5366],[9.7354,9.5672],[9.8655,9.7081],[9.8723,9.8371],[10.3624,9.6119],[10.5604,9.4967]]]}},{"type":"Feature","properties":{"sourceId":"1159313825","regionId":"region.a818f755-01a1-4dba-a9b7-4218ae5662e2","countryId":"country.1wvxlzg"},"geometry":{"type":"Polygon","coordinates":[[[10.5604,9.4967],[10.3624,9.6119],[9.8723,9.8371],[9.8655,9.7081],[9.7354,9.5672],[9.5024,9.5366],[9.2991,9.5822],[9.1597,9.7289],[9.203,9.8457],[9.1772,9.996],[8.9605,10.0231],[8.9618,10.1827],[8.9011,10.3301],[8.785,10.3356],[8.7712,10.2731],[8.6601,10.1692],[8.6678,10.0192],[8.6283,9.8877],[8.6315,9.7387],[8.559,9.6268],[8.5593,9.4845],[8.685,9.3228],[8.66,9.2048],[8.7666,9.1407],[8.8301,9.0239],[9.0731,8.9897],[8.8847,8.7274],[8.9516,8.5144],[9.0958,8.4545],[9.4077,8.4864],[9.5788,8.4036],[9.6155,8.3512],[9.8175,8.3731],[10.0773,8.5666],[10.2289,8.7467],[10.4603,8.8028],[10.6185,8.8801],[10.653,8.9446],[10.646,9.1051],[10.5923,9.257],[10.5604,9.4967]]]}},{"type":"Feature","properties":{"sourceId":"1159313827","regionId":"region.be91d382-f124-40e4-a9c7-3a7528103107","countryId":"country.1wvxlzg"},"geometry":{"type":"Polygon","coordinates":[[[9.6155,8.3512],[9.5788,8.4036],[9.4077,8.4864],[9.0958,8.4545],[8.9516,8.5144],[8.8847,8.7274],[9.0731,8.9897],[8.8301,9.0239],[8.7666,9.1407],[8.66,9.2048],[8.5654,9.0468],[8.4836,8.9992],[8.386,9.1163],[8.2635,9.1532],[8.0998,9.005],[8.0634,9.2188],[7.9509,9.3459],[7.8166,9.2507],[7.6258,9.3107],[7.5599,9.1206],[7.5611,8.9607],[7.4711,8.6392],[7.3921,8.5348],[7.2635,8.4714],[6.9781,8.4118],[6.9448,8.313],[6.9931,8.2281],[6.9705,7.8822],[7.084,7.9601],[7.2858,8.0281],[7.666,8.0257],[7.9682,7.9644],[8.4248,7.8265],[8.3544,8.0012],[8.4262,8.1185],[8.558,8.1334],[8.8326,8.0507],[8.9789,8.0555],[9.1694,7.9145],[9.3696,8.0579],[9.3039,8.2381],[9.3352,8.317],[9.5475,8.282],[9.6155,8.3512]]]}},{"type":"Feature","properties":{"sourceId":"1159313809","regionId":"region.29f8dc04-e927-433c-82b4-47a2e763346b","countryId":"country.1wvxlzg"},"geometry":{"type":"Polygon","coordinates":[[[11.0686,9.5864],[11.5259,9.592],[11.7027,9.644],[11.8878,9.7538],[11.9404,9.8257],[11.9456,10.0447],[11.8071,10.1963],[11.6891,10.2632],[11.6395,10.3888],[11.7134,10.5071],[11.701,10.5942],[11.593,10.5972],[11.5903,10.9282],[11.5625,10.9888],[11.354,11.2159],[11.1528,11.3308],[11.0142,11.2947],[10.7792,11.0895],[10.6738,11.0414],[10.5386,10.7116],[10.6457,10.6664],[10.6876,10.5187],[10.8234,10.4456],[10.8432,10.1876],[10.7293,10.1303],[10.7651,10.0394],[10.9714,9.8878],[11.0686,9.5864]]]}},{"type":"Feature","properties":{"sourceId":"1159313815","regionId":"region.a1ca05af-b4d5-4342-b73c-e6a1d86e8237","countryId":"country.1wvxlzg"},"geometry":{"type":"Polygon","coordinates":[[[7.4937,7.0745],[7.4117,7.1078],[7.021,6.7783],[6.906,6.7761],[6.9137,6.716],[7.1003,6.6678],[7.0132,6.4651],[7.0854,6.4187],[7.2651,6.0417],[7.3637,6.0206],[7.5335,5.973],[7.6932,5.9419],[7.7325,6.101],[7.6905,6.2749],[7.7341,6.4076],[7.6957,6.6065],[7.8277,6.6302],[7.8511,6.8203],[7.7847,6.88],[7.6404,6.8621],[7.5424,6.9546],[7.4937,7.0745]]]}},{"type":"Feature","properties":{"sourceId":"1159313821","regionId":"region.a3ac8901-6da3-4eae-8c55-e7d48509ac66","countryId":"country.1wvxlzg"},"geometry":{"type":"Polygon","coordinates":[[[7.666,8.0257],[7.2858,8.0281],[7.084,7.9601],[6.9705,7.8822],[6.9931,8.2281],[6.9448,8.313],[6.9781,8.4118],[6.835,8.4068],[6.6885,8.2135],[6.5722,8.3536],[6.4654,8.4317],[6.3705,8.6809],[6.2159,8.73],[6.1735,8.6758],[6.1171,8.4339],[6.0534,8.3737],[5.8051,8.4052],[5.6058,8.4656],[5.5157,8.5307],[5.3569,8.3482],[5.3792,8.2586],[5.5288,8.1295],[5.536,8.0696],[5.6368,8.0204],[5.6248,7.8503],[5.8114,7.7561],[5.8921,7.7704],[6.0284,7.5734],[6.1186,7.5047],[6.1324,7.4267],[6.2641,7.4633],[6.351,7.3786],[6.4327,7.3843],[6.5112,7.2507],[6.6284,7.279],[6.7194,7.1489],[6.6492,6.8438],[6.6767,6.5351],[6.7924,6.5668],[6.8381,6.712],[6.906,6.7761],[7.021,6.7783],[7.4117,7.1078],[7.4937,7.0745],[7.607,7.0062],[7.6528,7.0993],[7.7855,7.1711],[7.8792,7.4162],[7.7837,7.4461],[7.7585,7.72],[7.6757,7.8649],[7.666,8.0257]]]}},{"type":"Feature","properties":{"sourceId":"1159313799","regionId":"region.2f122311-e1f2-4196-823a-3f41a0bb2ba7","countryId":"country.1wvxlzg"},"geometry":{"type":"Polygon","coordinates":[[[4.0771,7.1124],[4.1769,7.0589],[4.3016,7.0897],[4.3641,6.9805],[4.5611,6.9883],[4.6501,7.1017],[4.7321,7.1465],[4.8693,7.0982],[4.8982,7.3391],[4.9915,7.4148],[4.9124,7.6272],[4.9261,7.8431],[5.0414,7.9493],[5.0641,8.0306],[4.9409,8.0804],[4.6853,8.0306],[4.5556,8.0341],[4.561,7.9659],[4.3999,7.8506],[4.2635,7.954],[4.1539,7.8299],[4.0864,7.8477],[4.0341,7.6251],[4.1455,7.4744],[4.0771,7.1124]]]}},{"type":"Feature","properties":{"sourceId":"1159313771","regionId":"region.5817c2b6-8e22-46f3-8398-f89ef1967b4d","countryId":"country.1wvxlzg"},"geometry":{"type":"Polygon","coordinates":[[[6.6688,5.6943],[6.6262,5.502],[6.7459,5.4431],[6.7244,5.3051],[6.8702,5.1949],[7.2515,5.1947],[7.3244,5.4055],[7.405,5.5432],[7.3879,5.8421],[7.2501,5.9263],[7.0772,5.9235],[6.9485,5.8845],[6.8958,5.762],[6.7357,5.7477],[6.6688,5.6943]]]}},{"type":"Feature","properties":{"sourceId":"1159313793","regionId":"region.6d85b404-96a1-446a-bd9d-077637608d4f","countryId":"country.1wvxlzg"},"geometry":{"type":"Polygon","coordinates":[[[5.536,8.0696],[5.4288,8.066],[5.3537,7.9743],[5.2302,7.9756],[5.0641,8.0306],[5.0414,7.9493],[4.9261,7.8431],[4.9124,7.6272],[4.9915,7.4148],[5.0615,7.4375],[5.3306,7.4199],[5.4325,7.2801],[5.5378,7.3685],[5.6237,7.6197],[5.8114,7.7561],[5.6248,7.8503],[5.6368,8.0204],[5.536,8.0696]]]}},{"type":"Feature","properties":{"sourceId":"1159313819","regionId":"region.a33a476a-8711-4029-8472-9d67015173c4","countryId":"country.1wvxlzg"},"geometry":{"type":"Polygon","coordinates":[[[8.7413,10.549],[8.4807,10.6712],[8.5584,10.7467],[8.5424,11.082],[8.4398,11.1897],[8.2943,11.2358],[8.114,11.3727],[8.1032,11.4955],[7.7762,11.3592],[7.6606,11.2746],[7.4668,11.3688],[7.3818,11.2646],[7.2422,11.2634],[7.2438,11.1557],[7.1865,11.1122],[6.9931,11.2098],[7.005,11.3367],[6.8818,11.3661],[6.7747,11.2732],[6.6686,11.0657],[6.4741,11.0095],[6.3427,11.0396],[6.2224,10.8912],[6.1619,10.8627],[6.1137,10.8061],[6.126,10.6471],[6.0931,10.4826],[6.1738,10.3612],[6.4267,10.5736],[6.5685,10.5347],[6.8352,10.6231],[6.8499,10.5225],[6.956,10.4824],[6.9659,10.3448],[7.041,10.233],[6.8921,10.1052],[7.0085,10.0171],[7.2308,10.0111],[7.2792,9.9776],[7.2952,9.686],[7.3381,9.5866],[7.2183,9.4166],[7.3108,9.2974],[7.4865,9.292],[7.54,9.3514],[7.6258,9.3107],[7.8166,9.2507],[7.9509,9.3459],[8.0634,9.2188],[8.0998,9.005],[8.2635,9.1532],[8.386,9.1163],[8.4836,8.9992],[8.5654,9.0468],[8.66,9.2048],[8.685,9.3228],[8.5593,9.4845],[8.559,9.6268],[8.6315,9.7387],[8.6283,9.8877],[8.6678,10.0192],[8.6601,10.1692],[8.7712,10.2731],[8.785,10.3356],[8.6967,10.4238],[8.7413,10.549]]]}},{"type":"Feature","properties":{"sourceId":"1159313831","regionId":"region.0da44944-6509-4f9f-89c1-839f20ecd5b7","countryId":"country.1wvxlzg"},"geometry":{"type":"Polygon","coordinates":[[[9.2247,11.3424],[9.253,11.4536],[9.3416,11.5327],[9.1433,11.7764],[9.2071,11.942],[9.1812,12.0303],[9.0372,12.012],[8.9564,12.0506],[8.9462,12.2218],[8.7851,12.2987],[8.7654,12.3909],[8.6903,12.4393],[8.6783,12.5393],[8.5301,12.5747],[8.4207,12.5376],[8.3622,12.4252],[8.2828,12.5696],[8.1873,12.5557],[8.0938,12.3827],[7.8413,12.2661],[7.8331,11.9144],[7.8937,11.6508],[7.7465,11.6008],[7.6922,11.4673],[7.7762,11.3592],[8.1032,11.4955],[8.114,11.3727],[8.2943,11.2358],[8.4398,11.1897],[8.5424,11.082],[8.5584,10.7467],[8.4807,10.6712],[8.7413,10.549],[8.8154,10.6641],[8.734,10.8628],[8.7677,11.0848],[8.8632,11.1044],[9.0319,11.2961],[9.2247,11.3424]]]}},{"type":"Feature","properties":{"sourceId":"1159315159","regionId":"region.cf5336e5-b8da-4329-b0e0-6cb59047f209","countryId":"country.1wvxlzg"},"geometry":{"type":"Polygon","coordinates":[[[6.9781,8.4118],[7.2635,8.4714],[7.3921,8.5348],[7.4711,8.6392],[7.5611,8.9607],[7.5599,9.1206],[7.6258,9.3107],[7.54,9.3514],[7.4865,9.292],[7.3108,9.2974],[7.1702,9.0992],[7.0234,9.2138],[6.7783,9.2252],[6.7496,9.1856],[6.759,8.4722],[6.835,8.4068],[6.9781,8.4118]]]}}]}