{"type":"FeatureCollection","features":[{"type":"Feature","properties":{"sourceId":"1159315387","regionId":"region.91a0396d-b69b-40e5-85f3-d57a292b8e36","countryId":"country.bk8phe"},"geometry":{"type":"Polygon","coordinates":[[[2.5218,51.0875],[2.6085,50.9611],[2.6204,50.8165],[2.8667,50.7001],[3.0238,50.7683],[3.1628,50.7499],[3.4576,50.7685],[3.4438,51.0493],[3.3988,51.2447],[3.3494,51.3752],[3.1248,51.3297],[2.5218,51.0875]]]}},{"type":"Feature","properties":{"sourceId":"1159308705","regionId":"region.e0b38abd-f83e-4c1d-be57-456474b0737d","countryId":"country.bk8phe"},"geometry":{"type":"Polygon","coordinates":[[[3.1628,50.7499],[3.2244,50.7052],[3.271,50.5269],[3.4629,50.5191],[3.6444,50.4455],[3.755,50.3463],[4.0227,50.3381],[4.1573,50.2127],[4.21,50.0602],[4.1317,49.975],[4.2159,49.9544],[4.4277,49.9336],[4.3984,50.1264],[4.3389,50.2298],[4.5879,50.3225],[4.5768,50.5434],[4.3041,50.5681],[4.1011,50.636],[4.0997,50.7071],[3.895,50.7342],[3.6753,50.7719],[3.4576,50.7685],[3.1628,50.7499]]]}},{"type":"Feature","properties":{"sourceId":"1159315369","regionId":"region.73965627-3c96-453f-99f4-49133f243876","countryId":"country.bk8phe"},"geometry":{"type":"Polygon","coordinates":[[[4.4277,49.9336],[4.6567,49.9891],[4.6819,50.0839],[4.8629,50.0841],[4.7883,49.9743],[4.849,49.7942],[4.9684,49.797],[5.101,49.9616],[4.9911,50.0303],[5.2796,50.1595],[5.2059,50.2199],[5.3927,50.2881],[5.3924,50.3805],[5.0534,50.5419],[4.9826,50.6434],[4.655,50.5966],[4.5768,50.5434],[4.5879,50.3225],[4.3389,50.2298],[4.3984,50.1264],[4.4277,49.9336]]]}},{"type":"Feature","properties":{"sourceId":"1159315373","regionId":"region.e224f6cc-23e1-4dff-bee3-874e47b494f2","countryId":"country.bk8phe"},"geometry":{"type":"Polygon","coordinates":[[[4.9684,49.797],[5.3912,49.6088],[5.4777,49.4952],[5.7907,49.5378],[5.8855,49.6435],[5.8564,49.7058],[5.7383,49.7888],[5.7149,49.8819],[5.8724,50.0969],[6.023,50.1508],[6.013,50.3118],[5.8678,50.3195],[5.7207,50.2631],[5.6703,50.3577],[5.5086,50.426],[5.3924,50.3805],[5.3927,50.2881],[5.2059,50.2199],[5.2796,50.1595],[4.9911,50.0303],[5.101,49.9616],[4.9684,49.797]]]}},{"type":"Feature","properties":{"sourceId":"1159315375","regionId":"region.8e44fc96-3859-4253-8e00-052bb0cbd906","countryId":"country.bk8phe"},"geometry":{"type":"Polygon","coordinates":[[[6.023,50.1508],[6.1175,50.1205],[6.1468,50.214],[6.3734,50.3231],[6.2329,50.5871],[5.9949,50.7499],[5.8913,50.7512],[5.7328,50.7589],[5.6574,50.8076],[5.431,50.7209],[5.1011,50.7098],[5.0191,50.7519],[4.9826,50.6434],[5.0534,50.5419],[5.3924,50.3805],[5.5086,50.426],[5.6703,50.3577],[5.7207,50.2631],[5.8678,50.3195],[6.013,50.3118],[6.023,50.1508]]]}},{"type":"Feature","properties":{"sourceId":"1159315385","regionId":"region.8f793f50-ab8e-4907-b253-282e203c311b","countryId":"country.bk8phe"},"geometry":{"type":"Polygon","coordinates":[[[3.3988,51.2447],[3.4438,51.0493],[3.4576,50.7685],[3.6753,50.7719],[3.895,50.7342],[4.0604,50.7926],[4.0736,50.9],[4.2403,51.0381],[4.316,51.1322],[4.2987,51.2696],[4.2215,51.368],[4.119,51.2724],[3.927,51.2063],[3.6351,51.2878],[3.3988,51.2447]]]}},{"type":"Feature","properties":{"sourceId":"1159315391","regionId":"region.b6e71ce6-b84c-4335-9465-591f8d661727","countryId":"country.bk8phe"},"geometry":{"type":"Polygon","coordinates":[[[5.2395,51.2569],[5.1229,51.3134],[5.0121,51.4743],[4.9103,51.3919],[4.7312,51.4856],[4.5252,51.4759],[4.2811,51.3689],[4.2611,51.3694],[4.2987,51.2696],[4.316,51.1322],[4.2403,51.0381],[4.3882,51.0123],[4.8185,51.0111],[4.9809,51.036],[5.2604,51.1481],[5.2395,51.2569]]]}},{"type":"Feature","properties":{"sourceId":"1159308707","regionId":"region.efe70d6b-54e7-4289-8698-ff56f46ca811","countryId":"country.bk8phe"},"geometry":{"type":"Polygon","coordinates":[[[5.5514,51.2168],[5.4716,51.2881],[5.2395,51.2569],[5.2604,51.1481],[4.9809,51.036],[5.0415,50.9431],[5.1717,50.9143],[5.1011,50.7098],[5.431,50.7209],[5.6574,50.8076],[5.6223,50.8527],[5.8405,51.1389],[5.5514,51.2168]]]}},{"type":"Feature","properties":{"sourceId":"1159315379","regionId":"region.38a401be-983c-418c-990f-567719522a80","countryId":"country.bk8phe"},"geometry":{"type":"Polygon","coordinates":[[[4.4797,50.7954],[4.3773,50.8986],[4.2828,50.8396],[4.3276,50.779],[4.4797,50.7954]]]}},{"type":"Feature","properties":{"sourceId":"1159315383","regionId":"region.00047531-127c-4aa0-b21c-50fdd95df838","countryId":"country.bk8phe"},"geometry":{"type":"Polygon","coordinates":[[[4.0997,50.7071],[4.24,50.692],[4.458,50.7546],[4.6352,50.7441],[4.7496,50.8087],[5.0191,50.7519],[5.1011,50.7098],[5.1717,50.9143],[5.0415,50.9431],[4.9809,51.036],[4.8185,51.0111],[4.3882,51.0123],[4.2403,51.0381],[4.0736,50.9],[4.0604,50.7926],[3.895,50.7342],[4.0997,50.7071]],[[4.4797,50.7954],[4.3276,50.779],[4.2828,50.8396],[4.3773,50.8986],[4.4797,50.7954]]]}},{"type":"Feature","properties":{"sourceId":"1159315377","regionId":"region.e532a58e-817d-4d3d-bcac-09a7a605d45b","countryId":"country.bk8phe"},"geometry":{"type":"Polygon","coordinates":[[[4.0997,50.7071],[4.1011,50.636],[4.3041,50.5681],[4.5768,50.5434],[4.655,50.5966],[4.9826,50.6434],[5.0191,50.7519],[4.7496,50.8087],[4.6352,50.7441],[4.458,50.7546],[4.24,50.692],[4.0997,50.7071]]]}}]}