{"type":"FeatureCollection","features":[{"type":"Feature","properties":{"sourceId":"1159314997","regionId":"region.518df397-35c5-4301-9ffe-2637ba2dc62a","countryId":"country.1qt08wm"},"geometry":{"type":"Polygon","coordinates":[[[30.3486,-2.3224],[30.4232,-2.3173],[30.5546,-2.4006],[30.6748,-2.3517],[30.8344,-2.3453],[30.8878,-2.0825],[30.8299,-1.9606],[30.831,-1.5942],[30.7329,-1.4764],[30.7375,-1.4067],[30.5553,-1.3184],[30.4718,-1.0668],[30.4608,-1.0634],[30.3528,-1.0608],[30.291,-1.1526],[30.2567,-1.2172],[30.066,-1.3869],[30.1635,-1.5174],[30.2576,-1.6997],[30.2471,-1.8432],[30.2674,-1.9444],[30.1654,-2.0284],[30.0178,-2.0721],[29.9568,-2.327],[30.1391,-2.4308],[30.2013,-2.3624],[30.3486,-2.3224]]]}},{"type":"Feature","properties":{"sourceId":"1159314991","regionId":"region.be7025df-3200-4e31-a752-61b3c6fd3935","countryId":"country.1qt08wm"},"geometry":{"type":"Polygon","coordinates":[[[29.9568,-2.327],[30.0178,-2.0721],[29.9811,-1.9094],[29.7995,-1.8393],[29.7452,-1.7577],[29.6577,-1.7331],[29.6687,-1.9627],[29.6058,-2.1823],[29.4665,-2.2694],[29.3385,-2.2991],[29.3119,-2.4971],[29.36,-2.6126],[29.3095,-2.6901],[29.3397,-2.8264],[29.4447,-2.807],[29.6371,-2.7916],[29.8236,-2.7635],[29.9037,-2.6379],[29.9568,-2.327]]]}},{"type":"Feature","properties":{"sourceId":"1159314995","regionId":"region.7b4301b9-c372-4de9-a9a1-19750f0b412d","countryId":"country.1qt08wm"},"geometry":{"type":"Polygon","coordinates":[[[29.3095,-2.6901],[29.36,-2.6126],[29.3119,-2.4971],[29.3385,-2.2991],[29.4665,-2.2694],[29.6058,-2.1823],[29.6687,-1.9627],[29.6577,-1.7331],[29.6306,-1.5879],[29.4914,-1.5561],[29.4451,-1.4973],[29.3585,-1.5099],[29.1866,-1.7396],[29.1305,-1.8433],[29.1506,-2.1504],[29.1098,-2.2367],[28.9834,-2.2874],[28.8588,-2.4182],[28.8913,-2.6527],[29.0154,-2.7207],[29.0326,-2.6207],[29.1297,-2.597],[29.2761,-2.6406],[29.3095,-2.6901]]]}},{"type":"Feature","properties":{"sourceId":"1159314999","regionId":"region.98fb3d56-cc77-46f3-bc2c-26efd774b9eb","countryId":"country.1qt08wm"},"geometry":{"type":"Polygon","coordinates":[[[30.066,-1.3869],[29.8979,-1.4696],[29.825,-1.3239],[29.5779,-1.3884],[29.4451,-1.4973],[29.4914,-1.5561],[29.6306,-1.5879],[29.6577,-1.7331],[29.7452,-1.7577],[29.7995,-1.8393],[29.9811,-1.9094],[30.1348,-1.7794],[30.2471,-1.8432],[30.2576,-1.6997],[30.1635,-1.5174],[30.066,-1.3869]]]}},{"type":"Feature","properties":{"sourceId":"1159315001","regionId":"region.386f0210-40cc-4fb3-a878-8af586f39113","countryId":"country.1qt08wm"},"geometry":{"type":"Polygon","coordinates":[[[30.0178,-2.0721],[30.1654,-2.0284],[30.2674,-1.9444],[30.2471,-1.8432],[30.1348,-1.7794],[29.9811,-1.9094],[30.0178,-2.0721]]]}}]}