{"type":"FeatureCollection","features":[{"type":"Feature","properties":{"sourceId":"1159316297","regionId":"region.853a2814-0c15-4b23-b3ed-bcef498b6da3","countryId":"country.6sun05"},"geometry":{"type":"Polygon","coordinates":[[[-73.6471,21.0616],[-73.6761,20.9352],[-73.4926,20.9245],[-73.3469,20.9638],[-73.2256,20.9525],[-73.1298,20.9937],[-73.0339,21.1567],[-73.0057,21.2914],[-73.053,21.3293],[-73.161,21.1699],[-73.2552,21.1351],[-73.3982,21.2248],[-73.5146,21.1869],[-73.6471,21.0616]]]}},{"type":"Feature","properties":{"sourceId":"1159316295","regionId":"region.93b3e4ab-ea4c-4cd6-81c6-d4df0c55a959","countryId":"country.6sun05"},"geometry":{"type":"Polygon","coordinates":[[[-73.1391,22.3633],[-72.755,22.3497],[-73.0631,22.4447],[-73.1391,22.3633]]]}},{"type":"Feature","properties":{"sourceId":"1159316293","regionId":"region.4169b8de-1dea-47cb-aafa-541c7aad55ff","countryId":"country.6sun05"},"geometry":{"type":"Polygon","coordinates":[[[-73.9957,22.6575],[-73.9134,22.5945],[-73.8449,22.7202],[-73.9547,22.7202],[-73.9957,22.6575]]]}},{"type":"Feature","properties":{"sourceId":"1159316291","regionId":"region.5c574724-5bdd-474d-9670-a110aa028583","countryId":"country.6sun05"},"geometry":{"type":"Polygon","coordinates":[[[-74.2869,22.7333],[-74.0907,22.6575],[-74.2285,22.8158],[-74.2869,22.7333]]]}},{"type":"Feature","properties":{"sourceId":"1159316265","regionId":"region.1c142df9-cab5-405e-aa83-922ffdc26e35","countryId":"country.6sun05"},"geometry":{"type":"Polygon","coordinates":[[[-75.7982,23.5386],[-75.9822,23.6827],[-75.9877,23.6008],[-75.8734,23.5284],[-75.7982,23.5386]]]}},{"type":"Feature","properties":{"sourceId":"1159316285","regionId":"region.a7ad7e1f-c438-499b-9123-fab1cdc218b5","countryId":"country.6sun05"},"geometry":{"type":"Polygon","coordinates":[[[-74.8591,22.9803],[-74.8448,23.0001],[-74.9464,23.0937],[-75.0316,23.1234],[-75.0769,23.1717],[-75.0941,23.3053],[-75.1827,23.4464],[-75.1949,23.5141],[-75.2501,23.4902],[-75.1969,23.4101],[-75.1317,23.3558],[-75.1129,23.2813],[-75.1322,23.186],[-75.0751,23.1274],[-74.9905,23.0786],[-74.9244,23.0117],[-74.8591,22.9803]]]}},{"type":"Feature","properties":{"sourceId":"1159316283","regionId":"region.957af4dc-057b-48ac-af66-4b617ec18912","countryId":"country.6sun05"},"geometry":{"type":"Polygon","coordinates":[[[-74.9001,23.7065],[-74.8909,23.6647],[-74.7937,23.6713],[-74.8124,23.7197],[-74.9001,23.7065]]]}},{"type":"Feature","properties":{"sourceId":"1159316263","regionId":"region.f76c2a11-f820-4103-afc4-f043a8876062","countryId":"country.6sun05"},"geometry":{"type":"Polygon","coordinates":[[[-76.3252,23.974],[-76.319,23.9802],[-76.3768,24.1014],[-76.375,24.0466],[-76.3252,23.974]]]}},{"type":"Feature","properties":{"sourceId":"1159316281","regionId":"region.423a51fb-42ff-469b-a944-734694020893","countryId":"country.6sun05"},"geometry":{"type":"Polygon","coordinates":[[[-74.4687,24.0218],[-74.4271,24.0832],[-74.4582,24.1413],[-74.5297,24.1004],[-74.4687,24.0218]]]}},{"type":"Feature","properties":{"sourceId":"1159316257","regionId":"region.a6e585a3-522a-466e-b9be-d979efcf6ed1","countryId":"country.6sun05"},"geometry":{"type":"Polygon","coordinates":[[[-77.7418,24.6347],[-77.9424,24.6385],[-78.0718,24.5965],[-78.1344,24.5016],[-78.1341,24.404],[-78.0633,24.3162],[-77.9086,24.3508],[-77.7187,24.4998],[-77.7418,24.6347]]]}},{"type":"Feature","properties":{"sourceId":"1159316259","regionId":"region.4a67e227-d989-4aff-86e6-95612faa0f70","countryId":"country.6sun05"},"geometry":{"type":"Polygon","coordinates":[[[-77.8226,23.9802],[-77.744,24.0355],[-77.74,24.1645],[-77.6407,24.2373],[-77.6752,24.303],[-77.8397,24.2067],[-77.942,24.0969],[-77.8226,23.9802]]]}},{"type":"Feature","properties":{"sourceId":"1159316261","regionId":"region.b2706d18-8a4e-406c-b554-9171645b7e27","countryId":"country.6sun05"},"geometry":{"type":"Polygon","coordinates":[[[-77.744,24.0355],[-77.8226,23.9802],[-77.8129,23.8767],[-77.643,23.7549],[-77.5659,23.7407],[-77.5175,23.8642],[-77.5495,24.1259],[-77.6075,24.2182],[-77.744,24.0355]]]}},{"type":"Feature","properties":{"sourceId":"1159316279","regionId":"region.ad9232e9-a3ec-4ccd-8a59-ab39d13121bf","countryId":"country.6sun05"},"geometry":{"type":"Polygon","coordinates":[[[-75.3147,24.2174],[-75.4761,24.3706],[-75.6126,24.5624],[-75.6263,24.645],[-75.7089,24.7002],[-75.7566,24.6603],[-75.6527,24.5884],[-75.5715,24.4888],[-75.534,24.3892],[-75.3358,24.1585],[-75.3147,24.2174]]]}},{"type":"Feature","properties":{"sourceId":"1159308283","regionId":"region.089b38ae-9466-4a2a-9789-edd6190263ec","countryId":"country.6sun05"},"geometry":{"type":"Polygon","coordinates":[[[-77.48,24.9914],[-77.3795,25.0015],[-77.3261,25.0793],[-77.456,25.077],[-77.48,24.9914]]]}},{"type":"Feature","properties":{"sourceId":"1159316255","regionId":"region.007a42e4-ca34-425d-b004-d953d28b59a9","countryId":"country.6sun05"},"geometry":{"type":"Polygon","coordinates":[[[-78.1344,24.5016],[-78.0718,24.5965],[-77.9424,24.6385],[-77.7418,24.6347],[-77.7372,24.7002],[-77.8734,24.8386],[-77.9866,25.0129],[-77.9769,25.1384],[-78.0452,25.1831],[-78.2143,25.1846],[-78.1577,25.0002],[-78.2081,24.8618],[-78.3351,24.6728],[-78.443,24.6245],[-78.3516,24.5305],[-78.2264,24.4655],[-78.1344,24.5016]]]}},{"type":"Feature","properties":{"sourceId":"1159316275","regionId":"region.baeb2b47-d535-4af9-99f8-0935cdac9846","countryId":"country.6sun05"},"geometry":{"type":"Polygon","coordinates":[[[-76.314,25.2996],[-76.3326,25.2853],[-76.1649,25.1298],[-76.1703,24.9889],[-76.1544,24.9814],[-76.1129,25.1149],[-76.314,25.2996]]]}},{"type":"Feature","properties":{"sourceId":"1159316273","regionId":"region.115d0f83-d097-469f-9a13-a20e0888891a","countryId":"country.6sun05"},"geometry":{"type":"Polygon","coordinates":[[[-76.3326,25.2853],[-76.314,25.2996],[-76.3683,25.3427],[-76.4609,25.3546],[-76.6246,25.4625],[-76.7298,25.5636],[-76.7128,25.4469],[-76.5912,25.4226],[-76.4896,25.3513],[-76.3716,25.3225],[-76.3326,25.2853]]]}},{"type":"Feature","properties":{"sourceId":"1159316277","regionId":"region.ba4ba17e-fc37-486a-95b3-d13f7af35118","countryId":"country.6sun05"},"geometry":{"type":"Polygon","coordinates":[[[-76.1544,24.9814],[-76.1703,24.9889],[-76.2109,24.901],[-76.137,24.9022],[-76.1544,24.9814]]]}},{"type":"Feature","properties":{"sourceId":"1159316251","regionId":"region.f8de0dbb-39e6-497b-ac49-edad8a3ee6f3","countryId":"country.6sun05"},"geometry":{"type":"Polygon","coordinates":[[[-77.8192,25.7076],[-77.8583,25.7773],[-77.8873,25.7814],[-77.8315,25.7087],[-77.8192,25.7076]]]}},{"type":"Feature","properties":{"sourceId":"1159316249","regionId":"region.168aee06-9b18-443d-bb63-a5895b403701","countryId":"country.6sun05"},"geometry":{"type":"Polygon","coordinates":[[[-77.538,26.3066],[-77.5704,26.3327],[-77.5793,26.318],[-77.567,26.291],[-77.538,26.3066]]]}},{"type":"Feature","properties":{"sourceId":"1159316233","regionId":"region.8acf1f86-f299-44aa-8ae7-eb467150b744","countryId":"country.6sun05"},"geometry":{"type":"Polygon","coordinates":[[[-78.5981,26.5314],[-78.6359,26.5462],[-78.6464,26.5049],[-78.5981,26.5314]]]}},{"type":"Feature","properties":{"sourceId":"1159316237","regionId":"region.24df23e6-f34c-44c0-b6f3-6529d4c35b22","countryId":"country.6sun05"},"geometry":{"type":"Polygon","coordinates":[[[-78.4112,26.5942],[-78.4744,26.7128],[-78.5759,26.6948],[-78.638,26.6097],[-78.6464,26.5049],[-78.6359,26.5462],[-78.5981,26.5314],[-78.4112,26.5942]]]}},{"type":"Feature","properties":{"sourceId":"1159316239","regionId":"region.359a96a9-9b7b-49fd-95d4-64cbc48760f3","countryId":"country.6sun05"},"geometry":{"type":"Polygon","coordinates":[[[-78.4744,26.7128],[-78.4112,26.5942],[-77.9029,26.6816],[-77.9717,26.7296],[-78.2871,26.6855],[-78.4744,26.7128]]]}},{"type":"Feature","properties":{"sourceId":"1159316245","regionId":"region.6344aea9-440f-4f15-a362-be6f7b6f8e38","countryId":"country.6sun05"},"geometry":{"type":"Polygon","coordinates":[[[-77.2306,26.2851],[-77.0316,26.3553],[-77.0588,26.5294],[-77.2699,26.6251],[-77.328,26.7091],[-77.3754,26.6995],[-77.3122,26.5947],[-77.1607,26.5642],[-77.2301,26.4475],[-77.2306,26.2851]]]}},{"type":"Feature","properties":{"sourceId":"1159316247","regionId":"region.1e57dcac-db8e-49f4-b5fc-970a9986895f","countryId":"country.6sun05"},"geometry":{"type":"Polygon","coordinates":[[[-77.0316,26.3553],[-77.2306,26.2851],[-77.2233,26.1458],[-77.3479,26.0706],[-77.1907,25.9163],[-77.1649,26.2454],[-77.0316,26.3553]]]}},{"type":"Feature","properties":{"sourceId":"1159316243","regionId":"region.63274011-f08d-4ebe-9e22-c78707da2c2d","countryId":"country.6sun05"},"geometry":{"type":"Polygon","coordinates":[[[-77.3754,26.6995],[-77.328,26.7091],[-77.5113,26.8695],[-77.7745,26.9272],[-77.7546,26.8795],[-77.5175,26.8522],[-77.3754,26.6995]]]}},{"type":"Feature","properties":{"sourceId":"1159316299","regionId":"region.97614cfe-28be-4725-9d66-a02c71ce36a8","countryId":"country.6sun05"},"geometry":{"type":"Polygon","coordinates":[[[-79.2501,25.7747],[-79.2803,25.7572],[-79.267,25.7325],[-79.2432,25.7429],[-79.2501,25.7747]]]}},{"type":"Feature","properties":{"sourceId":"1159316287","regionId":"region.b5f4da67-c37f-4f17-adfa-3b4946b0495d","countryId":"country.6sun05"},"geometry":{"type":"Polygon","coordinates":[[[-75.7221,22.2026],[-75.7497,22.2045],[-75.7344,22.175],[-75.7147,22.1829],[-75.7221,22.2026]]]}},{"type":"Feature","properties":{"sourceId":"1159316269","regionId":"region.e24041c2-7730-40a2-bd23-3baad74806e0","countryId":"country.6sun05"},"geometry":{"type":"Polygon","coordinates":[[[-76.7702,25.5513],[-76.7874,25.5419],[-76.7498,25.5396],[-76.7702,25.5513]]]}},{"type":"Feature","properties":{"sourceId":"1159316267","regionId":"region.aa0859e9-40f9-4a9c-b722-75e02fe39639","countryId":"country.6sun05"},"geometry":{"type":"Polygon","coordinates":[[[-76.829,25.5317],[-76.8572,25.5239],[-76.8485,25.5168],[-76.829,25.5168],[-76.829,25.5317]]]}}]}