{"type":"FeatureCollection","features":[{"type":"Feature","properties":{"sourceId":"1159314249","regionId":"region.c92e9e7b-ca66-4268-9860-cb32c59000d1","countryId":"country.1y3qxos"},"geometry":{"type":"Polygon","coordinates":[[[43.3625,37.3039],[43.0837,37.3688],[42.937,37.3202],[42.7716,37.3749],[42.5613,37.1466],[42.3572,37.11],[42.3768,37.062],[42.5965,36.796],[42.6903,36.7996],[42.8223,36.7198],[43.1525,36.7641],[43.3047,36.9302],[43.628,36.8285],[43.7205,36.9544],[43.8282,37.0119],[44.0985,37.2077],[44.069,37.3137],[43.8936,37.2249],[43.4796,37.2434],[43.3625,37.3039]]]}},{"type":"Feature","properties":{"sourceId":"1159314251","regionId":"region.7927493e-023f-4baf-921c-fb71858cf590","countryId":"country.1y3qxos"},"geometry":{"type":"Polygon","coordinates":[[[44.069,37.3137],[44.0985,37.2077],[43.8282,37.0119],[44.0005,36.935],[44.0585,36.8613],[44.2624,36.7899],[44.2971,36.7258],[44.1353,36.6008],[43.9987,36.6008],[43.7448,36.3321],[43.5476,36.1715],[43.4825,36.0433],[43.3529,35.9991],[43.3854,35.8579],[43.3343,35.7235],[43.3751,35.5882],[43.3582,35.4582],[43.4546,35.4276],[43.7419,35.5481],[43.8011,35.6487],[43.7685,35.7179],[43.9499,35.8413],[44.0554,35.7799],[44.1866,35.8456],[44.2962,35.8251],[44.6273,35.8857],[44.7514,35.8672],[44.9693,35.9109],[44.6274,36.1268],[44.698,36.206],[44.5398,36.369],[44.6547,36.4481],[45.0095,36.5162],[45.0353,36.6896],[44.8312,36.7919],[44.8834,36.8868],[44.8808,37.0249],[44.7661,37.1419],[44.5782,37.1664],[44.4281,37.0648],[44.2343,36.9837],[44.18,37.0876],[44.2232,37.2541],[44.069,37.3137]]]}},{"type":"Feature","properties":{"sourceId":"1159314233","regionId":"region.32c156b5-ba4e-4189-a02c-8bd3d9200cf4","countryId":"country.1y3qxos"},"geometry":{"type":"Polygon","coordinates":[[[47.948,29.994],[48.0383,30.0369],[48.2092,30.0245],[48.3355,29.9614],[48.531,29.9613],[48.4531,30.0014],[48.3833,30.1565],[48.397,30.221],[48.1577,30.4263],[48.0136,30.4639],[48.0154,30.9763],[47.6729,30.9947],[47.6764,31.2365],[47.3948,31.2792],[47.211,31.2449],[47.1261,31.1298],[47.1221,30.8388],[47.0581,30.5689],[46.9011,30.5913],[46.5747,30.5141],[46.6287,30.3064],[46.727,30.1824],[46.7446,30.0893],[46.6628,29.7108],[46.6452,29.4559],[46.5886,29.3511],[46.5615,29.1242],[46.8535,29.4446],[46.9578,29.6204],[47.1105,29.9609],[47.1971,30.0342],[47.3582,30.0921],[47.6742,30.0982],[47.948,29.994]]]}},{"type":"Feature","properties":{"sourceId":"1159314235","regionId":"region.9ac88af0-d353-4992-9a4b-28b3aa8e4bab","countryId":"country.1y3qxos"},"geometry":{"type":"Polygon","coordinates":[[[46.5615,29.1242],[46.5886,29.3511],[46.6452,29.4559],[46.6628,29.7108],[46.7446,30.0893],[46.727,30.1824],[46.6287,30.3064],[46.5747,30.5141],[46.5283,30.5078],[46.3714,30.7335],[46.2106,30.7823],[45.7198,30.8376],[45.706,30.9773],[45.7432,31.1764],[45.8095,31.3356],[45.7734,31.5392],[45.7858,31.6515],[45.7131,31.6372],[45.292,31.7276],[45.048,31.6815],[45.1101,31.6164],[44.9994,31.3667],[44.9783,31.2626],[44.7269,31.4075],[44.6513,31.0549],[44.5794,30.9343],[44.4454,30.7931],[44.3287,30.7361],[44.2364,30.6153],[44.0564,30.167],[43.824,29.814],[44.6918,29.2018],[45.4349,29.1362],[46.3575,29.0631],[46.4273,29.0761],[46.5324,29.0957],[46.5615,29.1242]]]}},{"type":"Feature","properties":{"sourceId":"1159314253","regionId":"region.99a47b0f-ef49-4f6a-b291-8ce546d289c3","countryId":"country.1y3qxos"},"geometry":{"type":"Polygon","coordinates":[[[45.0095,36.5162],[44.6547,36.4481],[44.5398,36.369],[44.698,36.206],[44.6274,36.1268],[44.9693,35.9109],[44.7514,35.8672],[44.6273,35.8857],[44.7771,35.7054],[44.7524,35.5316],[44.8023,35.4706],[44.6843,35.1799],[44.5621,35.1291],[44.6629,35.042],[44.8659,35.0263],[44.9519,34.9767],[44.966,34.8675],[45.1891,34.7746],[45.2501,34.5289],[45.4494,34.672],[45.5385,34.8584],[45.7195,35.11],[45.7962,34.9031],[45.9132,35.0873],[46.0092,35.0609],[46.1655,35.1899],[46.1253,35.285],[45.964,35.4942],[46.0371,35.6916],[46.2379,35.7155],[46.185,35.7982],[46.0604,35.8572],[45.8142,35.8093],[45.7187,35.8283],[45.6469,35.9332],[45.5014,36.0054],[45.3596,35.9769],[45.3483,36.0875],[45.2389,36.403],[45.1108,36.4025],[45.0095,36.5162]]]}},{"type":"Feature","properties":{"sourceId":"1159314247","regionId":"region.2973137a-c910-4947-8619-ae9b45ff241a","countryId":"country.1y3qxos"},"geometry":{"type":"Polygon","coordinates":[[[45.7962,34.9031],[45.7195,35.11],[45.5385,34.8584],[45.4494,34.672],[45.2501,34.5289],[45.1891,34.7746],[44.966,34.8675],[44.7163,34.6825],[44.6304,34.5244],[44.5219,34.5773],[44.4767,34.3398],[44.5088,34.2627],[44.3729,34.1678],[44.29,34.0183],[44.4478,33.9354],[44.3917,33.7654],[44.3931,33.5709],[44.2448,33.4333],[44.2778,33.3786],[44.4272,33.4291],[44.5426,33.3692],[44.5048,33.176],[44.5401,33.006],[44.6659,33.0161],[44.8152,33.1613],[45.1121,33.1562],[45.4837,33.066],[45.6691,33.2656],[45.9161,33.4152],[45.9645,33.496],[45.886,33.6309],[45.7246,33.633],[45.6588,33.6817],[45.4858,33.9387],[45.4199,33.9944],[45.5344,34.1282],[45.5576,34.312],[45.448,34.3621],[45.4171,34.4444],[45.5035,34.4942],[45.5007,34.5917],[45.7015,34.5513],[45.6274,34.7208],[45.6766,34.8183],[45.7962,34.9031]]]}},{"type":"Feature","properties":{"sourceId":"1159314245","regionId":"region.5fe54c2d-79a3-48ac-8d2b-5d6cadccd271","countryId":"country.1y3qxos"},"geometry":{"type":"Polygon","coordinates":[[[45.9645,33.496],[45.9161,33.4152],[45.6691,33.2656],[45.4837,33.066],[45.1121,33.1562],[44.8152,33.1613],[44.6659,33.0161],[44.5401,33.006],[44.5648,32.8157],[44.7063,32.8073],[44.9699,32.6919],[45.0518,32.4976],[45.1984,32.3944],[45.3919,32.3351],[45.3835,32.2613],[45.5381,32.1148],[45.686,32.0689],[45.7257,31.9478],[45.826,31.9423],[46.0576,32.0046],[46.3174,32.0054],[46.5768,31.9836],[46.6037,32.1337],[46.4502,32.2219],[46.444,32.4116],[46.4811,32.6006],[46.6006,32.8225],[46.2734,32.9595],[46.097,32.9543],[46.1672,33.1683],[46.1553,33.2602],[46.0362,33.3679],[45.9645,33.496]]]}},{"type":"Feature","properties":{"sourceId":"1159314243","regionId":"region.f4712c9b-d640-432d-9108-cda84eab1681","countryId":"country.1y3qxos"},"geometry":{"type":"Polygon","coordinates":[[[46.6006,32.8225],[46.4811,32.6006],[46.444,32.4116],[46.4502,32.2219],[46.6037,32.1337],[46.5768,31.9836],[46.3174,32.0054],[46.3109,31.9354],[46.4144,31.7788],[46.4326,31.6912],[46.5992,31.5416],[46.605,31.396],[46.7395,31.297],[46.7495,31.1981],[46.8459,31.1391],[47.1261,31.1298],[47.211,31.2449],[47.3948,31.2792],[47.6764,31.2365],[47.6789,31.4079],[47.8313,31.7618],[47.6681,32.0124],[47.5802,32.1035],[47.3958,32.337],[47.3433,32.4587],[47.0584,32.4945],[46.6006,32.8225]]]}},{"type":"Feature","properties":{"sourceId":"1159315255","regionId":"region.e7c98e2e-4ded-4470-8e88-729467eef9c3","countryId":"country.1y3qxos"},"geometry":{"type":"Polygon","coordinates":[[[39.1464,32.1181],[40.0293,31.9944],[40.4241,31.9205],[41.5476,31.3487],[42.0754,31.0799],[42.7834,30.551],[42.9242,30.8159],[42.9365,30.9042],[43.0381,31.048],[43.1115,31.3399],[43.2177,31.5346],[43.2393,31.6315],[43.4092,31.8503],[43.7547,32.0017],[43.7958,32.0834],[43.6906,32.1685],[43.4774,32.3082],[43.2418,32.5101],[43.2107,32.571],[43.4927,32.6446],[43.759,32.8168],[43.9582,32.8258],[44.1296,32.7812],[44.1409,32.8763],[44.0575,32.9551],[44.0157,33.0894],[43.8996,33.2006],[44.2392,33.1389],[44.2873,33.1892],[44.2263,33.3014],[44.2778,33.3786],[44.2448,33.4333],[44.1372,33.4567],[44.0519,33.6227],[43.9712,33.6711],[43.8035,33.6676],[43.4296,33.7653],[43.1319,33.9995],[43.0632,34.0756],[42.9602,34.3182],[42.9288,34.4959],[42.8092,34.4394],[42.5398,34.5953],[42.4999,34.7401],[42.4913,34.9727],[42.2733,34.9484],[42.1899,34.9759],[41.9842,34.9643],[41.5784,35.0998],[41.1923,35.1589],[41.1957,34.7685],[40.988,34.4285],[40.936,34.3861],[40.6905,34.3315],[40.1731,34.0723],[39.438,33.7041],[38.7745,33.3717],[39.0572,32.4966],[38.9786,32.4757],[39.0463,32.3085],[39.2358,32.3529],[39.292,32.2445],[39.1464,32.1181]]]}},{"type":"Feature","properties":{"sourceId":"1159314227","regionId":"region.3d5617ac-6d30-466e-9db1-1b0210c7e942","countryId":"country.1y3qxos"},"geometry":{"type":"Polygon","coordinates":[[[43.824,29.814],[44.0564,30.167],[44.2364,30.6153],[44.3287,30.7361],[44.4454,30.7931],[44.5794,30.9343],[44.6513,31.0549],[44.7269,31.4075],[44.5346,31.4753],[44.4342,31.6087],[44.5417,31.6408],[44.5149,32.0083],[44.6133,32.0627],[44.6299,32.1595],[44.4997,32.2163],[44.3737,32.145],[44.3206,32.2127],[44.3195,32.3437],[44.25,32.3066],[43.6906,32.1685],[43.7958,32.0834],[43.7547,32.0017],[43.4092,31.8503],[43.2393,31.6315],[43.2177,31.5346],[43.1115,31.3399],[43.0381,31.048],[42.9365,30.9042],[42.9242,30.8159],[42.7834,30.551],[43.824,29.814]]]}},{"type":"Feature","properties":{"sourceId":"1159314223","regionId":"region.f3faca2f-eca1-4f36-8362-b8f7336e8ef5","countryId":"country.1y3qxos"},"geometry":{"type":"Polygon","coordinates":[[[42.3768,37.062],[41.8438,36.6179],[41.7899,36.5893],[41.4149,36.5274],[41.277,36.3548],[41.2406,36.043],[41.3437,35.8577],[41.3635,35.6552],[41.3085,35.5522],[41.2613,35.4943],[41.1923,35.1589],[41.5784,35.0998],[41.9842,34.9643],[42.1899,34.9759],[42.2733,34.9484],[42.4913,34.9727],[42.5164,35.0701],[42.6312,35.0909],[42.9877,35.0928],[42.9459,35.3199],[42.8797,35.4792],[43.2584,35.6556],[43.3343,35.7235],[43.3854,35.8579],[43.3529,35.9991],[43.4825,36.0433],[43.5476,36.1715],[43.7448,36.3321],[43.9987,36.6008],[44.1353,36.6008],[44.2971,36.7258],[44.2624,36.7899],[44.0585,36.8613],[44.0005,36.935],[43.8282,37.0119],[43.7205,36.9544],[43.628,36.8285],[43.3047,36.9302],[43.1525,36.7641],[42.8223,36.7198],[42.6903,36.7996],[42.5965,36.796],[42.3768,37.062]]]}},{"type":"Feature","properties":{"sourceId":"1159314225","regionId":"region.ae125dab-9209-4877-9316-d890e2a3a5af","countryId":"country.1y3qxos"},"geometry":{"type":"Polygon","coordinates":[[[44.5621,35.1291],[44.5345,35.0309],[44.4026,34.9045],[44.2884,34.7045],[44.1288,34.822],[43.9131,34.9055],[43.4939,35.1107],[43.3884,35.2135],[43.3582,35.4582],[43.3751,35.5882],[43.3343,35.7235],[43.2584,35.6556],[42.8797,35.4792],[42.9459,35.3199],[42.9877,35.0928],[42.6312,35.0909],[42.5164,35.0701],[42.4913,34.9727],[42.4999,34.7401],[42.5398,34.5953],[42.8092,34.4394],[42.9288,34.4959],[42.9602,34.3182],[43.0632,34.0756],[43.1319,33.9995],[43.4296,33.7653],[43.8035,33.6676],[43.9712,33.6711],[44.0519,33.6227],[44.1372,33.4567],[44.2448,33.4333],[44.3931,33.5709],[44.3917,33.7654],[44.4478,33.9354],[44.29,34.0183],[44.3729,34.1678],[44.5088,34.2627],[44.4767,34.3398],[44.5219,34.5773],[44.6304,34.5244],[44.7163,34.6825],[44.966,34.8675],[44.9519,34.9767],[44.8659,35.0263],[44.6629,35.042],[44.5621,35.1291]]]}},{"type":"Feature","properties":{"sourceId":"1159314221","regionId":"region.be5a7044-21bd-4ddb-b79b-71c9e9d7523d","countryId":"country.1y3qxos"},"geometry":{"type":"Polygon","coordinates":[[[44.6273,35.8857],[44.2962,35.8251],[44.1866,35.8456],[44.0554,35.7799],[43.9499,35.8413],[43.7685,35.7179],[43.8011,35.6487],[43.7419,35.5481],[43.4546,35.4276],[43.3582,35.4582],[43.3884,35.2135],[43.4939,35.1107],[43.9131,34.9055],[44.1288,34.822],[44.2884,34.7045],[44.4026,34.9045],[44.5345,35.0309],[44.5621,35.1291],[44.6843,35.1799],[44.8023,35.4706],[44.7524,35.5316],[44.7771,35.7054],[44.6273,35.8857]]]}},{"type":"Feature","properties":{"sourceId":"1159314231","regionId":"region.7a2c600b-c5b7-4d8f-a5e5-fa5935b51cc5","countryId":"country.1y3qxos"},"geometry":{"type":"Polygon","coordinates":[[[44.5048,33.176],[44.5426,33.3692],[44.4272,33.4291],[44.2778,33.3786],[44.2263,33.3014],[44.2873,33.1892],[44.5048,33.176]]]}},{"type":"Feature","properties":{"sourceId":"1159315257","regionId":"region.db3f8294-00ac-4fc1-8c1a-28df1c847c58","countryId":"country.1y3qxos"},"geometry":{"type":"Polygon","coordinates":[[[44.5048,33.176],[44.2873,33.1892],[44.2392,33.1389],[43.8996,33.2006],[44.0157,33.0894],[44.0575,32.9551],[44.1409,32.8763],[44.1296,32.7812],[44.2601,32.7496],[44.2204,32.6076],[44.3195,32.3437],[44.3206,32.2127],[44.3737,32.145],[44.4997,32.2163],[44.6299,32.1595],[44.758,32.1254],[44.9351,32.2691],[45.1984,32.3944],[45.0518,32.4976],[44.9699,32.6919],[44.7063,32.8073],[44.5648,32.8157],[44.5401,33.006],[44.5048,33.176]]]}},{"type":"Feature","properties":{"sourceId":"1159314239","regionId":"region.e3e8033c-c9d9-4e49-95cb-20833d29630e","countryId":"country.1y3qxos"},"geometry":{"type":"Polygon","coordinates":[[[45.1984,32.3944],[44.9351,32.2691],[44.758,32.1254],[44.6299,32.1595],[44.6133,32.0627],[44.5149,32.0083],[44.5417,31.6408],[44.4342,31.6087],[44.5346,31.4753],[44.7269,31.4075],[44.9783,31.2626],[44.9994,31.3667],[45.1101,31.6164],[45.048,31.6815],[45.292,31.7276],[45.7131,31.6372],[45.7858,31.6515],[45.7257,31.9478],[45.686,32.0689],[45.5381,32.1148],[45.3835,32.2613],[45.3919,32.3351],[45.1984,32.3944]]]}},{"type":"Feature","properties":{"sourceId":"1159314241","regionId":"region.95264fe5-92b7-47d7-8c2d-8391a9edf26b","countryId":"country.1y3qxos"},"geometry":{"type":"Polygon","coordinates":[[[45.7858,31.6515],[45.7734,31.5392],[45.8095,31.3356],[45.7432,31.1764],[45.706,30.9773],[45.7198,30.8376],[46.2106,30.7823],[46.3714,30.7335],[46.5283,30.5078],[46.5747,30.5141],[46.9011,30.5913],[47.0581,30.5689],[47.1221,30.8388],[47.1261,31.1298],[46.8459,31.1391],[46.7495,31.1981],[46.7395,31.297],[46.605,31.396],[46.5992,31.5416],[46.4326,31.6912],[46.4144,31.7788],[46.3109,31.9354],[46.3174,32.0054],[46.0576,32.0046],[45.826,31.9423],[45.7257,31.9478],[45.7858,31.6515]]]}},{"type":"Feature","properties":{"sourceId":"1159314229","regionId":"region.f0b689d3-5e33-4bf8-a9e1-05ce2f3df972","countryId":"country.1y3qxos"},"geometry":{"type":"Polygon","coordinates":[[[44.1296,32.7812],[43.9582,32.8258],[43.759,32.8168],[43.4927,32.6446],[43.2107,32.571],[43.2418,32.5101],[43.4774,32.3082],[43.6906,32.1685],[44.25,32.3066],[44.3195,32.3437],[44.2204,32.6076],[44.2601,32.7496],[44.1296,32.7812]]]}}]}