{"type":"FeatureCollection","features":[{"type":"Feature","properties":{"sourceId":"1159308871","regionId":"region.3628c428-dc25-4c55-a56f-a9613d409229","countryId":"country.aheews"},"geometry":{"type":"Polygon","coordinates":[[[-56.4818,1.9416],[-56.5798,2.0168],[-56.7052,2.0296],[-56.8844,2.3037],[-56.9302,2.4362],[-56.9941,2.5049],[-57.0272,2.6482],[-57.1746,2.819],[-57.2346,2.9704],[-57.206,3.0281],[-57.2749,3.1343],[-57.2836,3.3438],[-57.3668,3.3656],[-57.5651,3.3498],[-57.6582,3.3952],[-57.644,3.5167],[-57.8298,3.6624],[-57.8539,3.7667],[-57.9421,3.9054],[-58.0321,3.9877],[-58.0677,4.1511],[-57.965,4.282],[-57.9527,4.4097],[-57.8374,4.6509],[-57.9185,4.8298],[-57.8503,4.9228],[-57.7205,4.9898],[-57.4903,4.9914],[-57.3152,5.0261],[-57.289,5.171],[-57.2325,5.2606],[-57.3241,5.3386],[-57.2477,5.4849],[-57.1615,5.6389],[-57.1831,5.7314],[-57.1373,5.8821],[-57.1673,6.0851],[-57.2898,6.2347],[-57.4664,6.3379],[-57.5204,6.278],[-57.5245,6.208],[-57.6254,6.1659],[-57.5974,6.0801],[-57.6894,5.9805],[-57.683,5.875],[-57.6076,5.7738],[-57.6984,5.3473],[-57.8232,5.1436],[-57.8724,5.0148],[-57.9955,4.8707],[-58.066,4.654],[-58.2822,4.6343],[-58.3784,4.4475],[-58.4399,4.2512],[-58.3644,4.1388],[-58.2822,3.7526],[-58.1516,3.5344],[-58.1005,3.2044],[-57.9951,3.0537],[-57.9324,2.8783],[-58.0309,2.7066],[-58.0393,2.4745],[-58.108,2.3416],[-58.2671,1.8971],[-58.3957,1.6468],[-58.4853,1.5366],[-58.5018,1.4538],[-58.4135,1.472],[-58.3319,1.5934],[-58.0272,1.5169],[-57.991,1.6504],[-57.7908,1.7049],[-57.5612,1.709],[-57.4295,1.9003],[-57.3415,1.9688],[-57.2384,1.9485],[-57.1045,2.0215],[-57.0112,1.9186],[-56.8065,1.8736],[-56.6396,1.9369],[-56.4818,1.9416]]]}},{"type":"Feature","properties":{"sourceId":"1159308905","regionId":"region.ff8b8ab3-c488-45d3-a247-807a41bd2e11","countryId":"country.aheews"},"geometry":{"type":"Polygon","coordinates":[[[-60.7399,5.2021],[-60.4564,5.1747],[-60.3331,5.1938],[-60.2134,5.2672],[-60.1317,5.2434],[-60.0887,5.1554],[-59.9914,5.2429],[-59.9182,5.3742],[-59.5732,5.4052],[-59.5881,5.5363],[-59.4924,5.6112],[-59.3809,5.5854],[-59.2068,5.7048],[-59.1016,5.5706],[-58.8447,5.415],[-58.6756,5.4554],[-58.6171,5.6234],[-58.6112,5.8419],[-58.5732,5.9137],[-58.5736,6.2937],[-58.602,6.4166],[-58.617,6.4881],[-58.8271,6.556],[-58.8336,6.714],[-58.9279,6.7662],[-58.9649,6.8538],[-59.0763,6.8342],[-59.1733,6.8718],[-59.1544,6.9843],[-59.2686,7.0184],[-59.3307,6.951],[-59.4866,6.9953],[-59.5825,7.0888],[-59.8317,7.1924],[-59.9577,7.1018],[-60.0877,7.0681],[-60.3483,7.1527],[-60.3134,7.0402],[-60.421,6.9422],[-60.6207,6.8459],[-60.7215,6.7597],[-60.7935,6.7938],[-60.9338,6.7317],[-61.1298,6.7158],[-61.2048,6.5958],[-61.139,6.4248],[-61.1609,6.3424],[-61.1216,6.1867],[-61.2694,6.1072],[-61.3796,5.9053],[-60.7399,5.2021]]]}},{"type":"Feature","properties":{"sourceId":"1159308899","regionId":"region.cdfb2997-179b-47ed-8e2a-26407305fdcb","countryId":"country.aheews"},"geometry":{"type":"Polygon","coordinates":[[[-60.0887,5.1554],[-59.9831,5.0859],[-60.0345,4.7878],[-60.0877,4.6075],[-60.0556,4.4916],[-59.9433,4.5039],[-59.7963,4.4482],[-59.6871,4.3715],[-59.6183,4.3722],[-59.5247,4.4953],[-59.4353,4.4052],[-59.473,4.219],[-59.3847,4.1546],[-59.148,4.1558],[-59.0685,4.1864],[-58.9548,4.0166],[-58.8806,4.0006],[-58.5485,4.2885],[-58.4399,4.2512],[-58.3784,4.4475],[-58.2822,4.6343],[-58.5678,4.6212],[-58.6821,4.6709],[-58.7943,4.7659],[-58.8459,5.0128],[-58.8206,5.2291],[-58.8849,5.3267],[-58.8447,5.415],[-59.1016,5.5706],[-59.2068,5.7048],[-59.3809,5.5854],[-59.4924,5.6112],[-59.5881,5.5363],[-59.5732,5.4052],[-59.9182,5.3742],[-59.9914,5.2429],[-60.0887,5.1554]]]}},{"type":"Feature","properties":{"sourceId":"1159308901","regionId":"region.25c83f05-d6e7-4da0-af2f-57c006127dd7","countryId":"country.aheews"},"geometry":{"type":"Polygon","coordinates":[[[-59.6871,4.3715],[-59.7385,4.2028],[-59.6633,4.0797],[-59.5292,3.9319],[-59.6801,3.7017],[-59.8377,3.6093],[-59.8285,3.3834],[-59.9594,3.0665],[-60.0001,2.694],[-59.9068,2.4588],[-59.9031,2.3596],[-59.7417,2.2638],[-59.7645,1.9205],[-59.6825,1.7656],[-59.5727,1.7272],[-59.2421,1.3778],[-58.972,1.3123],[-58.8979,1.2178],[-58.7719,1.2013],[-58.6826,1.2825],[-58.5189,1.2673],[-58.4811,1.3339],[-58.5018,1.4538],[-58.4853,1.5366],[-58.3957,1.6468],[-58.2671,1.8971],[-58.108,2.3416],[-58.0393,2.4745],[-58.0309,2.7066],[-57.9324,2.8783],[-57.9951,3.0537],[-58.1005,3.2044],[-58.1516,3.5344],[-58.2822,3.7526],[-58.3644,4.1388],[-58.4399,4.2512],[-58.5485,4.2885],[-58.8806,4.0006],[-58.9548,4.0166],[-59.0685,4.1864],[-59.148,4.1558],[-59.3847,4.1546],[-59.473,4.219],[-59.4353,4.4052],[-59.5247,4.4953],[-59.6183,4.3722],[-59.6871,4.3715]]]}},{"type":"Feature","properties":{"sourceId":"1159308903","regionId":"region.bec70f3d-18be-4e33-90b7-f217004d265c","countryId":"country.aheews"},"geometry":{"type":"Polygon","coordinates":[[[-60.021,8.558],[-59.8156,8.2878],[-59.8485,8.2277],[-59.9933,8.1685],[-60.0195,8.0603],[-60.1292,8.0288],[-60.268,7.9213],[-60.3748,7.8236],[-60.5033,7.8209],[-60.5821,7.7363],[-60.6013,7.6339],[-60.7306,7.5254],[-60.6018,7.3301],[-60.6431,7.2209],[-60.548,7.1255],[-60.4753,7.1885],[-60.3483,7.1527],[-60.0877,7.0681],[-59.9577,7.1018],[-59.8317,7.1924],[-59.5825,7.0888],[-59.4866,6.9953],[-59.3307,6.951],[-59.2686,7.0184],[-59.1544,6.9843],[-59.1745,7.1109],[-59.1004,7.3943],[-59.0254,7.4981],[-58.8887,7.5558],[-58.7807,7.6651],[-59.0214,7.931],[-59.1652,8.0587],[-59.4541,8.2426],[-59.7558,8.4109],[-59.8094,8.3547],[-60.021,8.558]]]}},{"type":"Feature","properties":{"sourceId":"1159308895","regionId":"region.5eeaca8d-f234-4501-93e4-ab940089fdd6","countryId":"country.aheews"},"geometry":{"type":"MultiPolygon","coordinates":[[[[-58.5196,6.9776],[-58.6337,6.9086],[-58.6557,6.8373],[-58.8336,6.714],[-58.8271,6.556],[-58.617,6.4881],[-58.5977,6.8083],[-58.5196,6.9776]]],[[[-58.5812,6.4634],[-58.4013,6.2719],[-58.3551,6.1266],[-58.2747,6.1059],[-58.2697,6.3013],[-58.3034,6.4617],[-58.1777,6.6724],[-58.1737,6.8154],[-58.2738,6.8805],[-58.3984,6.8834],[-58.4615,6.8218],[-58.567,6.6367],[-58.5812,6.4634]]]]}},{"type":"Feature","properties":{"sourceId":"1159308907","regionId":"region.7d675e2a-9a65-4603-8a3f-7986b0bcafdb","countryId":"country.aheews"},"geometry":{"type":"Polygon","coordinates":[[[-58.7807,7.6651],[-58.8887,7.5558],[-59.0254,7.4981],[-59.1004,7.3943],[-59.1745,7.1109],[-59.1544,6.9843],[-59.1733,6.8718],[-59.0763,6.8342],[-58.9649,6.8538],[-58.9279,6.7662],[-58.8336,6.714],[-58.6557,6.8373],[-58.6337,6.9086],[-58.5196,6.9776],[-58.4674,7.1161],[-58.4642,7.3122],[-58.6632,7.5852],[-58.7807,7.6651]]]}},{"type":"Feature","properties":{"sourceId":"1159308889","regionId":"region.0d7f6c5f-c52d-4750-9f10-1089e59f4fe9","countryId":"country.aheews"},"geometry":{"type":"Polygon","coordinates":[[[-58.602,6.4166],[-58.5736,6.2937],[-58.5732,5.9137],[-58.6112,5.8419],[-58.6171,5.6234],[-58.6756,5.4554],[-58.8447,5.415],[-58.8849,5.3267],[-58.8206,5.2291],[-58.8459,5.0128],[-58.7943,4.7659],[-58.6821,4.6709],[-58.5678,4.6212],[-58.2822,4.6343],[-58.066,4.654],[-57.9955,4.8707],[-57.8724,5.0148],[-57.8232,5.1436],[-57.6984,5.3473],[-57.6076,5.7738],[-57.683,5.875],[-57.8437,5.841],[-57.9509,5.9295],[-58.115,5.9715],[-58.1252,6.0799],[-58.2747,6.1059],[-58.3551,6.1266],[-58.4013,6.2719],[-58.5812,6.4634],[-58.602,6.4166]]]}},{"type":"Feature","properties":{"sourceId":"1159308893","regionId":"region.4cdfe7c1-da18-4929-af6f-81774fdd4cba","countryId":"country.aheews"},"geometry":{"type":"Polygon","coordinates":[[[-58.1737,6.8154],[-58.1777,6.6724],[-58.3034,6.4617],[-58.2697,6.3013],[-58.2747,6.1059],[-58.1252,6.0799],[-58.1317,6.2073],[-58.0791,6.3444],[-57.9366,6.4516],[-57.8824,6.5431],[-57.9139,6.7128],[-58.0679,6.8217],[-58.1737,6.8154]]]}},{"type":"Feature","properties":{"sourceId":"1159308897","regionId":"region.e3683f3f-6b0b-440a-a6ef-7d45afd1b95c","countryId":"country.aheews"},"geometry":{"type":"Polygon","coordinates":[[[-57.9139,6.7128],[-57.8824,6.5431],[-57.9366,6.4516],[-58.0791,6.3444],[-58.1317,6.2073],[-58.1252,6.0799],[-58.115,5.9715],[-57.9509,5.9295],[-57.8437,5.841],[-57.683,5.875],[-57.6894,5.9805],[-57.5974,6.0801],[-57.6254,6.1659],[-57.5245,6.208],[-57.5204,6.278],[-57.5986,6.4272],[-57.9139,6.7128]]]}}]}