{"type":"FeatureCollection","features":[{"type":"Feature","properties":{"sourceId":"1159307943","regionId":"region.34c4a894-3c70-4381-82c1-19d831e85d9a","countryId":"country.133c7481-f1fb-49a2-a220-d585495c33c5"},"geometry":{"type":"Polygon","coordinates":[[[-157.191,1.7639],[-157.3821,1.9022],[-157.449,1.8002],[-157.2869,1.7502],[-157.191,1.7639]]]}},{"type":"Feature","properties":{"sourceId":"1159315611","regionId":"region.275ca0b9-54f2-4516-85ae-159088f1b5c6","countryId":"country.133c7481-f1fb-49a2-a220-d585495c33c5"},"geometry":{"type":"Polygon","coordinates":[[[-155.8993,-5.6168],[-155.9064,-5.6353],[-155.868,-5.6303],[-155.8796,-5.6095],[-155.8993,-5.6168]]]}}]}