{"type":"FeatureCollection","features":[{"type":"Feature","properties":{"sourceId":"1159310285","regionId":"region.b0fc0551-4afe-4d0e-a848-b045e63c2df5","countryId":"country.1rzzy0l"},"geometry":{"type":"Polygon","coordinates":[[[-77.4653,18.4761],[-77.4515,18.3761],[-77.4912,18.1961],[-77.2109,18.1861],[-76.9964,18.242],[-77.0703,18.4134],[-77.2726,18.4594],[-77.4653,18.4761]]]}},{"type":"Feature","properties":{"sourceId":"1159310275","regionId":"region.f2c76286-9c2d-46a3-baf0-51a117acdaaa","countryId":"country.1rzzy0l"},"geometry":{"type":"Polygon","coordinates":[[[-77.7355,18.5067],[-77.7814,18.2344],[-77.6403,18.2209],[-77.4912,18.1961],[-77.4515,18.3761],[-77.4653,18.4761],[-77.7355,18.5067]]]}},{"type":"Feature","properties":{"sourceId":"1159310273","regionId":"region.af7b94e0-86ea-4307-8f5a-fe3b987a68d5","countryId":"country.1rzzy0l"},"geometry":{"type":"Polygon","coordinates":[[[-78.0002,18.4467],[-77.9214,18.2961],[-77.8959,18.1956],[-77.7814,18.2344],[-77.7355,18.5067],[-77.9023,18.5188],[-78.0002,18.4467]]]}},{"type":"Feature","properties":{"sourceId":"1159310267","regionId":"region.badb9f42-c773-41bb-82a2-7912a09b8a7c","countryId":"country.1rzzy0l"},"geometry":{"type":"Polygon","coordinates":[[[-78.346,18.298],[-78.1002,18.3386],[-77.9214,18.2961],[-78.0002,18.4467],[-78.2306,18.4442],[-78.3319,18.3674],[-78.346,18.298]]]}},{"type":"Feature","properties":{"sourceId":"1159310279","regionId":"region.6e608825-4dd2-4d31-99cd-c6f5bb458e34","countryId":"country.1rzzy0l"},"geometry":{"type":"Polygon","coordinates":[[[-77.9646,18.0506],[-77.8959,18.1956],[-77.9214,18.2961],[-78.1002,18.3386],[-78.346,18.298],[-78.3407,18.2219],[-78.0752,18.1984],[-77.9646,18.0506]]]}},{"type":"Feature","properties":{"sourceId":"1159310271","regionId":"region.ee285d66-79b1-4322-ba3a-a4ed105bd526","countryId":"country.1rzzy0l"},"geometry":{"type":"Polygon","coordinates":[[[-77.5646,17.8571],[-77.6403,18.2209],[-77.7814,18.2344],[-77.8959,18.1956],[-77.9646,18.0506],[-77.8456,18.017],[-77.8397,17.9496],[-77.7239,17.8536],[-77.5646,17.8571]]]}},{"type":"Feature","properties":{"sourceId":"1159310269","regionId":"region.59032f26-692b-4501-b306-5b5cdd4f5e3c","countryId":"country.1rzzy0l"},"geometry":{"type":"Polygon","coordinates":[[[-77.3946,17.8534],[-77.3799,17.9688],[-77.4912,18.1961],[-77.6403,18.2209],[-77.5646,17.8571],[-77.3946,17.8534]]]}},{"type":"Feature","properties":{"sourceId":"1159310265","regionId":"region.3d3784f6-5263-4b47-b8be-c19d4904544e","countryId":"country.1rzzy0l"},"geometry":{"type":"Polygon","coordinates":[[[-77.1346,17.8851],[-77.2109,18.1861],[-77.4912,18.1961],[-77.3799,17.9688],[-77.3946,17.8534],[-77.2161,17.7167],[-77.1346,17.8851]]]}},{"type":"Feature","properties":{"sourceId":"1159310287","regionId":"region.b000c0fb-43ec-4103-9956-736df7100753","countryId":"country.1rzzy0l"},"geometry":{"type":"Polygon","coordinates":[[[-76.85,17.9923],[-76.8728,18.1483],[-76.9964,18.242],[-77.2109,18.1861],[-77.1346,17.8851],[-76.9553,17.8334],[-76.85,17.9923]]]}},{"type":"Feature","properties":{"sourceId":"1159310291","regionId":"region.a5a3902b-2d39-4e81-b5f7-cb3e2ec294e1","countryId":"country.1rzzy0l"},"geometry":{"type":"Polygon","coordinates":[[[-76.8125,17.9715],[-76.7812,17.9954],[-76.727,17.9538],[-76.6572,17.9297],[-76.6278,18.0736],[-76.7514,18.1386],[-76.8728,18.1483],[-76.85,17.9923],[-76.8125,17.9715]]]}},{"type":"Feature","properties":{"sourceId":"1159310281","regionId":"region.c58f2850-5150-405a-852f-ea760c9c37e7","countryId":"country.1rzzy0l"},"geometry":{"type":"Polygon","coordinates":[[[-76.727,17.9538],[-76.7812,17.9954],[-76.8125,17.9715],[-76.727,17.9538]]]}},{"type":"Feature","properties":{"sourceId":"1159310293","regionId":"region.38094d8f-3fbc-44b3-95e1-d17ec7e99e05","countryId":"country.1rzzy0l"},"geometry":{"type":"Polygon","coordinates":[[[-76.2568,17.9963],[-76.6278,18.0736],[-76.6572,17.9297],[-76.5235,17.8603],[-76.3074,17.8701],[-76.188,17.9155],[-76.2568,17.9963]]]}},{"type":"Feature","properties":{"sourceId":"1159310283","regionId":"region.d0c8385b-80fc-4d5f-97ed-f574152a68e2","countryId":"country.1rzzy0l"},"geometry":{"type":"Polygon","coordinates":[[[-76.7015,18.2668],[-76.7514,18.1386],[-76.6278,18.0736],[-76.2568,17.9963],[-76.3511,18.156],[-76.6304,18.2257],[-76.7015,18.2668]]]}},{"type":"Feature","properties":{"sourceId":"1159310289","regionId":"region.5383d251-25ad-490f-b440-9180198d22b1","countryId":"country.1rzzy0l"},"geometry":{"type":"Polygon","coordinates":[[[-77.0703,18.4134],[-76.9964,18.242],[-76.8728,18.1483],[-76.7514,18.1386],[-76.7015,18.2668],[-76.7646,18.273],[-76.8949,18.4093],[-77.0703,18.4134]]]}}]}