{"type":"FeatureCollection","features":[{"type":"Feature","properties":{"sourceId":"1159310123","regionId":"region.8c85cfeb-0a08-44ea-9092-5b2cbd416498","countryId":"country.18zkp24"},"geometry":{"type":"Polygon","coordinates":[[[-84.1577,10.7884],[-84.2084,10.861],[-84.6765,11.0704],[-84.885,10.9477],[-84.9314,10.9419],[-85.2365,11.0531],[-85.4375,10.9069],[-85.2827,10.7596],[-85.1796,10.7675],[-85.0167,10.6927],[-84.9747,10.6041],[-84.7933,10.4966],[-84.7866,10.3153],[-84.6839,10.2788],[-84.6494,10.0912],[-84.5935,10.0132],[-84.6744,9.8844],[-84.5711,9.8245],[-84.461,9.9173],[-84.3271,9.9115],[-84.2,9.9572],[-84.1658,10.1584],[-84.1577,10.7884]]]}},{"type":"Feature","properties":{"sourceId":"1159310125","regionId":"region.4faced05-ba8d-44db-a61e-d1e5789fc231","countryId":"country.18zkp24"},"geometry":{"type":"Polygon","coordinates":[[[-85.2365,11.0531],[-85.6312,11.1962],[-85.7017,11.0809],[-85.741,10.9396],[-85.8782,10.9464],[-85.9088,10.8864],[-85.6653,10.7788],[-85.6317,10.6212],[-85.8092,10.4945],[-85.8616,10.347],[-85.7786,10.0799],[-85.6386,9.9055],[-85.3324,9.8266],[-85.2293,9.7248],[-85.1757,9.8537],[-85.2899,9.9458],[-85.1674,10.0194],[-85.2401,10.1163],[-85.1756,10.1656],[-85.0686,10.1558],[-84.9369,10.1174],[-84.8738,10.1791],[-84.8658,10.3048],[-84.7866,10.3153],[-84.7933,10.4966],[-84.9747,10.6041],[-85.0167,10.6927],[-85.1796,10.7675],[-85.2827,10.7596],[-85.4375,10.9069],[-85.2365,11.0531]]]}},{"type":"Feature","properties":{"sourceId":"1159310119","regionId":"region.b63fb413-bb07-4771-bda6-71c584c5f550","countryId":"country.18zkp24"},"geometry":{"type":"Polygon","coordinates":[[[-82.9395,9.0706],[-82.9443,9.4372],[-82.8613,9.4841],[-82.829,9.6027],[-82.6189,9.4867],[-82.5736,9.5762],[-82.6359,9.6345],[-82.7723,9.661],[-83.0167,9.9631],[-83.2037,10.1293],[-83.4662,10.4945],[-83.6243,10.9029],[-83.6965,10.9366],[-83.663,10.807],[-83.7638,10.7737],[-83.7037,10.6898],[-83.827,10.6392],[-83.8429,10.3332],[-83.9136,10.199],[-83.9427,10.1362],[-83.5891,9.9772],[-83.339,9.9736],[-83.3359,9.821],[-83.5109,9.5664],[-83.4869,9.4676],[-83.4294,9.3537],[-83.3211,9.3659],[-83.1657,9.3168],[-83.0575,9.1639],[-82.9395,9.0706]]]}},{"type":"Feature","properties":{"sourceId":"1159308015","regionId":"region.413adf54-ee88-4c7c-b060-a6e2f0db0ab5","countryId":"country.18zkp24"},"geometry":{"type":"MultiPolygon","coordinates":[[[[-82.9395,9.0706],[-83.0575,9.1639],[-83.1657,9.3168],[-83.3211,9.3659],[-83.4294,9.3537],[-83.4998,9.2501],[-83.4713,9.1559],[-83.5148,9.0661],[-83.6562,9.1386],[-83.7332,9.2364],[-83.8209,9.2391],[-83.9088,9.402],[-84.0102,9.4414],[-84.1569,9.6163],[-84.3971,9.6265],[-84.5261,9.5693],[-84.5913,9.7429],[-84.5711,9.8245],[-84.6744,9.8844],[-84.5935,10.0132],[-84.6494,10.0912],[-84.6839,10.2788],[-84.7866,10.3153],[-84.8658,10.3048],[-84.8738,10.1791],[-84.9369,10.1174],[-85.0686,10.1558],[-84.8509,9.9669],[-84.7623,9.9757],[-84.6346,9.7834],[-84.6784,9.6926],[-84.6166,9.5781],[-84.5216,9.5193],[-84.2727,9.4816],[-84.1036,9.3773],[-83.9181,9.2947],[-83.7869,9.1992],[-83.6299,9.0353],[-83.5876,8.8354],[-83.63,8.7337],[-83.7399,8.6238],[-83.5756,8.445],[-83.2764,8.4016],[-83.2869,8.5172],[-83.4048,8.589],[-83.4817,8.7126],[-83.3837,8.7398],[-83.1434,8.5502],[-83.0996,8.4313],[-83.1509,8.3693],[-82.9685,8.2212],[-82.8976,8.0347],[-82.8864,8.1022],[-82.9437,8.2486],[-83.0532,8.3151],[-82.8704,8.4381],[-82.8498,8.6299],[-82.9242,8.7412],[-82.8669,8.8381],[-82.7202,8.9202],[-82.7491,8.9741],[-82.9395,9.0706]]],[[[-85.1674,10.0194],[-85.2899,9.9458],[-85.1757,9.8537],[-85.2293,9.7248],[-85.1458,9.6126],[-84.9596,9.7274],[-84.8646,9.8229],[-84.9596,9.9465],[-85.1674,10.0194]]]]}},{"type":"Feature","properties":{"sourceId":"1159310117","regionId":"region.4209a072-37d9-465e-beae-726bd34d398a","countryId":"country.18zkp24"},"geometry":{"type":"Polygon","coordinates":[[[-83.7638,10.7737],[-83.9333,10.7181],[-84.0227,10.7872],[-84.1577,10.7884],[-84.1658,10.1584],[-84.2,9.9572],[-84.028,9.982],[-84.0664,10.1534],[-83.9136,10.199],[-83.8429,10.3332],[-83.827,10.6392],[-83.7037,10.6898],[-83.7638,10.7737]]]}},{"type":"Feature","properties":{"sourceId":"1159310121","regionId":"region.b1e10bb2-c189-4394-a6fe-951e27962b22","countryId":"country.18zkp24"},"geometry":{"type":"Polygon","coordinates":[[[-83.9136,10.199],[-84.0664,10.1534],[-84.028,9.982],[-84.2,9.9572],[-84.3271,9.9115],[-84.461,9.9173],[-84.5711,9.8245],[-84.5913,9.7429],[-84.5261,9.5693],[-84.3971,9.6265],[-84.1569,9.6163],[-84.0102,9.4414],[-83.9088,9.402],[-83.8209,9.2391],[-83.7332,9.2364],[-83.6562,9.1386],[-83.5148,9.0661],[-83.4713,9.1559],[-83.4998,9.2501],[-83.4294,9.3537],[-83.4869,9.4676],[-83.6132,9.5435],[-83.8119,9.5988],[-83.9881,9.7677],[-84,9.9303],[-83.9052,9.9456],[-83.8724,10.0261],[-83.9427,10.1362],[-83.9136,10.199]]]}},{"type":"Feature","properties":{"sourceId":"1159310113","regionId":"region.36cbe922-9d7c-4b58-a1ae-734b1438e5c8","countryId":"country.18zkp24"},"geometry":{"type":"Polygon","coordinates":[[[-83.9427,10.1362],[-83.8724,10.0261],[-83.9052,9.9456],[-84,9.9303],[-83.9881,9.7677],[-83.8119,9.5988],[-83.6132,9.5435],[-83.4869,9.4676],[-83.5109,9.5664],[-83.3359,9.821],[-83.339,9.9736],[-83.5891,9.9772],[-83.9427,10.1362]]]}}]}