{"type":"FeatureCollection","features":[{"type":"Feature","properties":{"sourceId":"1159311473","regionId":"region.e41c5491-0caf-4ac8-87e9-8e0d2c2aa00e","countryId":"country.1k431t"},"geometry":{"type":"Polygon","coordinates":[[[47.5324,7.5659],[48.5,7.4099],[49.03,7.7099],[49.19,7.6999],[49.5,7.57],[49.6408,7.4091],[49.8193,7.7399],[49.8032,7.8269],[49.8421,7.9627],[50.0583,8.1303],[50.166,8.3334],[50.05,8.44],[49.93,8.4599],[49.84,8.33],[49.7799,8.5299],[49.68,8.5799],[49.4499,8.5899],[49.18,8.77],[49.11,8.8999],[49.08,9.14],[49.06,9.57],[48.9391,9.5627],[48.9391,9.4512],[48.3391,8.5421],[47.9792,7.9966],[47.5324,7.5659]]]}},{"type":"Feature","properties":{"sourceId":"1159311379","regionId":"region.0600d880-5196-4d35-b323-6de6b463147e","countryId":"country.1k431t"},"geometry":{"type":"Polygon","coordinates":[[[46.467,6.5383],[47.6,6.2799],[47.35,5.7499],[47.47,5.5699],[47.6099,5.1899],[47.5,4.49],[47.8406,4.3414],[48.0557,4.6129],[48.2024,4.9089],[48.448,5.2087],[48.5481,5.3751],[48.6467,5.48],[49.0361,6.1442],[49.0856,6.3074],[49.0747,6.4153],[49.2473,6.8106],[49.367,7.0257],[49.6408,7.4091],[49.5,7.57],[49.19,7.6999],[49.03,7.7099],[48.5,7.4099],[47.5324,7.5659],[47.0556,7.1061],[46.467,6.5383]]]}},{"type":"Feature","properties":{"sourceId":"1159311371","regionId":"region.56fce5c4-84ce-4aaa-834f-61cfa8ac34ce","countryId":"country.1k431t"},"geometry":{"type":"Polygon","coordinates":[[[45.5185,5.5406],[45.71,5.1099],[46.04,5.03],[46.23,5.0799],[46.21,4.94],[46.11,4.7399],[46.15,4.43],[46.4,4.2299],[46.39,3.8899],[47.0398,3.4693],[47.4893,3.9363],[47.578,4.0599],[47.8406,4.3414],[47.5,4.49],[47.6099,5.1899],[47.47,5.5699],[47.35,5.7499],[47.6,6.2799],[46.467,6.5383],[45.936,5.9967],[45.5185,5.5406]]]}},{"type":"Feature","properties":{"sourceId":"1159311373","regionId":"region.f1cbb5bd-d10d-4463-9fd8-2a886b9992cf","countryId":"country.1k431t"},"geometry":{"type":"Polygon","coordinates":[[[45.5185,5.5406],[44.9415,4.9115],[44.5968,4.9176],[44.68,4.41],[44.8,3.8599],[44.77,3.7],[44.7799,3.27],[45.0699,3.25],[45.2699,3.2],[45.94,3.25],[46.03,3.5199],[46.39,3.8899],[46.4,4.2299],[46.15,4.43],[46.11,4.7399],[46.21,4.94],[46.23,5.0799],[46.04,5.03],[45.71,5.1099],[45.5185,5.5406]]]}},{"type":"Feature","properties":{"sourceId":"1159311359","regionId":"region.ade5d7c9-16da-4d46-b1c9-6ff341495aaf","countryId":"country.1k431t"},"geometry":{"type":"Polygon","coordinates":[[[44.5968,4.9176],[43.969,4.954],[43.5285,4.8416],[43.1193,4.6477],[42.9604,4.5174],[42.8702,4.3282],[43.1399,3.8499],[43.12,3.67],[43.41,3.57],[43.58,3.61],[43.6799,3.72],[43.75,3.8499],[43.95,3.9199],[44.18,3.8499],[44.31,3.57],[44.31,3.3899],[44.28,3.34],[44.4099,3.26],[44.6599,3.25],[44.7799,3.27],[44.77,3.7],[44.8,3.8599],[44.68,4.41],[44.5968,4.9176]]]}},{"type":"Feature","properties":{"sourceId":"1159311363","regionId":"region.8f456267-b162-45da-a279-e463c9191769","countryId":"country.1k431t"},"geometry":{"type":"Polygon","coordinates":[[[41.885,3.9772],[41.3427,3.2011],[40.9654,2.8141],[40.9685,1.7472],[40.9685,1.2303],[41.4199,1.26],[41.64,1.9399],[42.4,1.95],[42.6,3.0699],[42.93,3.0399],[43.0999,3.0599],[43.12,3.67],[43.1399,3.8499],[42.8702,4.3282],[42.7898,4.2856],[42.2973,4.2017],[42.1353,4.2001],[41.9235,4.0706],[41.885,3.9772]]]}},{"type":"Feature","properties":{"sourceId":"1159308077","regionId":"region.d74aea44-d15b-48e0-b7be-661e3bd779b4","countryId":"country.1k431t"},"geometry":{"type":"Polygon","coordinates":[[[48.9391,9.5627],[49.06,9.57],[49.08,9.14],[49.11,8.8999],[49.18,8.77],[49.4499,8.5899],[49.68,8.5799],[49.7799,8.5299],[49.84,8.33],[49.93,8.4599],[50.05,8.44],[50.166,8.3334],[50.3226,8.5598],[50.422,8.8571],[50.6484,9.1104],[50.6768,9.2592],[50.7683,9.3193],[50.8403,9.4561],[50.8062,9.6245],[50.9004,10.0241],[50.8838,10.1013],[50.9274,10.3278],[51.0901,10.4073],[51.241,10.4256],[51.3674,10.3677],[51.3952,10.479],[51.2925,10.4801],[51.1917,10.549],[51.1382,10.6767],[51.1151,10.9934],[51.1744,11.1588],[51.0859,11.188],[51.0813,11.3415],[51.1209,11.5053],[51.2478,11.6524],[51.2927,11.8331],[51.0293,11.8851],[50.7979,11.9891],[50.5759,11.921],[50.5127,11.7712],[50.437,11.6906],[50.2683,11.5893],[50.0725,11.5087],[49.9344,11.5129],[49.8512,11.4649],[49.5768,11.46],[49.5217,11.3938],[49.2396,11.3003],[48.9391,11.2491],[48.9391,10.5749],[48.9391,9.5627]]]}},{"type":"Feature","properties":{"sourceId":"1159313359","regionId":"region.3988a82d-f59c-447a-8ccc-8a098f80ee25","countryId":"country.1k431t"},"geometry":{"type":"Polygon","coordinates":[[[41.5359,-1.6763],[41.5351,-1.6963],[41.6521,-1.5651],[41.8366,-1.2623],[41.842,-1.2249],[42.0809,-0.8629],[42.2503,-0.6856],[42.6478,-0.2289],[42.7703,-0.1293],[43.1849,0.3163],[42.7299,0.31],[42.63,0.72],[42.43,1.3199],[41.4199,1.26],[40.9685,1.2303],[40.9685,-0.0027],[40.9798,-0.8708],[41.5229,-1.5728],[41.5359,-1.6763]]]}},{"type":"Feature","properties":{"sourceId":"1159311365","regionId":"region.429c0ec0-be33-4f4a-82c9-e60036a50a88","countryId":"country.1k431t"},"geometry":{"type":"Polygon","coordinates":[[[43.5213,0.6723],[42.9799,1.46],[42.8999,1.52],[42.52,1.8799],[42.4,1.95],[41.64,1.9399],[41.4199,1.26],[42.43,1.3199],[42.63,0.72],[42.7299,0.31],[43.1849,0.3163],[43.5213,0.6723]]]}},{"type":"Feature","properties":{"sourceId":"1159311367","regionId":"region.d4670612-ac33-46d3-8216-4f09165264b9","countryId":"country.1k431t"},"geometry":{"type":"Polygon","coordinates":[[[45.2662,1.9873],[45.39,2.1499],[45.33,2.1799],[45.34,2.7199],[45.12,3.0399],[45.0699,3.25],[44.7799,3.27],[44.6599,3.25],[44.69,3.0499],[44.64,2.81],[44.6599,2.75],[44.6199,2.48],[44.65,2.2199],[43.8799,1.8799],[43.58,1.7599],[42.9799,1.46],[43.5213,0.6723],[43.7819,0.9216],[43.9326,1.0098],[44.1455,1.2296],[44.5501,1.5591],[45.0015,1.8664],[45.2662,1.9873]]]}},{"type":"Feature","properties":{"sourceId":"1159311369","regionId":"region.d6458634-bc91-4061-a9da-eeab4cc49e1d","countryId":"country.1k431t"},"geometry":{"type":"Polygon","coordinates":[[[45.6056,2.183],[45.39,2.1499],[45.2662,1.9873],[45.6056,2.183]]]}},{"type":"Feature","properties":{"sourceId":"1159311377","regionId":"region.320ee80c-0191-4ea4-aeb1-69dc826708af","countryId":"country.1k431t"},"geometry":{"type":"Polygon","coordinates":[[[47.0398,3.4693],[46.39,3.8899],[46.03,3.5199],[45.94,3.25],[45.2699,3.2],[45.0699,3.25],[45.12,3.0399],[45.34,2.7199],[45.33,2.1799],[45.39,2.1499],[45.6056,2.183],[46.027,2.4381],[46.2365,2.6676],[46.6257,3.0239],[46.8342,3.2325],[47.0398,3.4693]]]}},{"type":"Feature","properties":{"sourceId":"1159311361","regionId":"region.025096d5-9553-4b5f-80ea-8d6eb31d6906","countryId":"country.1k431t"},"geometry":{"type":"Polygon","coordinates":[[[44.6599,3.25],[44.4099,3.26],[44.28,3.34],[44.31,3.3899],[44.31,3.57],[44.18,3.8499],[43.95,3.9199],[43.75,3.8499],[43.6799,3.72],[43.58,3.61],[43.41,3.57],[43.12,3.67],[43.0999,3.0599],[42.93,3.0399],[42.6,3.0699],[42.4,1.95],[42.52,1.8799],[42.8999,1.52],[42.9799,1.46],[43.58,1.7599],[43.8799,1.8799],[44.65,2.2199],[44.6199,2.48],[44.6599,2.75],[44.64,2.81],[44.69,3.0499],[44.6599,3.25]]]}}]}