{"type":"FeatureCollection","features":[{"type":"Feature","properties":{"sourceId":"1159309731","regionId":"region.9ca95873-1dd2-4c9b-a364-356263d776a1","countryId":"country.t3667i"},"geometry":{"type":"Polygon","coordinates":[[[19.9821,-25.619],[19.9827,-26.8955],[19.9829,-27.5121],[19.9817,-28.4223],[19.5688,-28.5312],[19.4829,-28.6782],[19.2486,-28.7716],[19.2889,-28.871],[19.0817,-28.9594],[18.9545,-28.8667],[18.7457,-28.8399],[18.3976,-28.8989],[18.1665,-28.9019],[17.9133,-28.7813],[17.6071,-28.7557],[17.5829,-28.6802],[17.4036,-28.7043],[17.4206,-28.5934],[17.3282,-28.4561],[17.4021,-28.3678],[17.3457,-28.2276],[17.192,-28.2088],[17.19,-28.1168],[17.0978,-28.0312],[16.893,-28.0826],[16.8855,-28.162],[16.7644,-28.2832],[16.7693,-28.4426],[16.6731,-28.4598],[16.4871,-28.5729],[16.6004,-28.8575],[16.8088,-29.0783],[16.8849,-29.299],[16.9339,-29.3577],[17.0563,-29.6764],[17.1037,-29.8849],[17.1664,-30.0129],[17.282,-30.3478],[17.536,-30.7521],[17.5617,-30.8381],[17.7671,-31.1558],[17.8915,-30.9343],[18.024,-30.7751],[18.1569,-30.8217],[18.2472,-30.7828],[18.4106,-30.4999],[18.5608,-30.4707],[18.7352,-30.577],[18.8426,-30.6951],[18.9387,-30.724],[18.905,-31.0095],[18.9373,-31.1971],[18.9969,-31.2899],[19.0167,-31.4948],[19.0667,-31.5772],[19.0718,-31.7481],[19.0286,-31.8932],[19.2108,-31.9135],[19.3192,-32.0223],[19.4707,-32.0782],[19.4926,-32.232],[19.4251,-32.31],[19.4875,-32.4655],[19.4729,-32.5835],[19.5336,-32.6376],[19.6098,-32.4575],[19.8013,-32.3728],[19.9246,-32.3574],[20.1392,-32.1896],[20.2128,-32.2836],[20.0823,-32.4117],[20.1232,-32.5965],[20.2093,-32.7643],[20.4212,-32.9369],[20.5458,-32.9022],[20.7051,-32.9181],[20.7841,-32.8615],[20.8651,-32.6769],[21.1178,-32.6072],[21.1922,-32.4591],[21.3052,-32.3767],[21.4231,-32.3485],[21.5534,-32.2415],[21.7158,-32.2124],[21.8527,-32.243],[21.9714,-32.1958],[22.1012,-32.0574],[22.0888,-31.8931],[22.1444,-31.8542],[22.2915,-31.5702],[22.4774,-31.653],[22.6055,-31.7766],[22.7564,-31.8339],[23.0265,-31.8865],[23.0698,-31.9765],[23.2927,-31.7509],[23.4009,-31.6813],[23.6989,-31.6674],[23.8632,-31.7998],[23.9631,-31.7268],[24.147,-31.7899],[24.1543,-31.758],[24.4996,-31.7048],[24.5587,-31.4018],[24.7652,-31.3891],[24.968,-31.2839],[25.2151,-31.2016],[25.3501,-31.2277],[25.4455,-31.0952],[25.522,-30.8019],[25.4675,-30.6131],[25.1849,-30.4557],[24.9069,-30.2012],[24.7845,-29.9882],[24.6575,-29.8956],[24.4091,-29.7645],[24.3408,-29.649],[24.8743,-28.6499],[24.8451,-28.5194],[25.0135,-28.0682],[24.9324,-28.0966],[24.842,-27.906],[25.0267,-27.7077],[24.6713,-27.6717],[24.6913,-27.8264],[24.6113,-28.0001],[24.5197,-28.0996],[24.3626,-27.8989],[24.4452,-27.7828],[24.4075,-27.6844],[24.1124,-27.7427],[24.1156,-27.6283],[24.0434,-27.5852],[24.0362,-27.4747],[24.0849,-27.3589],[23.8943,-27.2577],[24.0235,-27.0161],[23.988,-26.9125],[23.8458,-26.8865],[23.4937,-26.7366],[23.5809,-26.6153],[23.4581,-26.5286],[23.2707,-26.4795],[23.2836,-26.3435],[23.2222,-26.2682],[23.3741,-26.0158],[23.0995,-25.9868],[23.0575,-26.1],[22.9153,-26.1551],[22.8507,-26.3985],[22.702,-26.41],[22.7052,-26.1297],[22.6209,-26.1115],[22.5451,-26.2074],[22.4288,-26.2265],[22.2573,-26.3409],[22.0577,-26.6176],[21.7675,-26.7043],[21.7734,-26.7868],[21.6872,-26.8552],[21.3808,-26.824],[21.1225,-26.8653],[20.8519,-26.8065],[20.6935,-26.889],[20.6089,-26.6861],[20.6225,-26.4275],[20.8414,-26.1313],[20.8039,-26.0713],[20.7941,-25.8939],[20.6433,-25.6132],[20.6634,-25.5647],[20.5422,-25.3822],[20.3649,-25.0332],[20.1189,-24.8874],[19.9814,-24.7525],[19.9821,-25.619]]]}},{"type":"Feature","properties":{"sourceId":"1159309747","regionId":"region.4c43dcce-b342-4f0f-981b-a88b30ce6148","countryId":"country.t3667i"},"geometry":{"type":"Polygon","coordinates":[[[28.859,-28.773],[28.9808,-28.909],[29.2084,-29.0689],[29.3118,-29.0898],[29.4359,-29.3424],[29.3882,-29.4378],[29.2752,-29.5283],[29.2786,-29.6136],[29.1613,-29.6669],[29.1136,-29.7529],[29.1442,-29.9197],[29.0158,-29.9786],[29.1156,-30.0781],[29.1016,-30.1738],[29.175,-30.2856],[29.2977,-30.3178],[29.2003,-30.4364],[29.163,-30.5548],[29.3202,-30.6553],[29.4761,-30.6202],[29.6024,-30.6883],[29.7939,-30.7088],[29.9742,-30.8318],[30.0636,-30.859],[30.196,-31.0779],[30.3923,-30.8471],[30.9199,-30.0185],[31.0238,-29.9358],[31.0158,-29.8681],[31.1869,-29.5603],[31.4885,-29.2096],[31.7521,-28.9662],[32.0121,-28.8665],[32.3794,-28.5528],[32.422,-28.3819],[32.544,-28.1901],[32.5915,-27.8808],[32.6765,-27.5207],[32.8394,-27.1236],[32.8931,-26.8461],[32.3522,-26.8603],[32.1139,-26.84],[31.9922,-26.8383],[31.9442,-27.1623],[31.9683,-27.3163],[31.5265,-27.3109],[31.2447,-27.2326],[31.1511,-27.324],[30.9801,-27.3547],[30.6619,-27.2767],[30.5749,-27.3108],[30.4225,-27.2752],[30.281,-27.302],[30.1334,-27.3792],[29.9292,-27.3644],[29.7712,-27.4523],[29.7162,-27.5177],[29.7664,-27.6053],[29.6826,-27.668],[29.7219,-27.811],[29.6241,-28.0481],[29.6753,-28.121],[29.5889,-28.2502],[29.4884,-28.2682],[29.4073,-28.3569],[29.2348,-28.4396],[29.1889,-28.5355],[28.973,-28.5748],[28.859,-28.773]]]}},{"type":"Feature","properties":{"sourceId":"1159309739","regionId":"region.5e081610-92cf-4de8-b002-55534979c1d7","countryId":"country.t3667i"},"geometry":{"type":"Polygon","coordinates":[[[28.859,-28.773],[28.973,-28.5748],[29.1889,-28.5355],[29.2348,-28.4396],[29.4073,-28.3569],[29.4884,-28.2682],[29.5889,-28.2502],[29.6753,-28.121],[29.6241,-28.0481],[29.7219,-27.811],[29.6826,-27.668],[29.7664,-27.6053],[29.7162,-27.5177],[29.7712,-27.4523],[29.6153,-27.5018],[29.4423,-27.2532],[29.1777,-27.1381],[29.0574,-27.0303],[28.9586,-26.995],[28.8227,-27.0391],[28.4264,-26.9826],[28.2558,-26.8936],[28.044,-26.818],[27.9697,-26.6713],[27.8823,-26.7243],[27.6435,-26.7641],[27.5825,-26.7376],[27.4803,-26.874],[27.3075,-26.8624],[27.178,-26.9244],[26.9142,-26.8899],[26.6449,-26.9993],[26.4897,-27.1386],[26.4501,-27.3529],[26.2496,-27.426],[26.2286,-27.4892],[25.9998,-27.6392],[25.7987,-27.5807],[25.6404,-27.6732],[25.4214,-27.7104],[25.2406,-27.8229],[25.0135,-28.0682],[24.8451,-28.5194],[24.8743,-28.6499],[24.3408,-29.649],[24.4091,-29.7645],[24.6575,-29.8956],[24.7845,-29.9882],[24.9069,-30.2012],[25.1849,-30.4557],[25.4675,-30.6131],[25.6112,-30.6063],[25.7254,-30.6806],[26.0599,-30.5138],[26.2047,-30.5255],[26.3114,-30.5815],[26.4416,-30.5596],[26.5346,-30.6511],[26.7027,-30.6751],[26.9218,-30.6553],[27.0104,-30.5329],[27.2978,-30.4882],[27.3777,-30.3123],[27.2659,-30.0333],[27.1714,-29.9215],[27.0149,-29.6256],[27.3003,-29.5201],[27.5107,-29.2708],[27.6345,-29.091],[27.7474,-28.9086],[27.8613,-28.9154],[28.0187,-28.8568],[28.155,-28.7023],[28.2181,-28.7007],[28.3172,-28.7001],[28.4034,-28.6189],[28.6666,-28.5972],[28.6995,-28.6885],[28.8279,-28.7595],[28.859,-28.773]]]}},{"type":"Feature","properties":{"sourceId":"1159311157","regionId":"region.0ed3c371-93eb-448f-91e5-5a68600ab5e6","countryId":"country.t3667i"},"geometry":{"type":"Polygon","coordinates":[[[29.0158,-29.9786],[28.86,-30.0664],[28.6397,-30.1315],[28.5243,-30.1167],[28.3556,-30.1732],[28.216,-30.2674],[28.2182,-30.3874],[28.0547,-30.6497],[27.7436,-30.6003],[27.5986,-30.4903],[27.5334,-30.3934],[27.3777,-30.3123],[27.2978,-30.4882],[27.0104,-30.5329],[26.9218,-30.6553],[26.7027,-30.6751],[26.5346,-30.6511],[26.4416,-30.5596],[26.3114,-30.5815],[26.2047,-30.5255],[26.0599,-30.5138],[25.7254,-30.6806],[25.6112,-30.6063],[25.4675,-30.6131],[25.522,-30.8019],[25.4455,-31.0952],[25.3501,-31.2277],[25.2151,-31.2016],[24.968,-31.2839],[24.7652,-31.3891],[24.5587,-31.4018],[24.4996,-31.7048],[24.1543,-31.758],[24.147,-31.7899],[24.1816,-31.9516],[24.0901,-32.1248],[23.8854,-32.228],[23.7571,-32.1959],[23.6016,-32.3247],[23.3254,-32.3546],[23.2425,-32.4245],[23.2782,-32.6675],[23.3704,-32.7682],[23.195,-32.808],[23.0007,-32.8892],[22.9162,-33.0141],[22.9157,-33.0956],[22.7452,-33.3279],[22.7495,-33.4016],[23.2616,-33.3989],[23.4374,-33.4326],[23.5634,-33.496],[23.6182,-33.644],[23.4373,-33.712],[23.6868,-33.872],[23.6355,-33.9797],[23.9842,-34.0411],[24.1631,-34.0548],[24.584,-34.1783],[24.8579,-34.1869],[24.8411,-34.1325],[24.9529,-33.9851],[25.1011,-33.9605],[25.2775,-33.9811],[25.4105,-34.033],[25.5982,-34.0485],[25.679,-33.7952],[25.9553,-33.7109],[26.2866,-33.7664],[26.5151,-33.7553],[27.1431,-33.4794],[27.3802,-33.3574],[27.7327,-33.1088],[27.8971,-33.04],[28.2108,-32.7747],[28.5486,-32.5624],[28.6172,-32.4782],[28.8704,-32.287],[29.0964,-32.0536],[29.1476,-31.9698],[29.3919,-31.7355],[29.542,-31.6359],[29.7845,-31.4347],[30.0099,-31.2922],[30.196,-31.0779],[30.0636,-30.859],[29.9742,-30.8318],[29.7939,-30.7088],[29.6024,-30.6883],[29.4761,-30.6202],[29.3202,-30.6553],[29.163,-30.5548],[29.2003,-30.4364],[29.2977,-30.3178],[29.175,-30.2856],[29.1016,-30.1738],[29.1156,-30.0781],[29.0158,-29.9786]]]}},{"type":"Feature","properties":{"sourceId":"1159309745","regionId":"region.6a788879-9827-45b0-b9c6-e306c0ef4693","countryId":"country.t3667i"},"geometry":{"type":"Polygon","coordinates":[[[29.3501,-22.1867],[29.2221,-22.1822],[29.0478,-22.2203],[28.9602,-22.3102],[28.9125,-22.4537],[28.6239,-22.5628],[28.3386,-22.5846],[28.1962,-22.6716],[28.1625,-22.759],[28.0472,-22.8369],[28.0218,-22.9266],[27.9375,-22.9638],[27.8955,-23.0795],[27.6984,-23.1935],[27.608,-23.2167],[27.5489,-23.3608],[27.35,-23.3915],[27.2781,-23.4636],[27.1274,-23.525],[27.0042,-23.6458],[26.9645,-23.7471],[26.8497,-24.2481],[26.714,-24.3159],[26.5312,-24.4587],[26.404,-24.6328],[26.4554,-24.8123],[26.768,-24.8662],[26.9443,-24.7895],[27.0554,-24.8497],[27.1825,-24.9909],[27.3665,-25.059],[27.4879,-25.0557],[27.6676,-24.9708],[28.0982,-25.0094],[28.1275,-25.2002],[28.2309,-25.2258],[28.2937,-25.3171],[28.4332,-25.3221],[28.6631,-25.2475],[28.6057,-25.1579],[28.6294,-25.0515],[28.7316,-24.9428],[28.8976,-24.9564],[29.043,-25.1422],[29.0381,-25.2694],[29.1658,-25.3045],[29.3532,-25.4037],[29.5277,-25.411],[29.6714,-25.3702],[29.77,-25.395],[30.0042,-25.3322],[30.0075,-25.1495],[30.1238,-25.1232],[30.1852,-25.0223],[30.1836,-24.8553],[30.35,-24.8772],[30.421,-24.8509],[30.4921,-24.9476],[30.6585,-24.8186],[30.7199,-24.7042],[30.7651,-24.4647],[30.9752,-24.5816],[31.2207,-24.5566],[31.2595,-24.5081],[31.1626,-24.3787],[31.0592,-24.3213],[31.0511,-24.1902],[31.203,-24.0353],[31.2485,-24.1007],[31.4456,-24.0227],[31.7123,-24.05],[31.8565,-23.963],[31.7412,-23.8368],[31.6423,-23.5879],[31.5215,-23.4156],[31.5363,-23.157],[31.2791,-22.4153],[31.2889,-22.3973],[31.1633,-22.3226],[31.097,-22.3349],[30.8379,-22.2823],[30.6324,-22.3307],[30.5074,-22.3096],[30.3008,-22.337],[30.1351,-22.2936],[29.7589,-22.1309],[29.6614,-22.1265],[29.3501,-22.1867]]]}},{"type":"Feature","properties":{"sourceId":"1159309735","regionId":"region.d250cfce-05e9-48ff-86fe-b98b9727ce49","countryId":"country.t3667i"},"geometry":{"type":"Polygon","coordinates":[[[26.404,-24.6328],[26.1659,-24.6608],[25.8684,-24.7482],[25.8767,-24.886],[25.8352,-25.0164],[25.6955,-25.31],[25.6528,-25.4633],[25.5873,-25.6195],[25.3865,-25.7435],[25.1778,-25.7633],[25.0517,-25.7379],[24.7986,-25.8292],[24.665,-25.8233],[24.5009,-25.7578],[24.2967,-25.7235],[24.2277,-25.649],[23.9248,-25.6292],[23.7427,-25.47],[23.6868,-25.4544],[23.4593,-25.2822],[23.2657,-25.264],[23.0717,-25.326],[23.007,-25.3108],[22.8446,-25.4811],[22.8044,-25.6872],[22.7464,-25.7553],[22.7194,-25.9843],[22.6209,-26.1115],[22.7052,-26.1297],[22.702,-26.41],[22.8507,-26.3985],[22.9153,-26.1551],[23.0575,-26.1],[23.0995,-25.9868],[23.3741,-26.0158],[23.2222,-26.2682],[23.2836,-26.3435],[23.2707,-26.4795],[23.4581,-26.5286],[23.5809,-26.6153],[23.4937,-26.7366],[23.8458,-26.8865],[23.988,-26.9125],[24.0235,-27.0161],[23.8943,-27.2577],[24.0849,-27.3589],[24.0362,-27.4747],[24.0434,-27.5852],[24.1156,-27.6283],[24.1124,-27.7427],[24.4075,-27.6844],[24.4452,-27.7828],[24.3626,-27.8989],[24.5197,-28.0996],[24.6113,-28.0001],[24.6913,-27.8264],[24.6713,-27.6717],[25.0267,-27.7077],[24.842,-27.906],[24.9324,-28.0966],[25.0135,-28.0682],[25.2406,-27.8229],[25.4214,-27.7104],[25.6404,-27.6732],[25.7987,-27.5807],[25.9998,-27.6392],[26.2286,-27.4892],[26.2496,-27.426],[26.4501,-27.3529],[26.4897,-27.1386],[26.6449,-26.9993],[26.9142,-26.8899],[27.178,-26.9244],[27.3075,-26.8624],[27.4803,-26.874],[27.5825,-26.7376],[27.5686,-26.65],[27.3348,-26.6157],[27.2434,-26.64],[27.1913,-26.3819],[27.3244,-26.2865],[27.2905,-26.146],[27.3946,-26.1229],[27.4593,-25.8853],[27.6407,-25.8037],[27.7276,-25.8784],[27.9428,-25.8068],[27.9638,-25.5926],[28.0333,-25.4716],[28.0042,-25.3607],[28.2352,-25.3534],[28.2937,-25.3171],[28.2309,-25.2258],[28.1275,-25.2002],[28.0982,-25.0094],[27.6676,-24.9708],[27.4879,-25.0557],[27.3665,-25.059],[27.1825,-24.9909],[27.0554,-24.8497],[26.9443,-24.7895],[26.768,-24.8662],[26.4554,-24.8123],[26.404,-24.6328]]]}},{"type":"Feature","properties":{"sourceId":"1159309743","regionId":"region.5c745186-5b7f-4769-8916-46f09f1f42c9","countryId":"country.t3667i"},"geometry":{"type":"Polygon","coordinates":[[[31.9263,-24.2767],[31.8695,-24.1638],[31.8565,-23.963],[31.7123,-24.05],[31.4456,-24.0227],[31.2485,-24.1007],[31.203,-24.0353],[31.0511,-24.1902],[31.0592,-24.3213],[31.1626,-24.3787],[31.2595,-24.5081],[31.2207,-24.5566],[30.9752,-24.5816],[30.7651,-24.4647],[30.7199,-24.7042],[30.6585,-24.8186],[30.4921,-24.9476],[30.421,-24.8509],[30.35,-24.8772],[30.1836,-24.8553],[30.1852,-25.0223],[30.1238,-25.1232],[30.0075,-25.1495],[30.0042,-25.3322],[29.77,-25.395],[29.6714,-25.3702],[29.5277,-25.411],[29.3532,-25.4037],[29.1658,-25.3045],[29.0381,-25.2694],[29.043,-25.1422],[28.8976,-24.9564],[28.7316,-24.9428],[28.6294,-25.0515],[28.6057,-25.1579],[28.7518,-25.1149],[28.7829,-25.2278],[28.6294,-25.3329],[28.6278,-25.527],[28.6698,-25.6639],[28.7635,-25.7062],[28.9202,-25.5518],[28.976,-25.6737],[28.9412,-25.8698],[28.8701,-26.0049],[28.6343,-25.973],[28.501,-26.08],[28.5325,-26.2211],[28.7183,-26.3384],[28.8071,-26.308],[28.7667,-26.5163],[28.644,-26.5077],[28.4016,-26.6594],[28.4081,-26.7589],[28.2558,-26.8936],[28.4264,-26.9826],[28.8227,-27.0391],[28.9586,-26.995],[29.0574,-27.0303],[29.1777,-27.1381],[29.4423,-27.2532],[29.6153,-27.5018],[29.7712,-27.4523],[29.9292,-27.3644],[30.1334,-27.3792],[30.281,-27.302],[30.4225,-27.2752],[30.5749,-27.3108],[30.6619,-27.2767],[30.9801,-27.3547],[31.1511,-27.324],[31.2447,-27.2326],[31.157,-27.2056],[30.9761,-27.035],[30.961,-26.9112],[30.8853,-26.7856],[30.8024,-26.8089],[30.7829,-26.4724],[30.8973,-26.2917],[31.0378,-26.1001],[31.1198,-25.91],[31.3093,-25.7574],[31.4269,-25.7436],[31.747,-25.9308],[31.8346,-25.9821],[31.9492,-25.9581],[31.9119,-25.7853],[31.9916,-25.6502],[31.9664,-25.4797],[31.9887,-25.3726],[31.9866,-24.4231],[31.9263,-24.2767]]]}},{"type":"Feature","properties":{"sourceId":"1159309733","regionId":"region.906f52c6-e270-44dc-94a2-f1abe0c50f78","countryId":"country.t3667i"},"geometry":{"type":"MultiPolygon","coordinates":[[[[23.6355,-33.9797],[23.6868,-33.872],[23.4373,-33.712],[23.6182,-33.644],[23.5634,-33.496],[23.4374,-33.4326],[23.2616,-33.3989],[22.7495,-33.4016],[22.7452,-33.3279],[22.9157,-33.0956],[22.9162,-33.0141],[23.0007,-32.8892],[23.195,-32.808],[23.3704,-32.7682],[23.2782,-32.6675],[23.2425,-32.4245],[23.3254,-32.3546],[23.6016,-32.3247],[23.7571,-32.1959],[23.8854,-32.228],[24.0901,-32.1248],[24.1816,-31.9516],[24.147,-31.7899],[23.9631,-31.7268],[23.8632,-31.7998],[23.6989,-31.6674],[23.4009,-31.6813],[23.2927,-31.7509],[23.0698,-31.9765],[23.0265,-31.8865],[22.7564,-31.8339],[22.6055,-31.7766],[22.4774,-31.653],[22.2915,-31.5702],[22.1444,-31.8542],[22.0888,-31.8931],[22.1012,-32.0574],[21.9714,-32.1958],[21.8527,-32.243],[21.7158,-32.2124],[21.5534,-32.2415],[21.4231,-32.3485],[21.3052,-32.3767],[21.1922,-32.4591],[21.1178,-32.6072],[20.8651,-32.6769],[20.7841,-32.8615],[20.7051,-32.9181],[20.5458,-32.9022],[20.4212,-32.9369],[20.2093,-32.7643],[20.1232,-32.5965],[20.0823,-32.4117],[20.2128,-32.2836],[20.1392,-32.1896],[19.9246,-32.3574],[19.8013,-32.3728],[19.6098,-32.4575],[19.5336,-32.6376],[19.4729,-32.5835],[19.4875,-32.4655],[19.4251,-32.31],[19.4926,-32.232],[19.4707,-32.0782],[19.3192,-32.0223],[19.2108,-31.9135],[19.0286,-31.8932],[19.0718,-31.7481],[19.0667,-31.5772],[19.0167,-31.4948],[18.9969,-31.2899],[18.9373,-31.1971],[18.905,-31.0095],[18.9387,-30.724],[18.8426,-30.6951],[18.7352,-30.577],[18.5608,-30.4707],[18.4106,-30.4999],[18.2472,-30.7828],[18.1569,-30.8217],[18.024,-30.7751],[17.8915,-30.9343],[17.7671,-31.1558],[17.8937,-31.3448],[18.1729,-31.6633],[18.2769,-31.8927],[18.3494,-32.2603],[18.3154,-32.3437],[18.3342,-32.4913],[18.2731,-32.6476],[18.0806,-32.7813],[17.9675,-32.7035],[17.8524,-32.8297],[17.9128,-33.0475],[18.0752,-33.2022],[18.1462,-33.3559],[18.3074,-33.4793],[18.3203,-33.5675],[18.4318,-33.6967],[18.4754,-33.8998],[18.3721,-33.9251],[18.3148,-34.0291],[18.4063,-34.3019],[18.4766,-34.245],[18.4417,-34.1442],[18.555,-34.0738],[18.7407,-34.0774],[18.8582,-34.1503],[18.8083,-34.3647],[19.0884,-34.3427],[19.1193,-34.4006],[19.3044,-34.4179],[19.3987,-34.6018],[19.6424,-34.7721],[19.8584,-34.7497],[19.9535,-34.8087],[20.2117,-34.6721],[20.5244,-34.4543],[20.6643,-34.4384],[20.9613,-34.3561],[21.2625,-34.4216],[21.5159,-34.3522],[21.7026,-34.3906],[21.8945,-34.336],[21.9217,-34.2467],[22.1141,-34.1939],[22.1235,-34.1205],[22.2752,-34.0577],[22.4105,-34.0656],[22.6299,-33.9958],[22.936,-34.0827],[23.4084,-34.11],[23.4276,-34.0124],[23.6355,-33.9797]]],[[[37.6624,-46.8285],[37.6188,-46.9544],[37.8364,-46.9587],[37.8211,-46.8442],[37.6624,-46.8285]]]]}},{"type":"Feature","properties":{"sourceId":"1159309741","regionId":"region.27f8455a-1894-40f6-a2f5-9b3e7030bcf1","countryId":"country.t3667i"},"geometry":{"type":"Polygon","coordinates":[[[27.5825,-26.7376],[27.6435,-26.7641],[27.8823,-26.7243],[27.9697,-26.6713],[28.044,-26.818],[28.2558,-26.8936],[28.4081,-26.7589],[28.4016,-26.6594],[28.644,-26.5077],[28.7667,-26.5163],[28.8071,-26.308],[28.7183,-26.3384],[28.5325,-26.2211],[28.501,-26.08],[28.6343,-25.973],[28.8701,-26.0049],[28.9412,-25.8698],[28.976,-25.6737],[28.9202,-25.5518],[28.7635,-25.7062],[28.6698,-25.6639],[28.6278,-25.527],[28.6294,-25.3329],[28.7829,-25.2278],[28.7518,-25.1149],[28.6057,-25.1579],[28.6631,-25.2475],[28.4332,-25.3221],[28.2937,-25.3171],[28.2352,-25.3534],[28.0042,-25.3607],[28.0333,-25.4716],[27.9638,-25.5926],[27.9428,-25.8068],[27.7276,-25.8784],[27.6407,-25.8037],[27.4593,-25.8853],[27.3946,-26.1229],[27.2905,-26.146],[27.3244,-26.2865],[27.1913,-26.3819],[27.2434,-26.64],[27.3348,-26.6157],[27.5686,-26.65],[27.5825,-26.7376]]]}}]}