{"type":"FeatureCollection","features":[{"type":"Feature","properties":{"sourceId":"1159308961","regionId":"region.9e39a3c4-575d-44e0-ae0a-45e73ed1e373","countryId":"country.14nagci"},"geometry":{"type":"Polygon","coordinates":[[[22.8611,10.9192],[22.7199,10.9647],[22.4605,11.0008],[22.3647,10.9542],[22.253,10.9153],[22.1764,10.8162],[22.0486,10.837],[22.0039,10.7433],[21.8636,10.6679],[21.7226,10.6367],[21.7055,10.5718],[21.7511,10.4118],[21.6563,10.2337],[21.4854,10.1643],[21.3743,9.9731],[21.2569,9.9757],[21.0931,9.7743],[21.0174,9.7436],[20.9961,9.6483],[20.8139,9.4188],[20.8906,9.3805],[21.1056,9.5513],[21.253,9.583],[21.3562,9.6914],[21.4948,9.7647],[21.5204,9.6099],[21.6171,9.5889],[21.769,9.4106],[21.8606,9.1772],[22.0868,8.9686],[22.1139,8.8024],[22.2122,8.7055],[22.3591,8.6733],[22.3912,8.5917],[22.5273,8.5927],[22.6471,8.6852],[23.0729,8.7856],[23.0819,8.8706],[23.1829,8.9681],[23.285,8.9989],[23.3481,9.1678],[23.4628,9.1537],[23.5495,9.1853],[23.6322,9.2776],[23.6469,9.4184],[23.6061,9.5372],[23.674,9.6903],[23.624,9.9078],[23.2912,10.4397],[23.0056,10.6868],[22.8611,10.9192]]]}},{"type":"Feature","properties":{"sourceId":"1159308969","regionId":"region.ceb666b2-2572-4373-8838-67ed34709d58","countryId":"country.14nagci"},"geometry":{"type":"Polygon","coordinates":[[[23.4628,9.1537],[23.3481,9.1678],[23.285,8.9989],[23.1829,8.9681],[23.0819,8.8706],[23.0729,8.7856],[22.6471,8.6852],[22.5273,8.5927],[22.3912,8.5917],[22.3494,8.567],[22.0049,8.605],[21.9591,8.5001],[21.9976,8.3819],[21.9898,8.233],[21.8804,8.1991],[21.7414,8.3294],[21.5262,8.2561],[21.3926,8.1634],[21.4194,8.0178],[21.1533,7.9853],[21.105,7.8383],[21.1309,7.7034],[21.2456,7.6084],[21.3856,7.5442],[21.4472,7.3053],[21.582,7.2727],[21.6059,7.0025],[21.6526,6.8812],[21.6098,6.7721],[21.7097,6.5883],[21.7928,6.5558],[21.808,6.3625],[21.7442,6.2296],[21.8224,6.0566],[21.8929,6.0203],[21.9398,5.9106],[21.9022,5.6819],[21.7721,5.6758],[21.6628,5.5492],[21.901,5.4745],[22.0859,5.6427],[22.0517,5.7082],[22.1074,5.9796],[22.2347,6.0581],[22.4005,6.0471],[22.4946,6.1275],[22.5601,6.2447],[22.8093,6.2718],[22.9052,6.1853],[23.2417,6.0952],[23.3151,6.2046],[23.3964,6.2153],[23.4521,6.3016],[24.2609,6.7531],[24.3281,6.8435],[24.3219,6.9326],[24.5401,7.0074],[24.5601,7.2052],[24.5151,7.2546],[24.5347,7.3768],[24.5944,7.4846],[24.4968,7.6341],[24.453,7.9331],[24.4731,8.0737],[24.4068,8.1656],[24.2632,8.2685],[24.1216,8.3723],[24.1932,8.5324],[24.2437,8.5702],[24.1703,8.6893],[23.9223,8.7134],[23.7213,8.702],[23.6134,8.7322],[23.5053,8.7107],[23.4823,8.7834],[23.5675,8.9748],[23.4514,8.9742],[23.4628,9.1537]]]}},{"type":"Feature","properties":{"sourceId":"1159308971","regionId":"region.a5e39cbc-1489-4061-9895-5cb55032f459","countryId":"country.14nagci"},"geometry":{"type":"Polygon","coordinates":[[[24.2632,8.2685],[24.4068,8.1656],[24.4731,8.0737],[24.453,7.9331],[24.4968,7.6341],[24.5944,7.4846],[24.5347,7.3768],[24.5151,7.2546],[24.5601,7.2052],[24.5401,7.0074],[24.3219,6.9326],[24.3281,6.8435],[24.2609,6.7531],[24.5424,6.4469],[24.6116,6.3909],[24.7123,6.4123],[24.8111,6.4893],[24.8999,6.4844],[25.0709,6.3485],[24.991,6.236],[24.863,6.201],[25.0436,6.058],[25.1812,5.8962],[25.1258,5.8021],[25.0444,5.7624],[25.0194,5.5185],[24.9658,5.4438],[24.6917,5.2603],[24.604,5.2716],[24.4808,5.1023],[24.6101,5.0167],[24.6644,4.9244],[24.7894,4.9199],[24.9581,4.9914],[25.0848,4.9542],[25.1295,5.0186],[25.3076,5.0323],[25.3077,5.1853],[25.3637,5.3106],[25.5813,5.3749],[25.7328,5.2589],[26.0269,5.19],[26.13,5.2589],[26.2918,5.151],[26.3906,5.149],[26.4627,5.0596],[26.7606,5.0881],[26.8671,5.0375],[26.9616,5.1512],[27.1164,5.2003],[27.4413,5.0707],[27.3013,5.2052],[27.2378,5.3232],[27.2201,5.4409],[27.2607,5.5503],[27.1704,5.7204],[27.0295,5.7899],[26.9811,5.8592],[26.8189,5.8946],[26.705,6.0098],[26.528,6.0432],[26.452,6.2803],[26.2896,6.3872],[26.305,6.4969],[26.3792,6.6314],[26.081,6.8423],[26.0261,6.9967],[25.8008,7.1049],[25.7862,7.1427],[25.5924,7.2112],[25.36,7.3356],[25.3162,7.4172],[25.1904,7.5012],[25.1652,7.5799],[25.2794,7.6595],[25.2169,7.8641],[25.0896,7.8849],[24.9526,7.9966],[24.8321,8.1657],[24.6149,8.2171],[24.5129,8.2071],[24.4311,8.2714],[24.2632,8.2685]]]}},{"type":"Feature","properties":{"sourceId":"1159308955","regionId":"region.52d08b36-5379-4e1b-9c18-98ca72f32dc6","countryId":"country.14nagci"},"geometry":{"type":"Polygon","coordinates":[[[19.8582,5.0603],[19.9336,5.1328],[19.9622,5.3463],[19.9464,5.4866],[19.5218,5.49],[19.5584,5.5823],[19.6512,5.6576],[19.6553,5.7511],[19.5965,5.9044],[19.717,6.0338],[19.839,6.12],[19.871,6.3228],[19.7431,6.4762],[19.5337,6.5022],[19.1516,6.4404],[18.9762,6.5431],[18.752,6.5143],[18.8643,6.3424],[18.9087,6.2072],[18.7487,6.0652],[18.6269,6.001],[18.6345,5.7306],[18.687,5.6684],[18.8538,5.6356],[18.8865,5.5124],[18.98,5.4292],[19.0246,5.3336],[18.9986,5.1622],[19.0915,5.0363],[19.1067,4.9315],[19.409,5.1304],[19.7196,5.136],[19.8582,5.0603]]]}},{"type":"Feature","properties":{"sourceId":"1159308957","regionId":"region.7545a257-3913-4335-a77b-b5a0a229392f","countryId":"country.14nagci"},"geometry":{"type":"Polygon","coordinates":[[[20.4567,4.5248],[20.5485,4.5731],[20.6994,4.7358],[20.9036,4.832],[20.9351,5.0147],[20.9049,5.1363],[20.9573,5.2311],[20.9572,5.5307],[21.0934,5.6973],[21.2323,5.6498],[21.391,5.7269],[21.4818,5.6304],[21.5183,5.5099],[21.634,5.4906],[21.6628,5.5492],[21.7721,5.6758],[21.9022,5.6819],[21.9398,5.9106],[21.8929,6.0203],[21.8224,6.0566],[21.7442,6.2296],[21.808,6.3625],[21.7928,6.5558],[21.7097,6.5883],[21.6098,6.7721],[21.6526,6.8812],[21.6059,7.0025],[21.582,7.2727],[21.4472,7.3053],[21.3856,7.5442],[21.2456,7.6084],[21.1309,7.7034],[21.0613,7.5948],[21.0777,7.5144],[20.8763,7.2711],[20.6985,7.2468],[20.6334,7.1246],[20.4628,7.0268],[20.2401,7.0337],[20.1556,7.0972],[20.1135,6.9006],[19.9212,6.6916],[19.8604,6.5815],[19.8781,6.4697],[19.7431,6.4762],[19.871,6.3228],[19.839,6.12],[19.717,6.0338],[19.5965,5.9044],[19.6553,5.7511],[19.6512,5.6576],[19.5584,5.5823],[19.5218,5.49],[19.9464,5.4866],[19.9622,5.3463],[19.9336,5.1328],[19.8582,5.0603],[20.3389,4.7719],[20.4631,4.6009],[20.4567,4.5248]]]}},{"type":"Feature","properties":{"sourceId":"1159308965","regionId":"region.80b9c5e9-6855-4ffe-bbd9-77ead337117d","countryId":"country.14nagci"},"geometry":{"type":"Polygon","coordinates":[[[20.4567,4.5248],[20.6031,4.4097],[20.8715,4.4534],[21.0842,4.3882],[21.1581,4.3102],[21.2989,4.3302],[21.3583,4.2856],[21.5381,4.2447],[21.7229,4.2951],[21.8677,4.2416],[22.0366,4.2294],[22.1317,4.5343],[22.0009,4.5194],[21.8742,4.6632],[21.7426,4.698],[21.7818,4.9293],[21.8326,5.0263],[21.7984,5.0982],[21.8754,5.1568],[21.901,5.4745],[21.6628,5.5492],[21.634,5.4906],[21.5183,5.5099],[21.4818,5.6304],[21.391,5.7269],[21.2323,5.6498],[21.0934,5.6973],[20.9572,5.5307],[20.9573,5.2311],[20.9049,5.1363],[20.9351,5.0147],[20.9036,4.832],[20.6994,4.7358],[20.5485,4.5731],[20.4567,4.5248]]]}},{"type":"Feature","properties":{"sourceId":"1159308973","regionId":"region.3180404e-f3cb-4280-9434-3f85b8d160e2","countryId":"country.14nagci"},"geometry":{"type":"Polygon","coordinates":[[[22.4515,4.1467],[22.5461,4.2372],[22.6093,4.3634],[22.587,4.4494],[22.6895,4.4917],[22.786,4.7246],[22.8538,4.7113],[22.8984,4.8236],[23.0173,4.7505],[23.1687,4.7381],[23.2649,4.6351],[23.3884,4.5873],[23.5666,4.7244],[23.8167,4.8206],[23.9483,4.8177],[24.0896,4.9202],[24.1629,4.9078],[24.2966,5.0033],[24.3685,5.0124],[24.3964,5.1223],[24.4808,5.1023],[24.604,5.2716],[24.6917,5.2603],[24.9658,5.4438],[25.0194,5.5185],[25.0444,5.7624],[25.1258,5.8021],[25.1812,5.8962],[25.0436,6.058],[24.863,6.201],[24.991,6.236],[25.0709,6.3485],[24.8999,6.4844],[24.8111,6.4893],[24.7123,6.4123],[24.6116,6.3909],[24.5424,6.4469],[24.2609,6.7531],[23.4521,6.3016],[23.3964,6.2153],[23.3151,6.2046],[23.2417,6.0952],[22.9052,6.1853],[22.8093,6.2718],[22.5601,6.2447],[22.4946,6.1275],[22.4005,6.0471],[22.2347,6.0581],[22.1074,5.9796],[22.0517,5.7082],[22.0859,5.6427],[21.901,5.4745],[21.8754,5.1568],[21.7984,5.0982],[21.8326,5.0263],[21.7818,4.9293],[21.7426,4.698],[21.8742,4.6632],[22.0009,4.5194],[22.1317,4.5343],[22.0366,4.2294],[22.3033,4.1287],[22.4515,4.1467]]]}},{"type":"Feature","properties":{"sourceId":"1159310111","regionId":"region.84c7acd7-7afc-4717-9171-3a56a6d65a16","countryId":"country.14nagci"},"geometry":{"type":"Polygon","coordinates":[[[19.1067,4.9315],[19.0915,5.0363],[18.9986,5.1622],[19.0246,5.3336],[18.98,5.4292],[18.8865,5.5124],[18.8538,5.6356],[18.687,5.6684],[18.6345,5.7306],[18.5906,5.644],[18.4227,5.5651],[18.3728,5.6864],[18.2561,5.7969],[18.0268,5.8011],[17.8956,5.8976],[17.5831,5.7209],[17.0997,5.7129],[17.0209,5.7259],[16.979,5.8588],[16.749,5.7794],[16.6008,5.6199],[16.515,5.5681],[16.4972,5.4123],[16.5257,5.2749],[16.673,5.3633],[16.9315,5.3623],[17.0332,5.2876],[17.1185,5.1652],[16.9962,5.083],[17.0375,5.0242],[17.1202,5.0359],[17.3202,4.8742],[17.4648,4.794],[17.5415,4.5907],[17.6532,4.5111],[17.7646,4.5343],[17.8455,4.4665],[18.111,4.453],[18.1898,4.3603],[18.305,4.3017],[18.3377,4.0999],[18.4904,3.9199],[18.612,3.8666],[18.6453,3.9824],[18.6197,4.1696],[18.5371,4.3061],[18.4926,4.3881],[18.5605,4.4382],[18.5958,4.3713],[18.7211,4.3774],[18.8282,4.56],[19.0116,4.765],[19.1067,4.9315]]]}},{"type":"Feature","properties":{"sourceId":"1159315943","regionId":"region.1afd8c9b-a0a1-4e73-887c-206bfe075b10","countryId":"country.14nagci"},"geometry":{"type":"Polygon","coordinates":[[[18.5958,4.3713],[18.5605,4.4382],[18.4926,4.3881],[18.5371,4.3061],[18.5958,4.3713]]]}},{"type":"Feature","properties":{"sourceId":"1159308967","regionId":"region.52cfacd5-ffcc-4104-adc3-7e7ff0481bea","countryId":"country.14nagci"},"geometry":{"type":"Polygon","coordinates":[[[18.612,3.8666],[18.4904,3.9199],[18.3377,4.0999],[18.305,4.3017],[18.1898,4.3603],[18.111,4.453],[17.8455,4.4665],[17.7646,4.5343],[17.6532,4.5111],[17.5415,4.5907],[17.4648,4.794],[17.3202,4.8742],[17.1202,5.0359],[17.0375,5.0242],[17.0178,4.9643],[16.8305,4.8679],[16.8305,4.7383],[16.9343,4.5141],[16.7377,4.2447],[16.8311,4.1461],[16.9341,3.9766],[17.2193,3.8672],[17.3373,3.8016],[17.4145,3.6834],[17.8083,3.6086],[17.8564,3.5373],[18.082,3.5635],[18.1816,3.4774],[18.2485,3.5749],[18.5134,3.5922],[18.6264,3.4769],[18.593,3.7098],[18.612,3.8666]]]}},{"type":"Feature","properties":{"sourceId":"1159308951","regionId":"region.7cdcb145-d73a-4c26-9776-90757aa50049","countryId":"country.14nagci"},"geometry":{"type":"Polygon","coordinates":[[[20.8139,9.4188],[20.4961,9.2709],[20.4352,9.1381],[20.3594,9.1164],[20.0687,9.1381],[19.9321,9.0633],[19.7,9.0206],[19.3694,9.0004],[19.2632,9.0283],[19.1006,9.0153],[18.8927,8.8979],[18.9291,8.7965],[19.0487,8.7457],[19.0723,8.6319],[19.0643,8.5829],[19.1537,8.4047],[19.3561,8.1217],[19.3319,7.9448],[19.357,7.7561],[19.4995,7.74],[19.5931,7.6573],[19.5769,7.5855],[19.7331,7.5378],[19.7633,7.4476],[19.8853,7.3534],[19.9209,7.2465],[20.1556,7.0972],[20.2401,7.0337],[20.4628,7.0268],[20.6334,7.1246],[20.6985,7.2468],[20.8763,7.2711],[21.0777,7.5144],[21.0613,7.5948],[21.1309,7.7034],[21.105,7.8383],[21.1533,7.9853],[21.4194,8.0178],[21.3926,8.1634],[21.5262,8.2561],[21.7414,8.3294],[21.8804,8.1991],[21.9898,8.233],[21.9976,8.3819],[21.9591,8.5001],[22.0049,8.605],[22.3494,8.567],[22.3912,8.5917],[22.3591,8.6733],[22.2122,8.7055],[22.1139,8.8024],[22.0868,8.9686],[21.8606,9.1772],[21.769,9.4106],[21.6171,9.5889],[21.5204,9.6099],[21.4948,9.7647],[21.3562,9.6914],[21.253,9.583],[21.1056,9.5513],[20.8906,9.3805],[20.8139,9.4188]]]}},{"type":"Feature","properties":{"sourceId":"1159308959","regionId":"region.a0ee938b-19cf-40bb-9376-32e5efc60059","countryId":"country.14nagci"},"geometry":{"type":"Polygon","coordinates":[[[18.1754,8.022],[17.8979,7.9675],[17.6798,7.9852],[17.2338,7.8108],[17.1019,7.6777],[16.8807,7.6329],[16.8151,7.5495],[16.7545,7.1862],[16.7605,7.0927],[16.6793,6.986],[16.7251,6.8756],[16.7636,6.6144],[16.9188,6.4537],[17.0409,6.4877],[17.0979,6.4114],[16.9615,6.3044],[16.9079,6.1065],[16.979,5.8588],[17.0209,5.7259],[17.0997,5.7129],[17.5831,5.7209],[17.8956,5.8976],[18.0268,5.8011],[18.2561,5.7969],[18.3728,5.6864],[18.4227,5.5651],[18.5906,5.644],[18.6345,5.7306],[18.6269,6.001],[18.7487,6.0652],[18.9087,6.2072],[18.8643,6.3424],[18.752,6.5143],[18.8555,6.6907],[18.7522,6.7504],[18.6552,6.953],[18.7394,7.0745],[18.7205,7.1266],[18.8392,7.2639],[18.7324,7.5705],[18.7928,7.6464],[18.981,7.775],[19.0555,8.0672],[19.0643,8.5829],[19.0723,8.6319],[18.813,8.2764],[18.6726,8.2075],[18.5893,8.0479],[18.1754,8.022]]]}},{"type":"Feature","properties":{"sourceId":"1159308949","regionId":"region.e0a6ea07-c0b9-4a0e-8a05-fbea570f5623","countryId":"country.14nagci"},"geometry":{"type":"Polygon","coordinates":[[[16.8151,7.5495],[16.6245,7.6687],[16.5487,7.87],[16.4074,7.7961],[16.3708,7.6725],[16.0652,7.5912],[15.9253,7.4882],[15.7939,7.458],[15.6685,7.5163],[15.481,7.5233],[15.4328,7.3897],[15.2466,7.2667],[15.1854,7.1569],[15.0422,6.7908],[14.9219,6.6864],[15.1754,6.7553],[15.3006,6.5787],[15.3296,6.4272],[15.424,6.3018],[15.5409,6.3114],[15.7506,6.4194],[15.7055,6.2782],[15.7888,6.1532],[15.8245,5.9245],[16.0012,5.7992],[16.1049,5.7978],[16.1952,5.9062],[16.4367,5.6914],[16.515,5.5681],[16.6008,5.6199],[16.749,5.7794],[16.979,5.8588],[16.9079,6.1065],[16.9615,6.3044],[17.0979,6.4114],[17.0409,6.4877],[16.9188,6.4537],[16.7636,6.6144],[16.7251,6.8756],[16.6793,6.986],[16.7605,7.0927],[16.7545,7.1862],[16.8151,7.5495]]]}},{"type":"Feature","properties":{"sourceId":"1159308943","regionId":"region.4f69d832-b012-43fa-86fd-c7e2c6adc143","countryId":"country.14nagci"},"geometry":{"type":"Polygon","coordinates":[[[17.4145,3.6834],[17.3373,3.8016],[17.2193,3.8672],[16.9341,3.9766],[16.8311,4.1461],[16.7377,4.2447],[16.6784,4.2587],[16.5982,4.1268],[16.5853,3.9995],[16.4318,3.8358],[16.3733,3.8893],[16.0507,3.9909],[15.8873,3.9692],[15.7316,3.9072],[15.5198,3.7418],[15.4586,3.7825],[15.2623,3.6626],[15.7856,3.108],[15.914,3.098],[15.982,2.9767],[16.0924,2.8633],[16.0626,2.7032],[16.1115,2.5862],[16.0903,2.5105],[16.1967,2.2365],[16.4275,2.7265],[16.4838,2.8604],[16.4455,2.9577],[16.4908,3.0678],[16.4655,3.1565],[16.5115,3.2272],[16.5677,3.4644],[16.6394,3.5286],[16.9686,3.5335],[17.3344,3.6185],[17.4145,3.6834]]]}},{"type":"Feature","properties":{"sourceId":"1159308947","regionId":"region.51229318-c0a7-467a-9234-526101015ee6","countryId":"country.14nagci"},"geometry":{"type":"Polygon","coordinates":[[[14.9219,6.6864],[14.719,6.2579],[14.535,6.1901],[14.4327,6.0791],[14.3977,6.0192],[14.4821,5.9096],[14.5848,5.9234],[14.6311,5.738],[14.5928,5.6239],[14.5973,5.4115],[14.5239,5.2797],[14.6245,5.224],[14.6632,5.1418],[14.6601,5.0114],[14.9587,4.9999],[15.0185,4.9425],[15.1385,5.0001],[15.4204,5.0054],[15.4982,5.0527],[15.6918,5.0201],[15.6661,5.1614],[15.7634,5.2335],[15.7873,5.1137],[16.059,5.0819],[16.5257,5.2749],[16.4972,5.4123],[16.515,5.5681],[16.4367,5.6914],[16.1952,5.9062],[16.1049,5.7978],[16.0012,5.7992],[15.8245,5.9245],[15.7888,6.1532],[15.7055,6.2782],[15.7506,6.4194],[15.5409,6.3114],[15.424,6.3018],[15.3296,6.4272],[15.3006,6.5787],[15.1754,6.7553],[14.9219,6.6864]]]}},{"type":"Feature","properties":{"sourceId":"1159308941","regionId":"region.d0e6a46b-b32e-495a-8a58-181c928b1ae3","countryId":"country.14nagci"},"geometry":{"type":"Polygon","coordinates":[[[14.6601,5.0114],[14.7173,4.622],[14.7797,4.545],[15.0006,4.4032],[15.0728,4.2659],[15.1026,4.1124],[15.0849,3.8858],[15.2623,3.6626],[15.4586,3.7825],[15.5198,3.7418],[15.7316,3.9072],[15.8873,3.9692],[16.0507,3.9909],[16.3733,3.8893],[16.4318,3.8358],[16.5853,3.9995],[16.5982,4.1268],[16.6784,4.2587],[16.7377,4.2447],[16.9343,4.5141],[16.8305,4.7383],[16.8305,4.8679],[17.0178,4.9643],[17.0375,5.0242],[16.9962,5.083],[17.1185,5.1652],[17.0332,5.2876],[16.9315,5.3623],[16.673,5.3633],[16.5257,5.2749],[16.059,5.0819],[15.7873,5.1137],[15.7634,5.2335],[15.6661,5.1614],[15.6918,5.0201],[15.4982,5.0527],[15.4204,5.0054],[15.1385,5.0001],[15.0185,4.9425],[14.9587,4.9999],[14.6601,5.0114]]]}},{"type":"Feature","properties":{"sourceId":"1159308953","regionId":"region.b197e15d-09d3-44cb-83be-2a8a7d438107","countryId":"country.14nagci"},"geometry":{"type":"Polygon","coordinates":[[[19.0643,8.5829],[19.0555,8.0672],[18.981,7.775],[18.7928,7.6464],[18.7324,7.5705],[18.8392,7.2639],[18.7205,7.1266],[18.7394,7.0745],[18.6552,6.953],[18.7522,6.7504],[18.8555,6.6907],[18.752,6.5143],[18.9762,6.5431],[19.1516,6.4404],[19.5337,6.5022],[19.7431,6.4762],[19.8781,6.4697],[19.8604,6.5815],[19.9212,6.6916],[20.1135,6.9006],[20.1556,7.0972],[19.9209,7.2465],[19.8853,7.3534],[19.7633,7.4476],[19.7331,7.5378],[19.5769,7.5855],[19.5931,7.6573],[19.4995,7.74],[19.357,7.7561],[19.3319,7.9448],[19.3561,8.1217],[19.1537,8.4047],[19.0643,8.5829]]]}}]}