{"type":"FeatureCollection","features":[{"type":"Feature","properties":{"sourceId":"1159314185","regionId":"region.9f321696-e209-48a3-805d-3446700cf547","countryId":"country.1dsqes5"},"geometry":{"type":"Polygon","coordinates":[[[34.2484,31.2114],[34.4804,30.6512],[34.5338,30.4002],[34.5995,30.3445],[34.8244,29.7417],[34.8867,29.4901],[34.9556,29.559],[35.049,29.8423],[35.0863,30.034],[35.1453,30.1549],[35.14,30.4302],[35.2639,30.72],[35.3471,30.9227],[35.4385,31.1037],[35.3957,31.2577],[35.4571,31.4335],[35.4581,31.4919],[35.3901,31.4871],[35.2233,31.381],[34.9274,31.3449],[34.8672,31.3964],[34.9532,31.6083],[34.8729,31.6591],[34.8278,31.792],[34.6737,31.7864],[34.6659,31.8739],[34.4812,31.5831],[34.556,31.5398],[34.3673,31.3928],[34.3509,31.2893],[34.2484,31.2114]]]}},{"type":"Feature","properties":{"sourceId":"1159314191","regionId":"region.09abd5cc-bdee-49db-b3e6-8bca4a1ead36","countryId":"country.1dsqes5"},"geometry":{"type":"Polygon","coordinates":[[[35.561,32.3847],[35.5627,32.6442],[35.7576,32.7443],[35.8881,32.9449],[35.8036,33.2485],[35.8211,33.4067],[35.6046,33.2444],[35.4801,33.0874],[35.2888,33.0992],[35.1052,33.089],[35.0755,32.8931],[35.1544,32.7849],[35.0249,32.6079],[35.1155,32.5286],[35.2104,32.5419],[35.3929,32.4945],[35.4069,32.4148],[35.561,32.3847]]]}},{"type":"Feature","properties":{"sourceId":"1159314187","regionId":"region.e987eda5-48b6-4cb1-a194-1987646bf620","countryId":"country.1dsqes5"},"geometry":{"type":"Polygon","coordinates":[[[35.2104,32.5419],[35.1155,32.5286],[35.0249,32.6079],[35.1544,32.7849],[35.0755,32.8931],[34.9475,32.8142],[34.8678,32.4075],[35.0327,32.3822],[35.0644,32.4631],[35.2104,32.5419]]]}},{"type":"Feature","properties":{"sourceId":"1159314189","regionId":"region.be7c3d0b-0d39-41e6-b4aa-37c3529bf765","countryId":"country.1dsqes5"},"geometry":{"type":"Polygon","coordinates":[[[35.0327,32.3822],[34.8678,32.4075],[34.8044,32.1925],[34.8626,32.1728],[34.8086,32.0001],[34.7339,32.0133],[34.6659,31.8739],[34.6737,31.7864],[34.8278,31.792],[34.9985,31.8538],[35.039,31.9086],[34.9582,32.1865],[35.0327,32.3822]]]}},{"type":"Feature","properties":{"sourceId":"1159314195","regionId":"region.1dd10679-7dd1-4c4d-9083-cb765acec29f","countryId":"country.1dsqes5"},"geometry":{"type":"Polygon","coordinates":[[[34.9532,31.6083],[35.149,31.7373],[35.1739,31.8076],[34.9985,31.8538],[34.8278,31.792],[34.8729,31.6591],[34.9532,31.6083]]]}},{"type":"Feature","properties":{"sourceId":"1159314193","regionId":"region.6ed213f8-8e88-4b5a-b667-57f1f314bd95","countryId":"country.1dsqes5"},"geometry":{"type":"Polygon","coordinates":[[[34.7339,32.0133],[34.8086,32.0001],[34.8626,32.1728],[34.8044,32.1925],[34.7339,32.0133]]]}}]}