{"type":"FeatureCollection","features":[{"type":"Feature","properties":{"sourceId":"1159309589","regionId":"region.5d32f03f-f831-49eb-99d0-a7c952b4ecd7","countryId":"country.8zv92e"},"geometry":{"type":"Polygon","coordinates":[[[31.7643,52.1006],[31.4749,52.1178],[31.1348,52.0767],[30.9405,52.0201],[30.662,51.8194],[30.5703,51.6999],[30.5341,51.5533],[30.6383,51.3359],[30.5547,51.2425],[30.5123,51.0167],[30.6247,51.0002],[30.6551,50.892],[30.7802,50.8436],[30.7376,50.7602],[31.0837,50.7687],[31.2052,50.6708],[31.1799,50.5877],[31.2752,50.5208],[31.4629,50.5002],[31.7484,50.5532],[31.8474,50.6239],[32.0308,50.5044],[32.0112,50.4281],[32.1392,50.3501],[32.3759,50.4089],[32.7273,50.3579],[32.8834,50.4013],[33.0615,50.5384],[33.1821,50.9709],[32.9445,51.0948],[33.0736,51.2851],[33.151,51.5593],[33.1532,51.6931],[33.062,51.7929],[33.1607,51.9042],[33.3663,51.9467],[33.3178,52.2098],[33.4006,52.3443],[33.1965,52.3689],[32.9269,52.2469],[32.7254,52.2521],[32.5284,52.3162],[32.3395,52.2872],[32.3067,52.1412],[32.0956,52.0407],[31.892,52.0362],[31.7643,52.1006]]]}},{"type":"Feature","properties":{"sourceId":"1159309607","regionId":"region.4908ce17-5c13-4086-a2b9-56b65cf072c3","countryId":"country.8zv92e"},"geometry":{"type":"Polygon","coordinates":[[[25.5474,51.9194],[25.1833,51.9498],[24.7218,51.8823],[24.3908,51.88],[24.2441,51.7182],[23.9813,51.586],[23.7497,51.6445],[23.5944,51.605],[23.6062,51.5174],[23.6976,51.4044],[23.634,51.3393],[23.8747,51.1361],[23.9117,51.0068],[24.1302,50.8689],[23.9699,50.8252],[24.1082,50.6303],[24.2479,50.5818],[24.3795,50.6009],[24.5384,50.5112],[24.4567,50.4614],[24.773,50.3405],[24.9319,50.3702],[25.0635,50.2948],[25.195,50.3697],[25.0934,50.465],[25.2708,50.5396],[25.295,50.6157],[25.6029,50.7069],[25.8365,50.6363],[25.8683,50.7813],[26.0898,50.976],[26.024,51.0735],[26.0564,51.1839],[25.8075,51.3321],[25.554,51.3575],[25.5237,51.7248],[25.6548,51.8931],[25.5474,51.9194]]]}},{"type":"Feature","properties":{"sourceId":"1159309591","regionId":"region.f713d684-144f-4c32-9209-ce5c0bee5ecc","countryId":"country.8zv92e"},"geometry":{"type":"Polygon","coordinates":[[[25.5474,51.9194],[25.6548,51.8931],[25.5237,51.7248],[25.554,51.3575],[25.8075,51.3321],[26.0564,51.1839],[26.024,51.0735],[26.0898,50.976],[25.8683,50.7813],[25.8365,50.6363],[25.6029,50.7069],[25.295,50.6157],[25.2708,50.5396],[25.0934,50.465],[25.195,50.3697],[25.0635,50.2948],[25.2075,50.2501],[25.2023,50.095],[25.3676,50.0131],[25.4671,50.1052],[25.8091,50.1792],[25.9472,50.2645],[26.1658,50.2421],[26.2332,50.1523],[26.4647,50.2485],[26.7455,50.4667],[27.1262,50.582],[27.1923,50.5412],[27.2717,50.7374],[27.1982,50.9909],[27.2945,51.0437],[27.4491,51.2279],[27.5021,51.4402],[27.6661,51.4902],[27.7052,51.5684],[27.5124,51.6231],[27.254,51.5954],[27.1779,51.7471],[26.8548,51.7493],[26.4078,51.8506],[26.1753,51.8567],[26.0808,51.9007],[25.7679,51.9285],[25.5474,51.9194]]]}},{"type":"Feature","properties":{"sourceId":"1159309621","regionId":"region.007d57dd-45c4-4884-b149-80f2c3104b7e","countryId":"country.8zv92e"},"geometry":{"type":"Polygon","coordinates":[[[29.3533,51.3771],[29.221,51.467],[29.1604,51.6033],[29.0436,51.6262],[28.7999,51.5326],[28.6039,51.5535],[28.3469,51.5252],[28.21,51.652],[28.0708,51.5576],[27.8125,51.602],[27.6661,51.4902],[27.5021,51.4402],[27.4491,51.2279],[27.2945,51.0437],[27.1982,50.9909],[27.2717,50.7374],[27.1923,50.5412],[27.2289,50.3949],[27.646,50.1691],[27.5478,50.0075],[27.6607,49.799],[27.868,49.7601],[28.4309,49.8078],[28.7105,49.7936],[28.9096,49.8724],[29.0042,49.7309],[29.002,49.5905],[29.2686,49.5862],[29.4472,49.6509],[29.4375,49.7908],[29.6301,49.8635],[29.7335,49.9474],[29.6761,50.0085],[29.6965,50.2578],[29.4941,50.4232],[29.4794,50.5938],[29.5923,50.7111],[29.4885,50.7887],[29.4226,50.9451],[29.4829,51.0723],[29.2705,51.2369],[29.3533,51.3771]]]}},{"type":"Feature","properties":{"sourceId":"1159309615","regionId":"region.a18d5fab-3f60-4b5f-b825-74ef12c55d5d","countryId":"country.8zv92e"},"geometry":{"type":"Polygon","coordinates":[[[30.5547,51.2425],[30.3551,51.3053],[30.329,51.3886],[30.1486,51.4844],[29.8286,51.43],[29.618,51.4856],[29.4663,51.3851],[29.3533,51.3771],[29.2705,51.2369],[29.4829,51.0723],[29.4226,50.9451],[29.4885,50.7887],[29.5923,50.7111],[29.4794,50.5938],[29.4941,50.4232],[29.6965,50.2578],[29.6761,50.0085],[29.7335,49.9474],[29.6301,49.8635],[29.4375,49.7908],[29.4472,49.6509],[29.5621,49.5357],[29.4998,49.3657],[29.6972,49.2273],[29.8623,49.1738],[29.9201,49.2462],[30.1041,49.2983],[30.3495,49.2581],[30.4199,49.336],[30.6152,49.3549],[30.73,49.3216],[30.8682,49.3606],[31.1559,49.5564],[31.212,49.854],[31.4302,49.9061],[31.4759,49.8547],[31.7075,49.8467],[31.8738,50.0308],[31.8496,50.095],[32.0695,50.2387],[32.1392,50.3501],[32.0112,50.4281],[32.0308,50.5044],[31.8474,50.6239],[31.7484,50.5532],[31.4629,50.5002],[31.2752,50.5208],[31.1799,50.5877],[31.2052,50.6708],[31.0837,50.7687],[30.7376,50.7602],[30.7802,50.8436],[30.6551,50.892],[30.6247,51.0002],[30.5123,51.0167],[30.5547,51.2425]],[[30.7537,50.2892],[30.5208,50.1901],[30.4137,50.3039],[30.2382,50.4147],[30.2174,50.5424],[30.2702,50.6334],[30.6472,50.5752],[30.7506,50.5063],[30.846,50.3535],[30.7537,50.2892]]]}},{"type":"Feature","properties":{"sourceId":"1159309605","regionId":"region.78dc83ee-c044-422c-8630-0d426f211f5b","countryId":"country.8zv92e"},"geometry":{"type":"Polygon","coordinates":[[[22.1328,48.4048],[22.1583,48.4022],[22.2718,48.4035],[22.3571,48.2431],[22.4814,48.2426],[22.6001,48.1011],[22.831,48.0724],[22.8776,47.9467],[23.2314,48.0797],[23.3601,47.9931],[23.4855,47.9742],[23.5632,48.0058],[23.9773,47.9623],[24.231,47.897],[24.4285,47.9525],[24.5698,47.9373],[24.6393,48.0476],[24.5384,48.1345],[24.4949,48.2666],[24.3054,48.3883],[24.1446,48.3751],[24.137,48.5275],[23.9427,48.4704],[23.8949,48.5496],[23.5329,48.7237],[23.1798,48.7903],[22.892,48.9354],[22.865,49.0132],[22.5396,49.0722],[22.3708,48.8582],[22.3225,48.7003],[22.1537,48.5859],[22.1328,48.4048]]]}},{"type":"Feature","properties":{"sourceId":"1159309595","regionId":"region.7278c654-2333-4553-8ef5-91a4671bc48b","countryId":"country.8zv92e"},"geometry":{"type":"Polygon","coordinates":[[[26.6179,48.259],[26.8428,48.3937],[27.2519,48.3783],[27.5038,48.4724],[27.3704,48.6297],[27.2476,48.5704],[26.7876,48.5683],[26.5664,48.4574],[26.3805,48.5171],[26.1495,48.5396],[26.0623,48.6284],[25.9116,48.5881],[25.7935,48.6701],[25.6362,48.6781],[25.565,48.621],[25.5851,48.3929],[25.4474,48.4],[25.2926,48.3402],[25.1413,48.1864],[24.9892,48.1002],[24.9345,48.0135],[24.9809,47.8284],[24.9289,47.7139],[24.9424,47.7156],[25.0799,47.7429],[25.2617,47.8986],[25.7525,47.9346],[26.1025,47.9783],[26.287,48.1247],[26.3035,48.212],[26.6179,48.259]]]}},{"type":"Feature","properties":{"sourceId":"1159309597","regionId":"region.e2ed6c47-ccb0-4b93-90d7-d1654cde320b","countryId":"country.8zv92e"},"geometry":{"type":"Polygon","coordinates":[[[24.9289,47.7139],[24.9809,47.8284],[24.9345,48.0135],[24.9892,48.1002],[25.1413,48.1864],[25.2926,48.3402],[25.4474,48.4],[25.5851,48.3929],[25.565,48.621],[25.6362,48.6781],[25.6294,48.7601],[25.4308,48.8494],[25.2772,48.7814],[25.1196,48.9514],[24.9781,48.9771],[24.9668,49.113],[24.8329,49.3396],[24.7071,49.4918],[24.4499,49.5167],[24.3636,49.2366],[24.1582,49.135],[23.7548,49.1149],[23.5765,48.9686],[23.5329,48.7237],[23.8949,48.5496],[23.9427,48.4704],[24.137,48.5275],[24.1446,48.3751],[24.3054,48.3883],[24.4949,48.2666],[24.5384,48.1345],[24.6393,48.0476],[24.5698,47.9373],[24.6615,47.8539],[24.9289,47.7139]]]}},{"type":"Feature","properties":{"sourceId":"1159309617","regionId":"region.16af237c-95e1-4d74-be0b-8a1adcb2f31c","countryId":"country.8zv92e"},"geometry":{"type":"Polygon","coordinates":[[[28.1995,45.4618],[28.2151,45.4504],[28.3302,45.3229],[28.7101,45.227],[28.8163,45.3261],[28.9665,45.3199],[29.3221,45.4438],[29.5697,45.395],[29.6503,45.3461],[29.659,45.2159],[29.7562,45.3212],[29.7474,45.4634],[29.5897,45.5591],[29.6032,45.6913],[29.7459,45.6226],[29.865,45.6723],[29.9685,45.8389],[30.1384,45.8198],[30.4942,46.0805],[30.7725,46.3964],[30.7549,46.5159],[30.9914,46.6013],[31.1869,46.6291],[31.1622,46.8254],[31.0373,46.9531],[31.2145,46.9745],[31.2946,47.0505],[31.2235,47.1658],[30.9153,47.2767],[30.8339,47.4295],[30.8682,47.5435],[30.7799,47.6337],[30.4759,47.6221],[30.2979,47.9449],[30.216,47.9988],[30.2931,48.1357],[30.0835,48.1437],[29.9968,48.221],[29.7748,48.2031],[29.6798,48.0922],[29.4347,48.1131],[29.2463,48.0845],[29.104,48.1436],[28.8621,48.0005],[28.9361,47.9422],[29.124,47.976],[29.2386,47.756],[29.1372,47.484],[29.3589,47.3527],[29.3709,47.3044],[29.5566,47.324],[29.5304,47.1237],[29.603,47.0458],[29.5606,46.9613],[29.7541,46.858],[29.9307,46.8031],[29.9526,46.7247],[29.8988,46.5531],[30.0811,46.3742],[29.8478,46.3415],[29.727,46.4558],[29.5986,46.3631],[29.4567,46.4844],[29.2007,46.3571],[29.1831,46.538],[29.0559,46.4987],[28.9192,46.4047],[28.9841,46.2212],[28.932,45.9932],[28.7576,45.9612],[28.7383,45.8376],[28.5635,45.7355],[28.474,45.6579],[28.5037,45.5661],[28.4809,45.502],[28.2704,45.5215],[28.1995,45.4618]]]}},{"type":"Feature","properties":{"sourceId":"1159309619","regionId":"region.fbbf824c-6469-4bc8-9c26-e0987deb4fed","countryId":"country.8zv92e"},"geometry":{"type":"Polygon","coordinates":[[[27.5038,48.4724],[27.7518,48.452],[27.8854,48.3784],[28.0032,48.3259],[28.1999,48.2117],[28.2945,48.2365],[28.4998,48.1089],[28.5736,48.155],[28.7993,48.1118],[28.8621,48.0005],[29.104,48.1436],[29.2463,48.0845],[29.4347,48.1131],[29.6798,48.0922],[29.7748,48.2031],[29.7382,48.2701],[29.8586,48.4172],[29.9401,48.3756],[30.0761,48.4551],[29.9591,48.6515],[29.7725,48.7693],[29.6749,48.9874],[29.6972,49.2273],[29.4998,49.3657],[29.5621,49.5357],[29.4472,49.6509],[29.2686,49.5862],[29.002,49.5905],[29.0042,49.7309],[28.9096,49.8724],[28.7105,49.7936],[28.4309,49.8078],[27.868,49.7601],[27.7515,49.6735],[27.8092,49.618],[27.7293,49.4886],[27.8773,49.2769],[27.889,49.1626],[27.7672,49.116],[27.6398,49.1564],[27.5005,49.1261],[27.3721,48.9301],[27.4246,48.7768],[27.3704,48.6297],[27.5038,48.4724]]]}},{"type":"Feature","properties":{"sourceId":"1159309601","regionId":"region.3e2a5ac0-deff-45b0-93f4-78c81a168060","countryId":"country.8zv92e"},"geometry":{"type":"Polygon","coordinates":[[[23.6587,50.327],[23.1015,49.9571],[22.6409,49.5288],[22.7242,49.3671],[22.7057,49.1688],[22.8534,49.0848],[22.865,49.0132],[22.892,48.9354],[23.1798,48.7903],[23.5329,48.7237],[23.5765,48.9686],[23.7548,49.1149],[24.1582,49.135],[24.3636,49.2366],[24.4499,49.5167],[24.7071,49.4918],[24.7291,49.555],[24.9482,49.6272],[25.0989,49.8173],[25.3898,49.8801],[25.3676,50.0131],[25.2023,50.095],[25.2075,50.2501],[25.0635,50.2948],[24.9319,50.3702],[24.773,50.3405],[24.4567,50.4614],[24.5384,50.5112],[24.3795,50.6009],[24.2479,50.5818],[24.1082,50.6303],[24.1065,50.5386],[23.9813,50.4048],[23.7475,50.3894],[23.6587,50.327]]]}},{"type":"Feature","properties":{"sourceId":"1159309623","regionId":"region.b258cc9b-bfbe-47ba-bfb3-4dfb78b4f4a6","countryId":"country.8zv92e"},"geometry":{"type":"Polygon","coordinates":[[[34.3711,51.8268],[34.0682,52.031],[34.0557,52.1703],[33.8041,52.3546],[33.5317,52.2888],[33.4006,52.3443],[33.3178,52.2098],[33.3663,51.9467],[33.1607,51.9042],[33.062,51.7929],[33.1532,51.6931],[33.151,51.5593],[33.0736,51.2851],[32.9445,51.0948],[33.1821,50.9709],[33.0615,50.5384],[33.3401,50.5252],[33.7207,50.4627],[33.9131,50.5303],[34.0476,50.471],[34.2458,50.5346],[34.2585,50.4357],[34.378,50.3425],[34.504,50.1754],[34.6337,50.1148],[34.9082,50.146],[35.1354,50.245],[35.426,50.3296],[35.6922,50.3442],[35.5702,50.3765],[35.4253,50.5005],[35.3777,50.6218],[35.4454,50.6875],[35.3417,50.9159],[35.2822,50.9611],[35.1726,51.0406],[35.0992,51.1832],[34.9618,51.2153],[34.7481,51.1647],[34.6224,51.2248],[34.409,51.2531],[34.2803,51.3613],[34.128,51.6807],[34.3763,51.7086],[34.3711,51.8268]]]}},{"type":"Feature","properties":{"sourceId":"1159309631","regionId":"region.dd516c9c-12e1-452b-9b7d-f844f56274a9","countryId":"country.8zv92e"},"geometry":{"type":"Polygon","coordinates":[[[38.0229,49.9091],[37.9159,50.0033],[37.7276,50.0787],[37.5886,50.2146],[37.5992,50.2909],[37.4353,50.4249],[37.197,50.3624],[36.9141,50.3391],[36.6826,50.2607],[36.4002,50.3066],[36.269,50.2814],[36.1058,50.4211],[35.8374,50.4232],[35.6922,50.3442],[35.426,50.3296],[35.1354,50.245],[34.9082,50.146],[34.8415,50],[34.8882,49.9177],[35.1911,49.832],[35.239,49.7045],[35.4198,49.6373],[35.4751,49.5604],[35.3137,49.4678],[35.3606,49.392],[35.1885,49.292],[35.0246,49.3172],[34.9839,49.1637],[35.1478,49.1534],[35.4564,48.9766],[35.7837,48.9345],[35.9307,48.9764],[36.1378,48.7205],[36.2709,48.647],[36.7254,48.6259],[36.69,48.7775],[37.1812,48.8315],[37.3738,49.0525],[37.8473,49.2318],[37.8636,49.4172],[37.9632,49.5201],[37.9445,49.5968],[38.0647,49.8373],[38.0229,49.9091]]]}},{"type":"Feature","properties":{"sourceId":"1159309633","regionId":"region.ed98cd79-3edd-4001-920d-8664bafeb961","countryId":"country.8zv92e"},"geometry":{"type":"Polygon","coordinates":[[[39.181,49.8595],[38.9374,49.8035],[38.8522,49.8658],[38.3442,49.9921],[38.1739,50.0602],[38.1662,49.9406],[38.0229,49.9091],[38.0647,49.8373],[37.9445,49.5968],[37.9632,49.5201],[37.8636,49.4172],[37.8473,49.2318],[38.041,49.07],[38.0578,48.9371],[38.2101,48.9239],[38.3038,48.7285],[38.2488,48.6636],[38.3021,48.459],[38.4063,48.4374],[38.6305,48.1659],[38.814,48.1114],[38.8623,48.0201],[39.0271,48.0066],[39.0362,47.857],[39.3916,47.8226],[39.7591,47.8329],[39.8431,48.1198],[39.9932,48.2732],[39.8092,48.5838],[39.6317,48.5869],[39.7029,48.7466],[39.8965,48.8799],[39.7587,48.8954],[39.6811,49.0203],[39.9187,49.0478],[39.9521,49.1245],[40.1417,49.2458],[40.1595,49.3336],[40.0409,49.4555],[40.1185,49.5885],[40.0177,49.6079],[39.8015,49.5422],[39.6229,49.6135],[39.5704,49.7133],[39.238,49.7651],[39.181,49.8595]]]}},{"type":"Feature","properties":{"sourceId":"1159309627","regionId":"region.15dcb678-3f9e-45b4-aa2f-d547a0d8d600","countryId":"country.8zv92e"},"geometry":{"type":"Polygon","coordinates":[[[39.0362,47.857],[39.0271,48.0066],[38.8623,48.0201],[38.814,48.1114],[38.6305,48.1659],[38.4063,48.4374],[38.3021,48.459],[38.2488,48.6636],[38.3038,48.7285],[38.2101,48.9239],[38.0578,48.9371],[38.041,49.07],[37.8473,49.2318],[37.3738,49.0525],[37.1812,48.8315],[36.69,48.7775],[36.7254,48.6259],[36.8921,48.5379],[36.8089,48.4131],[36.9056,48.2944],[36.839,48.0345],[36.6651,48.0881],[36.5751,48.0582],[36.5344,47.905],[36.5761,47.8442],[36.72,47.6578],[36.8933,47.5509],[36.9875,47.5525],[37.2209,47.4553],[37.1637,47.3459],[36.914,47.2836],[37.011,47.0656],[37.1185,47.0282],[37.0378,46.8767],[37.2082,46.9336],[37.3352,46.8825],[37.5807,47.0904],[37.8611,47.1015],[38.1301,47.0747],[38.2166,47.1033],[38.201,47.2906],[38.2603,47.4929],[38.3529,47.6071],[38.7345,47.6771],[38.771,47.7808],[38.8772,47.8612],[39.0362,47.857]]]}},{"type":"Feature","properties":{"sourceId":"1159315873","regionId":"region.8b810a66-8e98-4f4b-90bb-dcbaaa93956c","countryId":"country.8zv92e"},"geometry":{"type":"Polygon","coordinates":[[[35.0019,45.729],[34.8744,45.9261],[34.8113,46.1662],[34.8389,46.2077],[35.1051,46.2951],[35.0353,46.4564],[34.7591,46.5502],[34.6868,46.7243],[34.7967,46.8317],[34.7178,46.9285],[34.6038,46.9656],[34.5096,47.1133],[34.4762,47.2695],[34.2984,47.2721],[34.2037,47.4784],[33.9018,47.5145],[33.6544,47.4868],[33.3706,47.5155],[33.0893,47.5829],[33.1241,47.4164],[33.1051,47.2724],[32.915,47.1035],[33.0594,47.0215],[32.8221,46.827],[32.6321,46.8608],[32.1716,46.7467],[31.9649,46.7221],[32.0228,46.6291],[32.3358,46.5622],[32.2761,46.4709],[32.1117,46.5124],[31.8517,46.522],[31.8163,46.483],[32.0078,46.449],[31.9683,46.3511],[32.1154,46.2145],[32.2625,46.1282],[32.5034,46.0761],[32.7898,46.1343],[32.9131,46.1152],[33.2935,46.1357],[33.4238,46.0533],[33.6285,46.1249],[33.8462,46.1957],[34.1052,46.0954],[34.3619,46.0557],[34.4646,45.9553],[34.6886,45.974],[34.7843,45.8993],[34.789,45.8037],[35.0019,45.729]]]}},{"type":"Feature","properties":{"sourceId":"1159309637","regionId":"region.13a763e4-98f7-4cb4-822f-b3a7e8fe5e95","countryId":"country.8zv92e"},"geometry":{"type":"Polygon","coordinates":[[[35.2795,46.2551],[35.3801,46.3685],[35.9016,46.6527],[36.1895,46.669],[36.6961,46.78],[36.8296,46.7319],[37.0378,46.8767],[37.1185,47.0282],[37.011,47.0656],[36.914,47.2836],[37.1637,47.3459],[37.2209,47.4553],[36.9875,47.5525],[36.8933,47.5509],[36.72,47.6578],[36.5761,47.8442],[36.3079,47.8138],[36.0787,47.8452],[36.1147,47.9398],[35.9789,48.0264],[35.6741,48.127],[35.5466,48.0845],[35.2451,48.1302],[34.8766,48.084],[34.8198,47.9067],[34.9454,47.7389],[34.8326,47.5259],[34.5838,47.5672],[34.2037,47.4784],[34.2984,47.2721],[34.4762,47.2695],[34.5096,47.1133],[34.6038,46.9656],[34.7178,46.9285],[34.7967,46.8317],[34.6868,46.7243],[34.7591,46.5502],[35.0353,46.4564],[35.1051,46.2951],[35.2648,46.2605],[35.2795,46.2551]]]}},{"type":"Feature","properties":{"sourceId":"1159309587","regionId":"region.d955250b-01b0-48ba-8390-b4a3d78fc251","countryId":"country.8zv92e"},"geometry":{"type":"Polygon","coordinates":[[[31.9649,46.7221],[32.1716,46.7467],[32.6321,46.8608],[32.8221,46.827],[33.0594,47.0215],[32.915,47.1035],[33.1051,47.2724],[33.1241,47.4164],[33.0893,47.5829],[32.9838,47.71],[33.0603,47.7756],[33.0353,47.9665],[32.9793,48.0428],[32.6827,47.9549],[32.6401,47.7996],[32.467,47.7811],[32.2344,47.8204],[32.1387,47.7475],[31.866,47.8804],[31.7095,48.0169],[31.7603,48.0925],[31.2503,48.1209],[31.1835,48.208],[31.007,48.2112],[30.9127,48.1576],[30.7048,48.1816],[30.6262,48.1465],[30.3475,48.1636],[30.2931,48.1357],[30.216,47.9988],[30.2979,47.9449],[30.4759,47.6221],[30.7799,47.6337],[30.8682,47.5435],[30.8339,47.4295],[30.9153,47.2767],[31.2235,47.1658],[31.2946,47.0505],[31.2145,46.9745],[31.0373,46.9531],[31.1622,46.8254],[31.1869,46.6291],[31.3377,46.6013],[31.481,46.6464],[31.8584,46.6291],[31.9649,46.7221]]]}},{"type":"Feature","properties":{"sourceId":"1159309635","regionId":"region.fdc18596-843e-4afe-a20f-ea4f38a32f37","countryId":"country.8zv92e"},"geometry":{"type":"Polygon","coordinates":[[[33.0615,50.5384],[32.8834,50.4013],[32.7273,50.3579],[32.3759,50.4089],[32.1392,50.3501],[32.0695,50.2387],[32.2676,50.128],[32.409,49.9756],[32.4271,49.8072],[32.693,49.6716],[32.7544,49.5472],[32.6759,49.4819],[32.7893,49.3339],[32.7887,49.2618],[33.0382,49.182],[33.3757,48.9413],[33.5427,48.903],[33.7785,48.9225],[33.9195,48.8658],[34.2375,48.7463],[34.3159,48.8396],[34.3012,48.9639],[34.4304,49.0746],[34.8367,49.1807],[34.9839,49.1637],[35.0246,49.3172],[35.1885,49.292],[35.3606,49.392],[35.3137,49.4678],[35.4751,49.5604],[35.4198,49.6373],[35.239,49.7045],[35.1911,49.832],[34.8882,49.9177],[34.8415,50],[34.9082,50.146],[34.6337,50.1148],[34.504,50.1754],[34.378,50.3425],[34.2585,50.4357],[34.2458,50.5346],[34.0476,50.471],[33.9131,50.5303],[33.7207,50.4627],[33.3401,50.5252],[33.0615,50.5384]]]}},{"type":"Feature","properties":{"sourceId":"1159309599","regionId":"region.4e518265-3efa-41e6-85dc-07f862fbcb47","countryId":"country.8zv92e"},"geometry":{"type":"Polygon","coordinates":[[[27.1923,50.5412],[27.1262,50.582],[26.7455,50.4667],[26.4647,50.2485],[26.2332,50.1523],[26.2717,50.1175],[26.1512,49.9572],[26.2525,49.662],[26.1484,49.5165],[26.2563,49.2936],[26.1992,49.1746],[26.2316,49.0795],[26.193,48.9024],[26.2355,48.685],[26.3805,48.5171],[26.5664,48.4574],[26.7876,48.5683],[27.2476,48.5704],[27.3704,48.6297],[27.4246,48.7768],[27.3721,48.9301],[27.5005,49.1261],[27.6398,49.1564],[27.7672,49.116],[27.889,49.1626],[27.8773,49.2769],[27.7293,49.4886],[27.8092,49.618],[27.7515,49.6735],[27.868,49.7601],[27.6607,49.799],[27.5478,50.0075],[27.646,50.1691],[27.2289,50.3949],[27.1923,50.5412]]]}},{"type":"Feature","properties":{"sourceId":"1159309603","regionId":"region.97e27b20-eb42-4fd5-83d5-1093e66e1fce","countryId":"country.8zv92e"},"geometry":{"type":"Polygon","coordinates":[[[26.2332,50.1523],[26.1658,50.2421],[25.9472,50.2645],[25.8091,50.1792],[25.4671,50.1052],[25.3676,50.0131],[25.3898,49.8801],[25.0989,49.8173],[24.9482,49.6272],[24.7291,49.555],[24.7071,49.4918],[24.8329,49.3396],[24.9668,49.113],[24.9781,48.9771],[25.1196,48.9514],[25.2772,48.7814],[25.4308,48.8494],[25.6294,48.7601],[25.6362,48.6781],[25.7935,48.6701],[25.9116,48.5881],[26.0623,48.6284],[26.1495,48.5396],[26.3805,48.5171],[26.2355,48.685],[26.193,48.9024],[26.2316,49.0795],[26.1992,49.1746],[26.2563,49.2936],[26.1484,49.5165],[26.2525,49.662],[26.1512,49.9572],[26.2717,50.1175],[26.2332,50.1523]]]}},{"type":"Feature","properties":{"sourceId":"1159309625","regionId":"region.0b7c5731-fe15-44cd-b092-08ac70fcdfcb","countryId":"country.8zv92e"},"geometry":{"type":"Polygon","coordinates":[[[34.9839,49.1637],[34.8367,49.1807],[34.4304,49.0746],[34.3012,48.9639],[34.3159,48.8396],[34.2375,48.7463],[33.9195,48.8658],[33.7225,48.6166],[33.4777,48.541],[33.5162,48.2427],[33.2259,48.1329],[33.0353,47.9665],[33.0603,47.7756],[32.9838,47.71],[33.0893,47.5829],[33.3706,47.5155],[33.6544,47.4868],[33.9018,47.5145],[34.2037,47.4784],[34.5838,47.5672],[34.8326,47.5259],[34.9454,47.7389],[34.8198,47.9067],[34.8766,48.084],[35.2451,48.1302],[35.5466,48.0845],[35.6741,48.127],[35.9789,48.0264],[36.1147,47.9398],[36.0787,47.8452],[36.3079,47.8138],[36.5761,47.8442],[36.5344,47.905],[36.5751,48.0582],[36.6651,48.0881],[36.839,48.0345],[36.9056,48.2944],[36.8089,48.4131],[36.8921,48.5379],[36.7254,48.6259],[36.2709,48.647],[36.1378,48.7205],[35.9307,48.9764],[35.7837,48.9345],[35.4564,48.9766],[35.1478,49.1534],[34.9839,49.1637]]]}},{"type":"Feature","properties":{"sourceId":"1159309609","regionId":"region.11334c7b-1eb8-43d1-8d51-a54cda4162ee","countryId":"country.8zv92e"},"geometry":{"type":"Polygon","coordinates":[[[32.0695,50.2387],[31.8496,50.095],[31.8738,50.0308],[31.7075,49.8467],[31.4759,49.8547],[31.4302,49.9061],[31.212,49.854],[31.1559,49.5564],[30.8682,49.3606],[30.73,49.3216],[30.6152,49.3549],[30.4199,49.336],[30.3495,49.2581],[30.1041,49.2983],[29.9201,49.2462],[29.8623,49.1738],[29.6972,49.2273],[29.6749,48.9874],[29.7725,48.7693],[29.9591,48.6515],[30.0761,48.4551],[30.5741,48.5652],[30.5409,48.6193],[30.7023,48.7652],[31.0548,48.7282],[31.3329,48.7238],[31.4623,48.7611],[31.5441,48.9242],[31.8102,48.9239],[31.8949,48.8618],[32.3319,49.0898],[32.5555,48.9525],[32.8449,49.0012],[32.7527,49.1882],[32.7887,49.2618],[32.7893,49.3339],[32.6759,49.4819],[32.7544,49.5472],[32.693,49.6716],[32.4271,49.8072],[32.409,49.9756],[32.2676,50.128],[32.0695,50.2387]]]}},{"type":"Feature","properties":{"sourceId":"1159309613","regionId":"region.86b904c8-d4d3-4150-9875-c804bf7cd025","countryId":"country.8zv92e"},"geometry":{"type":"Polygon","coordinates":[[[32.7887,49.2618],[32.7527,49.1882],[32.8449,49.0012],[32.5555,48.9525],[32.3319,49.0898],[31.8949,48.8618],[31.8102,48.9239],[31.5441,48.9242],[31.4623,48.7611],[31.3329,48.7238],[31.0548,48.7282],[30.7023,48.7652],[30.5409,48.6193],[30.5741,48.5652],[30.0761,48.4551],[29.9401,48.3756],[29.8586,48.4172],[29.7382,48.2701],[29.7748,48.2031],[29.9968,48.221],[30.0835,48.1437],[30.2931,48.1357],[30.3475,48.1636],[30.6262,48.1465],[30.7048,48.1816],[30.9127,48.1576],[31.007,48.2112],[31.1835,48.208],[31.2503,48.1209],[31.7603,48.0925],[31.7095,48.0169],[31.866,47.8804],[32.1387,47.7475],[32.2344,47.8204],[32.467,47.7811],[32.6401,47.7996],[32.6827,47.9549],[32.9793,48.0428],[33.0353,47.9665],[33.2259,48.1329],[33.5162,48.2427],[33.4777,48.541],[33.7225,48.6166],[33.9195,48.8658],[33.7785,48.9225],[33.5427,48.903],[33.3757,48.9413],[33.0382,49.182],[32.7887,49.2618]]]}},{"type":"Feature","properties":{"sourceId":"1159315871","regionId":"region.be968ea3-5ce3-4acf-b90e-0a9101fe9e96","countryId":"country.8zv92e"},"geometry":{"type":"Polygon","coordinates":[[[30.7537,50.2892],[30.846,50.3535],[30.7506,50.5063],[30.6472,50.5752],[30.2702,50.6334],[30.2174,50.5424],[30.2382,50.4147],[30.4137,50.3039],[30.5208,50.1901],[30.7537,50.2892]]]}}]}