{"type":"FeatureCollection","features":[{"type":"Feature","properties":{"sourceId":"1159314691","regionId":"region.988a17b1-2eac-425d-b16a-78d1ebd306f6","countryId":"country.1yyv1wz"},"geometry":{"type":"Polygon","coordinates":[[[19.4489,49.6004],[19.4364,49.7099],[19.2989,49.7483],[19.1124,49.9202],[19.1679,50.0039],[19.405,50.175],[19.4036,50.26],[19.5017,50.3611],[19.8392,50.3943],[19.9563,50.4845],[19.879,50.6545],[19.7417,50.7057],[19.7506,50.8043],[19.5079,50.8423],[19.3543,50.9714],[19.108,50.9685],[18.9114,51.0371],[18.6556,50.9952],[18.467,50.6456],[18.5774,50.5469],[18.4434,50.5118],[18.3575,50.4195],[18.3628,50.2109],[18.08,50.1357],[18.0191,50.0441],[18.2559,49.946],[18.4818,49.8966],[18.6373,49.7003],[18.7735,49.6758],[18.8332,49.5103],[18.9322,49.5043],[18.9623,49.3892],[19.1725,49.4023],[19.2487,49.5163],[19.4489,49.6004]]]}},{"type":"Feature","properties":{"sourceId":"1159314709","regionId":"region.c61e6b20-1657-4058-8b62-8aeb553c5f9c","countryId":"country.1yyv1wz"},"geometry":{"type":"Polygon","coordinates":[[[19.4489,49.6004],[19.627,49.4019],[19.7693,49.3931],[19.7607,49.1942],[19.8683,49.2008],[20.07,49.1831],[20.1302,49.3039],[20.3295,49.3918],[20.5221,49.3744],[20.6895,49.4005],[20.7783,49.3312],[20.9424,49.2959],[21.0535,49.4145],[21.2744,49.4473],[21.5144,49.4172],[21.4263,49.6997],[21.2586,49.7715],[21.3455,49.8635],[21.228,49.9482],[21.2162,50.2382],[21.2953,50.4108],[21.1813,50.3375],[20.7711,50.2744],[20.6335,50.1744],[20.4287,50.205],[20.2846,50.3986],[19.9563,50.4845],[19.8392,50.3943],[19.5017,50.3611],[19.4036,50.26],[19.405,50.175],[19.1679,50.0039],[19.1124,49.9202],[19.2989,49.7483],[19.4364,49.7099],[19.4489,49.6004]]]}},{"type":"Feature","properties":{"sourceId":"1159314703","regionId":"region.4e2c07d8-e4ef-411b-bf57-f98acfa9b151","countryId":"country.1yyv1wz"},"geometry":{"type":"Polygon","coordinates":[[[21.5144,49.4172],[21.8196,49.3772],[21.9932,49.2782],[22.0124,49.2111],[22.3901,49.093],[22.5396,49.0722],[22.865,49.0132],[22.8534,49.0848],[22.7057,49.1688],[22.7242,49.3671],[22.6409,49.5288],[23.1015,49.9571],[23.6587,50.327],[23.4626,50.4215],[23.3055,50.4158],[23.1584,50.3227],[22.8581,50.3171],[22.5949,50.3621],[22.6579,50.479],[22.6121,50.5681],[22.2215,50.6596],[22.2624,50.7599],[22.1174,50.7998],[21.9764,50.7728],[21.8443,50.8298],[21.8405,50.7399],[21.5949,50.5245],[21.2953,50.4108],[21.2162,50.2382],[21.228,49.9482],[21.3455,49.8635],[21.2586,49.7715],[21.4263,49.6997],[21.5144,49.4172]]]}},{"type":"Feature","properties":{"sourceId":"1159314679","regionId":"region.4fa98af5-7cc6-4b35-9044-9d1c3364f773","countryId":"country.1yyv1wz"},"geometry":{"type":"Polygon","coordinates":[[[14.8104,50.8584],[14.9821,50.8591],[14.9965,51.0078],[15.2271,50.9774],[15.3497,50.7837],[15.5221,50.7824],[15.8482,50.6752],[16.3316,50.644],[16.3826,50.5142],[16.1902,50.4242],[16.3342,50.3719],[16.535,50.2077],[16.5842,50.1274],[16.7012,50.0949],[16.8698,50.1897],[16.9603,50.232],[16.8659,50.4084],[16.944,50.4203],[17.0204,50.5468],[17.1334,50.5787],[17.3833,50.8917],[17.4625,50.944],[17.5797,51.1268],[17.7146,51.1502],[17.6443,51.3694],[17.4952,51.4503],[17.5566,51.535],[17.3468,51.594],[16.943,51.5127],[16.6761,51.6095],[16.6118,51.7149],[16.3711,51.7492],[16.182,51.6558],[16.0965,51.7523],[15.9448,51.7699],[15.8238,51.6912],[15.6147,51.4804],[15.4033,51.5178],[15.2462,51.4227],[15.1294,51.4556],[14.9506,51.3965],[15.0195,51.2717],[14.9553,51.064],[14.8104,50.8584]]]}},{"type":"Feature","properties":{"sourceId":"1159314707","regionId":"region.f726a863-ae4a-48b3-ae5f-2bce6382c51c","countryId":"country.1yyv1wz"},"geometry":{"type":"Polygon","coordinates":[[[16.944,50.4203],[17.1854,50.3757],[17.388,50.2726],[17.6064,50.2582],[17.5842,50.1459],[17.8394,49.9736],[18.0191,50.0441],[18.08,50.1357],[18.3628,50.2109],[18.3575,50.4195],[18.4434,50.5118],[18.5774,50.5469],[18.467,50.6456],[18.6556,50.9952],[18.5305,51.0826],[18.4257,51.0596],[18.1501,51.1361],[17.9174,51.0658],[17.7146,51.1502],[17.5797,51.1268],[17.4625,50.944],[17.3833,50.8917],[17.1334,50.5787],[17.0204,50.5468],[16.944,50.4203]]]}},{"type":"Feature","properties":{"sourceId":"1159314699","regionId":"region.9a7b5538-f6bf-4f71-b202-e80bc7326641","countryId":"country.1yyv1wz"},"geometry":{"type":"Polygon","coordinates":[[[23.336,54.2263],[22.9733,54.3754],[22.8113,54.3926],[22.7887,54.3366],[22.6653,54.2753],[22.4422,54.257],[22.3481,54.1786],[22.6221,53.9248],[22.543,53.7739],[21.9373,53.4993],[21.523,53.4435],[21.6004,53.2221],[21.6928,53.0953],[21.8468,53.0516],[21.9776,52.862],[22.2231,52.8569],[22.3779,52.7941],[22.4119,52.6006],[22.5107,52.5353],[22.5829,52.3945],[22.9228,52.3723],[23.087,52.2923],[23.1761,52.2851],[23.3923,52.5096],[23.7362,52.6149],[23.9088,52.6999],[23.9204,52.7726],[23.8937,53.152],[23.783,53.2709],[23.5909,53.6113],[23.4856,53.9393],[23.4325,54.1693],[23.336,54.2263]]]}},{"type":"Feature","properties":{"sourceId":"1159314675","regionId":"region.bb034669-0cc9-4f7c-8b8a-22aac19b3e41","countryId":"country.1yyv1wz"},"geometry":{"type":"Polygon","coordinates":[[[22.7672,54.3563],[22.6984,54.3429],[20.9296,54.3978],[19.7583,54.4343],[19.4347,54.2971],[19.2739,54.2816],[19.2958,54.1465],[19.2093,54.0721],[19.4904,53.7693],[19.2759,53.7193],[19.1283,53.5559],[19.2855,53.3645],[19.6813,53.263],[19.7479,53.0931],[19.9248,53.1273],[20.2406,53.098],[20.704,53.2759],[21.0979,53.3256],[21.1737,53.3796],[21.523,53.4435],[21.9373,53.4993],[22.543,53.7739],[22.6221,53.9248],[22.3481,54.1786],[22.4422,54.257],[22.6653,54.2753],[22.7887,54.3366],[22.8113,54.3926],[22.7672,54.3563]]]}},{"type":"Feature","properties":{"sourceId":"1159314683","regionId":"region.7b27c0f7-963b-45e9-a95a-c2c9c9620dfb","countryId":"country.1yyv1wz"},"geometry":{"type":"Polygon","coordinates":[[[14.9506,51.3965],[15.1294,51.4556],[15.2462,51.4227],[15.4033,51.5178],[15.6147,51.4804],[15.8238,51.6912],[15.9448,51.7699],[16.0965,51.7523],[16.182,51.6558],[16.3711,51.7492],[16.2747,51.8682],[16.1132,51.8649],[16.0394,51.9676],[15.857,52.1037],[15.9012,52.287],[15.8311,52.6933],[16.0219,52.8853],[16.0385,53.0067],[15.9258,53.1053],[15.7331,52.9889],[15.3575,52.9542],[15.1958,52.842],[14.9319,52.8426],[14.7899,52.6911],[14.608,52.5965],[14.6323,52.4967],[14.5398,52.4219],[14.6066,52.2758],[14.6969,52.2535],[14.6864,52.121],[14.7614,52.0767],[14.5858,51.8039],[14.7195,51.6756],[14.7068,51.5408],[14.911,51.469],[14.9506,51.3965]]]}},{"type":"Feature","properties":{"sourceId":"1159314681","regionId":"region.feb21d27-1440-431b-8894-3471aa9d1b0c","countryId":"country.1yyv1wz"},"geometry":{"type":"Polygon","coordinates":[[[14.608,52.5965],[14.7899,52.6911],[14.9319,52.8426],[15.1958,52.842],[15.3575,52.9542],[15.7331,52.9889],[15.9258,53.1053],[16.0385,53.0067],[16.2788,52.9932],[16.4562,53.1247],[16.6747,53.1893],[16.7204,53.3064],[16.5451,53.366],[16.5511,53.4606],[16.7653,53.4612],[16.8365,53.5852],[16.9477,53.5882],[17.0018,53.7533],[16.9498,53.9299],[16.8831,53.965],[16.8113,54.1888],[16.9507,54.209],[16.9701,54.3866],[16.7852,54.5767],[16.5013,54.5324],[16.2201,54.2766],[15.8597,54.25],[14.7819,54.0346],[14.367,53.917],[14.2101,53.9385],[14.2008,53.8782],[14.2747,53.8308],[14.5759,53.8548],[14.5449,53.704],[14.2639,53.7],[14.3042,53.5085],[14.3913,53.334],[14.4416,53.2518],[14.3433,53.0486],[14.1445,52.9599],[14.216,52.818],[14.608,52.5965]]]}},{"type":"Feature","properties":{"sourceId":"1159314701","regionId":"region.7ff66738-80a6-47bc-ab1a-8305e6bcd232","countryId":"country.1yyv1wz"},"geometry":{"type":"Polygon","coordinates":[[[23.1761,52.2851],[23.087,52.2923],[22.8983,52.1021],[22.7012,52.1361],[22.5997,52.0623],[22.3559,52.0219],[21.9884,52.0045],[21.8413,51.9584],[21.9468,51.7821],[21.8212,51.5626],[21.8524,51.3504],[21.7716,51.1515],[21.8154,51.0551],[21.8443,50.8298],[21.9764,50.7728],[22.1174,50.7998],[22.2624,50.7599],[22.2215,50.6596],[22.6121,50.5681],[22.6579,50.479],[22.5949,50.3621],[22.8581,50.3171],[23.1584,50.3227],[23.3055,50.4158],[23.4626,50.4215],[23.6587,50.327],[23.7475,50.3894],[23.9813,50.4048],[24.1065,50.5386],[24.1082,50.6303],[23.9699,50.8252],[24.1302,50.8689],[23.9117,51.0068],[23.8747,51.1361],[23.634,51.3393],[23.6976,51.4044],[23.6062,51.5174],[23.5399,51.6071],[23.5604,51.7545],[23.6764,51.9941],[23.6375,52.0845],[23.1761,52.2851]]]}},{"type":"Feature","properties":{"sourceId":"1159314677","regionId":"region.d3518bcf-87ce-42d9-b336-f10f452d10ff","countryId":"country.1yyv1wz"},"geometry":{"type":"Polygon","coordinates":[[[19.6095,54.4567],[19.3772,54.3776],[19.0021,54.3449],[18.7173,54.382],[18.5881,54.4337],[18.5706,54.5504],[18.4292,54.7817],[18.3169,54.8383],[17.8854,54.8241],[17.3374,54.749],[16.7852,54.5767],[16.9701,54.3866],[16.9507,54.209],[16.8113,54.1888],[16.8831,53.965],[16.9498,53.9299],[17.0018,53.7533],[16.9477,53.5882],[17.0957,53.4881],[17.2993,53.4831],[17.3972,53.4338],[17.5076,53.5616],[17.6832,53.5424],[17.9241,53.6956],[18.2557,53.6942],[18.583,53.6053],[18.7594,53.6252],[18.9601,53.5375],[19.1283,53.5559],[19.2759,53.7193],[19.4904,53.7693],[19.2093,54.0721],[19.2958,54.1465],[19.2739,54.2816],[19.4347,54.2971],[19.7583,54.4343],[19.6095,54.4567]]]}},{"type":"Feature","properties":{"sourceId":"1159314695","regionId":"region.9df4b811-4cbe-4c1c-858f-a9fdcbf46039","countryId":"country.1yyv1wz"},"geometry":{"type":"Polygon","coordinates":[[[21.523,53.4435],[21.1737,53.3796],[21.0979,53.3256],[20.704,53.2759],[20.2406,53.098],[19.9248,53.1273],[19.7479,53.0931],[19.6635,52.9872],[19.5073,52.8945],[19.4404,52.7868],[19.497,52.7048],[19.2959,52.3342],[19.6414,52.2192],[19.9182,52.2677],[20.0638,52.1925],[20.1002,52.104],[20.2517,52.0577],[20.2162,51.9743],[20.6129,51.796],[20.6581,51.6171],[20.4216,51.5872],[20.5054,51.3841],[20.4321,51.2899],[20.7517,51.1168],[21.0117,51.1149],[21.4956,51.0132],[21.8154,51.0551],[21.7716,51.1515],[21.8524,51.3504],[21.8212,51.5626],[21.9468,51.7821],[21.8413,51.9584],[21.9884,52.0045],[22.3559,52.0219],[22.5997,52.0623],[22.7012,52.1361],[22.8983,52.1021],[23.087,52.2923],[22.9228,52.3723],[22.5829,52.3945],[22.5107,52.5353],[22.4119,52.6006],[22.3779,52.7941],[22.2231,52.8569],[21.9776,52.862],[21.8468,53.0516],[21.6928,53.0953],[21.6004,53.2221],[21.523,53.4435]]]}},{"type":"Feature","properties":{"sourceId":"1159314693","regionId":"region.47af35e8-90b2-43eb-9b2c-0060cdd655da","countryId":"country.1yyv1wz"},"geometry":{"type":"Polygon","coordinates":[[[19.2959,52.3342],[19.0402,52.2784],[19.0786,52.2088],[18.9169,52.1461],[18.8466,52.0187],[18.7135,52.0097],[18.7187,51.8459],[18.6593,51.7857],[18.4572,51.7787],[18.3591,51.6269],[18.3657,51.4526],[18.0548,51.3025],[18.1501,51.1361],[18.4257,51.0596],[18.5305,51.0826],[18.6556,50.9952],[18.9114,51.0371],[19.108,50.9685],[19.3543,50.9714],[19.5079,50.8423],[19.7506,50.8043],[20.0563,51.1595],[20.1669,51.1498],[20.3666,51.2196],[20.4321,51.2899],[20.5054,51.3841],[20.4216,51.5872],[20.6581,51.6171],[20.6129,51.796],[20.2162,51.9743],[20.2517,52.0577],[20.1002,52.104],[20.0638,52.1925],[19.9182,52.2677],[19.6414,52.2192],[19.2959,52.3342]]]}},{"type":"Feature","properties":{"sourceId":"1159314689","regionId":"region.eceb7c80-05c0-4f50-bab4-949e81f4810b","countryId":"country.1yyv1wz"},"geometry":{"type":"Polygon","coordinates":[[[19.7479,53.0931],[19.6813,53.263],[19.2855,53.3645],[19.1283,53.5559],[18.9601,53.5375],[18.7594,53.6252],[18.583,53.6053],[18.2557,53.6942],[17.9241,53.6956],[17.6832,53.5424],[17.5076,53.5616],[17.3972,53.4338],[17.2975,53.3403],[17.4421,53.2055],[17.3313,52.9562],[17.5375,52.8389],[17.4466,52.718],[17.5182,52.654],[17.8132,52.5957],[18.1586,52.4518],[18.3523,52.4866],[18.7415,52.329],[19.0402,52.2784],[19.2959,52.3342],[19.497,52.7048],[19.4404,52.7868],[19.5073,52.8945],[19.6635,52.9872],[19.7479,53.0931]]]}},{"type":"Feature","properties":{"sourceId":"1159314685","regionId":"region.3bcf4f3f-0123-42ce-9445-8332085d7390","countryId":"country.1yyv1wz"},"geometry":{"type":"Polygon","coordinates":[[[19.0402,52.2784],[18.7415,52.329],[18.3523,52.4866],[18.1586,52.4518],[17.8132,52.5957],[17.5182,52.654],[17.4466,52.718],[17.5375,52.8389],[17.3313,52.9562],[17.4421,53.2055],[17.2975,53.3403],[17.3972,53.4338],[17.2993,53.4831],[17.0957,53.4881],[16.9477,53.5882],[16.8365,53.5852],[16.7653,53.4612],[16.5511,53.4606],[16.5451,53.366],[16.7204,53.3064],[16.6747,53.1893],[16.4562,53.1247],[16.2788,52.9932],[16.0385,53.0067],[16.0219,52.8853],[15.8311,52.6933],[15.9012,52.287],[15.857,52.1037],[16.0394,51.9676],[16.1132,51.8649],[16.2747,51.8682],[16.3711,51.7492],[16.6118,51.7149],[16.6761,51.6095],[16.943,51.5127],[17.3468,51.594],[17.5566,51.535],[17.4952,51.4503],[17.6443,51.3694],[17.7146,51.1502],[17.9174,51.0658],[18.1501,51.1361],[18.0548,51.3025],[18.3657,51.4526],[18.3591,51.6269],[18.4572,51.7787],[18.6593,51.7857],[18.7187,51.8459],[18.7135,52.0097],[18.8466,52.0187],[18.9169,52.1461],[19.0786,52.2088],[19.0402,52.2784]]]}},{"type":"Feature","properties":{"sourceId":"1159314697","regionId":"region.5bdca549-4ea3-4fef-8b1a-5b01d2f575f6","countryId":"country.1yyv1wz"},"geometry":{"type":"Polygon","coordinates":[[[20.4321,51.2899],[20.3666,51.2196],[20.1669,51.1498],[20.0563,51.1595],[19.7506,50.8043],[19.7417,50.7057],[19.879,50.6545],[19.9563,50.4845],[20.2846,50.3986],[20.4287,50.205],[20.6335,50.1744],[20.7711,50.2744],[21.1813,50.3375],[21.2953,50.4108],[21.5949,50.5245],[21.8405,50.7399],[21.8443,50.8298],[21.8154,51.0551],[21.4956,51.0132],[21.0117,51.1149],[20.7517,51.1168],[20.4321,51.2899]]]}}]}