{"type":"FeatureCollection","features":[{"type":"Feature","properties":{"sourceId":"1159317173","regionId":"region.8b51f951-cdc4-4b87-9e0b-7d771a840536","countryId":"country.9cg02n"},"geometry":{"type":"Polygon","coordinates":[[[32.9209,-9.4079],[32.7596,-9.34],[32.7132,-9.2858],[32.518,-9.2582],[32.383,-9.1339],[32.2314,-9.1338],[32.3209,-9.3616],[32.3293,-9.4621],[32.0192,-9.4202],[31.9018,-9.437],[31.7509,-9.5208],[31.6001,-9.5041],[31.5749,-9.5711],[31.3654,-9.5041],[31.2061,-9.613],[31.1139,-9.7555],[31.2648,-9.9567],[31.3402,-10.183],[31.5498,-10.3088],[31.5528,-10.558],[31.335,-10.6125],[31.2755,-10.728],[31.1306,-10.75],[31.1709,-10.8732],[31.1008,-10.9554],[31.0198,-10.9435],[30.8486,-11.0566],[30.7063,-11.2905],[30.628,-11.326],[30.4558,-11.5017],[30.4476,-11.59],[30.2451,-11.8258],[29.7895,-11.899],[29.7994,-12.1558],[29.7996,-12.159],[29.8667,-12.0416],[29.9973,-12.0005],[30.0846,-12.1472],[30.1618,-12.2023],[30.5052,-12.3146],[30.5005,-12.4607],[30.5645,-12.574],[30.6771,-12.5912],[30.763,-12.6681],[30.728,-12.7652],[30.7502,-12.8715],[30.8497,-12.9335],[31.0205,-12.9508],[31.1208,-13.0407],[31.2699,-12.9471],[31.3496,-13.0102],[31.365,-13.2286],[31.4258,-13.3248],[31.4291,-13.4357],[31.5183,-13.4319],[31.6381,-13.3356],[31.6751,-13.2005],[31.7528,-13.1161],[31.9132,-13.0308],[31.9185,-12.9306],[32.0163,-12.8768],[32.0678,-12.7846],[32.1385,-12.4513],[32.2558,-12.2947],[32.2913,-12.2012],[32.4329,-12.2191],[32.5421,-12.0679],[32.727,-12.0595],[33.0882,-11.9503],[33.2163,-11.6733],[33.305,-11.644],[33.2126,-11.5638],[33.2303,-11.4166],[33.3909,-11.1648],[33.291,-10.9751],[33.3191,-10.8181],[33.501,-10.7692],[33.6738,-10.573],[33.5592,-10.4043],[33.5333,-10.2312],[33.31,-10.0127],[33.3656,-9.8988],[33.337,-9.8237],[33.2167,-9.7271],[33.1754,-9.6023],[33.0892,-9.644],[32.9747,-9.6013],[32.992,-9.5018],[32.9209,-9.4079]]]}},{"type":"Feature","properties":{"sourceId":"1159307887","regionId":"region.2b9c9699-34cd-4b99-b949-0ca1ddcd261a","countryId":"country.9cg02n"},"geometry":{"type":"Polygon","coordinates":[[[33.305,-11.644],[33.2163,-11.6733],[33.0882,-11.9503],[32.727,-12.0595],[32.5421,-12.0679],[32.4329,-12.2191],[32.2913,-12.2012],[32.2558,-12.2947],[32.1385,-12.4513],[32.0678,-12.7846],[32.0163,-12.8768],[31.9185,-12.9306],[31.9132,-13.0308],[31.7528,-13.1161],[31.6751,-13.2005],[31.6381,-13.3356],[31.5183,-13.4319],[31.4291,-13.4357],[31.2224,-13.5823],[31.1228,-13.6274],[31.0986,-13.7138],[30.9627,-13.8197],[30.8731,-13.9297],[30.0977,-13.9319],[30.1896,-14.0508],[30.303,-14.1],[30.2915,-14.2068],[30.0346,-14.4424],[29.9942,-14.6071],[30.0512,-14.6712],[30.2065,-14.8307],[30.2144,-14.982],[30.3184,-14.967],[30.4856,-14.886],[30.8158,-14.7682],[31.4109,-14.6336],[31.6584,-14.5196],[32.2274,-14.339],[33.2027,-14.0139],[33.1545,-13.9366],[33.0494,-13.9966],[32.8594,-13.8081],[32.7228,-13.5734],[32.8131,-13.5282],[32.9055,-13.3514],[32.9951,-13.1909],[32.9659,-13.1168],[33.005,-12.893],[32.9411,-12.7699],[33.0248,-12.6127],[33.2551,-12.5319],[33.3732,-12.5185],[33.5139,-12.3743],[33.4583,-12.3181],[33.3301,-12.2983],[33.2549,-12.0726],[33.3127,-11.8987],[33.305,-11.644]]]}},{"type":"Feature","properties":{"sourceId":"1159307879","regionId":"region.ba7871cb-1af2-44d7-825d-eb8d0cbca735","countryId":"country.9cg02n"},"geometry":{"type":"Polygon","coordinates":[[[30.7521,-8.1941],[29.5758,-8.3727],[29.4967,-8.4948],[29.4277,-8.516],[29.3372,-8.6441],[29.2323,-8.9252],[29.1702,-8.9568],[29.1201,-9.1071],[29.3341,-9.2165],[29.3582,-9.5238],[29.5318,-9.6427],[29.8073,-9.715],[29.9379,-9.8911],[29.9376,-10.0725],[29.828,-10.2372],[29.7256,-10.2183],[29.4451,-10.3775],[29.4145,-10.5269],[29.3573,-10.6304],[29.1692,-10.7361],[29.1634,-10.8659],[29.0859,-10.9535],[29.2696,-11.0874],[29.3971,-11.0424],[29.3378,-10.908],[29.6412,-10.739],[29.7858,-10.8108],[29.8839,-10.9447],[29.8926,-11.0193],[29.8347,-11.3953],[29.9807,-11.2404],[30.138,-11.2544],[30.4492,-11.4755],[30.4558,-11.5017],[30.628,-11.326],[30.7063,-11.2905],[30.8486,-11.0566],[31.0198,-10.9435],[31.1008,-10.9554],[31.1709,-10.8732],[31.1306,-10.75],[31.2755,-10.728],[31.335,-10.6125],[31.5528,-10.558],[31.5498,-10.3088],[31.3402,-10.183],[31.2648,-9.9567],[31.1139,-9.7555],[31.2061,-9.613],[31.3654,-9.5041],[31.5749,-9.5711],[31.6001,-9.5041],[31.7509,-9.5208],[31.9018,-9.437],[32.0192,-9.4202],[32.3293,-9.4621],[32.3209,-9.3616],[32.2314,-9.1338],[32.1456,-9.0703],[31.9177,-9.0225],[31.9366,-8.9326],[31.7876,-8.8922],[31.6727,-8.913],[31.5534,-8.8091],[31.539,-8.7035],[31.3533,-8.5872],[31.2609,-8.624],[31.1198,-8.6166],[30.9595,-8.5505],[30.8283,-8.3881],[30.7521,-8.1941]]]}},{"type":"Feature","properties":{"sourceId":"1159307889","regionId":"region.21503033-c727-4e69-afe7-3bc34908d0ce","countryId":"country.9cg02n"},"geometry":{"type":"Polygon","coordinates":[[[28.9469,-15.9572],[29.0423,-15.9463],[29.1863,-15.8128],[29.407,-15.7142],[29.5085,-15.7036],[29.8373,-15.6148],[30.0107,-15.6462],[30.1301,-15.6237],[30.2962,-15.639],[30.3963,-15.636],[30.3692,-15.3747],[30.2879,-15.2789],[30.2258,-15.1063],[30.2144,-14.982],[30.2065,-14.8307],[30.0512,-14.6712],[29.8989,-14.6619],[29.669,-14.7498],[29.5077,-14.8361],[29.4598,-14.9631],[29.2281,-14.9567],[28.9468,-15.0415],[28.8231,-15.1494],[28.5691,-15.1883],[28.4043,-15.1457],[28.2908,-15.3417],[27.8625,-15.2606],[27.9056,-15.5317],[27.7993,-15.561],[27.7568,-15.6489],[28.0072,-15.683],[28.0406,-15.7318],[28.2461,-15.817],[28.3911,-15.7844],[28.7445,-15.9474],[28.9469,-15.9572]]]}},{"type":"Feature","properties":{"sourceId":"1159307893","regionId":"region.ed3d5479-efad-41ab-b106-632f9b2cd9ee","countryId":"country.9cg02n"},"geometry":{"type":"Polygon","coordinates":[[[28.9469,-15.9572],[28.7445,-15.9474],[28.3911,-15.7844],[28.2461,-15.817],[28.0406,-15.7318],[28.0072,-15.683],[27.7568,-15.6489],[27.6536,-15.6254],[27.6263,-15.5189],[27.5341,-15.4874],[27.4098,-15.5681],[27.2796,-15.7145],[27.2277,-15.4971],[26.9682,-15.4705],[26.8439,-15.3516],[26.7463,-15.3361],[25.3248,-15.2989],[25.3454,-15.3393],[25.2279,-15.5834],[25.2965,-15.76],[25.3971,-15.7691],[25.3346,-15.998],[25.4261,-16.0837],[25.2899,-16.2926],[25.1423,-16.3805],[24.9997,-16.5489],[25.1077,-16.6727],[25.2514,-16.7057],[25.279,-16.9055],[25.0955,-17.1304],[25.0984,-17.2219],[25.0206,-17.3342],[24.97,-17.56],[25.2598,-17.7941],[25.3355,-17.8412],[25.4956,-17.8549],[25.6814,-17.8115],[25.8497,-17.9067],[25.8636,-17.9716],[25.9785,-17.999],[26.203,-17.8872],[26.4086,-17.939],[26.7119,-18.0658],[26.8883,-17.9846],[27.0485,-17.9443],[27.149,-17.8425],[27.1571,-17.7693],[27.5773,-17.3631],[27.6412,-17.1985],[27.7773,-17.0012],[28.023,-16.8654],[28.2801,-16.7065],[28.6433,-16.5688],[28.7329,-16.5581],[28.8225,-16.4708],[28.871,-16.0872],[28.9469,-15.9572]]]}},{"type":"Feature","properties":{"sourceId":"1159307895","regionId":"region.f6aadf43-fd4e-4f3c-b1e9-5667efc3e253","countryId":"country.9cg02n"},"geometry":{"type":"Polygon","coordinates":[[[21.9838,-16.1659],[22.0799,-16.4578],[22.1517,-16.5977],[22.2377,-16.6655],[22.3337,-16.6737],[22.5229,-16.9147],[22.7105,-17.0554],[22.7559,-17.1549],[22.8762,-17.2481],[22.9986,-17.2938],[23.073,-17.4051],[23.2908,-17.5354],[23.3817,-17.6411],[24.2205,-17.4795],[24.407,-17.4745],[24.5913,-17.5284],[24.6844,-17.4924],[24.97,-17.56],[25.0206,-17.3342],[25.0984,-17.2219],[25.0955,-17.1304],[25.279,-16.9055],[25.2514,-16.7057],[25.1077,-16.6727],[24.9997,-16.5489],[25.1423,-16.3805],[25.2899,-16.2926],[25.4261,-16.0837],[25.3346,-15.998],[25.3971,-15.7691],[25.2965,-15.76],[25.2279,-15.5834],[25.3454,-15.3393],[25.3248,-15.2989],[25.3276,-15.175],[25.4028,-15.1364],[25.456,-15.0196],[25.4232,-14.8765],[25.4801,-14.7845],[25.4787,-14.6835],[25.5484,-14.5852],[25.3153,-14.5774],[25.0402,-14.636],[24.9612,-14.5533],[25.0486,-14.4266],[25.0883,-14.2479],[24.7539,-14.1245],[24.6613,-13.9585],[24.5539,-13.9829],[24.2864,-13.9393],[24.2224,-13.9059],[24.0117,-13.9972],[23.6835,-13.9904],[23.3549,-14.1375],[23.2236,-14.1685],[23.227,-14.0763],[23.117,-14.053],[23.0948,-13.9871],[22.8342,-13.8727],[22.7217,-13.9886],[22.5411,-13.9093],[22.233,-13.6814],[22.0928,-13.7607],[21.9804,-13.6948],[21.9809,-14.5084],[21.9813,-15.1112],[21.9838,-16.1659]]]}},{"type":"Feature","properties":{"sourceId":"1159307891","regionId":"region.bd8982f8-7063-44b2-8f26-53b89e0403b2","countryId":"country.9cg02n"},"geometry":{"type":"Polygon","coordinates":[[[21.9804,-13.6948],[22.0928,-13.7607],[22.233,-13.6814],[22.5411,-13.9093],[22.7217,-13.9886],[22.8342,-13.8727],[23.0948,-13.9871],[23.117,-14.053],[23.227,-14.0763],[23.2236,-14.1685],[23.3549,-14.1375],[23.6835,-13.9904],[24.0117,-13.9972],[24.2224,-13.9059],[24.2864,-13.9393],[24.5539,-13.9829],[24.6613,-13.9585],[24.7539,-14.1245],[25.0883,-14.2479],[25.0486,-14.4266],[24.9612,-14.5533],[25.0402,-14.636],[25.3153,-14.5774],[25.5484,-14.5852],[25.621,-14.5554],[26.376,-14.6477],[26.5883,-14.4428],[26.7361,-14.449],[26.9277,-14.4099],[26.9791,-14.1691],[26.9134,-14.0761],[26.9122,-13.91],[26.9512,-13.8391],[26.8526,-13.7166],[26.789,-13.6437],[26.8591,-13.4393],[26.9736,-13.3348],[26.9815,-13.1919],[27.0671,-13.1156],[27.0942,-13.0008],[26.8797,-12.8864],[26.8478,-12.7477],[26.8862,-12.6376],[27.0768,-12.516],[27.0601,-12.333],[27.2765,-12.3457],[27.4277,-12.2439],[27.5105,-12.3007],[27.5898,-12.243],[27.5205,-12.1796],[27.4207,-11.922],[27.2342,-11.8091],[27.1801,-11.5696],[27.0103,-11.6098],[26.9673,-11.8704],[26.8742,-11.9643],[26.6435,-11.9855],[26.4891,-11.9608],[26.4146,-11.9118],[26.298,-11.9412],[26.1667,-11.9024],[25.9941,-11.9048],[25.8507,-11.7938],[25.7256,-11.8005],[25.6215,-11.7289],[25.4812,-11.7153],[25.352,-11.6461],[25.279,-11.3963],[25.3249,-11.2837],[25.2788,-11.1999],[25.1243,-11.2592],[24.9429,-11.2686],[24.6741,-11.3416],[24.5647,-11.4447],[24.4465,-11.4636],[24.3101,-11.4066],[24.3922,-11.2791],[24.3818,-11.1206],[24.2938,-11.0503],[24.1242,-11.0433],[24.1142,-10.9192],[23.9675,-10.8723],[24.0037,-10.9825],[24.0112,-11.2729],[24.0611,-11.395],[23.9599,-11.6172],[23.9885,-11.8342],[23.967,-11.8829],[23.9596,-12.1967],[24.0308,-12.3851],[23.9287,-12.5616],[23.8657,-12.7897],[24.0006,-13.0015],[23.2227,-13.0015],[21.9799,-13.0015],[21.9804,-13.6948]]]}},{"type":"Feature","properties":{"sourceId":"1159307877","regionId":"region.ff9255a0-e7f4-46b6-8b95-8fe8aea400e8","countryId":"country.9cg02n"},"geometry":{"type":"Polygon","coordinates":[[[29.5758,-8.3727],[28.9153,-8.4729],[28.9305,-8.6799],[28.7654,-8.934],[28.5991,-9.0964],[28.3723,-9.2351],[28.3685,-9.3086],[28.516,-9.3783],[28.6239,-9.6491],[28.6685,-9.8216],[28.6239,-9.951],[28.6196,-10.1419],[28.5699,-10.2196],[28.6292,-10.2959],[28.6349,-10.5195],[28.6996,-10.6432],[28.5635,-10.8119],[28.4768,-11.078],[28.4396,-11.3482],[28.357,-11.4469],[28.4525,-11.7808],[28.4972,-11.8574],[28.835,-12.0922],[28.9447,-12.2061],[29.0304,-12.3762],[29.255,-12.3662],[29.4997,-12.4531],[29.4466,-12.3351],[29.4743,-12.2427],[29.7994,-12.1558],[29.7895,-11.899],[30.2451,-11.8258],[30.4476,-11.59],[30.4558,-11.5017],[30.4492,-11.4755],[30.138,-11.2544],[29.9807,-11.2404],[29.8347,-11.3953],[29.8926,-11.0193],[29.8839,-10.9447],[29.7858,-10.8108],[29.6412,-10.739],[29.3378,-10.908],[29.3971,-11.0424],[29.2696,-11.0874],[29.0859,-10.9535],[29.1634,-10.8659],[29.1692,-10.7361],[29.3573,-10.6304],[29.4145,-10.5269],[29.4451,-10.3775],[29.7256,-10.2183],[29.828,-10.2372],[29.9376,-10.0725],[29.9379,-9.8911],[29.8073,-9.715],[29.5318,-9.6427],[29.3582,-9.5238],[29.3341,-9.2165],[29.1201,-9.1071],[29.1702,-8.9568],[29.2323,-8.9252],[29.3372,-8.6441],[29.4277,-8.516],[29.4967,-8.4948],[29.5758,-8.3727]]]}},{"type":"Feature","properties":{"sourceId":"1159307885","regionId":"region.b5243379-31f1-45f7-a224-ed4d0efe825b","countryId":"country.9cg02n"},"geometry":{"type":"Polygon","coordinates":[[[27.5898,-12.243],[27.5105,-12.3007],[27.4277,-12.2439],[27.2765,-12.3457],[27.0601,-12.333],[27.0768,-12.516],[26.8862,-12.6376],[26.8478,-12.7477],[26.8797,-12.8864],[27.0942,-13.0008],[27.0671,-13.1156],[26.9815,-13.1919],[26.9736,-13.3348],[26.8591,-13.4393],[26.789,-13.6437],[26.8526,-13.7166],[27.3471,-13.7403],[27.3937,-13.8979],[27.4614,-13.8927],[27.6604,-13.6508],[27.8232,-13.6987],[27.8901,-13.8613],[27.9524,-13.9211],[28.1505,-13.8879],[28.4352,-13.8909],[28.6748,-13.8506],[28.6669,-13.7401],[28.8719,-13.5602],[28.9541,-13.5199],[29.0654,-13.3887],[28.994,-13.3959],[28.9341,-13.3096],[28.9034,-13.1623],[28.8006,-13.0024],[28.6679,-12.8493],[28.584,-12.8887],[28.474,-12.7365],[28.5116,-12.6944],[28.4227,-12.5213],[28.3397,-12.4505],[28.1313,-12.4292],[28.0877,-12.3775],[27.9587,-12.3678],[27.8314,-12.2599],[27.6662,-12.3027],[27.5898,-12.243]]]}},{"type":"Feature","properties":{"sourceId":"1159307881","regionId":"region.791c94f0-b17c-4329-bd59-381462cef415","countryId":"country.9cg02n"},"geometry":{"type":"Polygon","coordinates":[[[29.7996,-12.159],[29.7976,-13.4242],[29.7029,-13.4576],[29.6017,-13.3744],[29.6675,-13.292],[29.5744,-13.2254],[29.1689,-13.4339],[29.0654,-13.3887],[28.9541,-13.5199],[28.8719,-13.5602],[28.6669,-13.7401],[28.6748,-13.8506],[28.4352,-13.8909],[28.1505,-13.8879],[27.9524,-13.9211],[27.8901,-13.8613],[27.8232,-13.6987],[27.6604,-13.6508],[27.4614,-13.8927],[27.3937,-13.8979],[27.3471,-13.7403],[26.8526,-13.7166],[26.9512,-13.8391],[26.9122,-13.91],[26.9134,-14.0761],[26.9791,-14.1691],[26.9277,-14.4099],[26.7361,-14.449],[26.5883,-14.4428],[26.376,-14.6477],[25.621,-14.5554],[25.5484,-14.5852],[25.4787,-14.6835],[25.4801,-14.7845],[25.4232,-14.8765],[25.456,-15.0196],[25.4028,-15.1364],[25.3276,-15.175],[25.3248,-15.2989],[26.7463,-15.3361],[26.8439,-15.3516],[26.9682,-15.4705],[27.2277,-15.4971],[27.2796,-15.7145],[27.4098,-15.5681],[27.5341,-15.4874],[27.6263,-15.5189],[27.6536,-15.6254],[27.7568,-15.6489],[27.7993,-15.561],[27.9056,-15.5317],[27.8625,-15.2606],[28.2908,-15.3417],[28.4043,-15.1457],[28.5691,-15.1883],[28.8231,-15.1494],[28.9468,-15.0415],[29.2281,-14.9567],[29.4598,-14.9631],[29.5077,-14.8361],[29.669,-14.7498],[29.8989,-14.6619],[30.0512,-14.6712],[29.9942,-14.6071],[30.0346,-14.4424],[30.2915,-14.2068],[30.303,-14.1],[30.1896,-14.0508],[30.0977,-13.9319],[30.8731,-13.9297],[30.9627,-13.8197],[31.0986,-13.7138],[31.1228,-13.6274],[31.2224,-13.5823],[31.4291,-13.4357],[31.4258,-13.3248],[31.365,-13.2286],[31.3496,-13.0102],[31.2699,-12.9471],[31.1208,-13.0407],[31.0205,-12.9508],[30.8497,-12.9335],[30.7502,-12.8715],[30.728,-12.7652],[30.763,-12.6681],[30.6771,-12.5912],[30.5645,-12.574],[30.5005,-12.4607],[30.5052,-12.3146],[30.1618,-12.2023],[30.0846,-12.1472],[29.9973,-12.0005],[29.8667,-12.0416],[29.7996,-12.159]]]}}]}