{"type":"FeatureCollection","features":[{"type":"Feature","properties":{"sourceId":"1159317113","regionId":"region.eac47335-a5be-414e-860e-1a9f15c9e891","countryId":"country.1bryr1g"},"geometry":{"type":"Polygon","coordinates":[[[166.2434,-50.6008],[166.1177,-50.5524],[166.0591,-50.6935],[165.8865,-50.7946],[165.9653,-50.8401],[166.0835,-50.7868],[166.2434,-50.6008]]]}},{"type":"Feature","properties":{"sourceId":"1159317111","regionId":"region.fba6fc88-2b0e-4193-bb91-d26c709d3fe2","countryId":"country.1bryr1g"},"geometry":{"type":"Polygon","coordinates":[[[169.2504,-52.5203],[169.1136,-52.5465],[169.1953,-52.6003],[169.2504,-52.5203]]]}},{"type":"Feature","properties":{"sourceId":"1159317109","regionId":"region.b4d9f6b8-e267-4707-8881-6e9772662c41","countryId":"country.1bryr1g"},"geometry":{"type":"Polygon","coordinates":[[[178.839,-49.6292],[178.7176,-49.6725],[178.8263,-49.7131],[178.839,-49.6292]]]}},{"type":"Feature","properties":{"sourceId":"1159315477","regionId":"region.2725fb24-9f3a-4941-8a16-3a37123e1c37","countryId":"country.1bryr1g"},"geometry":{"type":"Polygon","coordinates":[[[-176.382,-43.8986],[-176.2851,-43.7697],[-176.602,-43.7076],[-176.6384,-43.7996],[-176.5159,-43.9223],[-176.6644,-44.0192],[-176.608,-44.1115],[-176.3,-44.0426],[-176.4565,-43.9498],[-176.5131,-43.7502],[-176.3723,-43.7659],[-176.382,-43.8986]]]}},{"type":"Feature","properties":{"sourceId":"1159315483","regionId":"region.5aac5653-80af-427a-b714-579d6ab58aad","countryId":"country.1bryr1g"},"geometry":{"type":"Polygon","coordinates":[[[-177.9095,-29.2786],[-177.8894,-29.2338],[-177.958,-29.2228],[-177.9095,-29.2786]]]}},{"type":"Feature","properties":{"sourceId":"1159317115","regionId":"region.abe73a90-3fbd-4f10-9530-e23b5f890239","countryId":"country.1bryr1g"},"geometry":{"type":"Polygon","coordinates":[[[166.6372,-47.9936],[166.5684,-48.0344],[166.6343,-48.04],[166.6235,-48.0209],[166.6372,-47.9936]]]}},{"type":"Feature","properties":{"sourceId":"1159314877","regionId":"region.b315b4f6-f149-4043-b1bd-d43b9dd9f116","countryId":"country.1bryr1g"},"geometry":{"type":"MultiPolygon","coordinates":[[[[168.1995,-47.0476],[168.1792,-46.8644],[167.9206,-46.683],[167.7874,-46.6972],[167.7583,-46.8074],[167.8166,-46.8974],[167.6482,-47.048],[167.6458,-47.2052],[167.9019,-47.1884],[168.1995,-47.0476]]],[[[169.1927,-46.618],[169.2238,-46.4974],[169.1571,-46.3591],[169.1876,-46.2097],[169.0818,-46.0078],[168.9997,-45.7654],[169.0215,-45.6616],[169.1774,-45.3736],[169.0047,-45.3036],[168.8949,-45.4163],[168.7785,-45.4167],[168.6378,-45.2582],[168.4625,-45.3156],[168.3076,-45.2995],[168.2391,-45.1318],[168.276,-45.0471],[168.1607,-44.9644],[168.1261,-44.863],[168.2051,-44.5967],[168.3289,-44.49],[168.3739,-44.3697],[168.2415,-44.2656],[168.1367,-44.2808],[167.8364,-44.5053],[167.752,-44.6032],[167.4187,-44.8409],[167.2035,-44.95],[167.0049,-45.1496],[167.0789,-45.3063],[166.8814,-45.2796],[166.806,-45.3463],[166.7025,-45.5424],[166.7975,-45.7244],[166.4898,-45.8075],[166.4694,-45.9835],[166.6292,-45.9653],[166.6161,-46.0881],[166.762,-46.22],[167.0857,-46.2369],[167.1748,-46.2731],[167.4058,-46.2512],[167.4609,-46.1482],[167.6979,-46.1887],[167.8501,-46.3966],[168.0733,-46.3488],[168.2161,-46.3544],[168.3657,-46.5402],[168.5915,-46.6144],[168.8449,-46.5602],[168.8775,-46.6442],[169.036,-46.6819],[169.1927,-46.618]]]]}},{"type":"Feature","properties":{"sourceId":"1159314909","regionId":"region.5ec6f9a7-62d1-405e-95d1-ebadafe8f64f","countryId":"country.1bryr1g"},"geometry":{"type":"MultiPolygon","coordinates":[[[[173.7844,-40.9072],[173.9637,-40.7944],[173.8268,-40.7663],[173.7844,-40.9072]]],[[[173.5905,-41.0557],[173.5651,-41.1481],[173.3902,-41.3297],[173.2853,-41.3886],[173.2429,-41.5221],[173.1732,-41.5338],[172.8727,-41.8311],[172.8418,-41.9338],[172.7063,-42.116],[172.8179,-42.1806],[172.854,-42.2988],[173.0644,-42.4713],[173.1525,-42.4315],[173.2008,-42.3191],[173.4379,-42.1999],[173.4985,-42.0721],[173.704,-41.9589],[173.914,-41.9161],[174.0817,-41.9691],[174.2864,-41.7546],[174.1724,-41.5782],[174.0581,-41.5173],[174.0555,-41.4246],[174.155,-41.221],[174.2604,-41.1183],[174.2114,-40.9996],[174.0159,-40.9745],[173.9299,-41.0483],[173.5905,-41.0557]]]]}},{"type":"Feature","properties":{"sourceId":"1159314913","regionId":"region.c5710d26-ed64-44bb-b851-b6feb2169a18","countryId":"country.1bryr1g"},"geometry":{"type":"Polygon","coordinates":[[[173.185,-41.3102],[173.2853,-41.3886],[173.3902,-41.3297],[173.5651,-41.1481],[173.5905,-41.0557],[173.185,-41.3102]]]}},{"type":"Feature","properties":{"sourceId":"1159314915","regionId":"region.f837c883-ae07-4787-94f9-6d1bdfa59e2b","countryId":"country.1bryr1g"},"geometry":{"type":"Polygon","coordinates":[[[172.2334,-40.7776],[172.2516,-40.854],[172.5181,-41.1141],[172.6896,-41.1941],[172.5815,-41.2694],[172.5781,-41.3781],[172.4141,-41.4277],[172.2433,-41.6993],[172.1285,-41.7373],[172.0641,-41.9546],[172.1417,-42.0991],[172.3253,-42.1621],[172.4096,-42.3125],[172.4846,-42.286],[172.7063,-42.116],[172.8418,-41.9338],[172.8727,-41.8311],[173.1732,-41.5338],[173.2429,-41.5221],[173.2853,-41.3886],[173.185,-41.3102],[173.126,-41.3117],[173.0309,-41.1491],[173.065,-40.8867],[173.0173,-40.7973],[172.8565,-40.8437],[172.6891,-40.7341],[172.7223,-40.5515],[172.6414,-40.5097],[172.3635,-40.7159],[172.2334,-40.7776]]]}},{"type":"Feature","properties":{"sourceId":"1159314917","regionId":"region.5e63dd57-51ab-42d8-969a-8486471456bc","countryId":"country.1bryr1g"},"geometry":{"type":"Polygon","coordinates":[[[168.1367,-44.2808],[168.2415,-44.2656],[168.3739,-44.3697],[168.3289,-44.49],[168.4539,-44.4805],[168.7427,-44.3936],[168.8444,-44.2509],[169.0711,-44.1014],[169.2923,-44.0762],[169.3673,-44.1021],[169.6719,-43.9755],[169.9499,-43.7829],[170.1003,-43.6057],[170.2046,-43.5325],[170.4706,-43.4365],[170.5958,-43.4235],[170.8682,-43.2421],[171.0057,-43.1858],[171.068,-43.1067],[171.2073,-43.072],[171.3278,-42.9646],[171.7271,-42.8908],[171.7652,-42.7973],[171.8789,-42.7578],[171.9829,-42.6524],[172.1006,-42.6137],[172.2487,-42.4697],[172.447,-42.3691],[172.4846,-42.286],[172.4096,-42.3125],[172.3253,-42.1621],[172.1417,-42.0991],[172.0641,-41.9546],[172.1285,-41.7373],[172.2433,-41.6993],[172.4141,-41.4277],[172.5781,-41.3781],[172.5815,-41.2694],[172.6896,-41.1941],[172.5181,-41.1141],[172.2516,-40.854],[172.2334,-40.7776],[172.1068,-40.8869],[172.1144,-41.2509],[172.0708,-41.4142],[171.9827,-41.4658],[171.9038,-41.6069],[171.4888,-41.8303],[171.3316,-42.1472],[171.3049,-42.2946],[171.1228,-42.5924],[170.9439,-42.7338],[170.8584,-42.8434],[170.7007,-42.9547],[170.5144,-43.0066],[170.3631,-43.1031],[170.2388,-43.2379],[170.105,-43.2581],[170.0301,-43.3458],[169.8968,-43.3945],[169.7337,-43.5657],[169.5833,-43.603],[169.1921,-43.7587],[169.0813,-43.8468],[168.7468,-44.0103],[168.6458,-43.9645],[168.4103,-44.0279],[168.1367,-44.2808]]]}},{"type":"Feature","properties":{"sourceId":"1159314919","regionId":"region.770b40cc-6fa2-4808-8a4e-5b6eff94cde5","countryId":"country.1bryr1g"},"geometry":{"type":"Polygon","coordinates":[[[171.1725,-44.9533],[170.842,-44.8817],[170.6436,-44.9189],[170.39,-45.0604],[170.3037,-44.9165],[170.0753,-44.9131],[169.9033,-44.6647],[169.7973,-44.6607],[169.6436,-44.5659],[169.5526,-44.446],[169.547,-44.2032],[169.6797,-44.0309],[169.6719,-43.9755],[169.3673,-44.1021],[169.2923,-44.0762],[169.0711,-44.1014],[168.8444,-44.2509],[168.7427,-44.3936],[168.4539,-44.4805],[168.3289,-44.49],[168.2051,-44.5967],[168.1261,-44.863],[168.1607,-44.9644],[168.276,-45.0471],[168.2391,-45.1318],[168.3076,-45.2995],[168.4625,-45.3156],[168.6378,-45.2582],[168.7785,-45.4167],[168.8949,-45.4163],[169.0047,-45.3036],[169.1774,-45.3736],[169.0215,-45.6616],[168.9997,-45.7654],[169.0818,-46.0078],[169.1876,-46.2097],[169.1571,-46.3591],[169.2238,-46.4974],[169.1927,-46.618],[169.2197,-46.6607],[169.5669,-46.565],[169.6351,-46.5784],[169.849,-46.4675],[169.8648,-46.3784],[170.2349,-46.154],[170.3338,-45.9815],[170.4934,-45.9229],[170.7005,-45.9078],[170.7873,-45.8631],[170.6984,-45.6793],[170.9063,-45.4028],[170.877,-45.3559],[170.9803,-45.155],[171.1725,-44.9533]]]}},{"type":"Feature","properties":{"sourceId":"1159314911","regionId":"region.26175e50-1756-4861-81ef-02a55ba9da7e","countryId":"country.1bryr1g"},"geometry":{"type":"Polygon","coordinates":[[[174.0817,-41.9691],[173.914,-41.9161],[173.704,-41.9589],[173.4985,-42.0721],[173.4379,-42.1999],[173.2008,-42.3191],[173.1525,-42.4315],[173.0644,-42.4713],[172.854,-42.2988],[172.8179,-42.1806],[172.7063,-42.116],[172.4846,-42.286],[172.447,-42.3691],[172.2487,-42.4697],[172.1006,-42.6137],[171.9829,-42.6524],[171.8789,-42.7578],[171.7652,-42.7973],[171.7271,-42.8908],[171.3278,-42.9646],[171.2073,-43.072],[171.068,-43.1067],[171.0057,-43.1858],[170.8682,-43.2421],[170.5958,-43.4235],[170.4706,-43.4365],[170.2046,-43.5325],[170.1003,-43.6057],[169.9499,-43.7829],[169.6719,-43.9755],[169.6797,-44.0309],[169.547,-44.2032],[169.5526,-44.446],[169.6436,-44.5659],[169.7973,-44.6607],[169.9033,-44.6647],[170.0753,-44.9131],[170.3037,-44.9165],[170.39,-45.0604],[170.6436,-44.9189],[170.842,-44.8817],[171.1725,-44.9533],[171.2124,-44.8136],[171.196,-44.5668],[171.346,-44.2786],[171.5506,-44.1673],[172.0612,-43.9566],[172.3656,-43.8684],[172.4173,-43.7375],[172.4971,-43.7219],[172.7185,-43.8034],[172.8767,-43.902],[173.1055,-43.8294],[173.0529,-43.6533],[172.804,-43.611],[172.7297,-43.4148],[172.7455,-43.2654],[172.8112,-43.169],[172.9483,-43.0915],[173.0833,-43.067],[173.2873,-42.9539],[173.5586,-42.4911],[173.7058,-42.4041],[173.8909,-42.2408],[174.0041,-42.0312],[174.0817,-41.9691]]]}},{"type":"Feature","properties":{"sourceId":"1159314923","regionId":"region.0181d417-e395-4610-837f-8f8f5219e939","countryId":"country.1bryr1g"},"geometry":{"type":"MultiPolygon","coordinates":[[[[175.5384,-36.2824],[175.5306,-36.1764],[175.3877,-36.1179],[175.3565,-36.2439],[175.5384,-36.2824]]],[[[174.6729,-37.2938],[175.1597,-37.1602],[175.1832,-37.0396],[175.326,-37.0095],[175.241,-36.9423],[174.8191,-36.8237],[174.7229,-36.5937],[174.757,-36.2449],[174.6562,-36.1335],[174.5112,-36.2278],[174.3952,-36.3227],[174.4697,-36.5834],[174.3599,-36.6313],[174.4889,-37.0146],[174.7007,-36.9363],[174.8328,-36.9428],[174.8805,-37.0763],[174.7043,-37.176],[174.6729,-37.2938]]]]}},{"type":"Feature","properties":{"sourceId":"1159307719","regionId":"region.0ace2051-9818-49e7-b6cc-8774274cc062","countryId":"country.1bryr1g"},"geometry":{"type":"Polygon","coordinates":[[[174.6176,-38.7074],[174.8683,-38.7771],[174.9712,-38.6688],[175.2643,-38.6164],[175.4631,-38.4846],[175.6075,-38.5161],[175.6252,-38.6144],[175.5264,-38.7577],[175.5733,-38.8042],[175.5653,-38.9685],[175.6661,-39.0037],[175.5942,-39.2745],[175.8139,-39.2973],[175.981,-39.1557],[176.0818,-39.1277],[176.2673,-38.9065],[176.2551,-38.8082],[176.4854,-38.5056],[176.4721,-38.3678],[176.3195,-38.3144],[176.2059,-38.1908],[176.1003,-38.1572],[176.086,-38.0574],[175.9859,-37.9957],[175.9206,-37.7718],[175.8092,-37.508],[175.9587,-37.3687],[175.9014,-37.2306],[175.9163,-37.0798],[175.8818,-36.926],[175.7857,-36.7828],[175.6211,-36.735],[175.562,-36.5517],[175.4404,-36.4747],[175.3571,-36.5296],[175.5025,-36.6539],[175.5205,-36.7979],[175.4489,-36.8741],[175.5278,-36.9625],[175.5957,-37.2131],[175.3672,-37.2072],[175.326,-37.0095],[175.1832,-37.0396],[175.1597,-37.1602],[174.6729,-37.2938],[174.8504,-37.7649],[174.7844,-37.9669],[174.8869,-37.9863],[174.839,-38.1247],[174.7051,-38.1197],[174.7074,-38.2885],[174.6436,-38.4628],[174.6176,-38.7074]]]}},{"type":"Feature","properties":{"sourceId":"1159317107","regionId":"region.d6564d77-118c-40a1-b297-89f6a005c211","countryId":"country.1bryr1g"},"geometry":{"type":"Polygon","coordinates":[[[172.146,-34.1447],[172.1163,-34.1524],[172.1377,-34.1692],[172.146,-34.1447]]]}},{"type":"Feature","properties":{"sourceId":"1159307723","regionId":"region.5bbf1bad-4852-4e88-b966-dd221da13324","countryId":"country.1bryr1g"},"geometry":{"type":"Polygon","coordinates":[[[176.348,-40.6965],[176.0875,-40.6932],[175.796,-40.7731],[175.4771,-40.709],[175.2194,-40.7543],[175.1413,-40.6744],[174.9427,-40.9706],[174.842,-41.0437],[174.6094,-41.2919],[174.7406,-41.3466],[174.813,-41.2299],[174.8897,-41.2245],[174.8656,-41.4195],[175.0095,-41.3857],[175.1818,-41.4179],[175.2217,-41.6137],[175.3303,-41.6098],[175.7774,-41.3715],[175.9668,-41.247],[176.0681,-41.1398],[176.1213,-41.0108],[176.2204,-40.9333],[176.348,-40.6965]]]}},{"type":"Feature","properties":{"sourceId":"1159314925","regionId":"region.602c70c1-d96e-4c00-8b7b-c9a50133a9ee","countryId":"country.1bryr1g"},"geometry":{"type":"Polygon","coordinates":[[[175.1413,-40.6744],[175.2194,-40.7543],[175.4771,-40.709],[175.796,-40.7731],[176.0875,-40.6932],[176.348,-40.6965],[176.5425,-40.486],[176.6297,-40.4541],[176.3891,-40.3621],[176.3694,-40.1512],[176.3167,-40.0736],[176.1045,-39.9791],[176.2017,-39.674],[176.1442,-39.5819],[176.098,-39.364],[176.1305,-39.3027],[176.0818,-39.1277],[175.981,-39.1557],[175.8139,-39.2973],[175.5942,-39.2745],[175.6661,-39.0037],[175.5653,-38.9685],[175.5733,-38.8042],[175.5264,-38.7577],[175.6252,-38.6144],[175.6075,-38.5161],[175.4631,-38.4846],[175.2643,-38.6164],[174.9712,-38.6688],[174.8683,-38.7771],[174.7988,-38.8346],[174.8208,-38.9918],[174.7184,-39.1412],[174.8937,-39.4358],[174.9928,-39.5566],[174.9381,-39.7286],[174.7723,-39.8591],[174.9673,-39.9164],[175.155,-40.0854],[175.2349,-40.336],[175.1413,-40.6744]]]}},{"type":"Feature","properties":{"sourceId":"1159314935","regionId":"region.234837f5-3620-4d90-a803-64363568dc39","countryId":"country.1bryr1g"},"geometry":{"type":"Polygon","coordinates":[[[174.7723,-39.8591],[174.9381,-39.7286],[174.9928,-39.5566],[174.8937,-39.4358],[174.7184,-39.1412],[174.8208,-38.9918],[174.7988,-38.8346],[174.8683,-38.7771],[174.6176,-38.7074],[174.594,-38.8186],[174.3667,-38.9757],[174.2116,-38.9733],[173.8527,-39.1345],[173.7776,-39.2077],[173.7844,-39.3932],[173.9866,-39.5422],[174.319,-39.6139],[174.5676,-39.8268],[174.7723,-39.8591]]]}},{"type":"Feature","properties":{"sourceId":"1159314933","regionId":"region.47197ef3-cbe1-4ff4-9425-3a31b2a946e2","countryId":"country.1bryr1g"},"geometry":{"type":"Polygon","coordinates":[[[174.5112,-36.2278],[174.6562,-36.1335],[174.6309,-36.0551],[174.4969,-35.9876],[174.4766,-35.905],[174.5793,-35.8495],[174.5174,-35.7208],[174.5695,-35.5943],[174.3325,-35.288],[174.1375,-35.3191],[173.97,-35.0759],[173.8882,-35.006],[173.6607,-34.9685],[173.4783,-34.9904],[173.4041,-34.9034],[173.2982,-34.9094],[173.1231,-34.8097],[173.0508,-34.6013],[172.9075,-34.5414],[173.0134,-34.4206],[172.7417,-34.4312],[172.7993,-34.551],[173.1436,-34.9284],[173.202,-35.0578],[173.1003,-35.22],[173.8582,-36.0656],[174.0241,-36.2682],[174.0798,-36.3995],[174.2028,-36.3476],[174.2507,-36.2682],[174.3635,-36.2819],[174.5112,-36.2278]]]}},{"type":"Feature","properties":{"sourceId":"1159314931","regionId":"region.3e3ca69b-6cee-43ce-9da5-aa15d0891a08","countryId":"country.1bryr1g"},"geometry":{"type":"Polygon","coordinates":[[[175.9587,-37.3687],[175.8092,-37.508],[175.9206,-37.7718],[175.9859,-37.9957],[176.086,-38.0574],[176.1003,-38.1572],[176.2059,-38.1908],[176.3195,-38.3144],[176.4721,-38.3678],[176.4854,-38.5056],[176.2551,-38.8082],[176.2673,-38.9065],[176.4553,-38.9891],[176.5303,-38.807],[176.706,-38.8443],[176.7123,-38.7414],[176.8729,-38.6726],[176.984,-38.7046],[177.1728,-38.5698],[177.244,-38.4298],[177.4322,-38.3532],[177.4971,-38.2243],[177.6844,-38.1146],[177.8441,-38.1074],[177.9418,-37.9067],[178.0589,-37.7615],[177.9775,-37.7413],[177.9782,-37.6161],[178.0773,-37.5514],[177.7388,-37.6762],[177.5568,-37.9138],[177.4375,-37.9767],[177.1455,-38.0235],[176.9502,-37.9277],[176.7183,-37.8777],[176.5186,-37.7621],[176.2312,-37.6659],[176.1314,-37.6871],[175.9972,-37.6318],[175.9431,-37.5219],[175.9587,-37.3687]]]}},{"type":"Feature","properties":{"sourceId":"1159314927","regionId":"region.89b4377e-9e41-4e05-ae02-5a3d6f572da3","countryId":"country.1bryr1g"},"geometry":{"type":"Polygon","coordinates":[[[178.0773,-37.5514],[177.9782,-37.6161],[177.9775,-37.7413],[178.0589,-37.7615],[177.9418,-37.9067],[177.8441,-38.1074],[177.6844,-38.1146],[177.4971,-38.2243],[177.4322,-38.3532],[177.244,-38.4298],[177.1728,-38.5698],[177.4589,-38.6671],[177.555,-38.7866],[177.6958,-38.8755],[177.9124,-38.9607],[177.9973,-38.6833],[178.0623,-38.7165],[178.2946,-38.5398],[178.3621,-38.3165],[178.3185,-38.2657],[178.3516,-38.0017],[178.5643,-37.7177],[178.5129,-37.6523],[178.3415,-37.6183],[178.2777,-37.5593],[178.0773,-37.5514]]]}},{"type":"Feature","properties":{"sourceId":"1159314929","regionId":"region.c8ec74d1-6fa2-4696-99bb-369ed81efd9e","countryId":"country.1bryr1g"},"geometry":{"type":"Polygon","coordinates":[[[177.9124,-38.9607],[177.6958,-38.8755],[177.555,-38.7866],[177.4589,-38.6671],[177.1728,-38.5698],[176.984,-38.7046],[176.8729,-38.6726],[176.7123,-38.7414],[176.706,-38.8443],[176.5303,-38.807],[176.4553,-38.9891],[176.2673,-38.9065],[176.0818,-39.1277],[176.1305,-39.3027],[176.098,-39.364],[176.1442,-39.5819],[176.2017,-39.674],[176.1045,-39.9791],[176.3167,-40.0736],[176.3694,-40.1512],[176.3891,-40.3621],[176.6297,-40.4541],[176.7036,-40.2902],[176.8373,-40.1779],[177.0364,-39.7536],[176.9063,-39.4475],[176.9375,-39.3487],[177.065,-39.1994],[177.3874,-39.0774],[177.7639,-39.081],[177.8202,-39.1059],[177.8685,-39.2902],[177.9989,-39.1298],[177.9124,-38.9607]]]}}]}