{"type":"FeatureCollection","features":[{"type":"Feature","properties":{"sourceId":"1159316117","regionId":"region.0c317ca1-6827-4159-aa59-9efe43b593fa","countryId":"country.7215346f-26f3-4d15-bc2a-e04350b1acc0"},"geometry":{"type":"Polygon","coordinates":[[[-173.9564,-18.5673],[-174.011,-18.5779],[-174.0594,-18.6635],[-173.9626,-18.6635],[-173.9564,-18.5673]]]}},{"type":"Feature","properties":{"sourceId":"1159316123","regionId":"region.ddf148f6-d70d-4090-9909-21203adb3e16","countryId":"country.7215346f-26f3-4d15-bc2a-e04350b1acc0"},"geometry":{"type":"Polygon","coordinates":[[[-174.9147,-21.2922],[-174.9836,-21.3977],[-174.9139,-21.4441],[-174.9147,-21.2922]]]}},{"type":"Feature","properties":{"sourceId":"1159315487","regionId":"region.b9de3509-e4fc-4669-9d48-afc4975df69f","countryId":"country.7215346f-26f3-4d15-bc2a-e04350b1acc0"},"geometry":{"type":"Polygon","coordinates":[[[-175.0655,-21.124],[-175.155,-21.1718],[-175.2498,-21.1113],[-175.3258,-21.1736],[-175.1488,-21.268],[-175.0655,-21.124]]]}},{"type":"Feature","properties":{"sourceId":"1159316121","regionId":"region.df4c6cad-5d49-43f8-93ff-343a58b71488","countryId":"country.7215346f-26f3-4d15-bc2a-e04350b1acc0"},"geometry":{"type":"Polygon","coordinates":[[[-175.0693,-19.712],[-175.0967,-19.7208],[-175.0873,-19.7877],[-175.0478,-19.7812],[-175.0693,-19.712]]]}},{"type":"Feature","properties":{"sourceId":"1159316119","regionId":"region.699721a0-77da-4e03-aeb9-b477cef21d25","countryId":"country.7215346f-26f3-4d15-bc2a-e04350b1acc0"},"geometry":{"type":"Polygon","coordinates":[[[-175.6313,-15.5595],[-175.6863,-15.6023],[-175.6391,-15.6243],[-175.6313,-15.5595]]]}}]}