{"type":"FeatureCollection","features":[{"type":"Feature","properties":{"sourceId":"1159313997","regionId":"region.f9696795-39c9-4842-acb8-4ebb4c899a41","countryId":"country.13gf39o"},"geometry":{"type":"Polygon","coordinates":[[[-11.9,13.3822],[-11.8281,13.3073],[-11.7565,13.3998],[-11.6131,13.3608],[-11.5585,13.2665],[-11.5331,13.1118],[-11.4503,13.0751],[-11.4022,12.7317],[-11.461,12.6584],[-11.3778,12.4802],[-11.3884,12.4039],[-11.5078,12.1916],[-11.4708,12.1346],[-11.3513,12.0404],[-11.1846,12.0211],[-11.0523,12.2025],[-10.9098,12.2001],[-10.8049,12.096],[-10.8078,12.0228],[-10.7114,11.8904],[-10.3814,12.1801],[-10.2669,12.2178],[-10.0602,12.1475],[-9.8888,12.0606],[-9.723,12.0254],[-9.6282,12.1702],[-9.4215,12.2571],[-9.3085,12.345],[-9.4126,12.4554],[-9.3215,12.4966],[-9.1473,12.4655],[-9.0278,12.4048],[-9.003,12.523],[-8.891,12.65],[-8.762,12.6899],[-8.5982,12.8069],[-8.6342,12.8594],[-8.5793,12.9781],[-8.5555,13.2177],[-8.4566,13.463],[-8.543,13.5789],[-8.5549,13.6834],[-8.4576,13.8231],[-8.4648,13.9227],[-8.5661,13.9457],[-8.5926,13.8395],[-8.7039,13.8504],[-8.8466,13.9687],[-8.7647,14.109],[-8.8094,14.2882],[-8.65,14.314],[-8.594,14.408],[-8.443,14.2979],[-8.1321,14.34],[-8.164,14.5029],[-8.237,14.5199],[-8.463,14.6979],[-8.507,14.963],[-8.677,14.982],[-8.741,15.026],[-8.8041,15.245],[-9.1414,15.4956],[-9.3492,15.4956],[-9.3324,15.6876],[-9.4518,15.5592],[-9.4239,15.4405],[-9.6721,15.4307],[-9.8356,15.3711],[-10.1316,15.3726],[-10.3087,15.4352],[-10.5847,15.4281],[-10.7364,15.4226],[-10.9152,15.1029],[-11.0454,15.2702],[-11.2982,15.451],[-11.4096,15.6022],[-11.5243,15.6003],[-11.7017,15.5374],[-11.8169,15.2961],[-11.8609,15.049],[-11.8371,14.8931],[-11.974,14.7798],[-12.2641,14.7749],[-12.1659,14.6252],[-12.2364,14.5195],[-12.2217,14.3912],[-12.1156,14.3551],[-11.9976,14.1662],[-12.0252,14.0267],[-11.9629,13.9092],[-12.0123,13.7512],[-12.0976,13.7044],[-11.9968,13.5442],[-11.8904,13.4651],[-11.9,13.3822]]]}},{"type":"Feature","properties":{"sourceId":"1159313509","regionId":"region.c0bd13ef-44fb-42d4-bdf7-8a875c372acb","countryId":"country.13gf39o"},"geometry":{"type":"Polygon","coordinates":[[[-4.8216,24.9951],[-5.9288,24.9944],[-6.5931,24.9941],[-6.5063,24.276],[-6.3716,23.124],[-6.2194,21.8229],[-6.1137,20.9196],[-5.9635,19.6206],[-5.8575,18.6608],[-5.7565,17.741],[-5.6233,16.5278],[-5.3533,16.312],[-5.5088,15.5069],[-5.3571,15.553],[-5.23,15.674],[-5.151,15.6089],[-4.688,15.581],[-4.45,15.6559],[-4.377,15.7049],[-4.239,15.7189],[-4.1351,15.8099],[-3.983,15.825],[-3.955,15.735],[-3.869,15.672],[-3.845,15.4939],[-3.642,15.4909],[-3.49,15.6],[-3.4821,15.7329],[-3.33,15.771],[-3.202,15.8949],[-3.156,15.8329],[-2.924,15.8539],[-2.772,15.7169],[-2.754,15.64],[-2.597,15.3689],[-2.4501,15.304],[-2.147,15.4069],[-1.914,15.4339],[-1.686,15.4309],[-1.386,15.322],[-1.214,15.1789],[-0.7713,15.0566],[-0.5003,15.0797],[-0.5591,15.4483],[-0.694,16.047],[-0.71,16.6129],[-0.683,16.9329],[-0.7171,16.9499],[-1.6085,17.0357],[-1.6094,17.1253],[-1.7069,17.5145],[-1.6302,17.5635],[-0.9347,17.8861],[-0.8852,18.9553],[-0.9643,19.0642],[-1.4197,19.4107],[-2.0434,19.9155],[-1.3208,20.2818],[-0.8653,20.6382],[-0.2219,21.153],[0.0037,21.8489],[-0.9636,22.4813],[-1.83,23.0478],[-2.5232,23.501],[-3.4485,24.106],[-4.1659,24.575],[-4.8216,24.9951]]]}},{"type":"Feature","properties":{"sourceId":"1159313513","regionId":"region.8fb3a7b2-83cb-472f-b898-ece168cf4a33","countryId":"country.13gf39o"},"geometry":{"type":"Polygon","coordinates":[[[-0.5003,15.0797],[-0.3977,15.0021],[-0.2367,15.0656],[0.2185,14.911],[0.2213,14.9959],[0.3532,14.9634],[0.5148,14.9936],[0.6701,14.9397],[0.9737,14.9913],[1.2709,15.2599],[1.3315,15.2836],[2.0814,15.3086],[3.0002,15.3391],[3.073,15.4272],[3.5071,15.354],[3.5265,15.496],[3.6922,15.6315],[3.8738,15.7209],[3.9035,15.8863],[3.9833,15.984],[3.9712,16.0861],[4.0606,16.2983],[4.184,16.4161],[4.182,16.8096],[4.2356,16.9959],[4.2324,17.9752],[2.9262,17.9752],[1.9758,17.9752],[1.7976,17.7574],[1.2037,17.6287],[0.5701,18.1336],[0.3622,18.3514],[0.0652,18.7078],[-0.8852,18.9553],[-0.9347,17.8861],[-1.6302,17.5635],[-1.7069,17.5145],[-1.6094,17.1253],[-1.6085,17.0357],[-0.7171,16.9499],[-0.683,16.9329],[-0.71,16.6129],[-0.694,16.047],[-0.5591,15.4483],[-0.5003,15.0797]]]}},{"type":"Feature","properties":{"sourceId":"1159314001","regionId":"region.94d1c5f2-d440-4e57-a512-7002e7aae4d1","countryId":"country.13gf39o"},"geometry":{"type":"Polygon","coordinates":[[[-1.0431,14.8181],[-0.7713,15.0566],[-1.214,15.1789],[-1.386,15.322],[-1.686,15.4309],[-1.914,15.4339],[-2.147,15.4069],[-2.4501,15.304],[-2.597,15.3689],[-2.754,15.64],[-2.772,15.7169],[-2.924,15.8539],[-3.156,15.8329],[-3.202,15.8949],[-3.33,15.771],[-3.4821,15.7329],[-3.49,15.6],[-3.642,15.4909],[-3.845,15.4939],[-3.869,15.672],[-3.955,15.735],[-3.983,15.825],[-4.1351,15.8099],[-4.239,15.7189],[-4.377,15.7049],[-4.45,15.6559],[-4.688,15.581],[-5.151,15.6089],[-5.23,15.674],[-5.3571,15.553],[-5.343,15.499],[-5.184,15.4709],[-5.1,15.1959],[-5.208,15.0239],[-5.546,14.9309],[-5.607,14.7629],[-5.594,14.686],[-5.664,14.532],[-5.283,14.2989],[-5.187,14.1709],[-5.208,13.9899],[-5.0511,13.9459],[-4.899,13.971],[-4.842,13.9289],[-4.8831,13.8249],[-4.855,13.5889],[-4.683,13.635],[-4.603,13.5749],[-4.387,13.6469],[-4.283,13.836],[-4.169,13.9229],[-4.086,13.927],[-3.958,13.598],[-3.9655,13.4892],[-3.984,13.3965],[-3.7986,13.3471],[-3.5969,13.1994],[-3.4739,13.1676],[-3.4265,13.2742],[-3.2486,13.2928],[-3.284,13.5422],[-3.2597,13.6583],[-3.1251,13.6773],[-3.0675,13.6068],[-2.9305,13.6385],[-2.9281,13.7996],[-2.8409,14.043],[-2.6763,14.1417],[-2.5974,14.2223],[-2.4617,14.2809],[-2.1519,14.1561],[-2.085,14.1597],[-2.0234,14.1986],[-2.005,14.4442],[-1.967,14.4837],[-1.6969,14.4961],[-1.3503,14.715],[-1.0431,14.8181]]]}},{"type":"Feature","properties":{"sourceId":"1159314005","regionId":"region.bbb9e883-fc3a-4f84-b530-95c72e7d36e6","countryId":"country.13gf39o"},"geometry":{"type":"Polygon","coordinates":[[[-3.9655,13.4892],[-3.958,13.598],[-4.086,13.927],[-4.169,13.9229],[-4.283,13.836],[-4.387,13.6469],[-4.603,13.5749],[-4.683,13.635],[-4.855,13.5889],[-4.8831,13.8249],[-4.842,13.9289],[-4.899,13.971],[-5.0511,13.9459],[-5.208,13.9899],[-5.187,14.1709],[-5.283,14.2989],[-5.664,14.532],[-5.594,14.686],[-5.607,14.7629],[-5.546,14.9309],[-5.208,15.0239],[-5.1,15.1959],[-5.184,15.4709],[-5.343,15.499],[-5.3571,15.553],[-5.5088,15.5069],[-5.516,15.4942],[-6.3201,15.4945],[-6.405,15.168],[-6.545,14.9439],[-6.436,14.781],[-6.382,14.536],[-6.4591,14.4459],[-6.582,14.4799],[-6.715,14.323],[-6.9001,13.998],[-6.9001,13.749],[-6.783,13.6239],[-6.774,13.366],[-6.9261,13.342],[-7.022,13.1819],[-7.081,13.016],[-7.019,12.9449],[-6.886,12.9079],[-6.894,12.788],[-6.625,12.8089],[-6.39,12.6999],[-6.3541,12.5919],[-6.261,12.5549],[-6.211,12.6049],[-5.896,12.6519],[-5.579,12.8169],[-5.434,12.607],[-5.269,12.7959],[-5.145,12.744],[-5.065,12.5749],[-4.776,12.623],[-4.6911,12.7399],[-4.4644,12.7173],[-4.2455,12.7289],[-4.2119,12.8192],[-4.2293,12.949],[-4.3511,13.1183],[-4.327,13.1686],[-4.1471,13.2996],[-4.1043,13.3827],[-3.9655,13.4892]]]}},{"type":"Feature","properties":{"sourceId":"1159313999","regionId":"region.ae8c7409-6ec1-4f99-b0aa-da57a41c6c61","countryId":"country.13gf39o"},"geometry":{"type":"Polygon","coordinates":[[[-4.4644,12.7173],[-4.6911,12.7399],[-4.776,12.623],[-5.065,12.5749],[-5.145,12.744],[-5.269,12.7959],[-5.434,12.607],[-5.579,12.8169],[-5.896,12.6519],[-6.211,12.6049],[-6.261,12.5549],[-6.175,12.4069],[-6.07,12.308],[-5.951,12.2999],[-5.982,12.1219],[-6.252,12.0769],[-6.347,12.0269],[-6.334,11.905],[-6.396,11.845],[-6.469,11.653],[-6.553,11.746],[-6.64,11.7479],[-6.947,11.862],[-6.949,11.955],[-7.079,12.012],[-7.0481,12.1379],[-7.1161,12.4329],[-7.289,12.3059],[-7.319,12.227],[-7.48,12.1479],[-7.544,12.0059],[-7.963,11.7779],[-8.071,11.686],[-8.206,11.7049],[-8.4311,11.642],[-8.5394,11.4563],[-8.4277,11.4001],[-8.4832,11.2849],[-8.6246,11.122],[-8.6969,10.996],[-8.5416,10.9838],[-8.5058,11.0528],[-8.3693,11.0542],[-8.3111,11.0008],[-8.2955,10.5374],[-8.2289,10.4234],[-8.0157,10.3393],[-7.9646,10.2589],[-7.9897,10.162],[-7.829,10.2117],[-7.7086,10.4025],[-7.6437,10.4405],[-7.4662,10.4295],[-7.4444,10.3342],[-7.347,10.2479],[-7.1064,10.2073],[-7.0405,10.1401],[-6.9594,10.1855],[-6.9731,10.3323],[-6.8039,10.3709],[-6.6683,10.3658],[-6.6975,10.4883],[-6.6679,10.6509],[-6.5214,10.5642],[-6.4215,10.5566],[-6.434,10.6679],[-6.28,10.7233],[-6.2078,10.6375],[-6.2562,10.5372],[-6.1858,10.4813],[-6.1839,10.3589],[-6.2433,10.289],[-6.1809,10.2158],[-6.0159,10.1899],[-5.9048,10.3483],[-5.8063,10.4135],[-5.594,10.4539],[-5.5226,10.4255],[-5.4681,10.5878],[-5.4826,10.6842],[-5.4314,10.8447],[-5.5056,11.048],[-5.3223,11.1355],[-5.2183,11.4222],[-5.2339,11.576],[-5.3078,11.629],[-5.2682,11.8431],[-5.1678,11.9437],[-4.9537,12.0051],[-4.8068,11.9963],[-4.7323,12.0373],[-4.6527,12.0716],[-4.5855,12.1972],[-4.4061,12.3075],[-4.4516,12.4353],[-4.3869,12.5302],[-4.4825,12.6463],[-4.4644,12.7173]]]}},{"type":"Feature","properties":{"sourceId":"1159313995","regionId":"region.2e861eb8-7aed-4156-9309-59d70a8ceaa4","countryId":"country.13gf39o"},"geometry":{"type":"Polygon","coordinates":[[[-9.0278,12.4048],[-8.9959,12.261],[-8.9139,12.1699],[-8.9263,12.0643],[-8.8198,12.0127],[-8.797,11.9132],[-8.8472,11.6579],[-8.7265,11.6495],[-8.6568,11.4964],[-8.5394,11.4563],[-8.4311,11.642],[-8.206,11.7049],[-8.071,11.686],[-7.963,11.7779],[-7.544,12.0059],[-7.48,12.1479],[-7.319,12.227],[-7.289,12.3059],[-7.1161,12.4329],[-7.0481,12.1379],[-7.079,12.012],[-6.949,11.955],[-6.947,11.862],[-6.64,11.7479],[-6.553,11.746],[-6.469,11.653],[-6.396,11.845],[-6.334,11.905],[-6.347,12.0269],[-6.252,12.0769],[-5.982,12.1219],[-5.951,12.2999],[-6.07,12.308],[-6.175,12.4069],[-6.261,12.5549],[-6.3541,12.5919],[-6.39,12.6999],[-6.625,12.8089],[-6.894,12.788],[-6.886,12.9079],[-7.019,12.9449],[-7.081,13.016],[-7.022,13.1819],[-6.9261,13.342],[-6.774,13.366],[-6.783,13.6239],[-6.9001,13.749],[-6.9001,13.998],[-6.715,14.323],[-6.582,14.4799],[-6.4591,14.4459],[-6.382,14.536],[-6.436,14.781],[-6.545,14.9439],[-6.405,15.168],[-6.3201,15.4945],[-6.8372,15.4947],[-8.0178,15.4951],[-9.0032,15.4955],[-9.1414,15.4956],[-8.8041,15.245],[-8.741,15.026],[-8.677,14.982],[-8.507,14.963],[-8.463,14.6979],[-8.237,14.5199],[-8.164,14.5029],[-8.1321,14.34],[-8.443,14.2979],[-8.594,14.408],[-8.65,14.314],[-8.8094,14.2882],[-8.7647,14.109],[-8.8466,13.9687],[-8.7039,13.8504],[-8.5926,13.8395],[-8.5661,13.9457],[-8.4648,13.9227],[-8.4576,13.8231],[-8.5549,13.6834],[-8.543,13.5789],[-8.4566,13.463],[-8.5555,13.2177],[-8.5793,12.9781],[-8.6342,12.8594],[-8.5982,12.8069],[-8.762,12.6899],[-8.891,12.65],[-9.003,12.523],[-9.0278,12.4048]],[[-7.9781,12.5429],[-8.0543,12.5795],[-8.0512,12.6908],[-7.9386,12.6616],[-7.9781,12.5429]]]}},{"type":"Feature","properties":{"sourceId":"1159313511","regionId":"region.37b3fd73-c290-4b0f-b3ad-3c605ffe3b17","countryId":"country.13gf39o"},"geometry":{"type":"Polygon","coordinates":[[[0.0037,21.8489],[-0.2219,21.153],[-0.8653,20.6382],[-1.3208,20.2818],[-2.0434,19.9155],[-1.4197,19.4107],[-0.9643,19.0642],[-0.8852,18.9553],[0.0652,18.7078],[0.3622,18.3514],[0.5701,18.1336],[1.2037,17.6287],[1.7976,17.7574],[1.9758,17.9752],[2.9262,17.9752],[4.2324,17.9752],[4.2303,18.6454],[4.2286,19.1422],[3.7903,19.0608],[3.3587,18.9769],[3.1586,19.0816],[3.1027,19.1536],[3.2582,19.4104],[3.1994,19.5538],[3.2168,19.7941],[2.946,19.9417],[2.4954,20.0201],[2.4004,20.0566],[2.2796,20.2179],[2.1824,20.2785],[2.0563,20.215],[1.7781,20.3043],[1.6492,20.4121],[1.644,20.5227],[1.5204,20.617],[1.364,20.6577],[1.2967,20.7335],[1.1685,20.7335],[1.1453,20.7959],[1.1801,20.9953],[1.1465,21.1017],[0.0037,21.8489]]]}},{"type":"Feature","properties":{"sourceId":"1159315953","regionId":"region.8fdd9654-f44f-43a9-991a-b04cea295708","countryId":"country.13gf39o"},"geometry":{"type":"Polygon","coordinates":[[[-7.9781,12.5429],[-7.9386,12.6616],[-8.0512,12.6908],[-8.0543,12.5795],[-7.9781,12.5429]]]}}]}