{"type":"FeatureCollection","features":[{"type":"Feature","properties":{"sourceId":"1159315661","regionId":"region.12081bd0-b795-4ba3-9527-9e9f639cc0a6","countryId":"country.x4ahyj"},"geometry":{"type":"Polygon","coordinates":[[[34.4812,31.5831],[34.2003,31.3143],[34.2484,31.2114],[34.3509,31.2893],[34.3673,31.3928],[34.556,31.5398],[34.4812,31.5831]]]}},{"type":"Feature","properties":{"sourceId":"1159315663","regionId":"region.afa4cfae-aa31-478f-b620-652abbeeb9bd","countryId":"country.x4ahyj"},"geometry":{"type":"Polygon","coordinates":[[[35.2104,32.5419],[35.0644,32.4631],[35.0327,32.3822],[34.9582,32.1865],[35.039,31.9086],[34.9985,31.8538],[35.1739,31.8076],[35.149,31.7373],[34.9532,31.6083],[34.8672,31.3964],[34.9274,31.3449],[35.2233,31.381],[35.3901,31.4871],[35.4581,31.4919],[35.5025,31.6854],[35.5594,31.7653],[35.5228,32.0578],[35.5596,32.1904],[35.561,32.3847],[35.4069,32.4148],[35.3929,32.4945],[35.2104,32.5419]]]}}]}