{"type":"FeatureCollection","features":[{"type":"Feature","properties":{"sourceId":"1159316565","regionId":"region.fcd48061-f960-4c6e-94db-4b06feddb09a","countryId":"country.b4be4e13-e987-40e3-9f89-e4b7ad294ab3"},"geometry":{"type":"Polygon","coordinates":[[[-169.5323,16.7331],[-169.5477,16.7274],[-169.5417,16.7219],[-169.5323,16.7331]]]}},{"type":"Feature","properties":{"sourceId":"1159315509","regionId":"region.1f820245-0018-43d8-bcf0-695e8c3a914e","countryId":"country.b4be4e13-e987-40e3-9f89-e4b7ad294ab3"},"geometry":{"type":"Polygon","coordinates":[[[-160.03,-0.3762],[-160.0248,-0.3888],[-160.0124,-0.3821],[-160.0089,-0.3725],[-160.03,-0.3762]]]}},{"type":"Feature","properties":{"sourceId":"1159316561","regionId":"region.c3b072f7-5bb1-4f61-a9cd-f3a51cc751cf","countryId":"country.b4be4e13-e987-40e3-9f89-e4b7ad294ab3"},"geometry":{"type":"Polygon","coordinates":[[[-176.4858,0.1965],[-176.4793,0.1903],[-176.4769,0.1975],[-176.4858,0.1965]]]}},{"type":"Feature","properties":{"sourceId":"1159316563","regionId":"region.d3e690d7-3995-4f69-a27e-cb7278944f25","countryId":"country.b4be4e13-e987-40e3-9f89-e4b7ad294ab3"},"geometry":{"type":"Polygon","coordinates":[[[-176.6362,0.7902],[-176.6361,0.8034],[-176.6405,0.802],[-176.6362,0.7902]]]}},{"type":"Feature","properties":{"sourceId":"1159316557","regionId":"region.bfe894d5-41be-48e7-8124-d4a6b4b73f5e","countryId":"country.b4be4e13-e987-40e3-9f89-e4b7ad294ab3"},"geometry":{"type":"Polygon","coordinates":[[[166.6194,19.2816],[166.6442,19.2756],[166.6382,19.2864],[166.6194,19.2816]]]}},{"type":"Feature","properties":{"sourceId":"1159316567","regionId":"region.7b2a2e26-af45-4ace-adf9-a42d7190dc5f","countryId":"country.b4be4e13-e987-40e3-9f89-e4b7ad294ab3"},"geometry":{"type":"Polygon","coordinates":[[[-177.3577,28.2144],[-177.378,28.2128],[-177.3722,28.2023],[-177.3577,28.2144]]]}},{"type":"Feature","properties":{"sourceId":"1159316555","regionId":"region.d9b69ca3-2723-4e06-8cb2-1909de89a66c","countryId":"country.b4be4e13-e987-40e3-9f89-e4b7ad294ab3"},"geometry":{"type":"Polygon","coordinates":[[[-75.0243,18.4173],[-75.0178,18.3967],[-75.0032,18.3977],[-75.007,18.4151],[-75.0243,18.4173]]]}},{"type":"Feature","properties":{"sourceId":"1159316553","regionId":"region.8b34c607-70a3-4b16-9b76-5b3c7e746f56","countryId":"country.b4be4e13-e987-40e3-9f89-e4b7ad294ab3"},"geometry":{"type":"Polygon","coordinates":[[[-162.0609,5.8872],[-162.0873,5.8839],[-162.0911,5.8716],[-162.0611,5.8734],[-162.0609,5.8872]]]}}]}