{"type":"FeatureCollection","features":[{"type":"Feature","properties":{"sourceId":"1159311283","regionId":"region.61ca9c1c-2d51-4324-baa6-a4b386f3679c","countryId":"country.1oit02h"},"geometry":{"type":"Polygon","coordinates":[[[12.7827,-4.4001],[12.6081,-4.565],[12.3776,-4.6194],[12.3324,-4.7659],[12.2352,-4.804],[12.0096,-5.0196],[12.1325,-5.0059],[12.1246,-5.1848],[12.2322,-5.4796],[12.1472,-5.6179],[12.2105,-5.7634],[12.3444,-5.7246],[12.509,-5.7263],[12.5307,-5.1627],[12.4444,-5.0551],[12.5877,-5.0003],[12.6789,-4.9243],[12.8332,-4.7227],[13.0296,-4.6769],[13.0737,-4.6353],[12.7827,-4.4001]]]}},{"type":"Feature","properties":{"sourceId":"1159311271","regionId":"region.f1cf3112-105e-41e7-88d0-e5c36e808877","countryId":"country.1oit02h"},"geometry":{"type":"Polygon","coordinates":[[[21.9838,-16.1659],[21.8537,-16.0829],[21.7097,-15.8542],[21.6223,-15.8453],[21.48,-15.5937],[21.4218,-15.5593],[21.3774,-15.4228],[21.2647,-15.3608],[20.9276,-15.0045],[20.8048,-15.0045],[20.6827,-14.9602],[20.4186,-14.9955],[20.2711,-14.9854],[20.0877,-14.9061],[19.6822,-14.5298],[19.6125,-14.3857],[19.5278,-14.2897],[19.4146,-14.296],[19.2219,-14.2533],[19.1588,-14.3896],[18.8972,-14.3837],[18.8041,-14.222],[18.7793,-14.0432],[18.7275,-13.9493],[18.5549,-13.8066],[18.3327,-13.7199],[18.2159,-13.7087],[17.9531,-13.5723],[17.8931,-13.6746],[17.8085,-13.694],[17.807,-13.8512],[17.6479,-13.9907],[17.4654,-14.0301],[17.3551,-14.1436],[17.3008,-14.3116],[17.0423,-14.1654],[16.9534,-13.9984],[16.8303,-14.0233],[16.707,-13.9775],[16.4736,-14.0103],[16.4965,-14.1469],[16.4618,-14.2682],[16.5046,-14.4288],[16.5023,-14.6268],[16.6598,-14.8776],[16.6592,-14.9708],[16.748,-15.1631],[16.8453,-15.3034],[17.0545,-15.4502],[17.1672,-15.5824],[17.3835,-15.9248],[17.4175,-16.3655],[17.3101,-16.5576],[17.2352,-16.7706],[17.2355,-17.0028],[17.2825,-17.2203],[17.279,-17.3889],[18.0005,-17.3891],[18.4536,-17.3899],[18.4928,-17.4645],[18.762,-17.7477],[19.0206,-17.8223],[19.1721,-17.8012],[19.4213,-17.8594],[19.6726,-17.8427],[19.952,-17.8623],[20.0343,-17.8959],[20.3362,-17.8549],[20.5655,-17.9852],[20.7375,-17.9935],[20.8062,-18.0314],[20.9865,-17.9658],[21.2166,-17.9306],[21.3812,-18.0126],[22.2305,-17.8576],[23.3817,-17.6411],[23.2908,-17.5354],[23.073,-17.4051],[22.9986,-17.2938],[22.8762,-17.2481],[22.7559,-17.1549],[22.7105,-17.0554],[22.5229,-16.9147],[22.3337,-16.6737],[22.2377,-16.6655],[22.1517,-16.5977],[22.0799,-16.4578],[21.9838,-16.1659]]]}},{"type":"Feature","properties":{"sourceId":"1159311279","regionId":"region.63902c5f-775d-4ac0-a591-7ee084255ba7","countryId":"country.1oit02h"},"geometry":{"type":"Polygon","coordinates":[[[21.9804,-13.6948],[21.9799,-13.0015],[23.2227,-13.0015],[24.0006,-13.0015],[23.8657,-12.7897],[23.9287,-12.5616],[24.0308,-12.3851],[23.9596,-12.1967],[23.967,-11.8829],[23.9885,-11.8342],[23.9599,-11.6172],[24.0611,-11.395],[24.0112,-11.2729],[24.0037,-10.9825],[23.9675,-10.8723],[23.8337,-11.0285],[23.4948,-10.9643],[23.3733,-10.9751],[23.1968,-11.0719],[23.0143,-11.1025],[22.8292,-11.0521],[22.7277,-11.0968],[22.5376,-11.0372],[22.4694,-11.1224],[22.2818,-11.2367],[22.1655,-10.8524],[22.3224,-10.7422],[22.3086,-10.6125],[22.1385,-10.5906],[21.7949,-10.6304],[21.7454,-10.8143],[21.674,-10.888],[21.6545,-11.0202],[21.6962,-11.1325],[21.4886,-11.1762],[21.2356,-11.2746],[21.0355,-11.4716],[20.7473,-11.4435],[20.1768,-11.209],[20.1052,-11.278],[19.8422,-11.2526],[19.7145,-11.3061],[19.6242,-11.256],[19.4,-11.4109],[19.2811,-11.4036],[19.1886,-11.456],[19.0995,-11.5339],[19.0642,-11.6588],[18.8575,-11.9],[18.869,-12.0137],[18.7255,-12.1789],[18.7107,-12.2623],[18.5186,-12.3771],[18.2992,-12.7301],[18.1544,-12.8624],[18.1712,-12.9641],[18.059,-13.0865],[18.0768,-13.2737],[17.9473,-13.3943],[17.9531,-13.5723],[18.2159,-13.7087],[18.3327,-13.7199],[18.5549,-13.8066],[18.7275,-13.9493],[18.7793,-14.0432],[18.8041,-14.222],[18.8972,-14.3837],[19.1588,-14.3896],[19.2219,-14.2533],[19.4146,-14.296],[19.5278,-14.2897],[19.6125,-14.3857],[19.6822,-14.5298],[20.0877,-14.9061],[20.2711,-14.9854],[20.4186,-14.9955],[20.6827,-14.9602],[20.8048,-15.0045],[20.9276,-15.0045],[21.2647,-15.3608],[21.3774,-15.4228],[21.4218,-15.5593],[21.48,-15.5937],[21.6223,-15.8453],[21.7097,-15.8542],[21.8537,-16.0829],[21.9838,-16.1659],[21.9813,-15.1112],[21.9809,-14.5084],[21.9804,-13.6948]]]}},{"type":"Feature","properties":{"sourceId":"1159311163","regionId":"region.a94eb0c5-e63d-4306-a258-8be12cd429c7","countryId":"country.1oit02h"},"geometry":{"type":"Polygon","coordinates":[[[11.7661,-17.2527],[12.0953,-17.1397],[12.2426,-17.2248],[12.5546,-17.2356],[12.8183,-17.1048],[12.8872,-17.0298],[13.1663,-16.9511],[13.3459,-16.9687],[13.3048,-16.8718],[13.1547,-16.714],[13.1468,-16.6621],[13.2475,-16.5354],[13.2271,-16.4288],[13.4156,-16.3211],[13.4809,-16.2482],[13.5269,-16.1855],[13.5115,-15.9942],[13.5898,-15.8202],[13.5509,-15.7335],[13.5458,-15.5309],[13.4381,-15.4284],[13.4156,-15.3243],[13.3169,-15.3181],[13.2207,-15.2293],[13.2966,-14.8864],[13.5428,-14.7302],[13.5903,-14.6762],[13.6811,-14.438],[13.6658,-14.2774],[13.6049,-14.2038],[13.5849,-14.0823],[13.6246,-13.9573],[13.5647,-13.8469],[13.3821,-13.8221],[13.2876,-13.6646],[13.2865,-13.5621],[13.1011,-13.5217],[12.9192,-13.6069],[12.6132,-13.5341],[12.5334,-13.567],[12.5025,-13.8552],[12.4155,-13.8786],[12.3288,-14.0922],[12.3313,-14.4335],[12.299,-14.5076],[12.2727,-14.7506],[12.2078,-14.8333],[12.105,-15.1728],[12.0564,-15.2331],[12.0285,-15.4902],[11.992,-15.6173],[11.9102,-15.6762],[11.8442,-15.7936],[11.7518,-15.7991],[11.7366,-15.9002],[11.807,-16.0188],[11.7791,-16.0999],[11.822,-16.4791],[11.8205,-16.7815],[11.7909,-16.8061],[11.7593,-17.033],[11.7661,-17.2527]]]}},{"type":"Feature","properties":{"sourceId":"1159311273","regionId":"region.5682423f-089f-48c5-b193-ff78b70801b4","countryId":"country.1oit02h"},"geometry":{"type":"Polygon","coordinates":[[[13.3459,-16.9687],[13.4947,-17.024],[13.5213,-17.1219],[13.8844,-17.3385],[13.9427,-17.4082],[14.0854,-17.4236],[14.2191,-17.3881],[15.5591,-17.3885],[16.3398,-17.3887],[17.279,-17.3889],[17.2825,-17.2203],[17.2355,-17.0028],[17.2352,-16.7706],[17.3101,-16.5576],[17.4175,-16.3655],[17.3835,-15.9248],[17.1672,-15.5824],[17.0545,-15.4502],[16.8453,-15.3034],[16.748,-15.1631],[16.5173,-15.1558],[16.3772,-15.2154],[16.2341,-15.3809],[16.0624,-15.4047],[15.8352,-15.3862],[15.7106,-15.3998],[15.5394,-15.4849],[15.4591,-15.5712],[15.1684,-16.0386],[15.0395,-16.0424],[14.9602,-15.9318],[14.7117,-15.8637],[14.5269,-15.857],[14.377,-16.0017],[14.1175,-16.1125],[14.0118,-16.1993],[13.8946,-16.1561],[13.7377,-16.3241],[13.6159,-16.3665],[13.4809,-16.2482],[13.4156,-16.3211],[13.2271,-16.4288],[13.2475,-16.5354],[13.1468,-16.6621],[13.1547,-16.714],[13.3048,-16.8718],[13.3459,-16.9687]]]}},{"type":"Feature","properties":{"sourceId":"1159311263","regionId":"region.a5fcb19b-836e-42e8-b373-0a4333a6e9ce","countryId":"country.1oit02h"},"geometry":{"type":"Polygon","coordinates":[[[14.7597,-5.8805],[14.5766,-5.9047],[14.0212,-5.8725],[13.9436,-5.8416],[13.6415,-5.8658],[13.3805,-5.8564],[13.3425,-5.8906],[13.1839,-5.8564],[12.9859,-5.9011],[12.9276,-5.9812],[12.7425,-6.0494],[12.6455,-6.029],[12.4969,-6.0946],[12.2794,-6.1477],[12.3956,-6.3245],[12.4582,-6.4658],[12.6204,-6.7348],[12.8152,-6.947],[12.85,-7.2659],[12.9393,-7.436],[13.0941,-7.7928],[13.4004,-7.695],[13.5039,-7.7345],[13.7339,-7.668],[13.817,-7.6198],[13.9553,-7.4846],[13.8651,-7.3495],[13.9241,-7.1958],[13.7975,-6.9795],[13.9417,-6.9603],[14.0451,-6.8829],[14.2315,-6.8141],[14.2908,-6.715],[14.4241,-6.6817],[14.5341,-6.6032],[14.7114,-6.5781],[14.7883,-6.5367],[14.9676,-6.2633],[14.9005,-6.1955],[14.8505,-6.0323],[14.7597,-5.8805]]]}},{"type":"Feature","properties":{"sourceId":"1159311261","regionId":"region.f79e62da-cd0e-4d02-9c3d-3365d9f447fa","countryId":"country.1oit02h"},"geometry":{"type":"Polygon","coordinates":[[[17.0979,-7.3783],[16.9961,-7.298],[16.9271,-7.0857],[16.9732,-7.0148],[16.927,-6.8886],[16.8329,-6.8278],[16.7308,-6.5698],[16.7268,-6.1892],[16.6043,-6.0619],[16.5974,-5.9247],[16.3157,-5.8546],[16.1009,-5.8581],[15.4358,-5.8692],[14.7597,-5.8805],[14.8505,-6.0323],[14.9005,-6.1955],[14.9676,-6.2633],[14.7883,-6.5367],[14.7114,-6.5781],[14.5341,-6.6032],[14.4241,-6.6817],[14.2908,-6.715],[14.2315,-6.8141],[14.0451,-6.8829],[13.9417,-6.9603],[13.7975,-6.9795],[13.9241,-7.1958],[13.8651,-7.3495],[13.9553,-7.4846],[13.817,-7.6198],[14.1249,-7.6418],[14.2888,-7.8197],[14.4183,-7.8929],[14.6464,-7.876],[14.7183,-7.9271],[14.7105,-8.0899],[14.6394,-8.2341],[14.6618,-8.3985],[14.8159,-8.3961],[14.9205,-8.2753],[15.1127,-8.2978],[15.186,-8.2222],[15.221,-8.0932],[15.1925,-7.9698],[15.4079,-7.9341],[15.4209,-8.0291],[15.5401,-8.0542],[15.7161,-8.0113],[15.7973,-8.12],[15.8005,-8.2115],[15.919,-8.213],[16.092,-8.1152],[16.1258,-7.8765],[16.0585,-7.6605],[16.1094,-7.591],[16.2194,-7.5686],[16.3457,-7.434],[16.5684,-7.3252],[16.6272,-7.3326],[16.7811,-7.552],[16.8907,-7.6009],[16.9813,-7.455],[17.0979,-7.3783]]]}},{"type":"Feature","properties":{"sourceId":"1159311281","regionId":"region.ad6f6e30-2796-4666-a5b3-17e6b98b28e5","countryId":"country.1oit02h"},"geometry":{"type":"Polygon","coordinates":[[[21.8266,-7.6456],[21.8609,-7.4698],[21.785,-7.2834],[20.5205,-7.2864],[20.5245,-7.1431],[20.6115,-6.916],[20.3311,-6.9168],[20.2943,-7.0019],[19.9631,-7.0019],[19.5218,-7.0019],[19.4764,-7.3159],[19.5132,-7.4794],[19.4247,-7.5797],[19.3556,-7.5741],[19.3778,-7.7301],[19.3338,-7.8673],[19.3555,-8.002],[18.7738,-8.002],[18.7385,-7.9323],[18.5165,-7.9322],[18.5076,-7.9975],[18.3536,-8.0159],[18.1766,-7.9992],[18.0982,-8.1093],[17.9819,-8.1053],[17.9014,-8.0481],[17.6284,-8.098],[17.5362,-8.0754],[17.5764,-8.3488],[17.5273,-8.4457],[17.5868,-8.5975],[17.5913,-8.8293],[17.5697,-8.933],[17.5851,-9.1098],[17.5516,-9.2093],[17.4009,-9.2785],[17.3384,-9.3793],[17.4136,-9.5773],[17.5902,-9.701],[17.6459,-9.7985],[17.7134,-9.8068],[18.2354,-10.0027],[18.2597,-10.0467],[18.1768,-10.2128],[18.1991,-10.2623],[18.3726,-10.3998],[18.4697,-10.4023],[18.6323,-10.4035],[18.7934,-10.3469],[18.8946,-10.2607],[19.1171,-10.2087],[19.4721,-9.9934],[19.8639,-9.8431],[19.958,-9.6949],[19.9919,-9.4701],[20.1879,-9.299],[20.3692,-9.2185],[20.4274,-9.1003],[20.6944,-8.9848],[20.8373,-8.7456],[21.0288,-8.6088],[21.2583,-8.5593],[21.4236,-8.5726],[21.5522,-8.5416],[21.654,-8.4582],[21.795,-8.4237],[21.9131,-8.333],[21.8512,-8.1435],[21.7585,-8.0151],[21.7705,-7.8068],[21.8266,-7.6456]]]}},{"type":"Feature","properties":{"sourceId":"1159311251","regionId":"region.fa027fb5-7d86-4a08-923b-871d8233a627","countryId":"country.1oit02h"},"geometry":{"type":"Polygon","coordinates":[[[17.0979,-7.3783],[16.9813,-7.455],[16.8907,-7.6009],[16.7811,-7.552],[16.6272,-7.3326],[16.5684,-7.3252],[16.3457,-7.434],[16.2194,-7.5686],[16.1094,-7.591],[16.0585,-7.6605],[16.1258,-7.8765],[16.092,-8.1152],[15.919,-8.213],[15.8005,-8.2115],[15.8161,-8.4028],[15.6795,-8.4641],[15.6169,-8.6016],[15.7224,-8.7207],[15.665,-8.8811],[15.6378,-9.1516],[15.4886,-9.1602],[15.2856,-9.2326],[15.2309,-9.3382],[15.1206,-9.3552],[15.1737,-9.4591],[15.1202,-9.5268],[15.1554,-9.6496],[15.1094,-9.7237],[15.203,-9.7963],[15.3638,-9.8168],[15.5208,-9.7895],[15.7582,-9.7827],[15.809,-9.716],[16.1633,-9.7432],[16.3079,-9.899],[16.378,-10.1389],[16.336,-10.2492],[16.4463,-10.3444],[16.6116,-10.5742],[16.6107,-10.6187],[16.7862,-10.7689],[16.8884,-10.75],[17.0926,-10.8332],[17.2813,-10.8577],[17.377,-10.9435],[17.4489,-11.1025],[17.401,-11.1908],[17.515,-11.3784],[17.4815,-11.5627],[17.5048,-11.6871],[17.6504,-11.7086],[17.8165,-11.5559],[17.9115,-11.5204],[18.04,-11.5567],[18.2557,-11.5285],[18.4056,-11.5404],[18.5876,-11.4127],[18.8369,-11.3476],[18.7756,-11.2328],[18.7627,-10.9613],[18.6398,-10.8037],[18.6193,-10.6944],[18.6536,-10.5819],[18.5538,-10.5151],[18.4697,-10.4023],[18.3726,-10.3998],[18.1991,-10.2623],[18.1768,-10.2128],[18.2597,-10.0467],[18.2354,-10.0027],[17.7134,-9.8068],[17.6459,-9.7985],[17.5902,-9.701],[17.4136,-9.5773],[17.3384,-9.3793],[17.4009,-9.2785],[17.5516,-9.2093],[17.5851,-9.1098],[17.5697,-8.933],[17.5913,-8.8293],[17.5868,-8.5975],[17.5273,-8.4457],[17.5764,-8.3488],[17.5362,-8.0754],[17.5365,-8.0151],[17.4341,-7.9158],[17.4206,-7.8439],[17.2889,-7.6995],[17.0979,-7.3783]]]}},{"type":"Feature","properties":{"sourceId":"1159311247","regionId":"region.c77e3ce4-cd1b-4028-862e-8a725c61c75d","countryId":"country.1oit02h"},"geometry":{"type":"Polygon","coordinates":[[[21.9131,-8.333],[21.795,-8.4237],[21.654,-8.4582],[21.5522,-8.5416],[21.4236,-8.5726],[21.2583,-8.5593],[21.0288,-8.6088],[20.8373,-8.7456],[20.6944,-8.9848],[20.4274,-9.1003],[20.3692,-9.2185],[20.1879,-9.299],[19.9919,-9.4701],[19.958,-9.6949],[19.8639,-9.8431],[19.4721,-9.9934],[19.1171,-10.2087],[18.8946,-10.2607],[18.7934,-10.3469],[18.6323,-10.4035],[18.4697,-10.4023],[18.5538,-10.5151],[18.6536,-10.5819],[18.6193,-10.6944],[18.6398,-10.8037],[18.7627,-10.9613],[18.9736,-11.0941],[19.0901,-11.197],[19.201,-11.2295],[19.236,-11.2937],[19.1886,-11.456],[19.2811,-11.4036],[19.4,-11.4109],[19.6242,-11.256],[19.7145,-11.3061],[19.8422,-11.2526],[20.1052,-11.278],[20.1768,-11.209],[20.7473,-11.4435],[21.0355,-11.4716],[21.2356,-11.2746],[21.4886,-11.1762],[21.6962,-11.1325],[21.6545,-11.0202],[21.674,-10.888],[21.7454,-10.8143],[21.7949,-10.6304],[22.1385,-10.5906],[22.3086,-10.6125],[22.274,-10.503],[22.3134,-10.3686],[22.2028,-10.1306],[22.1599,-9.9315],[21.9984,-9.8091],[21.8541,-9.6178],[21.7933,-9.3935],[21.8411,-9.2758],[21.8599,-8.8464],[21.94,-8.4999],[21.9131,-8.333]]]}},{"type":"Feature","properties":{"sourceId":"1159311257","regionId":"region.2e31ac6b-30bf-4d6c-90b1-8fe29c04ed1f","countryId":"country.1oit02h"},"geometry":{"type":"Polygon","coordinates":[[[13.7926,-11.7487],[14.0759,-11.7877],[14.103,-11.8761],[14.2362,-12.0015],[14.4144,-11.8446],[14.517,-11.8598],[14.6711,-12.0822],[14.8545,-12.0906],[15.0212,-12.206],[15.1164,-12.0489],[15.37,-11.9395],[15.4013,-11.7643],[15.3509,-11.6615],[15.4034,-11.5579],[15.7482,-11.4437],[15.7858,-11.2768],[15.8729,-11.1588],[15.9511,-10.9468],[16.1696,-11.0036],[16.3245,-10.8346],[16.5575,-10.6734],[16.6116,-10.5742],[16.4463,-10.3444],[16.336,-10.2492],[16.378,-10.1389],[16.3079,-9.899],[16.1633,-9.7432],[15.809,-9.716],[15.7582,-9.7827],[15.5208,-9.7895],[15.3638,-9.8168],[15.203,-9.7963],[15.1094,-9.7237],[14.9485,-9.6735],[14.7401,-9.7587],[14.5652,-9.7692],[14.5769,-9.921],[14.5398,-10.0287],[14.6061,-10.3665],[14.55,-10.439],[14.3954,-10.3246],[14.2152,-10.2764],[14.0239,-10.3998],[13.7289,-10.3474],[13.5228,-10.2121],[13.4891,-10.2493],[13.5423,-10.4267],[13.7529,-10.6462],[13.7393,-10.7834],[13.8286,-10.9137],[13.8465,-11.1137],[13.7942,-11.3415],[13.7777,-11.5891],[13.7926,-11.7487]]]}},{"type":"Feature","properties":{"sourceId":"1159311269","regionId":"region.0eda19bb-5374-4da2-8a82-072ba4dd9f7d","countryId":"country.1oit02h"},"geometry":{"type":"Polygon","coordinates":[[[12.5334,-13.567],[12.6132,-13.5341],[12.9192,-13.6069],[13.1011,-13.5217],[13.2865,-13.5621],[13.2876,-13.6646],[13.3821,-13.8221],[13.5647,-13.8469],[13.6713,-13.8112],[13.8583,-13.8452],[13.9736,-13.8261],[14.3019,-13.8741],[14.3541,-13.8552],[14.52,-13.6091],[14.6393,-13.6575],[14.7768,-13.6245],[14.9127,-13.5174],[15.0882,-13.4755],[15.1108,-13.4029],[14.9621,-13.2854],[14.9127,-13.1863],[14.9087,-13.0111],[14.8499,-12.9057],[14.8066,-12.685],[14.9065,-12.5948],[15.0693,-12.516],[15.0168,-12.3307],[15.0212,-12.206],[14.8545,-12.0906],[14.6711,-12.0822],[14.517,-11.8598],[14.4144,-11.8446],[14.2362,-12.0015],[14.103,-11.8761],[14.0759,-11.7877],[13.7926,-11.7487],[13.7664,-11.9205],[13.6398,-12.2487],[13.5056,-12.3714],[13.4597,-12.5073],[13.364,-12.5927],[13.1786,-12.6017],[12.9395,-12.8167],[12.9448,-12.9824],[12.7615,-13.193],[12.6565,-13.2556],[12.6345,-13.3434],[12.5127,-13.4421],[12.5334,-13.567]]]}},{"type":"Feature","properties":{"sourceId":"1159311253","regionId":"region.576aaa77-3de4-4ab3-86d2-47bc3a6ed708","countryId":"country.1oit02h"},"geometry":{"type":"Polygon","coordinates":[[[13.371,-8.5816],[13.6161,-8.6939],[13.6373,-8.8357],[13.5042,-8.9704],[13.4829,-9.15],[13.3052,-9.1617],[13.1434,-9.3303],[13.2239,-9.6142],[13.1986,-9.7087],[13.3272,-9.886],[13.3174,-9.9763],[13.4891,-10.2493],[13.5228,-10.2121],[13.7289,-10.3474],[14.0239,-10.3998],[14.2152,-10.2764],[14.3954,-10.3246],[14.55,-10.439],[14.6061,-10.3665],[14.5398,-10.0287],[14.5769,-9.921],[14.5652,-9.7692],[14.4113,-9.6875],[14.2847,-9.6796],[14.1615,-9.6281],[14.0845,-9.5256],[14.2003,-9.2655],[14.1503,-9.1452],[14.074,-9.0965],[14.1412,-8.9989],[14.1206,-8.8898],[14.279,-8.8412],[14.3691,-8.6954],[14.2631,-8.4672],[14.3772,-8.388],[14.6618,-8.3985],[14.6394,-8.2341],[14.7105,-8.0899],[14.7183,-7.9271],[14.6464,-7.876],[14.4183,-7.8929],[14.2888,-7.8197],[14.1249,-7.6418],[13.817,-7.6198],[13.7339,-7.668],[13.5039,-7.7345],[13.4004,-7.695],[13.0941,-7.7928],[13.2769,-8.1789],[13.3694,-8.3235],[13.371,-8.5816]]]}},{"type":"Feature","properties":{"sourceId":"1159311259","regionId":"region.6d360a5e-3177-427e-91ec-cea930a782bf","countryId":"country.1oit02h"},"geometry":{"type":"Polygon","coordinates":[[[13.1434,-9.3303],[13.3052,-9.1617],[13.4829,-9.15],[13.5042,-8.9704],[13.6373,-8.8357],[13.6161,-8.6939],[13.371,-8.5816],[13.4081,-8.6669],[13.3801,-8.7551],[13.2122,-8.8149],[13.1229,-8.9542],[12.9963,-9.0938],[13.1434,-9.3303]]]}},{"type":"Feature","properties":{"sourceId":"1159311265","regionId":"region.2a3f7b25-2e2a-4cf6-abc7-cd01ea267abf","countryId":"country.1oit02h"},"geometry":{"type":"Polygon","coordinates":[[[16.6116,-10.5742],[16.5575,-10.6734],[16.3245,-10.8346],[16.1696,-11.0036],[15.9511,-10.9468],[15.8729,-11.1588],[15.7858,-11.2768],[15.7482,-11.4437],[15.9048,-11.4879],[16.0554,-11.4495],[16.2923,-11.503],[16.3145,-11.6099],[16.4677,-11.7547],[16.5757,-11.9081],[16.5789,-11.9696],[16.4796,-12.1512],[16.3375,-12.2769],[16.3712,-12.484],[16.306,-12.5795],[16.3689,-12.6762],[16.5029,-12.7515],[16.5377,-13.1534],[16.5262,-13.3563],[16.5327,-13.55],[16.4769,-13.8463],[16.4736,-14.0103],[16.707,-13.9775],[16.8303,-14.0233],[16.9534,-13.9984],[17.0423,-14.1654],[17.3008,-14.3116],[17.3551,-14.1436],[17.4654,-14.0301],[17.6479,-13.9907],[17.807,-13.8512],[17.8085,-13.694],[17.8931,-13.6746],[17.9531,-13.5723],[17.9473,-13.3943],[18.0768,-13.2737],[18.059,-13.0865],[18.1712,-12.9641],[18.1544,-12.8624],[18.2992,-12.7301],[18.5186,-12.3771],[18.7107,-12.2623],[18.7255,-12.1789],[18.869,-12.0137],[18.8575,-11.9],[19.0642,-11.6588],[19.0995,-11.5339],[19.1886,-11.456],[19.236,-11.2937],[19.201,-11.2295],[19.0901,-11.197],[18.9736,-11.0941],[18.7627,-10.9613],[18.7756,-11.2328],[18.8369,-11.3476],[18.5876,-11.4127],[18.4056,-11.5404],[18.2557,-11.5285],[18.04,-11.5567],[17.9115,-11.5204],[17.8165,-11.5559],[17.6504,-11.7086],[17.5048,-11.6871],[17.4815,-11.5627],[17.515,-11.3784],[17.401,-11.1908],[17.4489,-11.1025],[17.377,-10.9435],[17.2813,-10.8577],[17.0926,-10.8332],[16.8884,-10.75],[16.7862,-10.7689],[16.6107,-10.6187],[16.6116,-10.5742]]]}},{"type":"Feature","properties":{"sourceId":"1159311255","regionId":"region.a0035c5c-a269-41f7-b460-dd7f0ee4283a","countryId":"country.1oit02h"},"geometry":{"type":"Polygon","coordinates":[[[15.8005,-8.2115],[15.7973,-8.12],[15.7161,-8.0113],[15.5401,-8.0542],[15.4209,-8.0291],[15.4079,-7.9341],[15.1925,-7.9698],[15.221,-8.0932],[15.186,-8.2222],[15.1127,-8.2978],[14.9205,-8.2753],[14.8159,-8.3961],[14.6618,-8.3985],[14.3772,-8.388],[14.2631,-8.4672],[14.3691,-8.6954],[14.279,-8.8412],[14.1206,-8.8898],[14.1412,-8.9989],[14.074,-9.0965],[14.1503,-9.1452],[14.2003,-9.2655],[14.0845,-9.5256],[14.1615,-9.6281],[14.2847,-9.6796],[14.4113,-9.6875],[14.5652,-9.7692],[14.7401,-9.7587],[14.9485,-9.6735],[15.1094,-9.7237],[15.1554,-9.6496],[15.1202,-9.5268],[15.1737,-9.4591],[15.1206,-9.3552],[15.2309,-9.3382],[15.2856,-9.2326],[15.4886,-9.1602],[15.6378,-9.1516],[15.665,-8.8811],[15.7224,-8.7207],[15.6169,-8.6016],[15.6795,-8.4641],[15.8161,-8.4028],[15.8005,-8.2115]]]}},{"type":"Feature","properties":{"sourceId":"1159311277","regionId":"region.0b19219b-8435-4bbb-92f5-ea72f1516f9f","countryId":"country.1oit02h"},"geometry":{"type":"Polygon","coordinates":[[[16.5262,-13.3563],[16.243,-13.341],[16.1361,-13.4378],[15.9969,-13.3961],[15.9156,-13.4365],[15.746,-13.6157],[15.613,-13.7199],[15.5093,-13.7541],[15.4949,-13.6446],[15.3777,-13.6002],[15.3127,-13.3899],[15.1108,-13.4029],[15.0882,-13.4755],[14.9127,-13.5174],[14.7768,-13.6245],[14.6393,-13.6575],[14.52,-13.6091],[14.3541,-13.8552],[14.3019,-13.8741],[13.9736,-13.8261],[13.8583,-13.8452],[13.6713,-13.8112],[13.5647,-13.8469],[13.6246,-13.9573],[13.5849,-14.0823],[13.6049,-14.2038],[13.6658,-14.2774],[13.6811,-14.438],[13.5903,-14.6762],[13.5428,-14.7302],[13.2966,-14.8864],[13.2207,-15.2293],[13.3169,-15.3181],[13.4156,-15.3243],[13.4381,-15.4284],[13.5458,-15.5309],[13.5509,-15.7335],[13.5898,-15.8202],[13.5115,-15.9942],[13.5269,-16.1855],[13.4809,-16.2482],[13.6159,-16.3665],[13.7377,-16.3241],[13.8946,-16.1561],[14.0118,-16.1993],[14.1175,-16.1125],[14.377,-16.0017],[14.5269,-15.857],[14.7117,-15.8637],[14.9602,-15.9318],[15.0395,-16.0424],[15.1684,-16.0386],[15.4591,-15.5712],[15.5394,-15.4849],[15.7106,-15.3998],[15.8352,-15.3862],[16.0624,-15.4047],[16.2341,-15.3809],[16.3772,-15.2154],[16.5173,-15.1558],[16.748,-15.1631],[16.6592,-14.9708],[16.6598,-14.8776],[16.5023,-14.6268],[16.5046,-14.4288],[16.4618,-14.2682],[16.4965,-14.1469],[16.4736,-14.0103],[16.4769,-13.8463],[16.5327,-13.55],[16.5262,-13.3563]]]}},{"type":"Feature","properties":{"sourceId":"1159311275","regionId":"region.f5030108-a785-4555-872d-d722ddc24d55","countryId":"country.1oit02h"},"geometry":{"type":"Polygon","coordinates":[[[15.7482,-11.4437],[15.4034,-11.5579],[15.3509,-11.6615],[15.4013,-11.7643],[15.37,-11.9395],[15.1164,-12.0489],[15.0212,-12.206],[15.0168,-12.3307],[15.0693,-12.516],[14.9065,-12.5948],[14.8066,-12.685],[14.8499,-12.9057],[14.9087,-13.0111],[14.9127,-13.1863],[14.9621,-13.2854],[15.1108,-13.4029],[15.3127,-13.3899],[15.3777,-13.6002],[15.4949,-13.6446],[15.5093,-13.7541],[15.613,-13.7199],[15.746,-13.6157],[15.9156,-13.4365],[15.9969,-13.3961],[16.1361,-13.4378],[16.243,-13.341],[16.5262,-13.3563],[16.5377,-13.1534],[16.5029,-12.7515],[16.3689,-12.6762],[16.306,-12.5795],[16.3712,-12.484],[16.3375,-12.2769],[16.4796,-12.1512],[16.5789,-11.9696],[16.5757,-11.9081],[16.4677,-11.7547],[16.3145,-11.6099],[16.2923,-11.503],[16.0554,-11.4495],[15.9048,-11.4879],[15.7482,-11.4437]]]}}]}