{"type":"FeatureCollection","features":[{"type":"Feature","properties":{"sourceId":"1159313095","regionId":"region.491942d7-409c-4c94-b81b-bee19b7d0ef2","countryId":"country.159s948"},"geometry":{"type":"Polygon","coordinates":[[[25.0942,58.0673],[25.2021,57.992],[25.4197,58.0083],[25.5518,57.9499],[25.6207,58.0416],[26.0715,58.1277],[26.0387,58.3001],[26.1654,58.4128],[26.1315,58.4847],[25.7771,58.6898],[25.4378,58.6137],[25.2585,58.6333],[24.9876,58.4859],[24.955,58.3363],[25.2332,58.2798],[25.0102,58.0852],[25.0349,58.0486],[25.0942,58.0673]]]}},{"type":"Feature","properties":{"sourceId":"1159313007","regionId":"region.ae1b3fcb-dd5e-4a93-88af-6a02e07a65ab","countryId":"country.159s948"},"geometry":{"type":"Polygon","coordinates":[[[25.0349,58.0486],[25.0102,58.0852],[25.2332,58.2798],[24.955,58.3363],[24.9876,58.4859],[25.2585,58.6333],[25.1998,58.7258],[24.6906,58.7512],[24.3635,58.6703],[24.1332,58.7015],[23.8645,58.6172],[23.8246,58.5592],[23.5858,58.5442],[23.6638,58.5362],[23.741,58.3431],[23.9802,58.3184],[24.1117,58.241],[24.3618,58.3973],[24.5288,58.3507],[24.4641,58.0722],[24.3062,57.8682],[24.5824,57.946],[24.8274,57.9819],[25.0349,58.0486]]]}},{"type":"Feature","properties":{"sourceId":"1159313093","regionId":"region.18f33db4-ef6d-4caa-bb87-7b9a8ac3ca4f","countryId":"country.159s948"},"geometry":{"type":"Polygon","coordinates":[[[25.5518,57.9499],[25.7038,57.9213],[25.7926,57.856],[26.0027,57.846],[26.0247,57.7744],[26.3513,57.5802],[26.4307,57.5618],[26.4645,57.6937],[26.3649,57.8789],[26.5402,57.9556],[26.595,58.1234],[26.3786,58.1754],[26.0715,58.1277],[25.6207,58.0416],[25.5518,57.9499]]]}},{"type":"Feature","properties":{"sourceId":"1159313097","regionId":"region.d09b0475-84fa-4f8a-9ae1-c66d71fb6d80","countryId":"country.159s948"},"geometry":{"type":"Polygon","coordinates":[[[26.4307,57.5618],[26.4996,57.5158],[26.7958,57.5713],[26.9466,57.6153],[27.0615,57.5557],[27.3529,57.5276],[27.4077,57.689],[27.5563,57.8131],[27.095,57.9571],[26.7669,57.9302],[26.5402,57.9556],[26.3649,57.8789],[26.4645,57.6937],[26.4307,57.5618]]]}},{"type":"Feature","properties":{"sourceId":"1159313077","regionId":"region.2765b1e0-1e19-4358-8fe2-5c968e1f4101","countryId":"country.159s948"},"geometry":{"type":"Polygon","coordinates":[[[28.0191,59.4818],[27.8733,59.4076],[27.409,59.4519],[26.9377,59.4501],[26.7809,59.5026],[26.8087,59.1172],[26.703,58.9559],[26.7458,58.8869],[27.4463,58.8189],[27.6959,58.9772],[27.9039,59.2904],[28.1865,59.3749],[28.0191,59.4818]]]}},{"type":"Feature","properties":{"sourceId":"1159313089","regionId":"region.ce1da4b1-b9de-4e01-b4c3-45417ffb5232","countryId":"country.159s948"},"geometry":{"type":"Polygon","coordinates":[[[27.5196,58.1945],[27.0219,58.2591],[26.6869,58.1866],[26.595,58.1234],[26.5402,57.9556],[26.7669,57.9302],[27.095,57.9571],[27.5563,57.8131],[27.6731,57.9128],[27.6304,58.0883],[27.5196,58.1945]]]}},{"type":"Feature","properties":{"sourceId":"1159313087","regionId":"region.966b0d19-08f5-4c48-a856-cbc04566c2a3","countryId":"country.159s948"},"geometry":{"type":"Polygon","coordinates":[[[27.4288,58.7094],[27.0909,58.6762],[27.0135,58.6024],[26.8118,58.5614],[26.3235,58.5318],[26.1315,58.4847],[26.1654,58.4128],[26.0387,58.3001],[26.0715,58.1277],[26.3786,58.1754],[26.595,58.1234],[26.6869,58.1866],[27.0219,58.2591],[27.5196,58.1945],[27.5549,58.3952],[27.4288,58.7094]]]}},{"type":"Feature","properties":{"sourceId":"1159313081","regionId":"region.bad58ab8-e435-4f26-bb2e-a5e53a819e73","countryId":"country.159s948"},"geometry":{"type":"Polygon","coordinates":[[[27.4463,58.8189],[26.7458,58.8869],[26.703,58.9559],[26.1537,58.8872],[25.7771,58.6898],[26.1315,58.4847],[26.3235,58.5318],[26.8118,58.5614],[27.0135,58.6024],[27.0909,58.6762],[27.4288,58.7094],[27.4463,58.8189]]]}},{"type":"Feature","properties":{"sourceId":"1159313071","regionId":"region.d8b7e352-dceb-446e-b415-a14ea83fbdec","countryId":"country.159s948"},"geometry":{"type":"Polygon","coordinates":[[[23.5858,58.5442],[23.8246,58.5592],[23.8645,58.6172],[24.1332,58.7015],[24.1869,58.8447],[24.1045,58.9847],[24.1478,59.0612],[23.9082,59.1314],[23.7185,59.2314],[23.4709,59.2121],[23.5194,59.125],[23.4224,58.9087],[23.5803,58.7922],[23.4932,58.6734],[23.5858,58.5442]]]}},{"type":"Feature","properties":{"sourceId":"1159313075","regionId":"region.a6c5204c-d993-428b-adf4-330c4454ca67","countryId":"country.159s948"},"geometry":{"type":"Polygon","coordinates":[[[23.7185,59.2314],[23.9082,59.1314],[24.1478,59.0612],[24.1045,58.9847],[24.3744,59.0862],[24.5564,59.0956],[24.6639,59.2169],[24.9036,59.2257],[24.9565,59.1465],[25.1845,59.0808],[25.3205,58.9922],[25.5169,59.2116],[25.4894,59.2638],[25.9259,59.2763],[25.8369,59.5765],[25.4971,59.5709],[25.4077,59.491],[25.1941,59.5227],[24.6975,59.491],[24.6248,59.4389],[24.3997,59.4788],[24.3062,59.4191],[24.0806,59.3955],[24.0921,59.3126],[23.7568,59.2836],[23.7185,59.2314]]]}},{"type":"Feature","properties":{"sourceId":"1159313083","regionId":"region.5ff6a4f1-19a4-4973-9a30-127bfa1d7926","countryId":"country.159s948"},"geometry":{"type":"Polygon","coordinates":[[[25.8369,59.5765],[25.9259,59.2763],[26.0114,59.156],[25.928,59.0645],[26.1351,58.9813],[26.1537,58.8872],[26.703,58.9559],[26.8087,59.1172],[26.7809,59.5026],[26.091,59.5856],[25.8369,59.5765]]]}},{"type":"Feature","properties":{"sourceId":"1159313005","regionId":"region.673e5951-96e9-4754-8461-91a491866ac5","countryId":"country.159s948"},"geometry":{"type":"MultiPolygon","coordinates":[[[[23.2306,58.5048],[22.8997,58.6203],[22.322,58.5848],[22.1136,58.498],[21.9011,58.4684],[21.9901,58.3869],[21.8678,58.2646],[22.0169,58.2339],[22.19,57.9838],[22.3234,58.2066],[22.535,58.2541],[22.7567,58.2423],[23.0868,58.395],[23.2306,58.5048]]],[[[23.3816,58.5799],[23.2883,58.6665],[23.0593,58.6035],[23.2238,58.5355],[23.3816,58.5799]]]]}},{"type":"Feature","properties":{"sourceId":"1159313073","regionId":"region.327a074b-7917-4168-8dbc-5f1a13a3cade","countryId":"country.159s948"},"geometry":{"type":"Polygon","coordinates":[[[22.2918,58.8952],[22.3821,58.8823],[22.5557,58.687],[22.7367,58.8065],[23.0405,58.8408],[22.9341,58.984],[22.7367,59.0051],[22.5977,59.0895],[22.4631,58.9709],[22.2918,58.8952]]]}},{"type":"Feature","properties":{"sourceId":"1159313091","regionId":"region.bb08b6a4-fe5a-4ea3-a7c3-6f42625f3bd2","countryId":"country.159s948"},"geometry":{"type":"Polygon","coordinates":[[[24.1332,58.7015],[24.3635,58.6703],[24.6906,58.7512],[25.1998,58.7258],[25.3205,58.9922],[25.1845,59.0808],[24.9565,59.1465],[24.9036,59.2257],[24.6639,59.2169],[24.5564,59.0956],[24.3744,59.0862],[24.1045,58.9847],[24.1869,58.8447],[24.1332,58.7015]]]}},{"type":"Feature","properties":{"sourceId":"1159313079","regionId":"region.43b054c2-d7da-47db-b006-568229e1121a","countryId":"country.159s948"},"geometry":{"type":"Polygon","coordinates":[[[25.7771,58.6898],[26.1537,58.8872],[26.1351,58.9813],[25.928,59.0645],[26.0114,59.156],[25.9259,59.2763],[25.4894,59.2638],[25.5169,59.2116],[25.3205,58.9922],[25.1998,58.7258],[25.2585,58.6333],[25.4378,58.6137],[25.7771,58.6898]]]}}]}