{"type":"FeatureCollection","features":[{"type":"Feature","properties":{"sourceId":"1159310045","regionId":"region.d4760e4a-a746-4ee7-a846-7a2d993414f4","countryId":"country.1tac25k"},"geometry":{"type":"Polygon","coordinates":[[[115.1462,4.9085],[115.0298,4.8206],[115.0355,4.6212],[115.113,4.3824],[115.3244,4.3146],[115.3438,4.3717],[115.2725,4.4747],[115.2727,4.6368],[115.2074,4.8256],[115.1462,4.9085]]]}},{"type":"Feature","properties":{"sourceId":"1159310049","regionId":"region.ecd2c140-2fb9-4604-a346-f4351c8a5019","countryId":"country.1tac25k"},"geometry":{"type":"Polygon","coordinates":[[[114.9817,4.8891],[115.0578,5.0541],[114.7602,4.8987],[114.7432,4.7306],[114.9817,4.8891]]]}},{"type":"Feature","properties":{"sourceId":"1159310051","regionId":"region.e3809a45-8c9b-446f-84aa-e10a62a12cde","countryId":"country.1tac25k"},"geometry":{"type":"Polygon","coordinates":[[[114.7432,4.7306],[114.7602,4.8987],[114.4944,4.6813],[114.5968,4.5223],[114.7942,4.3002],[114.8364,4.3572],[114.7822,4.4978],[114.7432,4.7306]]]}},{"type":"Feature","properties":{"sourceId":"1159310047","regionId":"region.4cea2c64-0de0-4531-98ed-face42e4f4a0","countryId":"country.1tac25k"},"geometry":{"type":"Polygon","coordinates":[[[113.9988,4.6011],[114.2456,4.4814],[114.2967,4.3167],[114.4199,4.2601],[114.4774,4.145],[114.5866,4.0214],[114.6749,4.0441],[114.7669,4.1318],[114.7942,4.3002],[114.5968,4.5223],[114.4944,4.6813],[114.2517,4.5927],[113.9988,4.6011]]]}}]}