{"type":"FeatureCollection","features":[{"type":"Feature","properties":{"sourceId":"1159309009","regionId":"region.bedceeda-abc0-40ea-b4fe-7511799f5bef","countryId":"country.1bwwirt"},"geometry":{"type":"Polygon","coordinates":[[[35.9208,4.6193],[35.7845,4.7642],[35.7516,4.8544],[35.7559,5.0634],[35.8071,5.1653],[35.8042,5.318],[35.6583,5.3864],[35.5982,5.3687],[35.4302,5.4272],[35.3208,5.3487],[35.2546,5.4259],[35.262,5.5119],[35.0987,5.6225],[34.9844,5.841],[34.968,6.0081],[34.1881,5.7755],[32.2082,5.8963],[32.1834,5.7846],[32.1924,5.1566],[32.2296,5.0293],[32.3347,4.8201],[32.1516,4.4302],[32.1144,4.2822],[31.8949,4.0446],[31.8011,3.8065],[31.9163,3.6803],[31.9437,3.5913],[32.0222,3.5864],[32.0542,3.5596],[32.1759,3.5272],[32.1878,3.6192],[32.3718,3.7311],[32.7564,3.769],[33.0172,3.8772],[33.1435,3.7741],[33.2637,3.7537],[33.4473,3.7444],[33.5277,3.7714],[33.9771,4.2197],[34.3812,4.6202],[34.6663,4.765],[35.2457,4.9817],[35.4116,5.0304],[35.3961,4.9264],[35.5708,4.9043],[35.5222,4.7805],[35.6106,4.62],[35.7004,4.5891],[35.9208,4.6193]]]}},{"type":"Feature","properties":{"sourceId":"1159309007","regionId":"region.50fd68fb-a248-4384-8396-2e79c94ab719","countryId":"country.1bwwirt"},"geometry":{"type":"Polygon","coordinates":[[[24.2632,8.2685],[24.4311,8.2714],[24.5129,8.2071],[24.6149,8.2171],[24.8321,8.1657],[24.9526,7.9966],[25.0896,7.8849],[25.2169,7.8641],[25.2794,7.6595],[25.1652,7.5799],[25.1904,7.5012],[25.3162,7.4172],[25.36,7.3356],[25.5924,7.2112],[25.7862,7.1427],[25.8008,7.1049],[26.0261,6.9967],[26.081,6.8423],[26.3792,6.6314],[27.9354,6.8165],[28.132,6.6932],[28.6396,6.736],[28.5902,7.0893],[28.6105,7.4083],[28.5469,7.5225],[28.5496,7.6172],[28.3488,7.7191],[28.1447,7.8481],[27.9934,7.8739],[27.8736,7.9929],[27.7001,8.2511],[27.5581,8.2138],[26.9575,7.9314],[26.7348,7.8086],[26.6327,7.8275],[26.3039,8.0407],[26.1846,8.1789],[26.1486,8.2913],[26.1234,8.5674],[26.0702,8.9053],[26.0736,9.5642],[26.1023,9.9882],[26.0167,10.1149],[25.9009,10.1911],[25.8949,10.3458],[25.8393,10.4206],[25.4795,10.3438],[25.0841,10.2932],[25.0171,10.168],[24.9763,9.9674],[24.7927,9.7984],[24.7944,9.5322],[24.6802,9.3734],[24.661,9.1823],[24.5654,9.0149],[24.5584,8.8867],[24.3801,8.8442],[24.1703,8.6893],[24.2437,8.5702],[24.1932,8.5324],[24.1216,8.3723],[24.2632,8.2685]]]}},{"type":"Feature","properties":{"sourceId":"1159308993","regionId":"region.fbbdeb0f-75ff-430f-b6af-ad9c283a9aac","countryId":"country.1bwwirt"},"geometry":{"type":"Polygon","coordinates":[[[26.3792,6.6314],[26.305,6.4969],[26.2896,6.3872],[26.452,6.2803],[26.528,6.0432],[26.705,6.0098],[26.8189,5.8946],[26.9811,5.8592],[27.0295,5.7899],[27.1704,5.7204],[27.2607,5.5503],[27.2201,5.4409],[27.2378,5.3232],[27.3013,5.2052],[27.4413,5.0707],[27.4363,5.0132],[27.5527,4.9005],[27.641,4.8909],[27.7669,4.7354],[27.7724,4.5958],[27.8377,4.56],[28.014,4.55],[28.0089,4.4991],[28.1776,4.3472],[28.3032,4.3522],[28.4041,4.2778],[28.5482,4.3708],[28.7554,4.554],[28.8153,4.4783],[28.9862,4.4959],[29.1735,4.348],[29.3039,4.3871],[29.4941,4.6683],[29.6185,4.6416],[29.7883,4.5394],[30.085,4.7771],[30.1576,4.7909],[30.3179,4.6867],[30.3853,4.7097],[30.5174,4.8386],[30.6773,4.9311],[30.8162,4.9764],[30.8631,5.0441],[30.8787,5.3397],[30.9602,5.5806],[30.908,5.6805],[30.7778,5.7872],[30.706,5.8877],[30.4352,6.1203],[30.2892,6.378],[30.1844,6.4766],[29.9376,6.4675],[29.9073,6.3514],[29.9115,6.1054],[29.7481,5.8687],[29.7044,5.7287],[29.5846,5.698],[29.1468,5.741],[28.935,5.8624],[28.8351,6.0012],[28.7044,6.1192],[28.6298,6.2676],[28.6023,6.4475],[28.6396,6.736],[28.132,6.6932],[27.9354,6.8165],[26.3792,6.6314]]]}},{"type":"Feature","properties":{"sourceId":"1159308995","regionId":"region.9a1a34ac-7a25-482b-9173-c8bf66095145","countryId":"country.1bwwirt"},"geometry":{"type":"Polygon","coordinates":[[[29.7883,4.5394],[29.7762,4.4056],[29.8827,4.344],[29.9232,4.2578],[30.0578,4.1237],[30.1227,4.1025],[30.2059,3.9504],[30.3379,3.9279],[30.5389,3.8416],[30.5726,3.601],[30.6934,3.632],[30.8377,3.5627],[30.8395,3.4902],[30.9444,3.6793],[31.0687,3.7317],[31.1415,3.7851],[31.295,3.7742],[31.5054,3.6599],[31.6139,3.697],[31.8011,3.8065],[31.8949,4.0446],[32.1144,4.2822],[32.1516,4.4302],[32.3347,4.8201],[32.2296,5.0293],[32.1924,5.1566],[32.1834,5.7846],[32.2082,5.8963],[31.6715,5.9265],[31.6206,5.8817],[31.5172,5.9212],[31.1779,5.9828],[31.0561,6.0354],[30.87,6.1927],[30.6565,6.1388],[30.4352,6.1203],[30.706,5.8877],[30.7778,5.7872],[30.908,5.6805],[30.9602,5.5806],[30.8787,5.3397],[30.8631,5.0441],[30.8162,4.9764],[30.6773,4.9311],[30.5174,4.8386],[30.3853,4.7097],[30.3179,4.6867],[30.1576,4.7909],[30.085,4.7771],[29.7883,4.5394]]]}},{"type":"Feature","properties":{"sourceId":"1159308997","regionId":"region.3ac514f9-449b-4e5b-9e8e-eb0711b8e29d","countryId":"country.1bwwirt"},"geometry":{"type":"Polygon","coordinates":[[[34.1073,8.6015],[34.0831,9.2051],[34.0707,9.4546],[33.9009,9.4553],[33.8777,9.5434],[33.9049,9.7107],[33.9691,9.8383],[33.9668,10.0473],[33.9021,10.192],[33.469,10.5439],[33.3706,10.6509],[33.1507,10.731],[33.1821,10.8432],[33.0829,11.5846],[33.1324,11.6862],[33.145,11.9347],[33.2092,12.2104],[32.7318,12.2162],[32.7467,12.0027],[32.0822,11.9998],[32.3452,11.7091],[32.3457,11.4116],[32.3642,11.24],[32.4354,11.107],[32.4141,11.0509],[31.9429,10.6556],[31.8642,10.4721],[31.6648,10.2142],[31.2348,9.7923],[31.1644,9.764],[30.9499,9.7524],[30.9386,9.5177],[31.125,9.4326],[31.4198,9.3433],[31.5387,9.3526],[31.8709,8.9126],[32.0156,8.8763],[32.3182,9.0319],[32.3772,8.9934],[32.608,8.569],[32.7512,8.4268],[32.8961,8.323],[32.889,8.192],[32.841,8.0337],[33.0076,7.9441],[33.2069,8.2407],[33.1741,8.4045],[33.2527,8.4582],[33.3614,8.4343],[33.6001,8.464],[33.6955,8.3729],[33.9708,8.4454],[34.1073,8.6015]]]}},{"type":"Feature","properties":{"sourceId":"1159309001","regionId":"region.57664a98-e7c8-429c-a1fc-25d1d6561a50","countryId":"country.1bwwirt"},"geometry":{"type":"Polygon","coordinates":[[[33.0076,7.9441],[32.841,8.0337],[32.889,8.192],[32.8961,8.323],[32.7512,8.4268],[32.608,8.569],[32.3772,8.9934],[32.3182,9.0319],[32.0156,8.8763],[31.8709,8.9126],[31.5387,9.3526],[31.4198,9.3433],[31.125,9.4326],[30.9386,9.5177],[30.7736,9.5049],[30.5234,9.5402],[30.425,9.483],[30.3249,9.3478],[30.3646,9.2266],[30.207,9.0286],[30.2428,8.736],[30.3098,8.6703],[30.269,8.5829],[30.3601,8.4603],[30.3078,8.1918],[30.3845,8.1161],[30.4261,7.9933],[30.5362,7.8243],[30.4999,7.6486],[30.5701,7.5377],[30.6568,7.322],[30.8157,7.0808],[30.8526,7.0289],[31.0697,6.9074],[31.3182,6.6217],[31.345,6.5193],[31.475,6.3354],[31.5415,6.1266],[31.6715,5.9265],[32.2082,5.8963],[34.1881,5.7755],[34.968,6.0081],[34.8447,6.2487],[34.7335,6.6376],[34.6355,6.7298],[34.5247,6.7529],[34.5037,6.89],[34.2976,6.9686],[34.1958,7.0977],[34.0311,7.2554],[34.0065,7.4099],[33.8824,7.5361],[33.7161,7.6572],[33.5723,7.6852],[33.4623,7.7495],[33.3598,7.7193],[33.2424,7.7807],[33.0513,7.8011],[33.0076,7.9441]]]}},{"type":"Feature","properties":{"sourceId":"1159309003","regionId":"region.baec5e6a-c049-4edb-b520-da5b449cc190","countryId":"country.1bwwirt"},"geometry":{"type":"Polygon","coordinates":[[[30.9499,9.7524],[30.7493,9.7358],[30.4846,9.972],[30.013,10.2705],[29.6154,10.0581],[29.6139,9.9145],[29.4831,9.7617],[29.2524,9.7112],[29.0095,9.6032],[28.8287,9.4275],[28.8438,9.3245],[28.9997,9.2717],[28.8692,9.1671],[28.834,9.0317],[29.0952,9.0295],[29.3507,8.6417],[29.6364,8.4464],[29.6623,8.4043],[29.6986,7.8212],[29.8961,7.7835],[30.2149,7.1295],[30.3323,7.0925],[30.8157,7.0808],[30.6568,7.322],[30.5701,7.5377],[30.4999,7.6486],[30.5362,7.8243],[30.4261,7.9933],[30.3845,8.1161],[30.3078,8.1918],[30.3601,8.4603],[30.269,8.5829],[30.3098,8.6703],[30.2428,8.736],[30.207,9.0286],[30.3646,9.2266],[30.3249,9.3478],[30.425,9.483],[30.5234,9.5402],[30.7736,9.5049],[30.9386,9.5177],[30.9499,9.7524]]]}},{"type":"Feature","properties":{"sourceId":"1159308125","regionId":"region.1033f80f-3be4-4e07-9ee2-d2ee1e2d8616","countryId":"country.1bwwirt"},"geometry":{"type":"Polygon","coordinates":[[[27.8951,9.5954],[27.3392,9.6128],[27.0804,9.6068],[26.6943,9.4769],[26.5569,9.5205],[26.1795,9.959],[26.1023,9.9882],[26.0736,9.5642],[26.0702,8.9053],[26.1234,8.5674],[26.1486,8.2913],[26.1846,8.1789],[26.3039,8.0407],[26.6327,7.8275],[26.7348,7.8086],[26.9575,7.9314],[27.5581,8.2138],[27.7001,8.2511],[27.7652,8.5379],[27.8446,8.6764],[27.871,8.8722],[27.961,8.987],[28.118,9.0075],[28.4008,9.0003],[28.834,9.0317],[28.8692,9.1671],[28.9997,9.2717],[28.8438,9.3245],[28.0451,9.3314],[27.8951,9.5954]]]}},{"type":"Feature","properties":{"sourceId":"1159308991","regionId":"region.cebf4189-068e-49f3-82ad-a2dbd25aec5b","countryId":"country.1bwwirt"},"geometry":{"type":"Polygon","coordinates":[[[29.6986,7.8212],[29.5692,7.6248],[29.2411,7.2633],[29.1577,7.1315],[29.0346,6.7305],[28.9389,6.6493],[28.8017,6.6399],[28.6396,6.736],[28.6023,6.4475],[28.6298,6.2676],[28.7044,6.1192],[28.8351,6.0012],[28.935,5.8624],[29.1468,5.741],[29.5846,5.698],[29.7044,5.7287],[29.7481,5.8687],[29.9115,6.1054],[29.9073,6.3514],[29.9376,6.4675],[30.1844,6.4766],[30.2892,6.378],[30.4352,6.1203],[30.6565,6.1388],[30.87,6.1927],[31.0561,6.0354],[31.1779,5.9828],[31.5172,5.9212],[31.6206,5.8817],[31.6715,5.9265],[31.5415,6.1266],[31.475,6.3354],[31.345,6.5193],[31.3182,6.6217],[31.0697,6.9074],[30.8526,7.0289],[30.8157,7.0808],[30.3323,7.0925],[30.2149,7.1295],[29.8961,7.7835],[29.6986,7.8212]]]}},{"type":"Feature","properties":{"sourceId":"1159309005","regionId":"region.4135ffdf-e629-4386-a4be-4450ee54a269","countryId":"country.1bwwirt"},"geometry":{"type":"Polygon","coordinates":[[[28.834,9.0317],[28.4008,9.0003],[28.118,9.0075],[27.961,8.987],[27.871,8.8722],[27.8446,8.6764],[27.7652,8.5379],[27.7001,8.2511],[27.8736,7.9929],[27.9934,7.8739],[28.1447,7.8481],[28.3488,7.7191],[28.5496,7.6172],[28.5469,7.5225],[28.6105,7.4083],[28.5902,7.0893],[28.6396,6.736],[28.8017,6.6399],[28.9389,6.6493],[29.0346,6.7305],[29.1577,7.1315],[29.2411,7.2633],[29.5692,7.6248],[29.6986,7.8212],[29.6623,8.4043],[29.6364,8.4464],[29.3507,8.6417],[29.0952,9.0295],[28.834,9.0317]]]}}]}