{"type":"FeatureCollection","features":[{"type":"Feature","properties":{"sourceId":"1159315519","regionId":"region.2d0810bc-27ff-478f-83a1-37db2753389a","countryId":"country.04362960-a7d3-4b19-8f76-6572995728e9"},"geometry":{"type":"Polygon","coordinates":[[[169.5903,5.8009],[169.6152,5.7988],[169.635,5.829],[169.6478,5.87],[169.6525,5.8998],[169.6652,5.9388],[169.7214,5.9766],[169.7002,5.976],[169.6555,5.9429],[169.6452,5.9171],[169.6387,5.8703],[169.6175,5.8183],[169.5903,5.8009]]]}},{"type":"Feature","properties":{"sourceId":"1159315523","regionId":"region.b5d560d6-463b-4c68-9e89-689bdcbbb57d","countryId":"country.04362960-a7d3-4b19-8f76-6572995728e9"},"geometry":{"type":"Polygon","coordinates":[[[171.3936,7.1099],[171.2264,7.0758],[171.2632,7.0677],[171.2935,7.0837],[171.3669,7.0945],[171.3936,7.1099]]]}}]}