{"type":"FeatureCollection","features":[{"type":"Feature","properties":{"sourceId":"1159312159","regionId":"region.88640890-6337-400a-9283-c12ea10b1227","countryId":"country.1x9bk5g"},"geometry":{"type":"Polygon","coordinates":[[[45.0024,41.2905],[44.8538,41.2235],[44.936,41.063],[44.7724,40.9996],[44.9054,40.9091],[44.7519,40.7726],[44.7725,40.6652],[44.7966,40.6501],[45.0646,40.6542],[45.1743,40.7321],[45.3736,40.6513],[45.4783,40.7482],[45.5822,40.7994],[45.4428,40.9484],[45.3819,41.0114],[45.2216,41.0144],[45.1868,41.1569],[45.052,41.1921],[45.0024,41.2905]]]}},{"type":"Feature","properties":{"sourceId":"1159312169","regionId":"region.da26d94d-866f-4cfd-b958-ac5fcf3a9972","countryId":"country.1x9bk5g"},"geometry":{"type":"Polygon","coordinates":[[[44.8538,41.2235],[44.6129,41.2231],[44.5515,41.177],[44.191,41.23],[43.9782,41.1646],[43.9778,41.1645],[43.9661,41.0885],[44.123,40.9584],[44.0371,40.7846],[44.1658,40.7405],[44.2875,40.7411],[44.4184,40.6818],[44.5267,40.6997],[44.7725,40.6652],[44.7519,40.7726],[44.9054,40.9091],[44.7724,40.9996],[44.936,41.063],[44.8538,41.2235]]]}},{"type":"Feature","properties":{"sourceId":"1159310557","regionId":"region.8dc30614-b963-4ba9-8dfc-f315b442d99c","countryId":"country.1x9bk5g"},"geometry":{"type":"Polygon","coordinates":[[[43.9778,41.1645],[43.7297,41.1067],[43.4404,41.1066],[43.4605,41.0229],[43.6049,40.9633],[43.7113,40.7816],[43.7294,40.6771],[43.6245,40.4111],[43.7931,40.498],[44.0603,40.4505],[44.1987,40.5104],[44.08,40.6405],[44.1658,40.7405],[44.0371,40.7846],[44.123,40.9584],[43.9661,41.0885],[43.9778,41.1645]]]}},{"type":"Feature","properties":{"sourceId":"1159312163","regionId":"region.3a97bd7a-4c5d-4105-b964-30c15d6904c1","countryId":"country.1x9bk5g"},"geometry":{"type":"Polygon","coordinates":[[[45.3736,40.6513],[45.1743,40.7321],[45.0646,40.6542],[44.7966,40.6501],[45.0298,40.1633],[45.0148,40.0794],[45.1095,39.8658],[45.2622,39.9404],[45.5776,39.984],[45.6396,40.0254],[45.8738,40.0098],[45.9792,40.2236],[45.8885,40.262],[45.8192,40.2971],[45.5262,40.441],[45.3736,40.6513]]]}},{"type":"Feature","properties":{"sourceId":"1159309407","regionId":"region.2f2b493a-70e7-46f6-ab36-fccd7d1b4ac3","countryId":"country.1x9bk5g"},"geometry":{"type":"Polygon","coordinates":[[[45.5776,39.984],[45.2622,39.9404],[45.1095,39.8658],[45.075,39.7498],[45.1679,39.5655],[45.2662,39.5929],[45.4239,39.4938],[45.7091,39.5684],[45.7125,39.7342],[45.8091,39.8512],[45.7154,39.9509],[45.5776,39.984]]]}},{"type":"Feature","properties":{"sourceId":"1159309405","regionId":"region.fd9ee49f-fac5-4f17-a7f5-30d46d58e464","countryId":"country.1x9bk5g"},"geometry":{"type":"Polygon","coordinates":[[[45.8091,39.8512],[45.7125,39.7342],[45.7091,39.5684],[45.7881,39.549],[45.7644,39.3591],[45.9018,39.2941],[45.986,39.2347],[45.9581,39.1515],[46.1359,38.8637],[46.3919,38.9224],[46.514,38.8822],[46.4793,39.1148],[46.5991,39.2225],[46.3746,39.3788],[46.479,39.4618],[46.5273,39.5382],[46.3437,39.6186],[46.2065,39.5879],[45.8832,39.7961],[45.8091,39.8512]]]}},{"type":"Feature","properties":{"sourceId":"1159312161","regionId":"region.b89e56b4-1d8e-4a91-a27f-19191e881785","countryId":"country.1x9bk5g"},"geometry":{"type":"Polygon","coordinates":[[[45.075,39.7498],[45.1095,39.8658],[45.0148,40.0794],[45.0298,40.1633],[44.6926,40.0833],[44.6476,40.1156],[44.5553,40.0548],[44.4405,40.1534],[44.3512,40.083],[44.3809,40.0098],[44.5222,39.9335],[44.7746,39.7028],[44.9532,39.736],[45.075,39.7498]]]}},{"type":"Feature","properties":{"sourceId":"1159310553","regionId":"region.acca680a-5955-4d9e-a3c0-3c01dd9c4435","countryId":"country.1x9bk5g"},"geometry":{"type":"Polygon","coordinates":[[[43.6903,40.2404],[43.8325,40.2661],[44.0178,40.1858],[44.282,40.2384],[44.4184,40.1893],[44.426,40.2008],[44.4089,40.2906],[44.5046,40.3801],[44.5533,40.5642],[44.4184,40.6818],[44.2875,40.7411],[44.1658,40.7405],[44.08,40.6405],[44.1987,40.5104],[44.0603,40.4505],[43.7931,40.498],[43.6245,40.4111],[43.5942,40.3454],[43.6903,40.2404]]]}},{"type":"Feature","properties":{"sourceId":"1159310555","regionId":"region.4e1723b4-e061-4c2d-99bf-7d50b78ec390","countryId":"country.1x9bk5g"},"geometry":{"type":"Polygon","coordinates":[[[43.6654,40.1102],[44.0324,40.0086],[44.2553,40.0434],[44.3809,40.0098],[44.3512,40.083],[44.4405,40.1534],[44.4184,40.1893],[44.282,40.2384],[44.0178,40.1858],[43.8325,40.2661],[43.6903,40.2404],[43.6654,40.1102]]]}},{"type":"Feature","properties":{"sourceId":"1159312165","regionId":"region.745d8d06-e3bb-47df-9fff-2e438866b77f","countryId":"country.1x9bk5g"},"geometry":{"type":"Polygon","coordinates":[[[44.7725,40.6652],[44.5267,40.6997],[44.4184,40.6818],[44.5533,40.5642],[44.5046,40.3801],[44.4089,40.2906],[44.426,40.2008],[44.5719,40.2292],[44.6476,40.1156],[44.6926,40.0833],[45.0298,40.1633],[44.7966,40.6501],[44.7725,40.6652]]]}},{"type":"Feature","properties":{"sourceId":"1159312171","regionId":"region.fd2a4e31-9b9e-4ad1-a433-1ed91fc82e1a","countryId":"country.1x9bk5g"},"geometry":{"type":"Polygon","coordinates":[[[44.6476,40.1156],[44.5719,40.2292],[44.426,40.2008],[44.4184,40.1893],[44.4405,40.1534],[44.5553,40.0548],[44.6476,40.1156]]]}}]}