{"type":"FeatureCollection","features":[{"type":"Feature","properties":{"sourceId":"1159315253","regionId":"region.60b83d9a-ad7c-4b36-b36f-cba20d8f0fdb","countryId":"country.1orw7jp"},"geometry":{"type":"Polygon","coordinates":[[[-12.0562,25.9953],[-12.0298,26.0304],[-11.7172,26.1036],[-11.6362,26.295],[-11.4697,26.5196],[-11.3369,26.6329],[-11.3159,26.7442],[-11.3916,26.8829],[-10.9218,27.0098],[-10.7568,27.0196],[-10.5503,26.9903],[-10.2505,26.8604],[-10.0317,26.9102],[-9.8994,26.8497],[-9.7344,26.8604],[-9.4121,27.088],[-9.0009,27.0899],[-8.7939,27.1202],[-8.7529,27.1905],[-8.8017,27.3604],[-8.7734,27.46],[-8.817,27.6615],[-8.6824,27.6614],[-8.6824,28.6659],[-8.6488,28.7259],[-8.4178,28.8523],[-8.3835,28.9058],[-8.0697,29.0793],[-7.6195,29.3894],[-7.3496,29.3834],[-7.1469,29.5092],[-6.9582,29.5092],[-6.7835,29.4463],[-6.6996,29.5162],[-6.3439,29.5721],[-6.4752,29.8326],[-6.4851,29.9254],[-6.4149,30.0481],[-6.5394,30.1055],[-6.5733,30.2462],[-6.5266,30.3524],[-6.7156,30.487],[-6.8435,30.4525],[-6.9109,30.3764],[-7.1772,30.3923],[-7.3247,30.1907],[-7.6273,30.219],[-7.76,30.1295],[-7.9673,30.1158],[-8.0192,30.0267],[-8.2988,29.997],[-8.3667,29.9555],[-8.6441,29.9633],[-8.6872,29.8973],[-8.695,29.5848],[-8.6457,29.4423],[-8.7394,29.4048],[-8.8751,29.4569],[-9.0774,29.4249],[-9.1885,29.3559],[-9.5099,29.321],[-9.6312,29.2693],[-9.7869,29.2803],[-9.8719,29.1661],[-10.0237,29.1388],[-10.0979,29.0789],[-10.3991,29.1612],[-10.5738,28.9904],[-11.0476,28.7617],[-11.3259,28.5152],[-11.4856,28.3256],[-11.7823,28.2101],[-11.5537,27.8346],[-11.5437,27.7901],[-11.8132,27.6622],[-11.927,27.5751],[-12.034,27.4405],[-12.153,27.1192],[-12.3125,26.844],[-12.4865,26.6821],[-12.561,26.5409],[-12.5734,26.4246],[-12.4974,26.2318],[-12.445,25.9926],[-12.0562,25.9953]]]}},{"type":"Feature","properties":{"sourceId":"1159315213","regionId":"region.d7f3c969-70c0-416e-a5e8-1b001daffa9c","countryId":"country.1orw7jp"},"geometry":{"type":"Polygon","coordinates":[[[-12.0562,25.9953],[-12.445,25.9926],[-12.4974,26.2318],[-12.5734,26.4246],[-12.561,26.5409],[-12.4865,26.6821],[-12.3125,26.844],[-12.153,27.1192],[-12.034,27.4405],[-11.927,27.5751],[-11.8132,27.6622],[-11.5437,27.7901],[-11.5537,27.8346],[-11.7823,28.2101],[-12.0614,28.089],[-12.335,28.0473],[-12.5135,27.9954],[-12.8389,27.9704],[-12.9681,27.9146],[-13.0614,27.7429],[-13.1713,27.685],[-13.3011,27.3244],[-13.4025,27.1772],[-13.5009,26.8583],[-13.62,26.6889],[-13.9237,26.5009],[-14.1571,26.4338],[-14.2989,26.3022],[-14.4101,26.2601],[-14.4928,26.1327],[-14.5195,25.9238],[-14.621,25.7836],[-14.7149,25.5256],[-14.7821,25.4469],[-14.8497,25.2142],[-14.836,24.9187],[-14.9078,24.6855],[-15.0122,24.5915],[-14.7856,24.526],[-14.6785,24.4208],[-14.5912,24.4077],[-14.3065,24.4708],[-14.0591,24.4802],[-13.6435,24.4024],[-13.3143,24.5058],[-13.1506,24.5243],[-12.9469,24.4967],[-12.7099,24.63],[-12.4301,24.8302],[-12.31,25.1104],[-12.1699,25.6397],[-12.0801,25.8702],[-12.0562,25.9953]]]}},{"type":"Feature","properties":{"sourceId":"1159315215","regionId":"region.b8c9b897-d786-4644-a315-a1ddaa365239","countryId":"country.1orw7jp"},"geometry":{"type":"Polygon","coordinates":[[[-12.9469,24.4967],[-13.1506,24.5243],[-13.3143,24.5058],[-13.6435,24.4024],[-14.0591,24.4802],[-14.3065,24.4708],[-14.5912,24.4077],[-14.6785,24.4208],[-14.7856,24.526],[-15.0122,24.5915],[-15.1719,24.4941],[-15.2982,24.3452],[-15.4447,24.2219],[-15.6201,24.0263],[-15.7681,23.9599],[-15.7726,23.7878],[-15.9672,23.5129],[-16.1351,23.1851],[-16.173,22.9735],[-16.2896,22.8998],[-16.3573,22.5831],[-16.4294,22.5104],[-16.5218,22.3149],[-16.7068,22.2755],[-16.8166,22.1306],[-16.921,21.9313],[-16.9669,21.7812],[-16.9711,21.5926],[-17.0137,21.42],[-16.73,21.4698],[-16.1899,21.4806],[-16.04,21.5001],[-15.75,21.4903],[-15.4599,21.4503],[-15.1499,21.4405],[-14.8398,21.4503],[-14.6699,21.5997],[-14.6098,21.7501],[-14.6299,21.8604],[-14.4399,22.0802],[-14.3101,22.1905],[-14.2202,22.3096],[-14.1899,22.4503],[-14.1699,22.7599],[-14.02,23.4103],[-13.8901,23.6905],[-13.77,23.7901],[-13.31,23.9806],[-13.23,24.0899],[-13.06,24.4005],[-12.9469,24.4967]]]}},{"type":"Feature","properties":{"sourceId":"1159310509","regionId":"region.5cc4d3d8-ccc2-4c42-bd82-b7c1999bd895","countryId":"country.1orw7jp"},"geometry":{"type":"Polygon","coordinates":[[[-5.3989,35.9245],[-5.599,35.8223],[-5.9272,35.7807],[-6.0239,35.5012],[-6.2492,35.0014],[-6.1131,35.0102],[-5.7817,34.9307],[-5.633,34.823],[-5.513,34.8199],[-5.3495,34.7147],[-5.1902,34.7164],[-5.1306,34.7677],[-4.7865,34.867],[-4.5795,34.9634],[-4.4642,35.0791],[-4.4954,35.1808],[-4.7705,35.241],[-5.0663,35.4175],[-5.2494,35.5846],[-5.3226,35.7138],[-5.3407,35.8474],[-5.3989,35.9245]]]}},{"type":"Feature","properties":{"sourceId":"1159310531","regionId":"region.f690b682-b98b-4e59-b0b5-97061ee790a8","countryId":"country.1orw7jp"},"geometry":{"type":"Polygon","coordinates":[[[-2.9478,35.3298],[-3.1951,35.2382],[-3.4129,35.1979],[-3.591,35.2333],[-3.6736,35.2879],[-3.8219,35.2068],[-3.8106,34.9309],[-3.6114,34.8408],[-3.6227,34.6429],[-3.5114,34.5935],[-3.2721,34.7733],[-2.9856,34.7067],[-3.0693,34.4983],[-3.1961,34.3637],[-3.0695,34.1457],[-3.1946,33.946],[-3.1024,33.7851],[-3.1118,33.656],[-3.2144,33.5126],[-2.983,33.342],[-2.9261,33.211],[-3.0338,33.1486],[-3.3194,33.1017],[-3.5982,33.0872],[-3.8611,32.823],[-3.9992,32.6173],[-3.8448,32.4096],[-3.788,32.2843],[-3.6575,32.1412],[-3.5292,32.1848],[-3.2693,32.1641],[-3.2399,31.9576],[-3.1523,31.8388],[-3.1617,31.7325],[-2.8278,31.7946],[-2.9387,32.0486],[-2.5161,32.1322],[-1.2496,32.0817],[-1.2734,32.2294],[-1.218,32.3926],[-1.1232,32.4179],[-1.0475,32.517],[-1.4233,32.7424],[-1.5588,32.9337],[-1.4995,33.0602],[-1.6742,33.238],[-1.6832,33.3692],[-1.6127,33.5215],[-1.7025,33.7728],[-1.7187,33.8981],[-1.6721,34.092],[-1.7461,34.2903],[-1.8096,34.3725],[-1.7507,34.4942],[-1.8711,34.5966],[-1.7877,34.7567],[-2.1938,35.0036],[-2.2226,35.0893],[-2.4167,35.1492],[-2.5632,35.0961],[-2.9051,35.1736],[-2.9129,35.2769],[-2.943,35.2679],[-2.9669,35.3139],[-2.9478,35.3298]]]}},{"type":"Feature","properties":{"sourceId":"1159310525","regionId":"region.d18e1eb7-574b-4558-af6c-6e846873ff99","countryId":"country.1orw7jp"},"geometry":{"type":"Polygon","coordinates":[[[-3.1617,31.7325],[-3.1523,31.8388],[-3.2399,31.9576],[-3.2693,32.1641],[-3.5292,32.1848],[-3.6575,32.1412],[-3.788,32.2843],[-3.8448,32.4096],[-3.9992,32.6173],[-4.1874,32.6132],[-4.2793,32.6527],[-4.4935,32.8845],[-4.7194,32.9255],[-4.8641,33.1271],[-4.9941,33.4169],[-4.8979,33.5407],[-4.9768,33.666],[-5.1191,33.6931],[-5.0879,33.8363],[-5.2477,34.1089],[-5.3294,34.1022],[-5.4205,34.2806],[-5.4687,34.1654],[-5.7028,34.1425],[-5.7888,34.2119],[-5.8851,34.1167],[-5.7598,33.9555],[-5.7865,33.886],[-5.7245,33.788],[-5.789,33.6196],[-5.8354,33.3277],[-5.9981,33.3158],[-6.1975,33.3659],[-6.213,33.4381],[-6.3536,33.4683],[-6.4198,33.2383],[-6.4035,33.1954],[-6.1327,33.0118],[-6.0417,32.7931],[-5.8995,32.7441],[-5.7747,32.6432],[-5.4373,32.5079],[-5.5273,32.3899],[-5.4684,32.2621],[-5.6379,32.2147],[-5.8211,32.1021],[-5.8596,32.0134],[-5.8059,31.9302],[-5.6585,31.9697],[-5.5719,31.8748],[-5.7356,31.6384],[-5.4541,31.6089],[-5.2526,31.4745],[-5.2138,31.4124],[-5.3043,31.1109],[-5.3028,30.9987],[-5.361,30.8242],[-5.2059,30.6531],[-5.2191,30.4979],[-4.7707,30.2291],[-4.624,30.285],[-4.4842,30.3828],[-4.3724,30.5086],[-4.1557,30.5855],[-3.8342,30.6275],[-3.6455,30.7113],[-3.6595,30.8371],[-3.5547,30.9559],[-3.6359,31.0957],[-3.815,31.2205],[-3.8192,31.3189],[-3.6735,31.3892],[-3.6595,31.6478],[-3.1617,31.7325]]]}},{"type":"Feature","properties":{"sourceId":"1159310533","regionId":"region.bafc762a-f082-4187-91b0-8506e6624338","countryId":"country.1orw7jp"},"geometry":{"type":"Polygon","coordinates":[[[-4.7707,30.2291],[-5.2191,30.4979],[-5.2059,30.6531],[-5.361,30.8242],[-5.3028,30.9987],[-5.3043,31.1109],[-5.2138,31.4124],[-5.2526,31.4745],[-5.4541,31.6089],[-5.7356,31.6384],[-5.5719,31.8748],[-5.6585,31.9697],[-5.8059,31.9302],[-6.0563,31.7528],[-6.4811,31.5741],[-6.7026,31.4947],[-6.8039,31.3923],[-6.9837,31.3731],[-7.1865,31.4472],[-7.3263,31.3406],[-7.8251,31.1401],[-8.0338,30.9464],[-8.1644,30.9555],[-8.3603,30.8987],[-8.7507,30.8778],[-8.8201,30.9688],[-9.0485,30.8554],[-9.2367,30.8472],[-9.3307,30.8826],[-9.5477,30.8819],[-9.6904,30.8294],[-9.8236,30.96],[-9.8202,30.7923],[-9.8867,30.6867],[-9.7001,30.5427],[-9.6116,30.4044],[-9.6551,30.1269],[-9.8202,29.8389],[-10.053,29.5999],[-10.1418,29.4286],[-10.3991,29.1612],[-10.0979,29.0789],[-10.0237,29.1388],[-9.8719,29.1661],[-9.7869,29.2803],[-9.6312,29.2693],[-9.5099,29.321],[-9.1885,29.3559],[-9.0774,29.4249],[-8.8751,29.4569],[-8.7394,29.4048],[-8.6457,29.4423],[-8.695,29.5848],[-8.6872,29.8973],[-8.6441,29.9633],[-8.3667,29.9555],[-8.2988,29.997],[-8.0192,30.0267],[-7.9673,30.1158],[-7.76,30.1295],[-7.6273,30.219],[-7.3247,30.1907],[-7.1772,30.3923],[-6.9109,30.3764],[-6.8435,30.4525],[-6.7156,30.487],[-6.5266,30.3524],[-6.5733,30.2462],[-6.5394,30.1055],[-6.4149,30.0481],[-6.4851,29.9254],[-6.4752,29.8326],[-6.3439,29.5721],[-6.0008,29.5791],[-5.7562,29.6141],[-5.7212,29.5232],[-5.5395,29.5232],[-5.4347,29.642],[-5.2739,29.8866],[-5.1761,29.9775],[-4.8756,30.1802],[-4.7707,30.2291]]]}},{"type":"Feature","properties":{"sourceId":"1159310515","regionId":"region.94b0e320-d32d-4e74-a165-7b39d7b1949c","countryId":"country.1orw7jp"},"geometry":{"type":"Polygon","coordinates":[[[-4.4954,35.1808],[-4.4642,35.0791],[-4.5795,34.9634],[-4.7865,34.867],[-5.1306,34.7677],[-5.1902,34.7164],[-5.1971,34.5761],[-5.4907,34.37],[-5.4205,34.2806],[-5.1559,34.3099],[-4.9739,34.2913],[-4.8059,34.1926],[-4.7207,34.0882],[-4.5965,34.0359],[-4.4766,33.9038],[-4.1866,33.8703],[-4.0645,33.7088],[-4.0724,33.5718],[-3.9741,33.5364],[-3.8119,33.5746],[-3.7981,33.644],[-3.4989,33.9075],[-3.3427,33.8378],[-3.1024,33.7851],[-3.1946,33.946],[-3.0695,34.1457],[-3.1961,34.3637],[-3.0693,34.4983],[-2.9856,34.7067],[-3.2721,34.7733],[-3.5114,34.5935],[-3.6227,34.6429],[-3.6114,34.8408],[-3.8106,34.9309],[-3.8219,35.2068],[-3.9613,35.2504],[-4.376,35.1518],[-4.4954,35.1808]]]}},{"type":"Feature","properties":{"sourceId":"1159310517","regionId":"region.1b462c3d-62e0-4ad4-a0d2-e5a32a42ad34","countryId":"country.1orw7jp"},"geometry":{"type":"Polygon","coordinates":[[[-6.7226,34.1824],[-6.5551,34.1203],[-6.3628,34.1686],[-5.9719,34.1037],[-5.8851,34.1167],[-5.7888,34.2119],[-5.7028,34.1425],[-5.4687,34.1654],[-5.4205,34.2806],[-5.4907,34.37],[-5.1971,34.5761],[-5.1902,34.7164],[-5.3495,34.7147],[-5.513,34.8199],[-5.633,34.823],[-5.7817,34.9307],[-6.1131,35.0102],[-6.2492,35.0014],[-6.2921,34.8808],[-6.5579,34.4177],[-6.7226,34.1824]]]}},{"type":"Feature","properties":{"sourceId":"1159310523","regionId":"region.06819c3a-e650-4f34-bbb5-e1ffaf12aff3","countryId":"country.1orw7jp"},"geometry":{"type":"Polygon","coordinates":[[[-7.117,33.8349],[-6.9787,33.6141],[-6.7881,33.5525],[-6.8204,33.3301],[-6.7315,33.2428],[-6.5556,33.1879],[-6.4198,33.2383],[-6.3536,33.4683],[-6.213,33.4381],[-6.1975,33.3659],[-5.9981,33.3158],[-5.8354,33.3277],[-5.789,33.6196],[-5.7245,33.788],[-5.7865,33.886],[-5.7598,33.9555],[-5.8851,34.1167],[-5.9719,34.1037],[-6.3628,34.1686],[-6.5551,34.1203],[-6.7226,34.1824],[-6.9274,33.9442],[-7.117,33.8349]]]}},{"type":"Feature","properties":{"sourceId":"1159310519","regionId":"region.939351bf-2e3e-4a1e-9bef-cd182a86725d","countryId":"country.1orw7jp"},"geometry":{"type":"Polygon","coordinates":[[[-7.3411,33.7311],[-7.4263,33.4723],[-7.6038,33.3688],[-7.6813,33.442],[-7.886,33.5091],[-8.0116,33.4664],[-7.9685,33.3351],[-8.1179,33.1678],[-8.0537,32.9138],[-7.9902,32.834],[-7.8727,32.7031],[-7.75,32.6264],[-7.6458,32.5045],[-7.3718,32.4589],[-7.1267,32.3466],[-7.0697,32.4073],[-6.9954,32.6101],[-6.8576,32.6906],[-6.6614,32.6848],[-6.5786,32.721],[-6.2921,32.7018],[-6.0917,32.7473],[-6.0417,32.7931],[-6.1327,33.0118],[-6.4035,33.1954],[-6.4198,33.2383],[-6.5556,33.1879],[-6.7315,33.2428],[-6.8204,33.3301],[-6.7881,33.5525],[-6.9787,33.6141],[-7.117,33.8349],[-7.3411,33.7311]]]}},{"type":"Feature","properties":{"sourceId":"1159310521","regionId":"region.60c5f38b-5230-4132-be0c-c6b629738ad9","countryId":"country.1orw7jp"},"geometry":{"type":"Polygon","coordinates":[[[-7.886,33.5091],[-7.6813,33.442],[-7.6038,33.3688],[-7.4263,33.4723],[-7.3411,33.7311],[-7.4971,33.65],[-7.886,33.5091]]]}},{"type":"Feature","properties":{"sourceId":"1159310537","regionId":"region.bf0db861-b9e9-4fcb-912c-ffb97e6c4119","countryId":"country.1orw7jp"},"geometry":{"type":"Polygon","coordinates":[[[-9.4588,31.9446],[-9.3338,31.9029],[-9.1844,31.9302],[-9.0556,31.9089],[-8.969,31.7983],[-8.8572,31.765],[-8.5669,31.7449],[-8.4495,31.7736],[-8.278,32.1429],[-8.3915,32.2009],[-8.4505,32.335],[-8.0915,32.5826],[-8.0511,32.7874],[-7.9902,32.834],[-8.0537,32.9138],[-8.1179,33.1678],[-7.9685,33.3351],[-8.0116,33.4664],[-8.2432,33.4045],[-8.4517,33.2642],[-8.5292,33.2687],[-8.6291,33.1276],[-8.8678,32.8819],[-8.9985,32.7971],[-9.2599,32.5769],[-9.2469,32.4723],[-9.292,32.3508],[-9.27,32.2275],[-9.3661,32.0263],[-9.4588,31.9446]]]}},{"type":"Feature","properties":{"sourceId":"1159310535","regionId":"region.1c46b264-a9f8-4348-9fdc-5148e73171f6","countryId":"country.1orw7jp"},"geometry":{"type":"Polygon","coordinates":[[[-9.8236,30.96],[-9.6904,30.8294],[-9.5477,30.8819],[-9.3307,30.8826],[-9.2367,30.8472],[-9.0485,30.8554],[-8.8201,30.9688],[-8.7507,30.8778],[-8.3603,30.8987],[-8.1644,30.9555],[-8.0338,30.9464],[-7.8251,31.1401],[-7.3263,31.3406],[-7.1865,31.4472],[-7.1499,31.5621],[-7.2844,31.6969],[-7.2239,31.7594],[-7.0805,31.7859],[-7.0276,31.8819],[-7.0977,32.0655],[-7.1267,32.3466],[-7.3718,32.4589],[-7.6458,32.5045],[-7.75,32.6264],[-7.8727,32.7031],[-7.9902,32.834],[-8.0511,32.7874],[-8.0915,32.5826],[-8.4505,32.335],[-8.3915,32.2009],[-8.278,32.1429],[-8.4495,31.7736],[-8.5669,31.7449],[-8.8572,31.765],[-8.969,31.7983],[-9.0556,31.9089],[-9.1844,31.9302],[-9.3338,31.9029],[-9.4588,31.9446],[-9.6673,31.7311],[-9.6893,31.6352],[-9.8475,31.4024],[-9.8109,31.3668],[-9.835,31.1448],[-9.8236,30.96]]]}},{"type":"Feature","properties":{"sourceId":"1159310513","regionId":"region.62a6537a-4028-4493-81ba-7ba777f9bf35","countryId":"country.1orw7jp"},"geometry":{"type":"Polygon","coordinates":[[[-3.1024,33.7851],[-3.3427,33.8378],[-3.4989,33.9075],[-3.7981,33.644],[-3.8119,33.5746],[-3.9741,33.5364],[-4.0724,33.5718],[-4.0645,33.7088],[-4.1866,33.8703],[-4.4766,33.9038],[-4.5965,34.0359],[-4.7207,34.0882],[-4.8059,34.1926],[-4.9739,34.2913],[-5.1559,34.3099],[-5.4205,34.2806],[-5.3294,34.1022],[-5.2477,34.1089],[-5.0879,33.8363],[-5.1191,33.6931],[-4.9768,33.666],[-4.8979,33.5407],[-4.9941,33.4169],[-4.8641,33.1271],[-4.7194,32.9255],[-4.4935,32.8845],[-4.2793,32.6527],[-4.1874,32.6132],[-3.9992,32.6173],[-3.8611,32.823],[-3.5982,33.0872],[-3.3194,33.1017],[-3.0338,33.1486],[-2.9261,33.211],[-2.983,33.342],[-3.2144,33.5126],[-3.1118,33.656],[-3.1024,33.7851]]]}},{"type":"Feature","properties":{"sourceId":"1159310527","regionId":"region.14705769-8e42-4f16-8018-ea4704604c3b","countryId":"country.1orw7jp"},"geometry":{"type":"Polygon","coordinates":[[[-6.0417,32.7931],[-6.0917,32.7473],[-6.2921,32.7018],[-6.5786,32.721],[-6.6614,32.6848],[-6.8576,32.6906],[-6.9954,32.6101],[-7.0697,32.4073],[-7.1267,32.3466],[-7.0977,32.0655],[-7.0276,31.8819],[-7.0805,31.7859],[-7.2239,31.7594],[-7.2844,31.6969],[-7.1499,31.5621],[-7.1865,31.4472],[-6.9837,31.3731],[-6.8039,31.3923],[-6.7026,31.4947],[-6.4811,31.5741],[-6.0563,31.7528],[-5.8059,31.9302],[-5.8596,32.0134],[-5.8211,32.1021],[-5.6379,32.2147],[-5.4684,32.2621],[-5.5273,32.3899],[-5.4373,32.5079],[-5.7747,32.6432],[-5.8995,32.7441],[-6.0417,32.7931]]]}}]}