{"type":"FeatureCollection","features":[{"type":"Feature","properties":{"sourceId":"1159312075","regionId":"region.7e2671a5-3117-4b3c-8673-4f9371818d74","countryId":"country.1us5oyp"},"geometry":{"type":"Polygon","coordinates":[[[74.5424,37.0217],[74.3661,37.1478],[74.4873,37.2259],[74.8923,37.2311],[74.6604,37.394],[74.5298,37.3758],[74.2239,37.4034],[74.1633,37.3301],[73.7982,37.2285],[73.6177,37.2332],[73.7457,37.3529],[73.7535,37.4284],[73.4853,37.481],[73.2761,37.4595],[73.0675,37.3151],[72.9956,37.3093],[72.761,37.1875],[72.6577,37.0288],[72.4059,37.0077],[72.2598,36.9673],[71.8366,36.6992],[71.6111,36.7048],[71.4631,36.9481],[71.4311,37.067],[71.487,37.2671],[71.4972,37.5665],[71.5977,37.8984],[71.5012,37.9462],[71.3412,37.8933],[71.2558,37.9499],[71.3645,38.2068],[71.3344,38.2807],[70.974,38.4737],[70.7611,38.4435],[70.5958,38.3382],[70.4826,38.1374],[70.2986,37.9981],[70.1652,37.8899],[70.2831,37.7048],[70.1579,37.5414],[70.0042,37.5514],[70.0043,37.2762],[70.033,37.1351],[70.1241,37.0425],[70.0077,36.9144],[70.0038,36.6151],[70.0431,36.4572],[70.2093,36.3378],[70.4725,36.2836],[70.429,36.0379],[70.4635,35.9783],[70.2734,35.8502],[70.2312,35.6704],[70.3716,35.6971],[70.4866,35.6615],[70.5547,35.5669],[70.5435,35.4463],[70.7299,35.4975],[70.8644,35.4842],[70.8661,35.6003],[71.0143,35.7064],[70.9785,35.7815],[71.1699,36.0308],[71.2231,36.1254],[71.3824,36.2186],[71.6291,36.4595],[71.7363,36.3959],[72.0504,36.6186],[72.1716,36.6536],[72.2136,36.7264],[72.4541,36.758],[72.5652,36.8206],[72.8677,36.8304],[73.1918,36.877],[73.7118,36.8941],[73.9469,36.8309],[74.0943,36.8312],[74.394,36.994],[74.5424,37.0217]]]}},{"type":"Feature","properties":{"sourceId":"1159312087","regionId":"region.ebab13e4-aecc-4196-9d99-fff6e33d259f","countryId":"country.1us5oyp"},"geometry":{"type":"Polygon","coordinates":[[[70.0042,37.5514],[69.8952,37.6182],[69.8022,37.5815],[69.5287,37.586],[69.3784,37.4374],[69.4452,37.2364],[69.3086,37.1169],[69.3046,36.8499],[69.2162,36.7927],[69.2556,36.6122],[69.1479,36.4905],[69.2207,36.297],[69.3006,36.2282],[69.4441,36.2472],[69.6811,36.3501],[69.7777,36.2136],[69.7881,36.0991],[69.8861,36.0061],[69.961,35.8099],[70.2734,35.8502],[70.4635,35.9783],[70.429,36.0379],[70.4725,36.2836],[70.2093,36.3378],[70.0431,36.4572],[70.0038,36.6151],[70.0077,36.9144],[70.1241,37.0425],[70.033,37.1351],[70.0043,37.2762],[70.0042,37.5514]]]}},{"type":"Feature","properties":{"sourceId":"1159312083","regionId":"region.a7807163-bfb5-4aa2-ad13-5f993877e0ad","countryId":"country.1us5oyp"},"geometry":{"type":"Polygon","coordinates":[[[69.3086,37.1169],[69.1236,37.1692],[69.0055,37.3055],[68.8972,37.336],[68.8246,37.2606],[68.6689,37.2783],[68.6269,37.2063],[68.3073,37.1142],[68.0248,36.9255],[68.0381,36.817],[68.1891,36.5932],[68.2395,36.5712],[68.3224,36.5481],[68.7228,36.5343],[68.8621,36.4126],[68.9992,36.4174],[69.2207,36.297],[69.1479,36.4905],[69.2556,36.6122],[69.2162,36.7927],[69.3046,36.8499],[69.3086,37.1169]]]}},{"type":"Feature","properties":{"sourceId":"1159312043","regionId":"region.7ea7849d-402f-451e-a24f-34c9a083650a","countryId":"country.1us5oyp"},"geometry":{"type":"Polygon","coordinates":[[[67.7805,37.1889],[67.4824,37.2774],[67.2368,37.1924],[67.0059,37.3844],[66.5196,37.3642],[66.4615,37.3244],[66.2508,37.3597],[66.4094,37.2496],[66.5036,37.1124],[66.4674,36.9729],[66.5648,36.7838],[66.4355,36.7625],[66.5273,36.5877],[66.6636,36.5086],[66.4614,36.2242],[66.5946,36.1705],[66.6288,35.8625],[66.5247,35.7275],[66.7997,35.6748],[66.9049,35.7181],[66.9446,35.7942],[67.1147,35.9251],[67.0675,36.0639],[67.2677,36.1532],[67.3738,36.2894],[67.4201,36.4716],[67.3769,36.5677],[67.5001,36.6402],[67.688,36.6479],[67.8324,36.5896],[68.0799,36.5622],[68.1891,36.5932],[68.0381,36.817],[68.0248,36.9255],[67.8781,37.0644],[67.7853,37.0965],[67.7805,37.1889]]]}},{"type":"Feature","properties":{"sourceId":"1159312047","regionId":"region.670d273e-c073-4c0a-83b0-f74a50c8111d","countryId":"country.1us5oyp"},"geometry":{"type":"Polygon","coordinates":[[[66.2508,37.3597],[66.0797,37.4409],[65.8552,37.5079],[65.8043,37.5653],[65.6688,37.5206],[65.6241,37.3451],[65.4879,37.242],[65.367,37.0703],[65.3403,36.9068],[65.4449,36.749],[65.3924,36.6196],[65.4848,36.3856],[65.2779,36.3612],[65.2113,36.2449],[65.1449,35.9371],[65.3673,35.9149],[65.5765,35.9279],[65.6852,36.0004],[65.5332,35.9742],[65.4907,36.0968],[65.5271,36.3396],[65.6896,36.3514],[66.0477,36.5303],[66.2342,36.5354],[66.5273,36.5877],[66.4355,36.7625],[66.5648,36.7838],[66.4674,36.9729],[66.5036,37.1124],[66.4094,37.2496],[66.2508,37.3597]]]}},{"type":"Feature","properties":{"sourceId":"1159312045","regionId":"region.9dfd4836-7086-4e32-9b91-ea0b299e07ab","countryId":"country.1us5oyp"},"geometry":{"type":"Polygon","coordinates":[[[64.7285,36.8506],[64.592,36.6211],[64.6059,36.4611],[64.4446,36.25],[64.2661,36.1525],[64.1234,36.1461],[63.9063,36.0317],[63.9467,35.9877],[63.915,35.7752],[64.0271,35.4872],[64.2471,35.4684],[64.3062,35.3972],[64.4158,35.4177],[64.4164,35.2368],[64.6142,35.1993],[64.7301,35.2131],[64.9192,35.2137],[65.1403,35.2546],[65.2928,35.1964],[65.4514,35.2539],[65.411,35.4478],[65.5212,35.6772],[65.623,35.6761],[65.68,35.7874],[65.7946,35.7943],[65.7917,35.8974],[65.6852,36.0004],[65.5765,35.9279],[65.3673,35.9149],[65.1449,35.9371],[65.2113,36.2449],[65.2779,36.3612],[65.4848,36.3856],[65.3924,36.6196],[65.4449,36.749],[65.3403,36.9068],[65.367,37.0703],[65.4879,37.242],[65.0631,37.2332],[64.7602,37.0926],[64.7788,36.9385],[64.7285,36.8506]]]}},{"type":"Feature","properties":{"sourceId":"1159312035","regionId":"region.6030f39b-d02d-4ee3-8131-042159c9db12","countryId":"country.1us5oyp"},"geometry":{"type":"Polygon","coordinates":[[[63.9063,36.0317],[63.7659,35.9773],[63.6023,35.9627],[63.3429,35.8563],[63.1253,35.8602],[63.1839,35.7123],[63.0766,35.6247],[63.0802,35.4371],[62.8231,35.3275],[62.6718,35.042],[62.6518,34.894],[63.0315,34.6489],[63.1733,34.6107],[63.3603,34.6346],[63.5501,34.5559],[63.8053,34.5112],[64.0117,34.5622],[64.1749,34.6704],[64.4763,34.6714],[64.5294,34.7111],[64.721,34.6975],[64.9656,34.7654],[65.0473,34.9397],[64.986,35.0395],[64.7301,35.2131],[64.6142,35.1993],[64.4164,35.2368],[64.4158,35.4177],[64.3062,35.3972],[64.2471,35.4684],[64.0271,35.4872],[63.915,35.7752],[63.9467,35.9877],[63.9063,36.0317]]]}},{"type":"Feature","properties":{"sourceId":"1159312037","regionId":"region.cbafe17f-fe5b-43ab-a9a6-4b251efae93b","countryId":"country.1us5oyp"},"geometry":{"type":"Polygon","coordinates":[[[62.8231,35.3275],[62.6211,35.2227],[62.3993,35.2559],[62.302,35.1475],[62.219,35.3063],[62.0338,35.424],[61.9194,35.4518],[61.799,35.4175],[61.5387,35.4523],[61.4193,35.5459],[61.2697,35.6185],[61.29,35.5481],[61.1083,35.278],[61.1159,35.0599],[61.0655,34.8147],[60.9599,34.7232],[60.9475,34.638],[60.7144,34.5374],[60.8905,34.3189],[60.6437,34.3066],[60.5209,34.1861],[60.4885,34.0809],[60.528,33.8415],[60.5118,33.6384],[60.6556,33.5599],[60.8796,33.5487],[60.9198,33.5126],[61.1645,33.4615],[61.4515,33.4597],[61.5279,33.5124],[61.8474,33.4765],[61.8231,33.3428],[61.7584,33.2852],[61.8441,33.1669],[61.6869,33.0223],[61.6641,32.9287],[61.8623,32.8179],[61.9647,32.8921],[62.0738,32.7832],[62.1799,32.8317],[62.3525,32.8451],[62.3965,32.9972],[62.5359,33.0625],[62.6859,33.0656],[62.7416,33.1213],[63.0414,33.1765],[63.1403,33.3195],[63.0746,33.5328],[63.2411,33.6185],[63.45,33.6522],[63.5774,33.7949],[63.3879,34.074],[63.4931,34.2685],[63.7413,34.2685],[63.8499,34.2199],[64.118,34.2256],[64.2013,34.2716],[64.1937,34.4653],[64.4596,34.5594],[64.4763,34.6714],[64.1749,34.6704],[64.0117,34.5622],[63.8053,34.5112],[63.5501,34.5559],[63.3603,34.6346],[63.1733,34.6107],[63.0315,34.6489],[62.6518,34.894],[62.6718,35.042],[62.8231,35.3275]]]}},{"type":"Feature","properties":{"sourceId":"1159312057","regionId":"region.4ed0e6f8-7cc4-4439-9c64-89937afb4b95","countryId":"country.1us5oyp"},"geometry":{"type":"Polygon","coordinates":[[[60.8444,29.8582],[61.6134,29.6385],[62.3745,29.4249],[62.6026,29.4181],[62.7587,30.0732],[62.7735,30.212],[62.9199,30.309],[63.0115,30.4569],[63.0923,30.5187],[63.0574,30.6818],[63.1534,30.767],[63.1431,30.9364],[63.3429,31.1253],[63.3164,31.3166],[63.4076,31.8049],[63.4978,31.9188],[63.5659,32.0716],[63.5301,32.2002],[63.1395,32.2443],[63.0659,32.0466],[62.9812,31.9898],[62.7193,31.9408],[62.6009,32.0549],[61.9792,32.0211],[61.8928,31.8049],[61.724,31.6062],[61.6651,31.5979],[61.6063,31.3887],[61.7492,31.3024],[61.8263,31.0346],[61.7852,30.8314],[61.4617,30.4946],[60.8444,29.8582]]]}},{"type":"Feature","properties":{"sourceId":"1159312053","regionId":"region.2b2348f3-f7eb-4a90-82f2-ee712018d54a","countryId":"country.1us5oyp"},"geometry":{"type":"Polygon","coordinates":[[[61.6063,31.3887],[61.6651,31.5979],[61.724,31.6062],[61.8928,31.8049],[61.9792,32.0211],[62.6009,32.0549],[62.7193,31.9408],[62.9812,31.9898],[63.0659,32.0466],[63.1395,32.2443],[63.5301,32.2002],[63.7169,32.3153],[63.8125,32.3214],[64.0209,32.45],[63.997,32.5543],[64.1774,32.5722],[64.3854,32.8412],[64.5673,32.9042],[64.5686,33.0206],[64.7159,33.1334],[64.7252,33.2278],[64.5229,33.3097],[64.4755,33.2276],[64.3265,33.1233],[64.2294,33.159],[64.0115,33.4874],[63.8886,33.4969],[63.7914,33.4188],[63.499,33.3355],[63.1403,33.3195],[63.0414,33.1765],[62.7416,33.1213],[62.6859,33.0656],[62.5359,33.0625],[62.3965,32.9972],[62.3525,32.8451],[62.1799,32.8317],[62.0738,32.7832],[61.9647,32.8921],[61.8623,32.8179],[61.6641,32.9287],[61.6869,33.0223],[61.8441,33.1669],[61.7584,33.2852],[61.8231,33.3428],[61.8474,33.4765],[61.5279,33.5124],[61.4515,33.4597],[61.1645,33.4615],[60.9198,33.5126],[60.8322,33.4845],[60.757,33.3663],[60.5676,33.1513],[60.5775,32.9943],[60.8303,32.2489],[60.7749,32.0272],[60.8217,31.4947],[61.1251,31.4489],[61.6063,31.3887]]]}},{"type":"Feature","properties":{"sourceId":"1159312081","regionId":"region.39f447d0-3678-4746-8386-8ba2c8abbea1","countryId":"country.1us5oyp"},"geometry":{"type":"Polygon","coordinates":[[[71.4452,34.9378],[71.5089,35.072],[71.6337,35.2031],[71.5298,35.3009],[71.6111,35.3955],[71.5934,35.4642],[71.4692,35.3878],[71.2343,35.3151],[71.1218,35.1094],[70.853,35.0693],[70.652,35.1316],[70.5744,34.994],[70.6155,34.8002],[70.6669,34.7494],[70.684,34.5959],[70.823,34.5523],[70.9834,34.5553],[71.0658,34.5585],[71.0806,34.6729],[71.2031,34.7482],[71.2895,34.875],[71.4452,34.9378]]]}},{"type":"Feature","properties":{"sourceId":"1159312079","regionId":"region.83abadf5-2783-4336-bd71-f309b2fde699","countryId":"country.1us5oyp"},"geometry":{"type":"Polygon","coordinates":[[[71.1699,36.0308],[70.9785,35.7815],[71.0143,35.7064],[70.8661,35.6003],[70.8644,35.4842],[70.7299,35.4975],[70.5435,35.4463],[70.5547,35.5669],[70.4866,35.6615],[70.3716,35.6971],[70.2312,35.6704],[70.1351,35.4781],[69.9199,35.343],[69.9722,35.2358],[70.0358,35.1012],[70.1502,35.091],[70.2596,34.9422],[70.3916,34.9041],[70.5744,34.994],[70.652,35.1316],[70.853,35.0693],[71.1218,35.1094],[71.2343,35.3151],[71.4692,35.3878],[71.5934,35.4642],[71.5935,35.5494],[71.4833,35.6266],[71.5198,35.6838],[71.3416,35.9473],[71.1699,36.0308]]]}},{"type":"Feature","properties":{"sourceId":"1159312085","regionId":"region.3e678a84-0e7f-43c3-96e1-cde5b6f06b45","countryId":"country.1us5oyp"},"geometry":{"type":"Polygon","coordinates":[[[70.9834,34.5553],[70.823,34.5523],[70.684,34.5959],[70.6669,34.7494],[70.6155,34.8002],[70.4058,34.6547],[70.4196,34.5572],[70.3033,34.4659],[70.0647,34.4116],[69.812,34.411],[69.6648,34.355],[69.4859,34.159],[69.6966,34.2442],[69.7925,34.2081],[69.8976,34.0451],[69.9054,34.0358],[70.0028,34.0438],[70.3282,33.9573],[70.522,33.9387],[70.8622,33.9648],[71.0467,34.0419],[71.1018,34.1518],[71.122,34.3568],[70.9708,34.4689],[70.9834,34.5553]]]}},{"type":"Feature","properties":{"sourceId":"1159312071","regionId":"region.51a9c24e-5403-43da-9dd3-9cfd86433e4f","countryId":"country.1us5oyp"},"geometry":{"type":"Polygon","coordinates":[[[69.9965,33.7421],[69.7753,33.6115],[69.5836,33.5546],[69.5296,33.3824],[69.4012,33.2446],[69.4001,33.1321],[69.3408,33.0677],[69.4781,33.0114],[69.5475,33.075],[69.7718,33.1148],[69.8809,33.0892],[70.1248,33.199],[70.2944,33.3189],[70.2857,33.3829],[70.155,33.5066],[70.1702,33.6387],[70.1082,33.7273],[69.9965,33.7421]]]}},{"type":"Feature","properties":{"sourceId":"1159315265","regionId":"region.0266b601-0bb8-46ff-a44b-8465b38d1018","countryId":"country.1us5oyp"},"geometry":{"type":"Polygon","coordinates":[[[69.9054,34.0358],[69.8976,34.0451],[69.8069,34.0739],[69.7164,34.0097],[69.5911,34.0549],[69.2984,33.8288],[69.0753,33.7095],[68.9845,33.6044],[68.7724,33.613],[68.7991,33.4555],[68.7688,33.3933],[68.8677,33.4195],[68.9811,33.3616],[68.9988,33.1603],[69.1619,33.2273],[69.4012,33.2446],[69.5296,33.3824],[69.5836,33.5546],[69.7753,33.6115],[69.9965,33.7421],[69.8411,33.9418],[69.9054,34.0358]]]}},{"type":"Feature","properties":{"sourceId":"1159312073","regionId":"region.7b444a7c-9f7d-4df1-9075-a538b83b65b2","countryId":"country.1us5oyp"},"geometry":{"type":"Polygon","coordinates":[[[69.3012,31.9413],[69.251,32.1307],[69.2644,32.3224],[69.228,32.4213],[69.282,32.5328],[69.4291,32.6674],[69.3872,32.7853],[69.4773,32.8568],[69.4781,33.0114],[69.3408,33.0677],[69.4001,33.1321],[69.4012,33.2446],[69.1619,33.2273],[68.9988,33.1603],[68.9811,33.3616],[68.8677,33.4195],[68.7688,33.3933],[68.5832,33.1749],[68.4896,33.1162],[68.4246,32.975],[68.1528,32.7306],[68.0348,32.7235],[67.9081,32.817],[67.8367,32.6719],[68.0572,32.5029],[68.0896,32.3999],[68.0513,32.0984],[68.0764,32.0034],[68.0138,31.8929],[68.0983,31.7591],[68.1591,31.8259],[68.3561,31.7625],[68.5275,31.823],[68.6758,31.7747],[68.7773,31.6186],[69.004,31.6511],[69.1143,31.7378],[69.3012,31.9413]]]}},{"type":"Feature","properties":{"sourceId":"1159312067","regionId":"region.a204f325-6c1d-40b3-be7b-d16da04b6d3f","countryId":"country.1us5oyp"},"geometry":{"type":"Polygon","coordinates":[[[68.0983,31.7591],[68.0138,31.8929],[68.0764,32.0034],[68.0513,32.0984],[67.9211,32.0766],[67.72,32.1589],[67.6395,32.3007],[67.743,32.3311],[67.5946,32.5137],[67.6625,32.5775],[67.4066,32.7989],[67.3833,32.9077],[67.2047,32.9857],[67.1662,33.0536],[67.0115,32.9271],[66.9873,32.8305],[66.8054,32.8116],[66.6704,32.7184],[66.5609,32.7599],[66.3272,32.5775],[66.3266,32.4917],[66.4363,32.5527],[66.5392,32.5018],[66.4987,32.3722],[66.3222,32.1931],[66.3439,31.9622],[66.1821,31.8351],[66.3116,31.6948],[66.4165,31.7578],[66.5494,31.7749],[66.6765,31.865],[66.9367,31.7371],[67.0327,31.7169],[67.1885,31.761],[67.4112,31.5486],[67.6289,31.5705],[67.7483,31.5444],[67.8427,31.6235],[67.9552,31.6332],[68.0983,31.7591]]]}},{"type":"Feature","properties":{"sourceId":"1159312065","regionId":"region.4e5d6101-4a8c-4de6-9bb6-4bdcaeea7e58","countryId":"country.1us5oyp"},"geometry":{"type":"Polygon","coordinates":[[[67.7483,31.5444],[67.6289,31.5705],[67.4112,31.5486],[67.1885,31.761],[67.0327,31.7169],[66.9367,31.7371],[66.6765,31.865],[66.5494,31.7749],[66.4165,31.7578],[66.3116,31.6948],[66.1821,31.8351],[66.3439,31.9622],[66.3222,32.1931],[66.4987,32.3722],[66.5392,32.5018],[66.4363,32.5527],[66.3266,32.4917],[66.0359,32.4287],[65.7993,32.4883],[65.6061,32.5752],[65.5439,32.5276],[65.4143,32.2741],[65.2354,32.3239],[65.1665,32.231],[65.1153,32.0694],[64.9461,32.0444],[64.9106,31.9346],[64.818,31.8515],[64.8129,31.7034],[64.736,31.4251],[64.6737,30.7384],[64.6602,30.4153],[64.6306,30.2231],[64.4995,29.5702],[64.8203,29.5679],[65.0364,29.5402],[66.1956,29.8353],[66.3405,29.9566],[66.2252,30.0444],[66.3009,30.2256],[66.3218,30.4374],[66.268,30.6014],[66.3663,30.9229],[66.55,30.977],[66.6631,31.0831],[66.697,31.1958],[66.9433,31.3147],[67.0229,31.2394],[67.3462,31.2078],[67.7494,31.328],[67.7704,31.3947],[67.597,31.4257],[67.569,31.5299],[67.7483,31.5444]]]}},{"type":"Feature","properties":{"sourceId":"1159312055","regionId":"region.4bec4642-a6bf-4fee-a0e9-a0a5c1683ccb","countryId":"country.1us5oyp"},"geometry":{"type":"Polygon","coordinates":[[[64.4995,29.5702],[64.6306,30.2231],[64.6602,30.4153],[64.6737,30.7384],[64.736,31.4251],[64.8129,31.7034],[64.818,31.8515],[64.9106,31.9346],[64.9461,32.0444],[65.1153,32.0694],[65.1665,32.231],[65.2354,32.3239],[65.292,32.5505],[65.2697,32.6471],[65.1778,32.6853],[65.1854,32.9006],[65.2942,33.069],[65.3482,33.0925],[65.3617,33.2202],[65.2191,33.363],[65.1587,33.3626],[64.8239,33.2044],[64.7252,33.2278],[64.7159,33.1334],[64.5686,33.0206],[64.5673,32.9042],[64.3854,32.8412],[64.1774,32.5722],[63.997,32.5543],[64.0209,32.45],[63.8125,32.3214],[63.7169,32.3153],[63.5301,32.2002],[63.5659,32.0716],[63.4978,31.9188],[63.4076,31.8049],[63.3164,31.3166],[63.3429,31.1253],[63.1431,30.9364],[63.1534,30.767],[63.0574,30.6818],[63.0923,30.5187],[63.0115,30.4569],[62.9199,30.309],[62.7735,30.212],[62.7587,30.0732],[62.6026,29.4181],[63.5686,29.4975],[63.972,29.4296],[64.0861,29.3866],[64.2077,29.5],[64.4995,29.5702]]]}},{"type":"Feature","properties":{"sourceId":"1159312061","regionId":"region.1df37eaf-d0f3-4294-89b0-6dd95977805e","countryId":"country.1us5oyp"},"geometry":{"type":"Polygon","coordinates":[[[66.8292,33.2809],[66.5284,33.2428],[66.4744,33.319],[66.2952,33.2975],[66.0828,33.1786],[66.0339,33.0602],[65.5637,33.147],[65.4227,33.0673],[65.3482,33.0925],[65.2942,33.069],[65.1854,32.9006],[65.1778,32.6853],[65.2697,32.6471],[65.292,32.5505],[65.2354,32.3239],[65.4143,32.2741],[65.5439,32.5276],[65.6061,32.5752],[65.7993,32.4883],[66.0359,32.4287],[66.3266,32.4917],[66.3272,32.5775],[66.5609,32.7599],[66.6704,32.7184],[66.8054,32.8116],[66.9873,32.8305],[67.0115,32.9271],[66.9218,32.9628],[66.9219,33.1401],[66.9722,33.2494],[66.8292,33.2809]]]}},{"type":"Feature","properties":{"sourceId":"1159312069","regionId":"region.0865f7b0-481f-4d01-9a02-4748ce1834f8","countryId":"country.1us5oyp"},"geometry":{"type":"Polygon","coordinates":[[[66.8292,33.2809],[66.9722,33.2494],[66.9219,33.1401],[66.9218,32.9628],[67.0115,32.9271],[67.1662,33.0536],[67.2047,32.9857],[67.3833,32.9077],[67.4066,32.7989],[67.6625,32.5775],[67.5946,32.5137],[67.743,32.3311],[67.6395,32.3007],[67.72,32.1589],[67.9211,32.0766],[68.0513,32.0984],[68.0896,32.3999],[68.0572,32.5029],[67.8367,32.6719],[67.9081,32.817],[68.0348,32.7235],[68.1528,32.7306],[68.4246,32.975],[68.4896,33.1162],[68.5832,33.1749],[68.7688,33.3933],[68.7991,33.4555],[68.7724,33.613],[68.7119,33.7901],[68.5542,33.6808],[68.4524,33.6994],[68.3975,33.7909],[68.2304,33.9269],[68.1452,33.9563],[68.0992,34.167],[68.0324,34.203],[67.821,34.1469],[67.6727,34.2093],[67.4314,34.1386],[67.347,34.0366],[67.3832,33.8721],[67.182,33.6839],[66.8444,33.5802],[66.8589,33.4538],[66.8292,33.2809]]]}},{"type":"Feature","properties":{"sourceId":"1159312097","regionId":"region.9816b20b-b87d-4022-a91f-a86e97a541b9","countryId":"country.1us5oyp"},"geometry":{"type":"Polygon","coordinates":[[[70.2734,35.8502],[69.961,35.8099],[69.7824,35.6531],[69.7489,35.5411],[69.5561,35.4562],[69.2635,35.3924],[69.2833,35.1617],[69.7096,35.1586],[69.7969,35.0809],[69.9722,35.2358],[69.9199,35.343],[70.1351,35.4781],[70.2312,35.6704],[70.2734,35.8502]]]}},{"type":"Feature","properties":{"sourceId":"1159312091","regionId":"region.dcaa63fe-7a14-46ec-8a6a-ca8c7aa492c3","countryId":"country.1us5oyp"},"geometry":{"type":"Polygon","coordinates":[[[69.8971,34.8536],[69.7798,34.7781],[69.7192,34.6504],[69.6043,34.6493],[69.4483,34.5912],[69.395,34.7258],[69.2275,34.8728],[68.9828,34.8954],[68.8715,34.7042],[68.8627,34.6222],[68.8419,34.4928],[68.9692,34.3491],[69.1811,34.3095],[69.2815,34.3641],[69.4859,34.159],[69.6648,34.355],[69.812,34.411],[69.8533,34.6816],[69.9278,34.7538],[69.8971,34.8536]]]}},{"type":"Feature","properties":{"sourceId":"1159312099","regionId":"region.88bce450-febb-4751-8a6b-341b03b4096c","countryId":"country.1us5oyp"},"geometry":{"type":"Polygon","coordinates":[[[69.812,34.411],[70.0647,34.4116],[70.3033,34.4659],[70.4196,34.5572],[70.4058,34.6547],[70.6155,34.8002],[70.5744,34.994],[70.3916,34.9041],[70.2596,34.9422],[70.1502,35.091],[70.0358,35.1012],[69.9722,35.2358],[69.7969,35.0809],[69.8971,34.8536],[69.9278,34.7538],[69.8533,34.6816],[69.812,34.411]]]}},{"type":"Feature","properties":{"sourceId":"1159312101","regionId":"region.d4529888-62fb-4ac7-8680-062b8bdfd5b9","countryId":"country.1us5oyp"},"geometry":{"type":"Polygon","coordinates":[[[69.4859,34.159],[69.2815,34.3641],[69.1811,34.3095],[68.9692,34.3491],[68.8408,34.1971],[68.8067,34.0891],[68.8881,33.9929],[68.7735,33.9469],[68.7119,33.7901],[68.7724,33.613],[68.9845,33.6044],[69.0753,33.7095],[69.2984,33.8288],[69.5911,34.0549],[69.7164,34.0097],[69.8069,34.0739],[69.8976,34.0451],[69.7925,34.2081],[69.6966,34.2442],[69.4859,34.159]]]}},{"type":"Feature","properties":{"sourceId":"1159312093","regionId":"region.24905a05-8757-47b0-8e5d-5074a50c7ec6","countryId":"country.1us5oyp"},"geometry":{"type":"Polygon","coordinates":[[[69.8971,34.8536],[69.7969,35.0809],[69.7096,35.1586],[69.2833,35.1617],[69.2784,35.0485],[69.4288,34.9359],[69.566,34.9103],[69.6043,34.6493],[69.7192,34.6504],[69.7798,34.7781],[69.8971,34.8536]]]}},{"type":"Feature","properties":{"sourceId":"1159312107","regionId":"region.dc94d143-80c9-4e98-811e-d782efef4026","countryId":"country.1us5oyp"},"geometry":{"type":"Polygon","coordinates":[[[68.8627,34.6222],[68.556,34.6915],[68.3995,34.6247],[68.2827,34.8003],[68.039,34.6859],[67.9743,34.596],[67.507,34.6811],[67.3172,34.6416],[67.3422,34.5171],[67.4344,34.3283],[67.4314,34.1386],[67.6727,34.2093],[67.821,34.1469],[68.0324,34.203],[68.0992,34.167],[68.1452,33.9563],[68.2304,33.9269],[68.3975,33.7909],[68.4524,33.6994],[68.5542,33.6808],[68.7119,33.7901],[68.7735,33.9469],[68.8881,33.9929],[68.8067,34.0891],[68.8408,34.1971],[68.9692,34.3491],[68.8419,34.4928],[68.8627,34.6222]]]}},{"type":"Feature","properties":{"sourceId":"1159312039","regionId":"region.135213c4-cdee-41fe-95e8-0ab4b0d8082d","countryId":"country.1us5oyp"},"geometry":{"type":"Polygon","coordinates":[[[67.4314,34.1386],[67.4344,34.3283],[67.3422,34.5171],[67.3172,34.6416],[67.507,34.6811],[67.9743,34.596],[68.039,34.6859],[68.2827,34.8003],[68.184,35.0096],[68.0155,35.0644],[68.0121,35.1722],[68.1019,35.3146],[68.0885,35.4612],[67.8611,35.4352],[67.5987,35.4696],[67.4036,35.4229],[67.3062,35.4366],[67.0168,35.3525],[66.8346,35.3752],[66.6822,35.2149],[66.5565,35.1733],[66.3483,35.159],[66.3306,34.9574],[66.3636,34.9142],[66.577,34.7929],[66.6009,34.7387],[66.7649,34.645],[66.6529,34.4338],[66.487,34.3892],[66.5471,34.1754],[66.5159,34.0611],[66.6666,33.972],[66.7832,34.0039],[67.0962,33.9678],[67.347,34.0366],[67.4314,34.1386]]]}},{"type":"Feature","properties":{"sourceId":"1159312103","regionId":"region.9816b20b-b87d-4022-a91f-a86e97a541b9","countryId":"country.1us5oyp"},"geometry":{"type":"Polygon","coordinates":[[[68.8627,34.6222],[68.8715,34.7042],[68.9828,34.8954],[69.2275,34.8728],[69.395,34.7258],[69.4483,34.5912],[69.6043,34.6493],[69.566,34.9103],[69.4288,34.9359],[69.2784,35.0485],[69.2833,35.1617],[69.2635,35.3924],[69.1853,35.4201],[68.8958,35.246],[68.791,35.2438],[68.5756,35.0639],[68.2883,35.0731],[68.184,35.0096],[68.2827,34.8003],[68.3995,34.6247],[68.556,34.6915],[68.8627,34.6222]]]}},{"type":"Feature","properties":{"sourceId":"1159312051","regionId":"region.057e8000-dfc8-4c88-8fcb-8ae45d6ff697","countryId":"country.1us5oyp"},"geometry":{"type":"Polygon","coordinates":[[[66.5273,36.5877],[66.2342,36.5354],[66.0477,36.5303],[65.6896,36.3514],[65.5271,36.3396],[65.4907,36.0968],[65.5332,35.9742],[65.6852,36.0004],[65.7917,35.8974],[65.7946,35.7943],[65.68,35.7874],[65.623,35.6761],[65.5212,35.6772],[65.411,35.4478],[65.4514,35.2539],[65.6393,35.2488],[65.7566,35.1865],[65.8047,35.1049],[66.0369,35.0628],[66.1217,34.7946],[66.2515,34.9199],[66.3636,34.9142],[66.3306,34.9574],[66.3483,35.159],[66.5565,35.1733],[66.6822,35.2149],[66.8346,35.3752],[66.9937,35.4943],[67.0261,35.6474],[66.9049,35.7181],[66.7997,35.6748],[66.5247,35.7275],[66.6288,35.8625],[66.5946,36.1705],[66.4614,36.2242],[66.6636,36.5086],[66.5273,36.5877]]]}},{"type":"Feature","properties":{"sourceId":"1159312049","regionId":"region.ec9e0808-ab05-4acc-a4ef-3339f94eb322","countryId":"country.1us5oyp"},"geometry":{"type":"Polygon","coordinates":[[[66.3636,34.9142],[66.2515,34.9199],[66.1217,34.7946],[66.0369,35.0628],[65.8047,35.1049],[65.7566,35.1865],[65.6393,35.2488],[65.4514,35.2539],[65.2928,35.1964],[65.1403,35.2546],[64.9192,35.2137],[64.7301,35.2131],[64.986,35.0395],[65.0473,34.9397],[64.9656,34.7654],[64.721,34.6975],[64.5294,34.7111],[64.4763,34.6714],[64.4596,34.5594],[64.1937,34.4653],[64.2013,34.2716],[64.118,34.2256],[63.8499,34.2199],[63.7413,34.2685],[63.4931,34.2685],[63.3879,34.074],[63.5774,33.7949],[63.45,33.6522],[63.2411,33.6185],[63.0746,33.5328],[63.1403,33.3195],[63.499,33.3355],[63.7914,33.4188],[63.8886,33.4969],[64.0115,33.4874],[64.2294,33.159],[64.3265,33.1233],[64.4755,33.2276],[64.5229,33.3097],[64.7252,33.2278],[64.8239,33.2044],[65.1587,33.3626],[65.2191,33.363],[65.3703,33.4248],[65.5744,33.6007],[65.4935,33.7635],[65.4126,33.8312],[65.5205,33.9733],[65.4674,34.0751],[65.5321,34.3491],[65.9574,34.3234],[66.487,34.3892],[66.6529,34.4338],[66.7649,34.645],[66.6009,34.7387],[66.577,34.7929],[66.3636,34.9142]]]}},{"type":"Feature","properties":{"sourceId":"1159312089","regionId":"region.f11d34f9-e15a-495c-b629-d85e035b954d","countryId":"country.1us5oyp"},"geometry":{"type":"Polygon","coordinates":[[[69.961,35.8099],[69.8861,36.0061],[69.7881,36.0991],[69.7777,36.2136],[69.6811,36.3501],[69.4441,36.2472],[69.3006,36.2282],[69.2207,36.297],[68.9992,36.4174],[68.8621,36.4126],[68.7228,36.5343],[68.3224,36.5481],[68.2395,36.5712],[68.1727,36.5212],[68.3714,36.2637],[68.5314,36.1526],[68.3228,35.9556],[68.3075,35.8467],[68.1635,35.6902],[68.1941,35.6133],[68.0885,35.4612],[68.1019,35.3146],[68.0121,35.1722],[68.0155,35.0644],[68.184,35.0096],[68.2883,35.0731],[68.5756,35.0639],[68.791,35.2438],[68.8958,35.246],[69.1853,35.4201],[69.2635,35.3924],[69.5561,35.4562],[69.7489,35.5411],[69.7824,35.6531],[69.961,35.8099]]]}},{"type":"Feature","properties":{"sourceId":"1159312105","regionId":"region.c3d55bc3-f660-4fbd-8193-f7745edfb348","countryId":"country.1us5oyp"},"geometry":{"type":"Polygon","coordinates":[[[68.1891,36.5932],[68.0799,36.5622],[67.8324,36.5896],[67.688,36.6479],[67.5001,36.6402],[67.3769,36.5677],[67.4201,36.4716],[67.3738,36.2894],[67.2677,36.1532],[67.0675,36.0639],[67.1147,35.9251],[66.9446,35.7942],[66.9049,35.7181],[67.0261,35.6474],[66.9937,35.4943],[66.8346,35.3752],[67.0168,35.3525],[67.3062,35.4366],[67.4036,35.4229],[67.5987,35.4696],[67.8611,35.4352],[68.0885,35.4612],[68.1941,35.6133],[68.1635,35.6902],[68.3075,35.8467],[68.3228,35.9556],[68.5314,36.1526],[68.3714,36.2637],[68.1727,36.5212],[68.2395,36.5712],[68.1891,36.5932]]]}},{"type":"Feature","properties":{"sourceId":"1159312063","regionId":"region.1df37eaf-d0f3-4294-89b0-6dd95977805e","countryId":"country.1us5oyp"},"geometry":{"type":"Polygon","coordinates":[[[67.347,34.0366],[67.0962,33.9678],[66.7832,34.0039],[66.6666,33.972],[66.5159,34.0611],[66.5471,34.1754],[66.487,34.3892],[65.9574,34.3234],[65.5321,34.3491],[65.4674,34.0751],[65.5205,33.9733],[65.4126,33.8312],[65.4935,33.7635],[65.5744,33.6007],[65.3703,33.4248],[65.2191,33.363],[65.3617,33.2202],[65.3482,33.0925],[65.4227,33.0673],[65.5637,33.147],[66.0339,33.0602],[66.0828,33.1786],[66.2952,33.2975],[66.4744,33.319],[66.5284,33.2428],[66.8292,33.2809],[66.8589,33.4538],[66.8444,33.5802],[67.182,33.6839],[67.3832,33.8721],[67.347,34.0366]]]}}]}