{"type":"FeatureCollection","features":[{"type":"Feature","properties":{"sourceId":"1159315919","regionId":"region.cb1e7085-e3cd-42ea-8d26-2fcf5f9608c7","countryId":"country.eno4h9"},"geometry":{"type":"Polygon","coordinates":[[[20.539,41.4029],[20.4781,41.3216],[20.4954,41.2503],[20.5681,41.2535],[20.5949,41.2213],[20.5127,41.2101],[20.5974,41.0863],[20.6539,41.0753],[20.7378,41.1664],[20.7589,41.283],[20.6873,41.4226],[20.6848,41.4249],[20.6784,41.4255],[20.539,41.4029]]]}},{"type":"Feature","properties":{"sourceId":"1159314519","regionId":"region.5cf74b3a-7500-4fd4-b373-d5de9c481d46","countryId":"country.eno4h9"},"geometry":{"type":"Polygon","coordinates":[[[20.539,41.4029],[20.6784,41.4255],[20.6096,41.5227],[20.4816,41.4683],[20.539,41.4029]]]}},{"type":"Feature","properties":{"sourceId":"1159314521","regionId":"region.a3214663-bbe2-4efd-89f7-7d399d6e89c7","countryId":"country.eno4h9"},"geometry":{"type":"Polygon","coordinates":[[[20.4816,41.4683],[20.6096,41.5227],[20.6784,41.4255],[20.6848,41.4249],[20.7289,41.4788],[20.5347,41.5873],[20.4816,41.4683]]]}},{"type":"Feature","properties":{"sourceId":"1159314529","regionId":"region.d0bf0826-31b3-4f66-8288-1768e5c78f3c","countryId":"country.eno4h9"},"geometry":{"type":"Polygon","coordinates":[[[20.5347,41.5873],[20.7289,41.4788],[20.8095,41.6147],[20.8974,41.6645],[20.7943,41.773],[20.6486,41.7576],[20.5501,41.8001],[20.5004,41.7341],[20.5347,41.5873]]]}},{"type":"Feature","properties":{"sourceId":"1159314545","regionId":"region.1f29bd47-5567-4ce1-9f3e-5ebc46814dd7","countryId":"country.eno4h9"},"geometry":{"type":"Polygon","coordinates":[[[20.5501,41.8001],[20.6486,41.7576],[20.7943,41.773],[20.8974,41.6645],[20.985,41.6245],[21.0529,41.6476],[21.0791,41.7773],[20.9559,41.8495],[20.8465,41.8044],[20.7144,41.8592],[20.5671,41.8732],[20.5408,41.8449],[20.5501,41.8001]]]}},{"type":"Feature","properties":{"sourceId":"1159314397","regionId":"region.7211b3b0-06ce-4847-91f4-2053cd73c317","countryId":"country.eno4h9"},"geometry":{"type":"Polygon","coordinates":[[[20.5127,41.2101],[20.5949,41.2213],[20.5681,41.2535],[20.4954,41.2503],[20.5127,41.2101]]]}},{"type":"Feature","properties":{"sourceId":"1159314405","regionId":"region.eee3d712-7c60-4d3c-85a5-e349e37a9c3c","countryId":"country.eno4h9"},"geometry":{"type":"Polygon","coordinates":[[[20.6641,41.0591],[20.7027,40.9363],[20.8365,40.9239],[20.9045,41.1219],[21.0394,41.2119],[21.0315,41.225],[20.8211,41.2395],[20.6641,41.0591]]]}},{"type":"Feature","properties":{"sourceId":"1159314407","regionId":"region.7fe61e63-3556-4131-b13e-9dc9e7440833","countryId":"country.eno4h9"},"geometry":{"type":"Polygon","coordinates":[[[20.6641,41.0591],[20.8211,41.2395],[21.0315,41.225],[20.9555,41.3242],[20.8886,41.422],[20.6873,41.4226],[20.7589,41.283],[20.7378,41.1664],[20.6539,41.0753],[20.6641,41.0591]]]}},{"type":"Feature","properties":{"sourceId":"1159314395","regionId":"region.054b487f-4fef-4de5-a6fb-ac9b7418cf1b","countryId":"country.eno4h9"},"geometry":{"type":"Polygon","coordinates":[[[20.9653,40.8494],[21.2458,40.8632],[21.2611,40.9069],[21.0738,41.0467],[21.097,41.1258],[21.0394,41.2119],[20.9045,41.1219],[20.8365,40.9239],[20.9653,40.8494]]]}},{"type":"Feature","properties":{"sourceId":"1159314563","regionId":"region.7273479a-69e4-42cd-aee5-7a0ba58d50a6","countryId":"country.eno4h9"},"geometry":{"type":"Polygon","coordinates":[[[22.917,41.3358],[22.9436,41.5232],[22.8581,41.5171],[22.7862,41.3973],[22.7968,41.337],[22.917,41.3358]]]}},{"type":"Feature","properties":{"sourceId":"1159314565","regionId":"region.fec8b058-4e64-450c-87be-147c61639c17","countryId":"country.eno4h9"},"geometry":{"type":"Polygon","coordinates":[[[22.742,41.287],[22.5664,41.2415],[22.6572,41.177],[22.742,41.287]]]}},{"type":"Feature","properties":{"sourceId":"1159314551","regionId":"region.a4c96a63-0eb8-4e1e-8052-9c723fd304ba","countryId":"country.eno4h9"},"geometry":{"type":"Polygon","coordinates":[[[22.7623,41.3225],[22.5362,41.3298],[22.4458,41.446],[22.33,41.4247],[22.3365,41.378],[22.4682,41.3134],[22.5046,41.213],[22.5664,41.2415],[22.742,41.287],[22.7623,41.3225]]]}},{"type":"Feature","properties":{"sourceId":"1159314549","regionId":"region.b5876224-72ea-4753-955f-d4e771e27a5c","countryId":"country.eno4h9"},"geometry":{"type":"Polygon","coordinates":[[[22.7968,41.337],[22.7862,41.3973],[22.6743,41.4729],[22.5089,41.4666],[22.4458,41.446],[22.5362,41.3298],[22.7623,41.3225],[22.7968,41.337]]]}},{"type":"Feature","properties":{"sourceId":"1159314555","regionId":"region.2d612264-a938-4872-ad00-a733be009f50","countryId":"country.eno4h9"},"geometry":{"type":"Polygon","coordinates":[[[22.6572,41.177],[22.5664,41.2415],[22.5046,41.213],[22.5866,41.1241],[22.6572,41.177]]]}},{"type":"Feature","properties":{"sourceId":"1159314559","regionId":"region.1dd805fe-ef68-494b-9d59-0ccc06d629e9","countryId":"country.eno4h9"},"geometry":{"type":"Polygon","coordinates":[[[22.5866,41.1241],[22.5046,41.213],[22.4682,41.3134],[22.3365,41.378],[22.282,41.3059],[22.2136,41.1607],[22.4218,41.1146],[22.5866,41.1241]]]}},{"type":"Feature","properties":{"sourceId":"1159314487","regionId":"region.689be740-4595-4a55-a5e7-ce5083745969","countryId":"country.eno4h9"},"geometry":{"type":"Polygon","coordinates":[[[22.2136,41.1607],[22.282,41.3059],[22.0848,41.3493],[21.9838,41.503],[21.8098,41.4565],[21.772,41.4413],[21.8322,41.2666],[21.9255,41.1068],[22.2136,41.1607]]]}},{"type":"Feature","properties":{"sourceId":"1159314513","regionId":"region.8062c8ce-8989-4ee7-b462-3e52bb6f2a80","countryId":"country.eno4h9"},"geometry":{"type":"Polygon","coordinates":[[[21.7571,40.9225],[21.8963,41.0647],[21.5993,41.1547],[21.43,41.084],[21.5057,40.9009],[21.5816,40.8663],[21.7571,40.9225]]]}},{"type":"Feature","properties":{"sourceId":"1159314413","regionId":"region.8f8f9784-9ee4-4482-a33a-746bf33dd9ca","countryId":"country.eno4h9"},"geometry":{"type":"Polygon","coordinates":[[[21.9255,41.1068],[21.8322,41.2666],[21.772,41.4413],[21.6026,41.4435],[21.4102,41.3508],[21.3646,41.2462],[21.5993,41.1547],[21.8963,41.0647],[21.9255,41.1068]]]}},{"type":"Feature","properties":{"sourceId":"1159314401","regionId":"region.1670cfc7-9ffc-462d-899c-93e786984d55","countryId":"country.eno4h9"},"geometry":{"type":"Polygon","coordinates":[[[21.5057,40.9009],[21.43,41.084],[21.314,41.2103],[21.2899,41.2188],[21.097,41.1258],[21.0738,41.0467],[21.2611,40.9069],[21.2458,40.8632],[21.5057,40.9009]]]}},{"type":"Feature","properties":{"sourceId":"1159314451","regionId":"region.e3c7b54a-375f-4b79-88c4-523ca8ada537","countryId":"country.eno4h9"},"geometry":{"type":"Polygon","coordinates":[[[21.4815,42.2478],[21.472,42.2391],[21.4863,42.1418],[21.511,42.1017],[21.5409,42.0702],[21.6037,42.0594],[21.6769,42.2349],[21.5641,42.2463],[21.4815,42.2478]]]}},{"type":"Feature","properties":{"sourceId":"1159314465","regionId":"region.552be429-fb1c-4d30-9b44-fe95571c1fd2","countryId":"country.eno4h9"},"geometry":{"type":"Polygon","coordinates":[[[21.472,42.2391],[21.3606,42.2201],[21.3008,42.0984],[21.3592,42.0291],[21.3817,42.0218],[21.3886,42.0287],[21.4046,42.0525],[21.4231,42.0316],[21.4863,42.1418],[21.472,42.2391]]]}},{"type":"Feature","properties":{"sourceId":"1159314515","regionId":"region.04c171f8-3acd-4462-9d42-a0598360555f","countryId":"country.eno4h9"},"geometry":{"type":"Polygon","coordinates":[[[21.3008,42.0984],[21.2457,42.0962],[21.3586,41.9848],[21.3592,42.0291],[21.3008,42.0984]]]}},{"type":"Feature","properties":{"sourceId":"1159314425","regionId":"region.ba7ef3ea-479d-4508-b57d-cb108278c7dc","countryId":"country.eno4h9"},"geometry":{"type":"Polygon","coordinates":[[[21.2293,42.1038],[21.1384,41.9898],[21.2171,41.8777],[21.3599,41.9484],[21.3586,41.9848],[21.2457,42.0962],[21.2293,42.1038]]]}},{"type":"Feature","properties":{"sourceId":"1159314547","regionId":"region.dcfc08c9-de88-4e69-8820-db846bb14f60","countryId":"country.eno4h9"},"geometry":{"type":"Polygon","coordinates":[[[21.0985,42.196],[21.0409,42.16],[21.1298,42.0735],[21.0294,42.0138],[21.0314,42.0074],[21.1384,41.9898],[21.2293,42.1038],[21.0985,42.196]]]}},{"type":"Feature","properties":{"sourceId":"1159314533","regionId":"region.be5c12f2-9d0e-4008-af7b-b1c551a3a808","countryId":"country.eno4h9"},"geometry":{"type":"Polygon","coordinates":[[[20.9751,42.1347],[20.9042,42.1167],[21.0294,42.0138],[21.1298,42.0735],[21.0409,42.16],[20.9751,42.1347]]]}},{"type":"Feature","properties":{"sourceId":"1159314535","regionId":"region.5a85a86e-441d-41ad-860e-ad28758b7493","countryId":"country.eno4h9"},"geometry":{"type":"Polygon","coordinates":[[[20.7849,42.082],[20.7514,41.9403],[20.8474,41.9876],[20.9579,41.9525],[21.02,41.9527],[21.0314,42.0074],[21.0294,42.0138],[20.9042,42.1167],[20.7849,42.082]]]}},{"type":"Feature","properties":{"sourceId":"1159314539","regionId":"region.5de981f4-0502-430c-bc1c-0b5215f348f0","countryId":"country.eno4h9"},"geometry":{"type":"Polygon","coordinates":[[[20.7511,41.9102],[20.9483,41.8733],[20.9579,41.9525],[20.8474,41.9876],[20.7514,41.9403],[20.7511,41.9102]]]}},{"type":"Feature","properties":{"sourceId":"1159314537","regionId":"region.b4d11b33-31c0-4e3d-90b4-fe0735f85fbb","countryId":"country.eno4h9"},"geometry":{"type":"Polygon","coordinates":[[[20.7144,41.8592],[20.8465,41.8044],[20.9559,41.8495],[20.9483,41.8733],[20.7511,41.9102],[20.7144,41.8592]]]}},{"type":"Feature","properties":{"sourceId":"1159314421","regionId":"region.0f79555c-649d-4867-841c-c8a738409a5c","countryId":"country.eno4h9"},"geometry":{"type":"Polygon","coordinates":[[[22.345,42.3134],[22.2598,42.3691],[22.1381,42.3191],[22.1923,42.2669],[22.2034,42.1203],[22.3466,42.0945],[22.417,42.0996],[22.5069,42.1489],[22.345,42.3134]]]}},{"type":"Feature","properties":{"sourceId":"1159315921","regionId":"region.ece2d26c-96fd-4119-8d07-3e7344ac0e64","countryId":"country.eno4h9"},"geometry":{"type":"Polygon","coordinates":[[[22.1381,42.3191],[22.0454,42.3024],[22.0237,42.1635],[22.2034,42.1203],[22.1923,42.2669],[22.1381,42.3191]]]}},{"type":"Feature","properties":{"sourceId":"1159314429","regionId":"region.e8392b6c-d57e-4338-8cf3-6fe124f6ef93","countryId":"country.eno4h9"},"geometry":{"type":"Polygon","coordinates":[[[22.0454,42.3024],[21.9415,42.3331],[21.7195,42.261],[21.7596,42.1293],[21.946,42.0974],[22.0237,42.1635],[22.0454,42.3024]]]}},{"type":"Feature","properties":{"sourceId":"1159314503","regionId":"region.e28ba892-1967-434a-b5d0-5cc787574ead","countryId":"country.eno4h9"},"geometry":{"type":"Polygon","coordinates":[[[21.6769,42.2349],[21.6037,42.0594],[21.6335,42.04],[21.6867,41.9838],[21.8129,41.9419],[21.9858,41.9996],[21.946,42.0974],[21.7596,42.1293],[21.7195,42.261],[21.6769,42.2349]]]}},{"type":"Feature","properties":{"sourceId":"1159314571","regionId":"region.11ffe4b3-773a-43b7-8c05-fd9bcfddc7b9","countryId":"country.eno4h9"},"geometry":{"type":"Polygon","coordinates":[[[22.6272,42.0791],[22.6059,41.9825],[22.6823,41.9027],[22.6744,41.8072],[22.7576,41.7885],[22.8821,41.8716],[22.8456,42.0074],[22.6272,42.0791]]]}},{"type":"Feature","properties":{"sourceId":"1159314573","regionId":"region.90832a2e-1be6-4eb6-9945-346c408fa3c4","countryId":"country.eno4h9"},"geometry":{"type":"Polygon","coordinates":[[[22.5069,42.1489],[22.417,42.0996],[22.5177,41.9452],[22.6059,41.9825],[22.6272,42.0791],[22.5069,42.1489]]]}},{"type":"Feature","properties":{"sourceId":"1159314569","regionId":"region.da3ab53d-00e3-4a69-850a-fd4866a3049d","countryId":"country.eno4h9"},"geometry":{"type":"Polygon","coordinates":[[[22.9854,41.6772],[22.7825,41.735],[22.7576,41.7885],[22.6744,41.8072],[22.6209,41.7271],[22.6292,41.6341],[22.7281,41.5694],[22.8581,41.5171],[22.9436,41.5232],[22.9854,41.6772]]]}},{"type":"Feature","properties":{"sourceId":"1159314575","regionId":"region.96f01b25-86e2-4ca8-9ff1-99ecd80a7a40","countryId":"country.eno4h9"},"geometry":{"type":"Polygon","coordinates":[[[22.8821,41.8716],[22.7576,41.7885],[22.7825,41.735],[22.9854,41.6772],[22.8821,41.8716]]]}},{"type":"Feature","properties":{"sourceId":"1159314447","regionId":"region.7b0b0367-b770-49aa-afeb-0ad22d1e7be1","countryId":"country.eno4h9"},"geometry":{"type":"Polygon","coordinates":[[[21.02,41.9527],[21.0708,41.8566],[21.1838,41.839],[21.2338,41.8172],[21.2171,41.8777],[21.1384,41.9898],[21.0314,42.0074],[21.02,41.9527]]]}},{"type":"Feature","properties":{"sourceId":"1159314541","regionId":"region.243a4dbb-0952-4101-af9b-4db36aac956d","countryId":"country.eno4h9"},"geometry":{"type":"Polygon","coordinates":[[[21.02,41.9527],[20.9579,41.9525],[20.9483,41.8733],[20.9559,41.8495],[21.0791,41.7773],[21.1838,41.839],[21.0708,41.8566],[21.02,41.9527]]]}},{"type":"Feature","properties":{"sourceId":"1159314505","regionId":"region.7852bd00-4cee-438c-b6aa-324ef8e984a3","countryId":"country.eno4h9"},"geometry":{"type":"Polygon","coordinates":[[[21.1838,41.839],[21.0791,41.7773],[21.0529,41.6476],[21.1015,41.5798],[21.0762,41.4667],[21.1952,41.4291],[21.2597,41.4721],[21.3743,41.5929],[21.3953,41.6635],[21.3464,41.728],[21.2338,41.8172],[21.1838,41.839]]]}},{"type":"Feature","properties":{"sourceId":"1159314531","regionId":"region.63657e90-ab2b-453b-8ad1-360bea604669","countryId":"country.eno4h9"},"geometry":{"type":"Polygon","coordinates":[[[21.0529,41.6476],[20.985,41.6245],[20.9673,41.5499],[21.0053,41.5042],[21.1015,41.5798],[21.0529,41.6476]]]}},{"type":"Feature","properties":{"sourceId":"1159314427","regionId":"region.b50c0f14-c502-4c50-9975-8416f90c04b7","countryId":"country.eno4h9"},"geometry":{"type":"Polygon","coordinates":[[[21.2338,41.8172],[21.3464,41.728],[21.3591,41.8941],[21.4474,41.9255],[21.4285,41.9454],[21.3599,41.9484],[21.2171,41.8777],[21.2338,41.8172]]]}},{"type":"Feature","properties":{"sourceId":"1159314485","regionId":"region.fc941c09-5a49-4d5c-ba79-147b15c602bb","countryId":"country.eno4h9"},"geometry":{"type":"Polygon","coordinates":[[[21.3599,41.9484],[21.4285,41.9454],[21.4278,41.9551],[21.4273,41.9867],[21.428,42.0029],[21.3817,42.0218],[21.3592,42.0291],[21.3586,41.9848],[21.3599,41.9484]]]}},{"type":"Feature","properties":{"sourceId":"1159314459","regionId":"region.63f08f49-c427-42b0-b8d0-c8055408fbd1","countryId":"country.eno4h9"},"geometry":{"type":"Polygon","coordinates":[[[21.4231,42.0316],[21.4046,42.0525],[21.3886,42.0287],[21.4231,42.0316]]]}},{"type":"Feature","properties":{"sourceId":"1159314455","regionId":"region.1b8be123-4c6c-443a-8e8b-3c41e76c8a1c","countryId":"country.eno4h9"},"geometry":{"type":"Polygon","coordinates":[[[21.4231,42.0316],[21.3886,42.0287],[21.3817,42.0218],[21.428,42.0029],[21.4459,41.9971],[21.511,42.1017],[21.4863,42.1418],[21.4231,42.0316]]]}},{"type":"Feature","properties":{"sourceId":"1159314437","regionId":"region.6ac591aa-68dd-448e-8bca-a23532ece778","countryId":"country.eno4h9"},"geometry":{"type":"Polygon","coordinates":[[[21.4459,41.9971],[21.428,42.0029],[21.4273,41.9867],[21.4383,41.9828],[21.4443,41.9828],[21.4459,41.9971]]]}},{"type":"Feature","properties":{"sourceId":"1159317879","regionId":"region.6cda65c3-8307-47eb-9c45-1c31f800bbd1","countryId":"country.eno4h9"},"geometry":{"type":"Polygon","coordinates":[[[21.4383,41.9828],[21.4273,41.9867],[21.4278,41.9551],[21.4345,41.9718],[21.4383,41.9828]]]}},{"type":"Feature","properties":{"sourceId":"1159314517","regionId":"region.d8d11eb1-f40a-461e-9822-ce92149164db","countryId":"country.eno4h9"},"geometry":{"type":"Polygon","coordinates":[[[20.985,41.6245],[20.8974,41.6645],[20.8095,41.6147],[20.8969,41.5213],[20.9673,41.5499],[20.985,41.6245]]]}},{"type":"Feature","properties":{"sourceId":"1159314469","regionId":"region.c6eed1b5-b95a-4d1e-be53-fd79abc3592c","countryId":"country.eno4h9"},"geometry":{"type":"Polygon","coordinates":[[[21.3743,41.5929],[21.2597,41.4721],[21.3104,41.3753],[21.4102,41.3508],[21.6026,41.4435],[21.3743,41.5929]]]}},{"type":"Feature","properties":{"sourceId":"1159314499","regionId":"region.0ccd5131-1b04-490b-8683-70148950a6e2","countryId":"country.eno4h9"},"geometry":{"type":"Polygon","coordinates":[[[21.4102,41.3508],[21.3104,41.3753],[21.3346,41.263],[21.3646,41.2462],[21.4102,41.3508]]]}},{"type":"Feature","properties":{"sourceId":"1159314509","regionId":"region.af64bbee-27da-4b7a-89c0-9cb3239e6206","countryId":"country.eno4h9"},"geometry":{"type":"Polygon","coordinates":[[[21.3646,41.2462],[21.3346,41.263],[21.314,41.2103],[21.43,41.084],[21.5993,41.1547],[21.3646,41.2462]]]}},{"type":"Feature","properties":{"sourceId":"1159314457","regionId":"region.3aad9311-bc8b-47a7-82b8-e736e4461b36","countryId":"country.eno4h9"},"geometry":{"type":"Polygon","coordinates":[[[21.3743,41.5929],[21.6026,41.4435],[21.772,41.4413],[21.8098,41.4565],[21.8161,41.4879],[21.7734,41.6019],[21.5709,41.7403],[21.4831,41.7446],[21.3953,41.6635],[21.3743,41.5929]]]}},{"type":"Feature","properties":{"sourceId":"1159314423","regionId":"region.f9f57d7a-1e50-4c98-aa93-b83a934ddc6c","countryId":"country.eno4h9"},"geometry":{"type":"Polygon","coordinates":[[[21.8098,41.4565],[21.9838,41.503],[21.9834,41.5525],[21.8161,41.4879],[21.8098,41.4565]]]}},{"type":"Feature","properties":{"sourceId":"1159314511","regionId":"region.b8f8dba0-c77a-4fcc-9cf0-18300c16106b","countryId":"country.eno4h9"},"geometry":{"type":"Polygon","coordinates":[[[21.9838,41.503],[22.0848,41.3493],[22.1618,41.4516],[22.3001,41.4893],[22.2603,41.5436],[22.0108,41.6535],[21.9834,41.5525],[21.9838,41.503]]]}},{"type":"Feature","properties":{"sourceId":"1159314523","regionId":"region.440fe0b6-6a1f-45f3-8711-aecbe36d7fd9","countryId":"country.eno4h9"},"geometry":{"type":"Polygon","coordinates":[[[20.8095,41.6147],[20.7289,41.4788],[20.6848,41.4249],[20.6873,41.4226],[20.8886,41.422],[20.9555,41.3242],[21.1391,41.3849],[21.1335,41.405],[21.0712,41.4287],[20.9755,41.4693],[20.8969,41.5213],[20.8095,41.6147]]]}},{"type":"Feature","properties":{"sourceId":"1159314473","regionId":"region.c4a42a3c-3720-48f2-9ed1-84607a4675b8","countryId":"country.eno4h9"},"geometry":{"type":"Polygon","coordinates":[[[21.4459,41.9971],[21.4443,41.9828],[21.5543,41.9279],[21.572,41.9101],[21.5829,41.9197],[21.54,41.9874],[21.5409,42.0702],[21.511,42.1017],[21.4459,41.9971]]]}},{"type":"Feature","properties":{"sourceId":"1159314501","regionId":"region.c74260ef-bb06-4ac8-b33e-b3ba92343cf4","countryId":"country.eno4h9"},"geometry":{"type":"Polygon","coordinates":[[[21.2597,41.4721],[21.1952,41.4291],[21.1335,41.405],[21.1391,41.3849],[21.2118,41.3572],[21.2899,41.2188],[21.314,41.2103],[21.3346,41.263],[21.3104,41.3753],[21.2597,41.4721]]]}},{"type":"Feature","properties":{"sourceId":"1159314403","regionId":"region.0090474e-6259-4514-9ee2-2f444729790c","countryId":"country.eno4h9"},"geometry":{"type":"Polygon","coordinates":[[[21.1391,41.3849],[20.9555,41.3242],[21.0315,41.225],[21.0394,41.2119],[21.097,41.1258],[21.2899,41.2188],[21.2118,41.3572],[21.1391,41.3849]]]}},{"type":"Feature","properties":{"sourceId":"1159314491","regionId":"region.e7a24114-2960-408a-8c24-3c6b1b0455a4","countryId":"country.eno4h9"},"geometry":{"type":"Polygon","coordinates":[[[21.4345,41.9718],[21.5361,41.9187],[21.5543,41.9279],[21.4443,41.9828],[21.4383,41.9828],[21.4345,41.9718]]]}},{"type":"Feature","properties":{"sourceId":"1159314433","regionId":"region.8f0677b4-c2c3-4b55-9e63-2e34dae036de","countryId":"country.eno4h9"},"geometry":{"type":"Polygon","coordinates":[[[21.3464,41.728],[21.3953,41.6635],[21.4831,41.7446],[21.4665,41.8134],[21.5864,41.8949],[21.572,41.9101],[21.5543,41.9279],[21.5361,41.9187],[21.4474,41.9255],[21.3591,41.8941],[21.3464,41.728]]]}},{"type":"Feature","properties":{"sourceId":"1159314493","regionId":"region.103195b8-6496-40ad-a559-41b65d437ceb","countryId":"country.eno4h9"},"geometry":{"type":"Polygon","coordinates":[[[21.4474,41.9255],[21.5361,41.9187],[21.4345,41.9718],[21.4278,41.9551],[21.4285,41.9454],[21.4474,41.9255]]]}},{"type":"Feature","properties":{"sourceId":"1159314415","regionId":"region.c81002ff-8d31-4910-809b-e9b6704de72b","countryId":"country.eno4h9"},"geometry":{"type":"Polygon","coordinates":[[[22.2563,41.9482],[22.3368,42.0261],[22.1629,42.0343],[22.0248,42.0002],[22.0986,41.8675],[22.1472,41.8597],[22.2245,41.8492],[22.2563,41.9482]]]}},{"type":"Feature","properties":{"sourceId":"1159314463","regionId":"region.59cbe26d-2b0a-44a1-8c9f-c800f8467c6f","countryId":"country.eno4h9"},"geometry":{"type":"Polygon","coordinates":[[[22.2563,41.9482],[22.2245,41.8492],[22.391,41.7922],[22.3565,41.8467],[22.2563,41.9482]]]}},{"type":"Feature","properties":{"sourceId":"1159314449","regionId":"region.1b391231-d0c6-438d-825f-934dcbb2bb7e","countryId":"country.eno4h9"},"geometry":{"type":"Polygon","coordinates":[[[21.54,41.9874],[21.6335,42.04],[21.6037,42.0594],[21.5409,42.0702],[21.54,41.9874]]]}},{"type":"Feature","properties":{"sourceId":"1159314445","regionId":"region.9802356e-3fbd-48e9-a2e6-9f7a9bc0e9ac","countryId":"country.eno4h9"},"geometry":{"type":"Polygon","coordinates":[[[21.4831,41.7446],[21.5709,41.7403],[21.6272,41.8199],[21.5864,41.8949],[21.4665,41.8134],[21.4831,41.7446]]]}},{"type":"Feature","properties":{"sourceId":"1159314527","regionId":"region.6353ef7f-6abe-4bbd-99e9-68d19ac8378d","countryId":"country.eno4h9"},"geometry":{"type":"Polygon","coordinates":[[[20.9673,41.5499],[20.8969,41.5213],[20.9755,41.4693],[21.0053,41.5042],[20.9673,41.5499]]]}},{"type":"Feature","properties":{"sourceId":"1159314411","regionId":"region.16f8371d-5c73-4bf6-a6a0-d0d11df88395","countryId":"country.eno4h9"},"geometry":{"type":"Polygon","coordinates":[[[21.1952,41.4291],[21.0762,41.4667],[21.0712,41.4287],[21.1335,41.405],[21.1952,41.4291]]]}},{"type":"Feature","properties":{"sourceId":"1159314443","regionId":"region.23bc55bc-fb3b-4ff0-a86f-ccb00c2a697c","countryId":"country.eno4h9"},"geometry":{"type":"Polygon","coordinates":[[[21.0762,41.4667],[21.1015,41.5798],[21.0053,41.5042],[20.9755,41.4693],[21.0712,41.4287],[21.0762,41.4667]]]}},{"type":"Feature","properties":{"sourceId":"1159314409","regionId":"region.709f74a6-fadd-43fd-ae06-5f02fed96c20","countryId":"country.eno4h9"},"geometry":{"type":"Polygon","coordinates":[[[21.572,41.9101],[21.5864,41.8949],[21.6272,41.8199],[21.7238,41.8092],[21.8032,41.9116],[21.8129,41.9419],[21.6867,41.9838],[21.5829,41.9197],[21.572,41.9101]]]}},{"type":"Feature","properties":{"sourceId":"1159314477","regionId":"region.facdd6c7-b15f-4c82-aa74-ea48645b446b","countryId":"country.eno4h9"},"geometry":{"type":"Polygon","coordinates":[[[21.8489,41.8349],[21.8614,41.712],[21.9612,41.664],[22.014,41.7329],[21.8489,41.8349]]]}},{"type":"Feature","properties":{"sourceId":"1159314439","regionId":"region.53805fae-43b4-40e7-9946-40d61e9a74bd","countryId":"country.eno4h9"},"geometry":{"type":"Polygon","coordinates":[[[22.014,41.7329],[22.0986,41.8675],[22.0248,42.0002],[21.9858,41.9996],[21.8129,41.9419],[21.8032,41.9116],[21.8489,41.8349],[22.014,41.7329]]]}},{"type":"Feature","properties":{"sourceId":"1159314475","regionId":"region.3be79a4d-9632-4579-9932-f2db6136d032","countryId":"country.eno4h9"},"geometry":{"type":"Polygon","coordinates":[[[21.9834,41.5525],[22.0108,41.6535],[21.9612,41.664],[21.8614,41.712],[21.7734,41.6019],[21.8161,41.4879],[21.9834,41.5525]]]}},{"type":"Feature","properties":{"sourceId":"1159314497","regionId":"region.19a0a5a1-c0b4-4f7b-af49-e759536cb3fa","countryId":"country.eno4h9"},"geometry":{"type":"Polygon","coordinates":[[[22.3368,42.0261],[22.3466,42.0945],[22.2034,42.1203],[22.0237,42.1635],[21.946,42.0974],[21.9858,41.9996],[22.0248,42.0002],[22.1629,42.0343],[22.3368,42.0261]]]}},{"type":"Feature","properties":{"sourceId":"1159314481","regionId":"region.67e7ac72-db88-41a3-bfbc-3b06643678d6","countryId":"country.eno4h9"},"geometry":{"type":"Polygon","coordinates":[[[21.5829,41.9197],[21.6867,41.9838],[21.6335,42.04],[21.54,41.9874],[21.5829,41.9197]]]}},{"type":"Feature","properties":{"sourceId":"1159314483","regionId":"region.502da293-831f-4721-9cee-e9186453ab42","countryId":"country.eno4h9"},"geometry":{"type":"Polygon","coordinates":[[[22.2245,41.8492],[22.1472,41.8597],[22.2981,41.7086],[22.401,41.7127],[22.4462,41.7702],[22.4466,41.7893],[22.391,41.7922],[22.2245,41.8492]]]}},{"type":"Feature","properties":{"sourceId":"1159314431","regionId":"region.fb788bc0-11ff-4350-87b6-1ef051055b34","countryId":"country.eno4h9"},"geometry":{"type":"Polygon","coordinates":[[[22.0108,41.6535],[22.2603,41.5436],[22.3234,41.5988],[22.401,41.7127],[22.2981,41.7086],[22.1472,41.8597],[22.0986,41.8675],[22.014,41.7329],[21.9612,41.664],[22.0108,41.6535]]]}},{"type":"Feature","properties":{"sourceId":"1159314495","regionId":"region.a92c19df-34dd-4407-abad-f25cf160c2b2","countryId":"country.eno4h9"},"geometry":{"type":"Polygon","coordinates":[[[22.2563,41.9482],[22.3565,41.8467],[22.4355,41.8695],[22.5177,41.9452],[22.417,42.0996],[22.3466,42.0945],[22.3368,42.0261],[22.2563,41.9482]]]}},{"type":"Feature","properties":{"sourceId":"1159314461","regionId":"region.e2425f28-58f8-46bc-a70c-8a8d3342e74b","countryId":"country.eno4h9"},"geometry":{"type":"Polygon","coordinates":[[[22.3565,41.8467],[22.391,41.7922],[22.4466,41.7893],[22.4355,41.8695],[22.3565,41.8467]]]}},{"type":"Feature","properties":{"sourceId":"1159314441","regionId":"region.a6251d74-adfb-4b90-8c66-e78f87a59832","countryId":"country.eno4h9"},"geometry":{"type":"Polygon","coordinates":[[[21.5709,41.7403],[21.7734,41.6019],[21.8614,41.712],[21.8489,41.8349],[21.8032,41.9116],[21.7238,41.8092],[21.6272,41.8199],[21.5709,41.7403]]]}},{"type":"Feature","properties":{"sourceId":"1159314467","regionId":"region.ee71b86b-624e-49f7-9949-04b8007babf9","countryId":"country.eno4h9"},"geometry":{"type":"Polygon","coordinates":[[[22.3001,41.4893],[22.1618,41.4516],[22.0848,41.3493],[22.282,41.3059],[22.3365,41.378],[22.33,41.4247],[22.3001,41.4893]]]}},{"type":"Feature","properties":{"sourceId":"1159314567","regionId":"region.9fbdbe93-3388-42f2-aba3-03bb9ed7100f","countryId":"country.eno4h9"},"geometry":{"type":"Polygon","coordinates":[[[22.4462,41.7702],[22.6209,41.7271],[22.6744,41.8072],[22.6823,41.9027],[22.6059,41.9825],[22.5177,41.9452],[22.4355,41.8695],[22.4466,41.7893],[22.4462,41.7702]]]}},{"type":"Feature","properties":{"sourceId":"1159314557","regionId":"region.8e0ec8db-d702-40b4-bce0-00849da1d674","countryId":"country.eno4h9"},"geometry":{"type":"Polygon","coordinates":[[[22.8581,41.5171],[22.7281,41.5694],[22.6743,41.4729],[22.7862,41.3973],[22.8581,41.5171]]]}},{"type":"Feature","properties":{"sourceId":"1159314419","regionId":"region.43aaa01a-9d5c-449b-a71d-83f1c7cd7f97","countryId":"country.eno4h9"},"geometry":{"type":"Polygon","coordinates":[[[22.401,41.7127],[22.3234,41.5988],[22.5037,41.5073],[22.6292,41.6341],[22.6209,41.7271],[22.4462,41.7702],[22.401,41.7127]]]}},{"type":"Feature","properties":{"sourceId":"1159314553","regionId":"region.f33d602b-2a03-4b5b-a009-0b1f21c3bf80","countryId":"country.eno4h9"},"geometry":{"type":"Polygon","coordinates":[[[22.5089,41.4666],[22.6743,41.4729],[22.7281,41.5694],[22.6292,41.6341],[22.5037,41.5073],[22.5089,41.4666]]]}},{"type":"Feature","properties":{"sourceId":"1159314479","regionId":"region.24dc6f60-b92c-4c54-9c95-396c8ffdac05","countryId":"country.eno4h9"},"geometry":{"type":"Polygon","coordinates":[[[22.3001,41.4893],[22.33,41.4247],[22.4458,41.446],[22.5089,41.4666],[22.5037,41.5073],[22.3234,41.5988],[22.2603,41.5436],[22.3001,41.4893]]]}}]}