{"type":"FeatureCollection","features":[{"type":"Feature","properties":{"sourceId":"1159315139","regionId":"region.d217f7ed-68ff-4997-8cc1-f122f77e98dc","countryId":"country.8zgnf1"},"geometry":{"type":"MultiPolygon","coordinates":[[[[51.9786,18.9956],[51.0198,18.8666],[49.7384,18.6942],[49.1288,18.6121],[49.0358,18.5797],[48.1619,18.1489],[47.589,17.4633],[47.4286,17.0931],[47.1909,16.9589],[46.997,16.9485],[47.0387,16.3454],[46.8327,16.1497],[46.3397,15.5707],[47.7492,15.6752],[47.8517,15.6127],[47.6547,15.3162],[47.6126,15.1188],[47.6643,14.9812],[47.5018,14.8468],[47.486,14.7939],[47.7445,14.6008],[47.9989,14.5576],[48.0685,14.513],[48.1375,14.3837],[48.2603,14.3003],[48.4038,14.2958],[48.5804,14.2331],[48.6815,14.0436],[48.8526,14.167],[48.887,14.2503],[49.0037,14.3248],[49.078,14.5061],[49.5781,14.7373],[49.9421,14.8388],[50.1795,14.8433],[50.554,15.0486],[50.805,15.0974],[50.7284,15.2612],[50.5845,15.2974],[50.3414,15.2735],[50.2594,15.3638],[50.3319,15.4591],[50.3208,15.529],[50.1924,15.6093],[50.2299,15.8534],[50.3019,16.0017],[50.2354,16.1456],[50.3132,16.4347],[50.2925,16.5148],[50.3969,16.6237],[50.5722,16.6946],[50.7301,16.8347],[51.1324,17.1528],[51.2624,17.3381],[51.3849,17.6003],[51.4792,17.8844],[51.541,18.1839],[51.7123,18.5962],[51.9857,18.9797],[51.9786,18.9956]]],[[[54.4707,12.5436],[54.1194,12.7011],[54.0081,12.6457],[53.7629,12.6197],[53.6548,12.7048],[53.4999,12.7121],[53.396,12.6565],[53.3342,12.5155],[53.5056,12.4163],[53.5721,12.3346],[53.7764,12.305],[54.1405,12.3513],[54.2459,12.4335],[54.4447,12.4847],[54.4707,12.5436]]]]}},{"type":"Feature","properties":{"sourceId":"1159309145","regionId":"region.75f27616-dde2-48c6-8295-a38923c195e6","countryId":"country.8zgnf1"},"geometry":{"type":"Polygon","coordinates":[[[51.9857,18.9797],[51.7123,18.5962],[51.541,18.1839],[51.4792,17.8844],[51.3849,17.6003],[51.2624,17.3381],[51.1324,17.1528],[50.7301,16.8347],[50.5722,16.6946],[50.3969,16.6237],[50.2925,16.5148],[50.3132,16.4347],[50.2354,16.1456],[50.3019,16.0017],[50.2299,15.8534],[50.1924,15.6093],[50.3208,15.529],[50.3319,15.4591],[50.2594,15.3638],[50.3414,15.2735],[50.5845,15.2974],[50.7284,15.2612],[50.805,15.0974],[51.0698,15.1496],[51.3678,15.2297],[51.5495,15.323],[51.6553,15.3328],[51.6799,15.4035],[52.0471,15.57],[52.2284,15.6161],[52.2244,15.8467],[52.1555,15.9839],[52.2171,16.1484],[52.2927,16.2638],[52.4204,16.3712],[52.5977,16.4767],[52.8511,16.5561],[52.9849,16.6282],[53.0903,16.6424],[52.8016,17.2674],[52.7301,17.2999],[52.4845,17.8542],[51.9857,18.9797]]]}},{"type":"Feature","properties":{"sourceId":"1159308139","regionId":"region.29377e15-274d-461a-be23-4d5effa5e418","countryId":"country.8zgnf1"},"geometry":{"type":"Polygon","coordinates":[[[43.6384,17.4385],[43.435,17.5229],[43.342,17.4825],[43.2159,17.3872],[43.2486,17.2519],[43.1562,17.2097],[43.1087,16.927],[43.2086,16.7734],[43.1857,16.6848],[43.4129,16.6133],[43.5999,16.6085],[43.8568,16.6785],[44.03,16.6206],[44.1888,16.6315],[44.2485,16.7703],[44.4014,16.8643],[44.4909,16.9792],[44.7449,17.0761],[44.9502,17.1114],[44.9725,17.4297],[44.6465,17.4318],[44.562,17.4045],[44.4041,17.4187],[44.1045,17.352],[43.7506,17.3457],[43.6384,17.4385]]]}},{"type":"Feature","properties":{"sourceId":"1159308145","regionId":"region.6e4e94c7-fdbd-4c9a-9aa7-05245ba64dbe","countryId":"country.8zgnf1"},"geometry":{"type":"Polygon","coordinates":[[[43.1857,16.6848],[43.0849,16.6726],[43.0363,16.5363],[42.9174,16.4838],[42.7895,16.371],[42.8433,16.0522],[42.8346,15.9141],[42.9972,15.8202],[43.2853,15.8636],[43.3139,15.5097],[43.5453,15.5456],[43.7053,15.5263],[43.7166,15.6281],[43.8041,15.6673],[43.7752,15.9307],[43.7183,15.9816],[43.6146,16.2035],[43.5999,16.6085],[43.4129,16.6133],[43.1857,16.6848]]]}},{"type":"Feature","properties":{"sourceId":"1159309151","regionId":"region.9db9c0a0-5516-4f14-a368-3da0c42f7014","countryId":"country.8zgnf1"},"geometry":{"type":"Polygon","coordinates":[[[44.9725,17.4297],[44.9502,17.1114],[44.7449,17.0761],[44.4909,16.9792],[44.4014,16.8643],[44.2485,16.7703],[44.1888,16.6315],[44.3143,16.549],[44.3694,16.3352],[44.3525,16.1955],[44.4258,16.0283],[44.5095,16.057],[44.661,16.0114],[44.9978,15.9355],[45.239,15.813],[45.4496,15.7801],[45.5642,15.7904],[45.6929,15.8977],[45.9945,16],[46.8327,16.1497],[47.0387,16.3454],[46.997,16.9485],[46.9703,16.9568],[46.7472,17.2548],[46.7101,17.2754],[46.3226,17.2241],[45.4304,17.312],[45.2221,17.4174],[44.9725,17.4297]]]}},{"type":"Feature","properties":{"sourceId":"1159308133","regionId":"region.f37e90b3-75c3-4c55-9244-cd7d47ec34be","countryId":"country.8zgnf1"},"geometry":{"type":"Polygon","coordinates":[[[43.2843,13.6649],[43.4444,13.7468],[43.541,13.8755],[43.6843,13.912],[43.799,14.0417],[43.7976,14.114],[43.706,14.084],[43.5794,14.1556],[43.5583,14.3743],[43.5933,14.4724],[43.5381,14.6144],[43.5569,14.8484],[43.702,14.9334],[43.571,15.0443],[43.4483,15.2174],[43.3322,15.3056],[43.3139,15.5097],[43.2853,15.8636],[42.9972,15.8202],[42.8346,15.9141],[42.6992,15.7174],[42.7192,15.57],[42.7743,15.491],[42.8031,15.2452],[42.9373,14.9485],[42.9422,14.7889],[43.0287,14.538],[42.9935,14.4483],[43.0955,14.084],[43.2332,13.8764],[43.2843,13.6649]]]}},{"type":"Feature","properties":{"sourceId":"1159308129","regionId":"region.49388b4b-124d-4f39-b4a1-0e6730ae2f3d","countryId":"country.8zgnf1"},"geometry":{"type":"Polygon","coordinates":[[[43.5307,12.6955],[43.7259,13.0408],[43.882,13.1134],[44.0207,13.0473],[44.1965,13.2274],[44.3568,13.2513],[44.3546,13.368],[44.4417,13.3758],[44.4388,13.4885],[44.5332,13.5771],[44.4142,13.6432],[44.4069,13.761],[44.3213,13.703],[43.9634,13.8018],[43.8865,13.8777],[43.7118,13.8612],[43.6843,13.912],[43.541,13.8755],[43.4444,13.7468],[43.2843,13.6649],[43.2542,13.5266],[43.2489,13.2127],[43.4732,12.8466],[43.4623,12.6933],[43.5307,12.6955]]]}},{"type":"Feature","properties":{"sourceId":"1159308151","regionId":"region.bfe1ba78-e031-4844-af92-854884edf227","countryId":"country.8zgnf1"},"geometry":{"type":"Polygon","coordinates":[[[44.4147,12.6733],[44.4842,12.7776],[44.6189,12.8357],[45.0932,12.9247],[45.0995,12.9362],[45.1313,13.163],[45.1974,13.3404],[45.2523,13.4075],[45.211,13.5122],[45.2306,13.6474],[45.2919,13.7795],[45.405,13.8966],[45.3991,14.0232],[45.1805,13.9644],[45.1187,13.8302],[44.9966,13.7484],[44.8576,13.7081],[44.8531,13.5909],[44.6281,13.5168],[44.5332,13.5771],[44.4388,13.4885],[44.4417,13.3758],[44.3546,13.368],[44.3568,13.2513],[44.1965,13.2274],[44.0207,13.0473],[43.882,13.1134],[43.7259,13.0408],[43.5307,12.6955],[43.6006,12.7563],[43.9094,12.6453],[43.9463,12.598],[44.1912,12.6191],[44.4147,12.6733]]]}},{"type":"Feature","properties":{"sourceId":"1159315169","regionId":"region.aa4bf3c1-3680-48fb-bbdf-8cc1e24b2af2","countryId":"country.8zgnf1"},"geometry":{"type":"Polygon","coordinates":[[[45.0932,12.9247],[44.6189,12.8357],[44.4842,12.7776],[44.4147,12.6733],[44.5428,12.7973],[44.6936,12.8035],[44.8683,12.7321],[44.9446,12.834],[45.0233,12.8411],[45.0932,12.9247]]]}},{"type":"Feature","properties":{"sourceId":"1159315171","regionId":"region.ed8737c8-3878-439d-99bc-a0d6a73c8009","countryId":"country.8zgnf1"},"geometry":{"type":"Polygon","coordinates":[[[47.3245,13.6328],[47.275,13.8449],[47.2228,13.952],[47.2419,14.1376],[46.865,14.2139],[46.4923,14.1251],[46.3966,14.3024],[46.1351,14.1995],[46.0438,14.1917],[45.986,14.0236],[45.7775,13.8679],[45.637,13.8228],[45.5555,13.8784],[45.405,13.8966],[45.2919,13.7795],[45.2306,13.6474],[45.211,13.5122],[45.2523,13.4075],[45.1974,13.3404],[45.1313,13.163],[45.0995,12.9362],[45.1935,13.0127],[45.403,13.0701],[45.4942,13.1946],[45.6658,13.342],[45.9406,13.3994],[46.2345,13.4363],[46.313,13.4136],[46.7007,13.4303],[46.9119,13.5333],[47.3245,13.6328]]]}},{"type":"Feature","properties":{"sourceId":"1159309153","regionId":"region.e8b2bae7-9463-49aa-a69a-842dd2a72220","countryId":"country.8zgnf1"},"geometry":{"type":"Polygon","coordinates":[[[48.6815,14.0436],[48.5804,14.2331],[48.4038,14.2958],[48.2603,14.3003],[48.1375,14.3837],[48.0685,14.513],[47.9989,14.5576],[47.7445,14.6008],[47.486,14.7939],[47.5018,14.8468],[47.6643,14.9812],[47.6126,15.1188],[47.6547,15.3162],[47.8517,15.6127],[47.7492,15.6752],[46.3397,15.5707],[45.7532,15.1734],[45.6143,15.0602],[45.5277,14.7978],[45.5686,14.6893],[45.7218,14.6632],[45.837,14.3894],[46.0016,14.2937],[46.0438,14.1917],[46.1351,14.1995],[46.3966,14.3024],[46.4923,14.1251],[46.865,14.2139],[47.2419,14.1376],[47.2228,13.952],[47.275,13.8449],[47.3245,13.6328],[47.436,13.678],[47.6672,13.8872],[47.8665,13.9617],[48.0169,14.0573],[48.1404,14.0306],[48.1887,13.9691],[48.3382,14.0163],[48.6815,14.0436]]]}},{"type":"Feature","properties":{"sourceId":"1159309155","regionId":"region.2a6b3765-2980-42fb-919d-f1117fed0966","countryId":"country.8zgnf1"},"geometry":{"type":"Polygon","coordinates":[[[46.8327,16.1497],[45.9945,16],[45.6929,15.8977],[45.5642,15.7904],[45.4496,15.7801],[45.239,15.813],[44.9978,15.9355],[44.661,16.0114],[44.71,15.9162],[44.7421,15.7084],[44.8282,15.5956],[44.6631,15.4495],[44.7761,15.3316],[44.921,15.3741],[45.0239,15.2832],[45.1541,15.2385],[45.1649,15.1392],[45.0725,15.0505],[44.9989,14.9222],[45.0059,14.8143],[45.1066,14.7681],[45.1428,14.5496],[45.215,14.4977],[45.4151,14.5938],[45.4988,14.5859],[45.5686,14.6893],[45.5277,14.7978],[45.6143,15.0602],[45.7532,15.1734],[46.3397,15.5707],[46.8327,16.1497]]]}},{"type":"Feature","properties":{"sourceId":"1159315163","regionId":"region.4881e4d1-acc1-4db7-bfbf-d9106f752cbf","countryId":"country.8zgnf1"},"geometry":{"type":"Polygon","coordinates":[[[44.661,16.0114],[44.5095,16.057],[44.4258,16.0283],[44.2545,15.9738],[44.248,15.7826],[44.1672,15.6206],[43.9842,15.5047],[43.9658,15.4177],[43.7797,15.2782],[43.6401,15.217],[43.571,15.0443],[43.702,14.9334],[43.824,14.8504],[43.9467,14.8687],[44.0975,14.9738],[44.1919,14.9933],[44.2808,14.931],[44.5713,14.959],[44.635,15.0262],[44.7325,15.0268],[44.8687,14.7562],[45.0059,14.8143],[44.9989,14.9222],[45.0725,15.0505],[45.1649,15.1392],[45.1541,15.2385],[45.0239,15.2832],[44.921,15.3741],[44.7761,15.3316],[44.6631,15.4495],[44.8282,15.5956],[44.7421,15.7084],[44.71,15.9162],[44.661,16.0114]],[[44.3684,15.5334],[44.1421,15.3518],[44.2099,15.5521],[44.2827,15.6011],[44.3684,15.5334]]]}},{"type":"Feature","properties":{"sourceId":"1159315167","regionId":"region.d9f6020a-cc35-4168-96be-883ceb3bd45b","countryId":"country.8zgnf1"},"geometry":{"type":"Polygon","coordinates":[[[43.702,14.9334],[43.5569,14.8484],[43.5381,14.6144],[43.5933,14.4724],[43.5583,14.3743],[43.7034,14.4511],[43.8303,14.458],[43.9814,14.5987],[43.824,14.8504],[43.702,14.9334]]]}},{"type":"Feature","properties":{"sourceId":"1159309147","regionId":"region.bbbcd145-c351-47b8-a850-22135cf5911f","countryId":"country.8zgnf1"},"geometry":{"type":"Polygon","coordinates":[[[45.0059,14.8143],[44.8687,14.7562],[44.7925,14.6668],[44.7491,14.4276],[44.6304,14.2766],[44.718,14.1617],[44.9066,14.2217],[45.0075,14.2052],[45.1741,14.0148],[45.1805,13.9644],[45.3991,14.0232],[45.405,13.8966],[45.5555,13.8784],[45.637,13.8228],[45.7775,13.8679],[45.986,14.0236],[46.0438,14.1917],[46.0016,14.2937],[45.837,14.3894],[45.7218,14.6632],[45.5686,14.6893],[45.4988,14.5859],[45.4151,14.5938],[45.215,14.4977],[45.1428,14.5496],[45.1066,14.7681],[45.0059,14.8143]]]}},{"type":"Feature","properties":{"sourceId":"1159308147","regionId":"region.1aa4ae81-19df-48ff-8128-560c5bebaf1a","countryId":"country.8zgnf1"},"geometry":{"type":"Polygon","coordinates":[[[44.1888,16.6315],[44.03,16.6206],[43.8568,16.6785],[43.5999,16.6085],[43.6146,16.2035],[43.7183,15.9816],[43.7752,15.9307],[43.8041,15.6673],[43.7166,15.6281],[43.7053,15.5263],[43.8626,15.5637],[43.9842,15.5047],[44.1672,15.6206],[44.248,15.7826],[44.2545,15.9738],[44.4258,16.0283],[44.3525,16.1955],[44.3694,16.3352],[44.3143,16.549],[44.1888,16.6315]]]}},{"type":"Feature","properties":{"sourceId":"1159309149","regionId":"region.fd21384b-37d0-4ee9-8cf2-b40e77ac98ba","countryId":"country.8zgnf1"},"geometry":{"type":"Polygon","coordinates":[[[45.1805,13.9644],[45.1741,14.0148],[45.0075,14.2052],[44.9066,14.2217],[44.718,14.1617],[44.5097,13.9455],[44.4069,13.761],[44.4142,13.6432],[44.5332,13.5771],[44.6281,13.5168],[44.8531,13.5909],[44.8576,13.7081],[44.9966,13.7484],[45.1187,13.8302],[45.1805,13.9644]]]}},{"type":"Feature","properties":{"sourceId":"1159308149","regionId":"region.757aae1a-8fce-4a67-b358-03a0890e087b","countryId":"country.8zgnf1"},"geometry":{"type":"Polygon","coordinates":[[[43.7976,14.114],[43.799,14.0417],[43.6843,13.912],[43.7118,13.8612],[43.8865,13.8777],[43.9634,13.8018],[44.3213,13.703],[44.4069,13.761],[44.5097,13.9455],[44.718,14.1617],[44.6304,14.2766],[44.3309,14.3845],[44.2407,14.441],[44.1377,14.3649],[44.0826,14.4254],[43.9625,14.3353],[43.9459,14.2085],[43.7976,14.114]]]}},{"type":"Feature","properties":{"sourceId":"1159308141","regionId":"region.c22a17e6-4097-4db6-a9f2-5926a9c8e034","countryId":"country.8zgnf1"},"geometry":{"type":"Polygon","coordinates":[[[43.571,15.0443],[43.6401,15.217],[43.7797,15.2782],[43.9658,15.4177],[43.9842,15.5047],[43.8626,15.5637],[43.7053,15.5263],[43.5453,15.5456],[43.3139,15.5097],[43.3322,15.3056],[43.4483,15.2174],[43.571,15.0443]]]}},{"type":"Feature","properties":{"sourceId":"1159308143","regionId":"region.147af525-8f75-447f-9456-e4c6ea31b270","countryId":"country.8zgnf1"},"geometry":{"type":"Polygon","coordinates":[[[43.5583,14.3743],[43.5794,14.1556],[43.706,14.084],[43.7976,14.114],[43.9459,14.2085],[43.9625,14.3353],[44.0826,14.4254],[44.1377,14.3649],[44.2407,14.441],[44.3309,14.3845],[44.6304,14.2766],[44.7491,14.4276],[44.7925,14.6668],[44.8687,14.7562],[44.7325,15.0268],[44.635,15.0262],[44.5713,14.959],[44.2808,14.931],[44.1919,14.9933],[44.0975,14.9738],[43.9467,14.8687],[43.824,14.8504],[43.9814,14.5987],[43.8303,14.458],[43.7034,14.4511],[43.5583,14.3743]]]}},{"type":"Feature","properties":{"sourceId":"1159315165","regionId":"region.ba2a15ff-75b7-4e68-960e-a0a7b0effbee","countryId":"country.8zgnf1"},"geometry":{"type":"Polygon","coordinates":[[[44.3684,15.5334],[44.2827,15.6011],[44.2099,15.5521],[44.1421,15.3518],[44.3684,15.5334]]]}}]}