{"type":"FeatureCollection","features":[{"type":"Feature","properties":{"sourceId":"1159314941","regionId":"region.14e94210-b38c-478d-a5f3-f19e48603bdf","countryId":"country.13ie6ly"},"geometry":{"type":"Polygon","coordinates":[[[16.4871,-28.5729],[16.6731,-28.4598],[16.7693,-28.4426],[16.7644,-28.2832],[16.8855,-28.162],[16.893,-28.0826],[17.0978,-28.0312],[17.19,-28.1168],[17.192,-28.2088],[17.3457,-28.2276],[17.4021,-28.3678],[17.3282,-28.4561],[17.4206,-28.5934],[17.4036,-28.7043],[17.5829,-28.6802],[17.6071,-28.7557],[17.9133,-28.7813],[18.1665,-28.9019],[18.3976,-28.8989],[18.7457,-28.8399],[18.9545,-28.8667],[19.0817,-28.9594],[19.2889,-28.871],[19.2486,-28.7716],[19.4829,-28.6782],[19.5688,-28.5312],[19.9817,-28.4223],[19.9829,-27.5121],[19.9827,-26.8955],[19.9821,-25.619],[19.7752,-25.6682],[19.5232,-25.6028],[19.3251,-25.6183],[19.2372,-25.4974],[19.0776,-25.5638],[18.6412,-25.5292],[18.4747,-25.4448],[18.2509,-25.462],[17.7677,-25.5663],[17.6366,-25.5769],[17.4143,-25.549],[17.3382,-25.5842],[17.3346,-25.7583],[17.1689,-25.6939],[16.996,-25.7303],[16.9254,-25.6657],[16.5814,-25.5874],[16.4584,-25.6328],[16.3702,-25.5612],[16.2881,-25.6051],[16.341,-25.8538],[16.1775,-25.8498],[15.9756,-25.6006],[15.8625,-25.58],[15.7587,-25.0061],[14.8294,-25.0001],[14.8533,-25.0642],[14.8013,-25.2628],[14.877,-25.5781],[14.8428,-25.7636],[14.979,-26.0588],[14.9663,-26.3352],[15.1288,-26.4576],[15.1681,-26.6028],[15.083,-26.6952],[15.1786,-26.9212],[15.2342,-26.9654],[15.2953,-27.3224],[15.5207,-27.6337],[15.5462,-27.7478],[15.646,-27.8366],[15.6843,-27.9499],[15.9111,-28.1713],[16.0436,-28.2571],[16.168,-28.3958],[16.4194,-28.607],[16.4871,-28.5729]]]}},{"type":"Feature","properties":{"sourceId":"1159314947","regionId":"region.f05bcc6d-bef6-4c29-8068-6f7ad204e96b","countryId":"country.13ie6ly"},"geometry":{"type":"Polygon","coordinates":[[[13.3459,-16.9687],[13.1663,-16.9511],[12.8872,-17.0298],[12.8183,-17.1048],[12.5546,-17.2356],[12.2426,-17.2248],[12.0953,-17.1397],[11.7661,-17.2527],[11.7176,-17.5463],[11.7969,-17.9561],[11.8491,-18.1432],[11.9373,-18.2321],[12.0319,-18.5053],[12.2869,-18.6977],[12.45,-18.9046],[12.4704,-18.9977],[12.5674,-19.1023],[12.6797,-19.3141],[12.7046,-19.4108],[13.0054,-19.9355],[13.0709,-20.1142],[13.1546,-20.1542],[13.2131,-20.2734],[13.2627,-20.4851],[13.3495,-20.6445],[13.3872,-20.8161],[13.6281,-21.1876],[13.9044,-21.0365],[14.2081,-20.9593],[14.2948,-20.987],[14.729,-20.9993],[14.7952,-20.9768],[15.1203,-20.7641],[15.3844,-20.4872],[15.6007,-20.5626],[15.7521,-20.5828],[15.8577,-20.5457],[16.0391,-20.4154],[16.3091,-20.3785],[16.308,-20.2265],[16.5021,-20.1241],[16.5302,-20.0032],[16.6548,-19.9902],[16.702,-19.9172],[16.703,-19.4913],[16.6314,-19.4517],[16.3222,-19.4093],[15.94,-19.3307],[15.8609,-19.2895],[15.5775,-19.2446],[15.3142,-19.2461],[15.317,-19.1913],[15.2108,-19.2228],[15.0891,-19.2062],[14.8588,-19.2358],[14.5362,-19.2467],[14.5742,-19.4176],[14.449,-19.4145],[14.4771,-19.298],[14.3639,-19.0982],[14.3889,-18.8927],[14.3036,-18.6622],[14.2903,-18.0792],[14.2615,-17.9574],[14.1644,-17.768],[14.1814,-17.617],[14.1366,-17.5667],[14.2191,-17.3881],[14.0854,-17.4236],[13.9427,-17.4082],[13.8844,-17.3385],[13.5213,-17.1219],[13.4947,-17.024],[13.3459,-16.9687]]]}},{"type":"Feature","properties":{"sourceId":"1159314953","regionId":"region.d4599bb3-8f5a-4dc8-aa03-240dec3ecf22","countryId":"country.13ie6ly"},"geometry":{"type":"Polygon","coordinates":[[[15.5591,-17.3885],[14.2191,-17.3881],[14.1366,-17.5667],[14.1814,-17.617],[14.1644,-17.768],[14.2615,-17.9574],[14.2903,-18.0792],[14.3036,-18.6622],[14.3889,-18.8927],[14.3639,-19.0982],[14.4771,-19.298],[14.449,-19.4145],[14.5742,-19.4176],[14.5362,-19.2467],[14.8588,-19.2358],[15.0891,-19.2062],[15.2108,-19.2228],[15.317,-19.1913],[15.5545,-19.0415],[15.5136,-18.983],[15.5619,-18.8874],[15.5123,-18.7244],[15.5633,-18.6232],[15.4998,-18.1512],[15.2879,-18.0246],[15.6469,-17.6792],[15.5591,-17.3885]]]}},{"type":"Feature","properties":{"sourceId":"1159314959","regionId":"region.3387dafe-5956-4cad-8b4f-b67344132132","countryId":"country.13ie6ly"},"geometry":{"type":"Polygon","coordinates":[[[15.5591,-17.3885],[15.6469,-17.6792],[15.6658,-17.739],[15.9993,-17.6956],[16.308,-17.8836],[16.3897,-17.9145],[16.7495,-17.769],[18.0002,-17.7659],[18.0005,-17.3891],[17.279,-17.3889],[16.3398,-17.3887],[15.5591,-17.3885]]]}},{"type":"Feature","properties":{"sourceId":"1159314963","regionId":"region.69a1d565-62b0-4e47-9bfb-07e364cedb1b","countryId":"country.13ie6ly"},"geometry":{"type":"Polygon","coordinates":[[[18.0005,-17.3891],[18.0002,-17.7659],[18.0093,-18.749],[18.1946,-18.76],[19.236,-18.8151],[19.2347,-19.1889],[20.9756,-19.1721],[20.9751,-18.3193],[20.9934,-18.3186],[20.9865,-17.9658],[20.8062,-18.0314],[20.7375,-17.9935],[20.5655,-17.9852],[20.3362,-17.8549],[20.0343,-17.8959],[19.952,-17.8623],[19.6726,-17.8427],[19.4213,-17.8594],[19.1721,-17.8012],[19.0206,-17.8223],[18.762,-17.7477],[18.4928,-17.4645],[18.4536,-17.3899],[18.0005,-17.3891]]]}},{"type":"Feature","properties":{"sourceId":"1159314967","regionId":"region.45733760-e5bf-4612-a330-73ffc795623a","countryId":"country.13ie6ly"},"geometry":{"type":"Polygon","coordinates":[[[23.3817,-17.6411],[22.2305,-17.8576],[21.3812,-18.0126],[21.2166,-17.9306],[20.9865,-17.9658],[20.9934,-18.3186],[21.4757,-18.2995],[22.0503,-18.1928],[22.9814,-18.02],[23.3115,-18.0098],[23.3595,-18.1192],[23.5015,-18.2375],[23.5792,-18.4679],[23.6454,-18.466],[24.057,-18.119],[24.1831,-18.0294],[24.2964,-18.0262],[24.4216,-17.9565],[24.5056,-18.0603],[24.5778,-18.0444],[24.7253,-17.8959],[24.9581,-17.8009],[25.057,-17.8277],[25.1539,-17.7818],[25.2598,-17.7941],[24.97,-17.56],[24.6844,-17.4924],[24.5913,-17.5284],[24.407,-17.4745],[24.2205,-17.4795],[23.3817,-17.6411]]]}},{"type":"Feature","properties":{"sourceId":"1159314943","regionId":"region.e2766d6a-2983-49bc-9f86-9669920a26fe","countryId":"country.13ie6ly"},"geometry":{"type":"Polygon","coordinates":[[[19.9814,-24.7525],[19.9805,-23.8645],[19.275,-23.8538],[19.2707,-23.6762],[19.1515,-23.72],[18.9712,-23.6793],[18.7845,-23.7488],[18.5341,-23.6837],[18.4435,-23.5037],[18.3918,-23.464],[18.2211,-23.5852],[17.9809,-23.647],[17.8597,-23.5738],[17.4564,-23.6059],[17.3951,-23.4184],[17.4355,-23.3272],[17.2451,-23.3143],[17.1794,-23.2027],[17.0102,-23.1931],[16.8193,-23.2719],[16.6212,-23.2355],[16.4914,-23.4649],[16.5769,-23.5861],[16.4739,-23.6803],[16.3869,-23.6881],[16.2791,-23.7842],[16.4928,-23.8215],[16.4794,-23.8856],[16.1941,-23.8904],[15.9584,-23.9305],[15.9139,-23.9715],[15.7509,-23.9446],[15.7424,-23.8136],[15.4522,-23.6939],[15.0871,-23.65],[15.0466,-23.6016],[14.4841,-23.551],[14.4966,-23.926],[14.4596,-24.0104],[14.4736,-24.1591],[14.6123,-24.4457],[14.6019,-24.5624],[14.7808,-24.8034],[14.8294,-25.0001],[15.7587,-25.0061],[15.8625,-25.58],[15.9756,-25.6006],[16.1775,-25.8498],[16.341,-25.8538],[16.2881,-25.6051],[16.3702,-25.5612],[16.4584,-25.6328],[16.5814,-25.5874],[16.9254,-25.6657],[16.996,-25.7303],[17.1689,-25.6939],[17.3346,-25.7583],[17.3382,-25.5842],[17.4143,-25.549],[17.6366,-25.5769],[17.7677,-25.5663],[18.2509,-25.462],[18.4747,-25.4448],[18.6412,-25.5292],[19.0776,-25.5638],[19.2372,-25.4974],[19.3251,-25.6183],[19.5232,-25.6028],[19.7752,-25.6682],[19.9821,-25.619],[19.9814,-24.7525]]]}},{"type":"Feature","properties":{"sourceId":"1159314951","regionId":"region.141aebda-9cfa-4d06-8d6b-4b57542a7e0c","countryId":"country.13ie6ly"},"geometry":{"type":"Polygon","coordinates":[[[20.9756,-19.1721],[19.2347,-19.1889],[19.236,-18.8151],[18.1946,-18.76],[18.1716,-18.9511],[18.0192,-19.0471],[18.0045,-19.2584],[17.89,-19.359],[17.9337,-19.4622],[17.6864,-19.5015],[17.4113,-19.3649],[17.3697,-19.2403],[17.1987,-19.1487],[17.1268,-19.1659],[16.9897,-19.3409],[16.703,-19.4913],[16.702,-19.9172],[16.6548,-19.9902],[16.5302,-20.0032],[16.5021,-20.1241],[16.308,-20.2265],[16.3091,-20.3785],[16.0391,-20.4154],[15.8577,-20.5457],[15.7521,-20.5828],[15.6007,-20.5626],[15.5964,-20.6687],[15.72,-20.7001],[15.8323,-20.8405],[16.1928,-21.04],[16.2492,-20.9898],[16.4174,-21.1613],[16.5146,-21.1721],[16.533,-21.4161],[16.4414,-21.5152],[16.3934,-21.728],[16.4765,-21.9197],[16.4682,-22.1438],[16.3969,-22.1924],[16.447,-22.3739],[16.6026,-22.3301],[16.7243,-22.2343],[16.8369,-22.2971],[17.0981,-22.1981],[17.1416,-22.2374],[17.4533,-22.0887],[17.4505,-21.9779],[17.6046,-21.8402],[17.8344,-21.8124],[17.9013,-21.7583],[18.1179,-21.7053],[18.2417,-21.6228],[18.2611,-21.2347],[18.3505,-21.1987],[18.3759,-21.0386],[18.5417,-20.9648],[18.5787,-20.8123],[18.7569,-20.5336],[18.8314,-20.4708],[19.4824,-20.2427],[20.3199,-20.3316],[20.79,-20.3851],[20.9794,-20.351],[20.9756,-19.1721]]]}},{"type":"Feature","properties":{"sourceId":"1159314961","regionId":"region.fc51e810-6389-4117-8779-e824d6dfd62a","countryId":"country.13ie6ly"},"geometry":{"type":"Polygon","coordinates":[[[20.9794,-20.351],[20.79,-20.3851],[20.3199,-20.3316],[19.4824,-20.2427],[18.8314,-20.4708],[18.7569,-20.5336],[18.5787,-20.8123],[18.5417,-20.9648],[18.3759,-21.0386],[18.3505,-21.1987],[18.2611,-21.2347],[18.2417,-21.6228],[18.1179,-21.7053],[18.0678,-21.8623],[18.1255,-21.9298],[17.9744,-22.125],[17.9634,-22.214],[18.0318,-22.3381],[18.0965,-22.3507],[18.2196,-22.4812],[18.2937,-22.8141],[18.2989,-22.9498],[18.3712,-23.081],[18.3552,-23.2271],[18.4956,-23.3347],[18.4435,-23.5037],[18.5341,-23.6837],[18.7845,-23.7488],[18.9712,-23.6793],[19.1515,-23.72],[19.2707,-23.6762],[19.275,-23.8538],[19.9805,-23.8645],[19.9799,-23.3086],[19.9783,-22.0007],[20.972,-22.0007],[20.9848,-21.964],[20.9815,-21],[20.9794,-20.351]]]}},{"type":"Feature","properties":{"sourceId":"1159314949","regionId":"region.40bee417-614d-412e-ba86-eebcef5ee893","countryId":"country.13ie6ly"},"geometry":{"type":"Polygon","coordinates":[[[14.4841,-23.551],[15.0466,-23.6016],[15.0871,-23.65],[15.4522,-23.6939],[15.7424,-23.8136],[15.8264,-23.8057],[15.852,-23.5523],[15.7648,-23.4964],[15.8502,-23.38],[15.8264,-23.2471],[15.8757,-23.1547],[15.8954,-22.9042],[16.0561,-22.8451],[16.057,-22.5973],[16.1868,-22.5928],[16.3586,-22.4228],[16.447,-22.3739],[16.3969,-22.1924],[16.4682,-22.1438],[16.4765,-21.9197],[16.3934,-21.728],[16.4414,-21.5152],[16.533,-21.4161],[16.5146,-21.1721],[16.4174,-21.1613],[16.2492,-20.9898],[16.1928,-21.04],[15.8323,-20.8405],[15.72,-20.7001],[15.5964,-20.6687],[15.6007,-20.5626],[15.3844,-20.4872],[15.1203,-20.7641],[14.7952,-20.9768],[14.729,-20.9993],[14.2948,-20.987],[14.2081,-20.9593],[13.9044,-21.0365],[13.6281,-21.1876],[13.8317,-21.4565],[13.8779,-21.5922],[13.9583,-21.7048],[13.9523,-21.7839],[14.1372,-21.9464],[14.3865,-22.2765],[14.5086,-22.548],[14.5344,-22.8542],[14.522,-22.9234],[14.4102,-22.9708],[14.492,-23.3092],[14.4343,-23.4152],[14.4841,-23.551]]]}},{"type":"Feature","properties":{"sourceId":"1159314945","regionId":"region.0f750991-f1d6-4183-8123-33235c5ec714","countryId":"country.13ie6ly"},"geometry":{"type":"Polygon","coordinates":[[[16.447,-22.3739],[16.3586,-22.4228],[16.1868,-22.5928],[16.057,-22.5973],[16.0561,-22.8451],[15.8954,-22.9042],[15.8757,-23.1547],[15.8264,-23.2471],[15.8502,-23.38],[15.7648,-23.4964],[15.852,-23.5523],[15.8264,-23.8057],[15.7424,-23.8136],[15.7509,-23.9446],[15.9139,-23.9715],[15.9584,-23.9305],[16.1941,-23.8904],[16.4794,-23.8856],[16.4928,-23.8215],[16.2791,-23.7842],[16.3869,-23.6881],[16.4739,-23.6803],[16.5769,-23.5861],[16.4914,-23.4649],[16.6212,-23.2355],[16.8193,-23.2719],[17.0102,-23.1931],[17.1794,-23.2027],[17.2451,-23.3143],[17.4355,-23.3272],[17.3951,-23.4184],[17.4564,-23.6059],[17.8597,-23.5738],[17.9809,-23.647],[18.2211,-23.5852],[18.3918,-23.464],[18.4435,-23.5037],[18.4956,-23.3347],[18.3552,-23.2271],[18.3712,-23.081],[18.2989,-22.9498],[18.2937,-22.8141],[18.2196,-22.4812],[18.0965,-22.3507],[18.0318,-22.3381],[17.9634,-22.214],[17.9744,-22.125],[18.1255,-21.9298],[18.0678,-21.8623],[18.1179,-21.7053],[17.9013,-21.7583],[17.8344,-21.8124],[17.6046,-21.8402],[17.4505,-21.9779],[17.4533,-22.0887],[17.1416,-22.2374],[17.0981,-22.1981],[16.8369,-22.2971],[16.7243,-22.2343],[16.6026,-22.3301],[16.447,-22.3739]]]}},{"type":"Feature","properties":{"sourceId":"1159314955","regionId":"region.d17bd5c1-c053-4313-964f-af744a085582","countryId":"country.13ie6ly"},"geometry":{"type":"Polygon","coordinates":[[[15.6469,-17.6792],[15.2879,-18.0246],[15.4998,-18.1512],[15.5633,-18.6232],[15.5123,-18.7244],[15.5619,-18.8874],[15.5136,-18.983],[15.5545,-19.0415],[15.317,-19.1913],[15.3142,-19.2461],[15.5775,-19.2446],[15.8609,-19.2895],[15.94,-19.3307],[15.912,-19.0929],[15.851,-18.9681],[15.8603,-18.8028],[16.0356,-18.6525],[15.9486,-18.4752],[15.943,-18.3138],[16.0379,-18.1409],[15.9993,-18.0227],[15.9993,-17.6956],[15.6658,-17.739],[15.6469,-17.6792]]]}},{"type":"Feature","properties":{"sourceId":"1159314965","regionId":"region.2a36c729-0c37-4d8b-be6b-84ddc02481c0","countryId":"country.13ie6ly"},"geometry":{"type":"Polygon","coordinates":[[[16.703,-19.4913],[16.9897,-19.3409],[17.1268,-19.1659],[17.1987,-19.1487],[17.3697,-19.2403],[17.4113,-19.3649],[17.6864,-19.5015],[17.9337,-19.4622],[17.89,-19.359],[18.0045,-19.2584],[18.0192,-19.0471],[18.1716,-18.9511],[18.1946,-18.76],[18.0093,-18.749],[18.0002,-17.7659],[16.7495,-17.769],[16.3897,-17.9145],[16.308,-17.8836],[15.9993,-17.6956],[15.9993,-18.0227],[16.0379,-18.1409],[15.943,-18.3138],[15.9486,-18.4752],[16.0356,-18.6525],[15.8603,-18.8028],[15.851,-18.9681],[15.912,-19.0929],[15.94,-19.3307],[16.3222,-19.4093],[16.6314,-19.4517],[16.703,-19.4913]]]}}]}