{"type":"FeatureCollection","features":[{"type":"Feature","properties":{"sourceId":"1159308487","regionId":"region.2765a891-384d-4817-98a1-cdbf3dee907b","countryId":"country.88o7pu"},"geometry":{"type":"Polygon","coordinates":[[[65.4879,37.242],[65.6241,37.3451],[65.6688,37.5206],[65.8043,37.5653],[65.8552,37.5079],[66.0797,37.4409],[66.2508,37.3597],[66.4615,37.3244],[66.5196,37.3642],[66.4935,37.5222],[66.5188,37.7827],[66.6365,37.9666],[66.5542,38.0269],[66.3069,38.0804],[66.2311,38.1488],[65.8767,38.273],[65.7402,38.2241],[65.6041,38.2374],[65.2053,38.4496],[64.9777,38.6123],[64.6349,38.7441],[64.3676,38.9404],[64.3136,38.9825],[64.1206,38.9617],[63.7093,39.1909],[63.4776,39.4029],[62.5932,39.8902],[62.4528,40.0092],[62.4397,40.1729],[62.3533,40.4304],[62.1871,40.5055],[62.0448,40.715],[61.9708,41.0154],[61.8779,41.125],[61.6544,41.2494],[61.4701,41.2972],[61.2814,41.1573],[61.0043,41.2295],[60.9807,41.0026],[60.2475,41.0005],[60.253,40.3534],[60.4918,40.3017],[60.5172,39.489],[61.0223,39.514],[61.222,39.5006],[61.5993,39.1993],[62.4195,38.5237],[62.8292,38.193],[63.2287,38.06],[63.7086,37.6184],[63.7201,37.5746],[63.4888,37.3442],[63.5005,36.8827],[63.537,36.8505],[64.7285,36.8506],[64.7788,36.9385],[64.7602,37.0926],[65.0631,37.2332],[65.4879,37.242]]]}},{"type":"Feature","properties":{"sourceId":"1159308489","regionId":"region.399be33c-7cd6-4d2c-af30-54183fc3bcc0","countryId":"country.88o7pu"},"geometry":{"type":"Polygon","coordinates":[[[64.7285,36.8506],[63.537,36.8505],[63.5005,36.8827],[63.4888,37.3442],[63.7201,37.5746],[63.7086,37.6184],[63.2287,38.06],[62.8292,38.193],[62.4195,38.5237],[61.5993,39.1993],[61.222,39.5006],[61.0223,39.514],[60.9947,39.3213],[60.7702,39.2473],[60.6912,38.9398],[60.5941,38.9195],[60.545,38.7558],[60.4595,38.754],[60.6031,38.3018],[60.8538,38.0962],[60.9826,37.9005],[60.8917,37.8585],[60.9492,37.7172],[60.8927,37.6182],[60.9643,37.3912],[61.1503,37.381],[61.243,37.2875],[61.4101,37.2879],[61.3814,37.1821],[61.2306,37.1957],[61.1752,37.3415],[61.0043,37.3534],[61.4579,36.7542],[61.5055,36.6642],[61.5117,36.0728],[61.5965,35.9523],[61.4597,35.892],[61.5755,35.7679],[61.524,35.6282],[61.4193,35.5459],[61.5387,35.4523],[61.799,35.4175],[61.9194,35.4518],[62.0338,35.424],[62.219,35.3063],[62.302,35.1475],[62.3993,35.2559],[62.6211,35.2227],[62.8231,35.3275],[63.0802,35.4371],[63.0766,35.6247],[63.1839,35.7123],[63.1253,35.8602],[63.3429,35.8563],[63.6023,35.9627],[63.7659,35.9773],[63.9063,36.0317],[64.1234,36.1461],[64.2661,36.1525],[64.4446,36.25],[64.6059,36.4611],[64.592,36.6211],[64.7285,36.8506]]]}},{"type":"Feature","properties":{"sourceId":"1159308483","regionId":"region.1fb32871-a80e-4543-88ae-f90b13798206","countryId":"country.88o7pu"},"geometry":{"type":"Polygon","coordinates":[[[61.2697,35.6185],[61.4193,35.5459],[61.524,35.6282],[61.5755,35.7679],[61.4597,35.892],[61.5965,35.9523],[61.5117,36.0728],[61.5055,36.6642],[61.4579,36.7542],[61.0043,37.3534],[61.1752,37.3415],[61.2306,37.1957],[61.3814,37.1821],[61.4101,37.2879],[61.243,37.2875],[61.1503,37.381],[60.9643,37.3912],[60.8927,37.6182],[60.9492,37.7172],[60.8917,37.8585],[60.9826,37.9005],[60.8538,38.0962],[60.6031,38.3018],[60.4595,38.754],[60.545,38.7558],[60.5941,38.9195],[60.6912,38.9398],[60.7702,39.2473],[60.9947,39.3213],[61.0223,39.514],[60.5172,39.489],[60.3566,39.4764],[60.2659,39.6277],[60.0697,39.5882],[60.0019,39.6622],[59.9814,40.0005],[59.1847,40.0042],[58.9875,40.1098],[58.3986,40.2142],[58.2458,40.164],[57.8847,40.097],[57.4796,40.1023],[57.2798,40.032],[57.1652,40.0923],[56.9838,39.9902],[57.1011,39.6429],[56.9771,39.5667],[56.6724,38.7938],[56.5805,38.6114],[56.5931,38.4837],[56.7152,38.4529],[56.8895,38.4672],[56.956,38.3805],[57.1379,38.2624],[57.2183,38.2651],[57.3443,38.0811],[57.3524,37.9675],[57.4963,37.9223],[57.7348,37.8983],[58.1812,37.7749],[58.2068,37.6787],[58.3718,37.6304],[58.5143,37.6915],[58.7043,37.6446],[58.861,37.6681],[59.0456,37.6196],[59.2117,37.5163],[59.3517,37.4938],[59.3704,37.3194],[59.5095,37.1898],[59.7972,37.1122],[60.0192,37.0258],[60.3423,36.6371],[61.0755,36.6478],[61.186,36.5777],[61.1525,36.4063],[61.2228,36.1175],[61.174,36.0065],[61.2474,35.8762],[61.2317,35.6719],[61.2697,35.6185]]]}},{"type":"Feature","properties":{"sourceId":"1159308463","regionId":"region.6cc4590c-6c4f-40ba-af78-3b702479dca5","countryId":"country.88o7pu"},"geometry":{"type":"Polygon","coordinates":[[[55.9784,41.3217],[55.6355,41.2644],[55.4295,41.2908],[55.2284,41.4728],[54.9507,41.7956],[54.9071,41.9321],[54.7383,42.0482],[54.1953,42.3181],[54.0472,42.3454],[53.4123,42.2582],[52.9787,42.1266],[52.7647,41.9938],[52.4377,41.7489],[52.5952,41.6337],[52.5622,41.5195],[52.8157,41.3887],[52.8989,41.566],[52.9038,41.6898],[52.8215,41.7649],[52.9603,41.9844],[53.1219,42.09],[53.2967,42.0788],[53.6818,42.1439],[53.8967,42.0788],[53.9323,41.8843],[54.0197,41.7315],[54.0414,41.5346],[54.3118,41.3383],[54.6004,41.1923],[54.76,40.965],[54.6399,40.8388],[54.4749,40.8099],[54.3605,40.9171],[54.2733,40.8934],[54.3106,40.7307],[54.1711,40.7297],[54.0108,40.6579],[53.721,40.6257],[53.7246,40.6879],[53.5874,40.8916],[53.5417,40.7616],[53.1074,40.7739],[52.9582,41.0163],[52.8276,40.7115],[52.8631,40.6581],[52.7366,40.4846],[52.699,40.2739],[52.7683,40.1538],[52.7385,40.0536],[52.8841,39.9449],[53.1724,39.9975],[53.2901,39.9421],[53.4373,40.0027],[53.5671,39.9495],[53.4299,39.7625],[53.5335,39.6321],[53.7116,39.5434],[53.5772,39.4678],[53.3635,39.5381],[53.1782,39.5157],[53.0887,39.3832],[53.3943,39.317],[53.5813,39.3305],[53.5687,39.2463],[53.6741,39.1933],[53.7478,39.0544],[53.8709,39.0284],[53.9776,38.9018],[53.863,38.6794],[53.827,38.5255],[53.863,38.3814],[53.8589,38.2065],[53.8071,38.032],[53.8249,37.7449],[53.9137,37.3428],[54.1866,37.3237],[54.3642,37.3627],[54.5333,37.4408],[54.6169,37.433],[54.7837,37.5175],[54.7873,37.6519],[54.8566,37.7611],[55.1303,37.9523],[55.4231,38.0759],[55.7087,38.1187],[55.9784,38.0659],[56.1667,38.0808],[56.2997,38.0802],[56.2971,38.1658],[56.4365,38.2551],[56.5852,38.2346],[56.739,38.2696],[57.0384,38.1873],[57.1379,38.2624],[56.956,38.3805],[56.8895,38.4672],[56.7152,38.4529],[56.5931,38.4837],[56.5805,38.6114],[56.6724,38.7938],[56.9771,39.5667],[57.1011,39.6429],[56.9838,39.9902],[57.1652,40.0923],[57.0789,40.1756],[57.1291,40.3043],[57.029,40.5537],[56.9062,40.6704],[56.7781,40.9306],[56.5952,41.1176],[56.5337,41.299],[55.9784,41.3217]]]}},{"type":"Feature","properties":{"sourceId":"1159308485","regionId":"region.199e1d92-cab0-4fbf-a671-bd23cd7c7abd","countryId":"country.88o7pu"},"geometry":{"type":"Polygon","coordinates":[[[60.1411,41.8742],[59.9837,41.949],[59.9745,42.0992],[60.0282,42.1995],[59.8664,42.3042],[59.4782,42.2856],[59.2452,42.3653],[59.2096,42.4777],[59.122,42.538],[58.8944,42.5478],[58.6123,42.7809],[58.4932,42.6455],[58.2827,42.6889],[58.1457,42.5926],[58.3062,42.5287],[58.2257,42.4666],[57.9977,42.4934],[57.8505,42.1914],[57.6198,42.1482],[57.3823,42.1636],[57.2078,42.0706],[57.1155,41.9521],[56.9501,41.8661],[56.9605,41.6472],[57.0196,41.4659],[57.1538,41.3724],[57.0102,41.2541],[56.5337,41.299],[56.5952,41.1176],[56.7781,40.9306],[56.9062,40.6704],[57.029,40.5537],[57.1291,40.3043],[57.0789,40.1756],[57.1652,40.0923],[57.2798,40.032],[57.4796,40.1023],[57.8847,40.097],[58.2458,40.164],[58.3986,40.2142],[58.9875,40.1098],[59.1847,40.0042],[59.9814,40.0005],[60.0019,39.6622],[60.0697,39.5882],[60.2659,39.6277],[60.3566,39.4764],[60.5172,39.489],[60.4918,40.3017],[60.253,40.3534],[60.2475,41.0005],[60.9807,41.0026],[61.0043,41.2295],[60.8603,41.253],[60.5381,41.2132],[60.4145,41.2353],[60.0942,41.3895],[60.0717,41.5144],[60.1556,41.6033],[60.0492,41.7535],[60.1411,41.8742]]]}}]}