{"type":"FeatureCollection","features":[{"type":"Feature","properties":{"sourceId":"1159312993","regionId":"region.a68552c7-608d-4c72-8107-0b04ec265bfc","countryId":"country.joydxr"},"geometry":{"type":"Polygon","coordinates":[[[30.5547,51.2425],[30.6383,51.3359],[30.5341,51.5533],[30.5703,51.6999],[30.662,51.8194],[30.9405,52.0201],[31.1348,52.0767],[31.4749,52.1178],[31.7643,52.1006],[31.6081,52.3725],[31.579,52.5778],[31.4806,52.6825],[31.5702,52.7253],[31.5051,52.8489],[31.3879,52.888],[31.2471,53.0144],[31.3616,53.12],[31.1093,53.1296],[30.9908,53.3035],[30.6396,53.2794],[30.4878,53.3179],[30.3789,53.262],[30.1734,53.2392],[29.9821,53.3426],[29.7511,53.2991],[29.7618,53.1711],[29.6319,53.1024],[29.6907,52.9425],[29.392,52.9209],[29.1702,52.9425],[28.8304,52.7215],[28.4692,52.6801],[28.4045,52.5148],[27.9286,52.4409],[27.7059,52.4378],[27.5191,52.5375],[27.3439,52.478],[27.2714,52.3607],[27.5231,52.2368],[27.5267,52.0727],[27.5903,52.0264],[27.5031,51.8445],[27.555,51.7503],[27.5124,51.6231],[27.7052,51.5684],[27.6661,51.4902],[27.8125,51.602],[28.0708,51.5576],[28.21,51.652],[28.3469,51.5252],[28.6039,51.5535],[28.7999,51.5326],[29.0436,51.6262],[29.1604,51.6033],[29.221,51.467],[29.3533,51.3771],[29.4663,51.3851],[29.618,51.4856],[29.8286,51.43],[30.1486,51.4844],[30.329,51.3886],[30.3551,51.3053],[30.5547,51.2425]]]}},{"type":"Feature","properties":{"sourceId":"1159312991","regionId":"region.05639e07-a717-4a24-98e6-7be5d5f43b0a","countryId":"country.joydxr"},"geometry":{"type":"Polygon","coordinates":[[[25.5474,51.9194],[25.7679,51.9285],[26.0808,51.9007],[26.1753,51.8567],[26.4078,51.8506],[26.8548,51.7493],[27.1779,51.7471],[27.254,51.5954],[27.5124,51.6231],[27.555,51.7503],[27.5031,51.8445],[27.5903,52.0264],[27.5267,52.0727],[27.5231,52.2368],[27.2714,52.3607],[27.1282,52.4162],[27.0598,52.5195],[27.021,52.7448],[26.7997,52.7732],[26.3834,52.9679],[26.3823,53.1179],[26.294,53.2252],[26.3987,53.2654],[26.3765,53.3645],[26.2731,53.3506],[25.7202,53.3947],[25.5689,53.2442],[25.5993,53.1272],[25.5248,53.0245],[25.259,52.8651],[25.0528,52.8411],[24.9289,52.9605],[24.6859,52.9598],[24.5709,52.8654],[24.5526,52.7478],[24.3882,52.7749],[23.9204,52.7726],[23.9088,52.6999],[23.7362,52.6149],[23.3923,52.5096],[23.1761,52.2851],[23.6375,52.0845],[23.6764,51.9941],[23.5604,51.7545],[23.5399,51.6071],[23.6062,51.5174],[23.5944,51.605],[23.7497,51.6445],[23.9813,51.586],[24.2441,51.7182],[24.3908,51.88],[24.7218,51.8823],[25.1833,51.9498],[25.5474,51.9194]]]}},{"type":"Feature","properties":{"sourceId":"1159312999","regionId":"region.3229f654-b5a5-4e0f-a8dc-56a63fc76be1","countryId":"country.joydxr"},"geometry":{"type":"Polygon","coordinates":[[[26.5945,55.667],[26.4455,55.3375],[26.7686,55.3002],[26.7399,55.2428],[26.5789,55.1185],[26.3095,55.1446],[26.1703,54.9933],[26.3481,54.9433],[26.3702,54.9798],[26.73,54.9439],[26.897,54.9754],[27.2517,54.9483],[27.6238,54.766],[27.7563,54.6387],[27.9245,54.6147],[28.2272,54.6496],[28.3479,54.5657],[28.5655,54.6609],[28.6647,54.5825],[28.8242,54.5765],[29.219,54.6313],[29.4392,54.5472],[29.4145,54.2313],[29.5968,54.3157],[29.826,54.3152],[30.0338,54.2739],[30.1078,54.3588],[30.425,54.3404],[30.708,54.4219],[31.179,54.4534],[31.0646,54.4923],[31.1679,54.6216],[30.7706,54.786],[30.8148,54.928],[31.0064,55.0424],[30.9598,55.1626],[30.7943,55.2855],[30.9186,55.4076],[30.9071,55.5778],[30.5964,55.6653],[30.4688,55.7935],[30.2178,55.8551],[29.8695,55.8305],[29.461,55.6873],[29.3436,55.787],[29.3774,55.954],[29.0308,56.0242],[28.7064,55.9598],[28.6207,56.083],[28.3898,56.0886],[28.2898,56.0466],[28.1489,56.1424],[28.0511,56.1407],[27.9115,56.1002],[27.7601,55.9754],[27.645,55.9228],[27.5927,55.7942],[27.2824,55.7919],[26.9794,55.8263],[26.8228,55.7061],[26.5945,55.667]]]}},{"type":"Feature","properties":{"sourceId":"1159313001","regionId":"region.8508f006-9728-4d13-9e13-50626c2b4a52","countryId":"country.joydxr"},"geometry":{"type":"Polygon","coordinates":[[[26.1703,54.9933],[25.9079,54.9481],[25.7827,54.8697],[25.7095,54.6756],[25.7404,54.5685],[25.6462,54.5204],[25.53,54.3461],[25.696,54.321],[25.7868,54.2318],[25.74,54.1463],[25.554,54.2313],[25.1935,54.2437],[25.072,54.1322],[24.851,54.145],[24.8214,54.0199],[24.5287,53.9584],[24.3779,53.8868],[24.2011,53.9525],[23.9198,53.9478],[23.6426,53.899],[23.4856,53.9393],[23.5909,53.6113],[23.783,53.2709],[23.8937,53.152],[23.9204,52.7726],[24.3882,52.7749],[24.5526,52.7478],[24.5709,52.8654],[24.6859,52.9598],[24.9289,52.9605],[25.0528,52.8411],[25.259,52.8651],[25.5248,53.0245],[25.5993,53.1272],[25.5689,53.2442],[25.7202,53.3947],[26.2731,53.3506],[26.3765,53.3645],[26.5595,53.4012],[26.462,53.6311],[26.2533,53.7341],[26.2184,53.866],[26.4192,53.9518],[26.3336,54.0572],[26.2033,54.0345],[26.1132,54.1993],[26.4063,54.2411],[26.5004,54.3144],[26.6824,54.5795],[26.5418,54.7475],[26.3376,54.8635],[26.3481,54.9433],[26.1703,54.9933]]]}},{"type":"Feature","properties":{"sourceId":"1159312997","regionId":"region.bd3dfc0b-570b-46d3-b91d-68b7156bd69f","countryId":"country.joydxr"},"geometry":{"type":"Polygon","coordinates":[[[31.179,54.4534],[30.708,54.4219],[30.425,54.3404],[30.1078,54.3588],[30.0338,54.2739],[29.826,54.3152],[29.5968,54.3157],[29.4145,54.2313],[29.4213,54.0595],[29.3543,53.8909],[29.4334,53.7332],[29.0458,53.5842],[28.6307,53.6146],[28.5645,53.5272],[28.4023,53.4681],[28.3668,53.3659],[28.4385,53.2904],[28.1176,53.2378],[28.4214,53.1382],[28.5333,53.0147],[28.4093,52.8379],[28.292,52.7657],[28.4692,52.6801],[28.8304,52.7215],[29.1702,52.9425],[29.392,52.9209],[29.6907,52.9425],[29.6319,53.1024],[29.7618,53.1711],[29.7511,53.2991],[29.9821,53.3426],[30.1734,53.2392],[30.3789,53.262],[30.4878,53.3179],[30.6396,53.2794],[30.9908,53.3035],[31.1093,53.1296],[31.3616,53.12],[31.4164,53.2],[31.7386,53.1925],[31.9072,53.0919],[32.2059,53.1004],[32.4055,53.1927],[32.58,53.3244],[32.7175,53.3349],[32.7178,53.4311],[32.4529,53.5464],[32.4806,53.6624],[32.2904,53.7609],[32.0836,53.8096],[31.8732,53.7771],[31.7538,53.8196],[31.8465,53.9923],[31.7481,54.0863],[31.5064,54.1439],[31.3247,54.2292],[31.179,54.4534]]]}},{"type":"Feature","properties":{"sourceId":"1159313003","regionId":"region.a1671596-fa48-4467-8fb8-a2f743c438a1","countryId":"country.joydxr"},"geometry":{"type":"Polygon","coordinates":[[[29.4145,54.2313],[29.4392,54.5472],[29.219,54.6313],[28.8242,54.5765],[28.6647,54.5825],[28.5655,54.6609],[28.3479,54.5657],[28.2272,54.6496],[27.9245,54.6147],[27.7563,54.6387],[27.6238,54.766],[27.2517,54.9483],[26.897,54.9754],[26.73,54.9439],[26.3702,54.9798],[26.3481,54.9433],[26.3376,54.8635],[26.5418,54.7475],[26.6824,54.5795],[26.5004,54.3144],[26.4063,54.2411],[26.1132,54.1993],[26.2033,54.0345],[26.3336,54.0572],[26.4192,53.9518],[26.2184,53.866],[26.2533,53.7341],[26.462,53.6311],[26.5595,53.4012],[26.3765,53.3645],[26.3987,53.2654],[26.294,53.2252],[26.3823,53.1179],[26.3834,52.9679],[26.7997,52.7732],[27.021,52.7448],[27.0598,52.5195],[27.1282,52.4162],[27.2714,52.3607],[27.3439,52.478],[27.5191,52.5375],[27.7059,52.4378],[27.9286,52.4409],[28.4045,52.5148],[28.4692,52.6801],[28.292,52.7657],[28.4093,52.8379],[28.5333,53.0147],[28.4214,53.1382],[28.1176,53.2378],[28.4385,53.2904],[28.3668,53.3659],[28.4023,53.4681],[28.5645,53.5272],[28.6307,53.6146],[29.0458,53.5842],[29.4334,53.7332],[29.3543,53.8909],[29.4213,54.0595],[29.4145,54.2313]],[[27.7608,53.8042],[27.3831,53.8368],[27.4081,53.9968],[27.6882,53.9893],[27.8308,53.8343],[27.7608,53.8042]]]}},{"type":"Feature","properties":{"sourceId":"1159315869","regionId":"region.3a9e5c43-bb88-4e58-92cb-d7f46a8e8003","countryId":"country.joydxr"},"geometry":{"type":"Polygon","coordinates":[[[27.7608,53.8042],[27.8308,53.8343],[27.6882,53.9893],[27.4081,53.9968],[27.3831,53.8368],[27.7608,53.8042]]]}}]}