{"type":"FeatureCollection","features":[{"type":"Feature","properties":{"sourceId":"1159317839","regionId":"region.62464ed7-a894-4284-b2d2-32b6742c01dd","countryId":"country.jg9ci8"},"geometry":{"type":"Polygon","coordinates":[[[23.0056,10.6868],[23.2973,11.1079],[23.7661,11.4112],[23.9684,12.0731],[24.0112,12.4426],[24.0904,12.5873],[24.6164,13.0994],[24.4322,13.1122],[24.3554,13.1629],[24.3908,13.2539],[24.5919,13.4782],[24.5171,13.5653],[24.4021,13.5546],[24.0803,13.4038],[23.963,13.389],[23.7817,13.4562],[23.6347,13.548],[23.5232,13.5567],[23.4076,13.4335],[23.2146,13.3876],[22.9021,12.9372],[22.6263,12.6338],[22.6814,12.2753],[22.6124,12.0728],[22.5371,11.6809],[22.6281,11.5098],[22.743,11.4661],[22.7818,11.3989],[22.9148,11.3961],[22.9565,11.2088],[22.8611,10.9192],[23.0056,10.6868]]]}},{"type":"Feature","properties":{"sourceId":"1159309199","regionId":"region.2bf9e557-692e-490c-8da4-e43c995b492e","countryId":"country.jg9ci8"},"geometry":{"type":"Polygon","coordinates":[[[23.0056,10.6868],[23.2912,10.4397],[23.624,9.9078],[23.674,9.6903],[23.6061,9.5372],[23.6469,9.4184],[23.6322,9.2776],[23.5495,9.1853],[23.4628,9.1537],[23.4514,8.9742],[23.5675,8.9748],[23.4823,8.7834],[23.5053,8.7107],[23.6134,8.7322],[23.7213,8.702],[23.9223,8.7134],[24.1703,8.6893],[24.3801,8.8442],[24.5584,8.8867],[24.5654,9.0149],[24.661,9.1823],[24.6802,9.3734],[24.7944,9.5322],[24.7927,9.7984],[24.9763,9.9674],[25.0171,10.168],[25.0841,10.2932],[25.4795,10.3438],[25.8393,10.4206],[25.8436,10.5288],[25.7517,10.8046],[25.6046,11.1814],[25.4391,11.3193],[25.1909,11.5859],[25.1817,12.2661],[25.2829,12.404],[25.3012,12.6798],[25.2448,13.0643],[24.9213,13.0558],[24.6164,13.0994],[24.0904,12.5873],[24.0112,12.4426],[23.9684,12.0731],[23.7661,11.4112],[23.2973,11.1079],[23.0056,10.6868]]]}},{"type":"Feature","properties":{"sourceId":"1159309205","regionId":"region.c5057233-5f5f-4d62-bf9e-4601f60f1421","countryId":"country.jg9ci8"},"geometry":{"type":"Polygon","coordinates":[[[36.4399,13.7762],[36.4366,13.9912],[36.5264,14.2635],[36.4622,14.7938],[36.0574,14.7927],[35.9771,14.7778],[35.5098,14.6119],[35.3589,14.641],[35.1306,14.8879],[34.995,15.2119],[34.8399,15.3854],[34.6246,15.5026],[34.3622,15.5774],[34.0188,15.6305],[33.7956,15.7066],[33.6799,15.6461],[33.5441,15.432],[33.6642,15.3175],[33.8585,15.2537],[34.0225,15.171],[34.0982,15.0205],[34.2415,14.8202],[34.2512,14.7608],[33.9078,14.1625],[33.9817,14.0247],[34.139,13.7612],[34.3035,13.731],[34.263,13.6081],[34.4233,13.3609],[34.6154,13.239],[34.7614,13.1763],[34.9482,12.9899],[35.3675,12.7392],[35.7014,12.6654],[36.1236,12.7214],[36.1144,12.9339],[36.2336,13.3616],[36.3821,13.571],[36.4399,13.7762]]]}},{"type":"Feature","properties":{"sourceId":"1159308277","regionId":"region.8144fc8e-fae5-4b27-bf70-97edd54351be","countryId":"country.jg9ci8"},"geometry":{"type":"Polygon","coordinates":[[[35.1486,11.8712],[35.1042,11.9609],[34.8969,12.1406],[34.7746,12.2865],[34.5541,12.6261],[34.4705,12.7051],[34.3625,12.7305],[34.2343,12.6743],[33.5087,12.2335],[33.3478,12.2566],[33.2092,12.2104],[33.145,11.9347],[33.1324,11.6862],[33.0829,11.5846],[33.1821,10.8432],[33.1507,10.731],[33.3706,10.6509],[33.469,10.5439],[33.9021,10.192],[33.9668,10.0473],[33.9691,9.8383],[33.9049,9.7107],[33.8777,9.5434],[33.9009,9.4553],[34.0707,9.4546],[34.0982,9.6797],[34.2219,10.026],[34.3035,10.1135],[34.3249,10.2687],[34.2795,10.5655],[34.4373,10.7957],[34.5871,10.8793],[34.7507,10.7439],[34.8385,10.7291],[34.9338,10.8453],[34.9143,10.964],[34.9803,11.1553],[34.9471,11.2749],[35.0731,11.549],[35.0482,11.7714],[35.1486,11.8712]]]}},{"type":"Feature","properties":{"sourceId":"1159309213","regionId":"region.d75c7455-e20d-4f60-b8a4-bc4737df496e","countryId":"country.jg9ci8"},"geometry":{"type":"Polygon","coordinates":[[[35.2484,11.9579],[35.3174,12.0237],[35.3537,12.146],[35.6169,12.5752],[35.7014,12.6654],[35.3675,12.7392],[34.9482,12.9899],[34.7614,13.1763],[34.6154,13.239],[34.4233,13.3609],[34.263,13.6081],[34.3035,13.731],[34.139,13.7612],[33.9817,14.0247],[33.7585,14.0502],[33.6799,14.0954],[33.5768,14.0665],[33.432,13.9388],[33.3528,13.9297],[33.2691,14.029],[33.1468,14.0454],[33.0792,13.9953],[32.9848,13.774],[32.8392,13.7894],[32.8031,13.6411],[32.8651,13.5702],[32.9115,13.2038],[33.0883,12.9223],[33.075,12.6629],[33.2092,12.2104],[33.3478,12.2566],[33.5087,12.2335],[34.2343,12.6743],[34.3625,12.7305],[34.4705,12.7051],[34.5541,12.6261],[34.7746,12.2865],[34.8969,12.1406],[35.1042,11.9609],[35.1486,11.8712],[35.2484,11.9579]]]}},{"type":"Feature","properties":{"sourceId":"1159309209","regionId":"region.ed2efb0c-d2df-4f89-b3db-5f39e0a0a29f","countryId":"country.jg9ci8"},"geometry":{"type":"Polygon","coordinates":[[[31.4947,21.9954],[31.4906,22.1482],[31.4041,22.2238],[31.3144,22.1023],[31.2484,21.9944],[30.4315,21.9945],[29.4582,21.9946],[28.2903,21.9948],[27.317,21.9949],[26.3438,21.9951],[24.9812,21.9954],[24.9809,20.8741],[24.9805,20.0084],[25.0002,20.0001],[27.4823,20.0001],[27.4964,16.6788],[31.062,16.5623],[31.4085,16.5931],[31.6024,16.5388],[31.8519,16.6711],[32.5761,17.6687],[32.6855,17.8649],[32.6671,17.9928],[32.5647,18.2631],[32.582,18.6856],[32.167,18.9187],[32.5245,21.9954],[31.4947,21.9954]]]}},{"type":"Feature","properties":{"sourceId":"1159309207","regionId":"region.dfbe9842-36ba-41e7-b69f-3684a5721613","countryId":"country.jg9ci8"},"geometry":{"type":"Polygon","coordinates":[[[32.5245,21.9954],[32.167,18.9187],[32.582,18.6856],[32.5647,18.2631],[32.6671,17.9928],[32.6855,17.8649],[32.5761,17.6687],[31.8519,16.6711],[32.0183,16.4594],[32.114,16.4016],[32.6397,16.3197],[33.0043,16.1355],[33.4987,16.0078],[33.7076,15.9178],[33.8816,15.9289],[34.0487,15.9955],[34.1963,16.0173],[34.4871,16.4192],[34.5709,16.4396],[35.2516,16.4394],[35.4077,16.4762],[35.6192,16.6326],[35.6727,16.8518],[35.6563,17.1774],[35.1632,17.4956],[35.0118,17.6976],[34.8814,17.9405],[34.7071,18.1141],[34.4753,18.2459],[34.119,18.3844],[33.6471,19.4667],[33.6963,19.6352],[33.6797,19.8448],[33.6316,19.9967],[33.6264,20.1299],[33.6817,20.317],[33.6588,20.5297],[33.5484,20.7345],[33.4248,20.7946],[33.2727,20.9454],[33.2901,21.1726],[33.3427,21.2558],[33.3301,21.4352],[33.273,21.4969],[33.5553,21.7106],[33.1598,21.9954],[32.5245,21.9954]]]}},{"type":"Feature","properties":{"sourceId":"1159309217","regionId":"region.bd1040cf-8257-4ed2-b393-793d1668bfe5","countryId":"country.jg9ci8"},"geometry":{"type":"Polygon","coordinates":[[[24.9805,20.0084],[24.968,19.995],[23.9813,19.9954],[23.9813,19.4961],[23.9821,18.567],[23.9828,17.8702],[23.9835,16.9411],[23.9844,15.7219],[24.0001,15.6987],[23.9372,15.3657],[23.9614,15.0519],[24.073,14.9192],[24.1298,14.8004],[24.1504,14.6288],[24.1268,14.5563],[23.9152,14.2116],[23.5945,13.8679],[23.5237,13.7429],[23.4894,13.5957],[23.5232,13.5567],[23.6347,13.548],[23.7817,13.4562],[23.963,13.389],[24.0803,13.4038],[24.4021,13.5546],[24.5171,13.5653],[24.5919,13.4782],[24.3908,13.2539],[24.3554,13.1629],[24.4322,13.1122],[24.6164,13.0994],[24.9213,13.0558],[25.2448,13.0643],[25.3943,13.0203],[25.5823,12.8519],[25.7658,12.7509],[25.9841,12.5768],[25.8933,12.466],[25.8927,12.3696],[26.0393,12.2342],[26.1385,12.0817],[26.2268,12.0184],[26.4268,11.999],[26.575,11.8792],[26.6591,11.8489],[27.0506,11.854],[27.1917,11.8273],[27.0552,12.1029],[27.018,12.3721],[27.109,12.621],[27.1127,12.8781],[27.1443,12.9532],[27.3611,13.2501],[27.3687,13.339],[27.5065,13.5219],[27.5226,13.6068],[27.4424,13.7726],[27.484,14.0013],[27.3349,14.4137],[27.2277,14.7464],[27.1305,14.8761],[26.9165,16.6471],[26.937,16.6727],[27.4964,16.6788],[27.4823,20.0001],[25.0002,20.0001],[24.9805,20.0084]]]}},{"type":"Feature","properties":{"sourceId":"1159309195","regionId":"region.16aa74a5-5632-4354-a3c0-9efdad62c5db","countryId":"country.jg9ci8"},"geometry":{"type":"Polygon","coordinates":[[[23.9844,15.7219],[23.5927,15.749],[23.3206,15.6813],[23.1192,15.7072],[22.9257,15.5639],[22.9068,15.4814],[22.9665,15.4048],[22.9657,15.2239],[22.9055,15.1126],[22.7389,14.9798],[22.6508,14.8162],[22.6663,14.6817],[22.4654,14.6293],[22.3635,14.5435],[22.4249,14.4704],[22.441,14.2499],[22.5319,14.2206],[22.5315,14.1226],[22.2435,13.9754],[22.1808,13.9206],[22.0737,13.7714],[22.1959,13.5805],[22.2676,13.3346],[22.14,13.1935],[22.0161,13.1402],[21.9351,13.0592],[21.8094,12.7937],[21.936,12.6395],[22.0587,12.6367],[22.2049,12.7434],[22.4457,12.6111],[22.3728,12.4631],[22.4814,12.1767],[22.4581,12.0304],[22.6124,12.0728],[22.6814,12.2753],[22.6263,12.6338],[22.9021,12.9372],[23.2146,13.3876],[23.4076,13.4335],[23.5232,13.5567],[23.4894,13.5957],[23.5237,13.7429],[23.5945,13.8679],[23.9152,14.2116],[24.1268,14.5563],[24.1504,14.6288],[24.1298,14.8004],[24.073,14.9192],[23.9614,15.0519],[23.9372,15.3657],[24.0001,15.6987],[23.9844,15.7219]]]}},{"type":"Feature","properties":{"sourceId":"1159308281","regionId":"region.fc84d778-b08c-456b-8cd1-0d1c00740870","countryId":"country.jg9ci8"},"geometry":{"type":"Polygon","coordinates":[[[38.6016,18.0048],[38.5428,18.1184],[38.4504,18.1324],[38.2454,18.2439],[38.1517,18.2493],[38.0382,18.4611],[37.9255,18.585],[37.8128,18.6156],[37.6747,18.741],[37.551,18.7099],[37.4343,18.8617],[37.3335,19.1597],[37.2858,19.4753],[37.2383,19.6553],[37.2595,19.8207],[37.1961,19.9792],[37.2249,20.1195],[37.1751,20.3492],[37.228,20.565],[37.1691,20.7464],[37.1473,20.9409],[37.0867,21.0571],[37.1486,21.171],[37.1136,21.2781],[36.9841,21.4658],[36.8968,21.6779],[36.8836,21.9957],[35.4864,21.9956],[34.3231,21.9955],[33.1598,21.9954],[33.5553,21.7106],[33.273,21.4969],[33.3301,21.4352],[33.3427,21.2558],[33.2901,21.1726],[33.2727,20.9454],[33.4248,20.7946],[33.5484,20.7345],[33.6588,20.5297],[33.6817,20.317],[33.6264,20.1299],[33.6316,19.9967],[33.6797,19.8448],[33.6963,19.6352],[33.6471,19.4667],[34.119,18.3844],[34.4753,18.2459],[34.7071,18.1141],[34.8814,17.9405],[35.0118,17.6976],[35.1632,17.4956],[35.6563,17.1774],[36.0588,16.9892],[36.9734,17.0621],[37.134,17.0164],[37.3098,17.0553],[37.4034,17.0299],[37.501,17.1951],[37.5068,17.3185],[37.7204,17.3839],[37.7989,17.4771],[37.872,17.4373],[38.0144,17.5393],[38.1606,17.5573],[38.3437,17.6559],[38.4593,17.8907],[38.6016,18.0048]]]}},{"type":"Feature","properties":{"sourceId":"1159309223","regionId":"region.d2b0c623-7214-4248-ade0-efbbd09d2d57","countryId":"country.jg9ci8"},"geometry":{"type":"Polygon","coordinates":[[[36.9273,16.4354],[36.8773,16.5273],[36.9014,16.6557],[36.985,16.7657],[36.9734,17.0621],[36.0588,16.9892],[35.6563,17.1774],[35.6727,16.8518],[35.6192,16.6326],[35.4077,16.4762],[35.2516,16.4394],[34.5709,16.4396],[34.4871,16.4192],[34.1963,16.0173],[34.2267,15.8716],[34.3622,15.5774],[34.6246,15.5026],[34.8399,15.3854],[34.995,15.2119],[35.1306,14.8879],[35.3589,14.641],[35.5098,14.6119],[35.9771,14.7778],[36.0574,14.7927],[36.4622,14.7938],[36.4236,15.1115],[36.5249,15.2479],[36.671,15.7231],[36.7595,15.8375],[36.8859,16.1849],[36.944,16.2529],[36.9273,16.4354]]]}},{"type":"Feature","properties":{"sourceId":"1159309211","regionId":"region.bbc035e9-3765-464c-9f7e-cc2994147146","countryId":"country.jg9ci8"},"geometry":{"type":"Polygon","coordinates":[[[33.2092,12.2104],[33.075,12.6629],[33.0883,12.9223],[32.9115,13.2038],[32.8651,13.5702],[32.8031,13.6411],[32.7113,13.5425],[32.6407,13.573],[32.6306,13.8181],[32.454,14.1378],[32.4213,14.2642],[32.5435,14.5245],[32.6554,14.647],[32.6554,14.9262],[32.5461,15.0365],[32.6483,15.0789],[32.6148,15.1935],[32.3982,15.1787],[32.3078,15.2093],[31.9871,15.077],[31.9647,14.9953],[31.8426,14.9089],[31.736,14.6821],[31.5604,14.544],[31.5177,14.3436],[31.535,14.1189],[31.5878,13.9807],[31.7098,13.9003],[31.8526,13.6371],[31.9404,13.547],[32.0489,13.5032],[32.0489,13.2783],[31.7672,13.0863],[31.6428,12.965],[31.6895,12.5926],[31.7517,12.2219],[31.9272,12.1693],[32.0822,11.9998],[32.7467,12.0027],[32.7318,12.2162],[33.2092,12.2104]]]}},{"type":"Feature","properties":{"sourceId":"1159309219","regionId":"region.46b7b6ae-b784-45ee-a646-6d4305e88eb2","countryId":"country.jg9ci8"},"geometry":{"type":"Polygon","coordinates":[[[32.0822,11.9998],[31.9272,12.1693],[31.7517,12.2219],[31.6895,12.5926],[31.4935,12.6964],[31.3015,12.6272],[31.1161,12.6128],[31.0106,12.4687],[30.8435,12.3729],[30.731,12.2757],[30.6188,12.2916],[30.4659,12.4691],[30.3416,12.5094],[30.0816,12.4988],[30.0156,12.548],[29.9814,12.7193],[29.8424,12.7282],[29.7695,12.6852],[29.5001,12.2814],[29.2448,12.2984],[28.9764,12.4879],[28.8817,12.4773],[28.6922,12.2774],[28.6238,12.0406],[28.5343,11.9353],[28.3186,11.909],[28.2344,11.9458],[28.0291,11.9458],[27.8923,11.6459],[27.645,11.4038],[27.4766,11.3407],[27.3713,11.3407],[27.2249,11.4227],[27.2416,11.2627],[27.3062,11],[27.6573,10.1426],[27.676,10.0609],[27.8951,9.5954],[28.0451,9.3314],[28.8438,9.3245],[28.8287,9.4275],[29.0095,9.6032],[29.2524,9.7112],[29.4831,9.7617],[29.6139,9.9145],[29.6154,10.0581],[30.013,10.2705],[30.4846,9.972],[30.7493,9.7358],[30.9499,9.7524],[31.1644,9.764],[31.2348,9.7923],[31.6648,10.2142],[31.8642,10.4721],[31.9429,10.6556],[32.4141,11.0509],[32.4354,11.107],[32.3642,11.24],[32.3457,11.4116],[32.3452,11.7091],[32.0822,11.9998]]]}},{"type":"Feature","properties":{"sourceId":"1159317841","regionId":"region.5b7004a7-8c7b-4b44-875a-63d49edc9caa","countryId":"country.jg9ci8"},"geometry":{"type":"Polygon","coordinates":[[[26.1023,9.9882],[26.1795,9.959],[26.5569,9.5205],[26.6943,9.4769],[27.0804,9.6068],[27.3392,9.6128],[27.8951,9.5954],[27.676,10.0609],[27.6573,10.1426],[27.3062,11],[27.2416,11.2627],[27.2249,11.4227],[27.2244,11.6644],[27.1917,11.8273],[27.0506,11.854],[26.6591,11.8489],[26.575,11.8792],[26.4268,11.999],[26.2268,12.0184],[26.1385,12.0817],[26.0393,12.2342],[25.8927,12.3696],[25.8933,12.466],[25.9841,12.5768],[25.7658,12.7509],[25.5823,12.8519],[25.3943,13.0203],[25.2448,13.0643],[25.3012,12.6798],[25.2829,12.404],[25.1817,12.2661],[25.1909,11.5859],[25.4391,11.3193],[25.6046,11.1814],[25.7517,10.8046],[25.8436,10.5288],[25.8393,10.4206],[25.8949,10.3458],[25.9009,10.1911],[26.0167,10.1149],[26.1023,9.9882]]]}},{"type":"Feature","properties":{"sourceId":"1159309203","regionId":"region.fde453fe-2ce4-4077-a4d1-fa544c1b942c","countryId":"country.jg9ci8"},"geometry":{"type":"Polygon","coordinates":[[[33.5441,15.432],[33.2223,15.3959],[33.1088,15.3192],[32.8633,15.3039],[32.6484,15.2429],[32.6148,15.1935],[32.6483,15.0789],[32.5461,15.0365],[32.6554,14.9262],[32.6554,14.647],[32.5435,14.5245],[32.4213,14.2642],[32.454,14.1378],[32.6306,13.8181],[32.6407,13.573],[32.7113,13.5425],[32.8031,13.6411],[32.8392,13.7894],[32.9848,13.774],[33.0792,13.9953],[33.1468,14.0454],[33.2691,14.029],[33.3528,13.9297],[33.432,13.9388],[33.5768,14.0665],[33.6799,14.0954],[33.7585,14.0502],[33.9817,14.0247],[33.9078,14.1625],[34.2512,14.7608],[34.2415,14.8202],[34.0982,15.0205],[34.0225,15.171],[33.8585,15.2537],[33.6642,15.3175],[33.5441,15.432]]]}},{"type":"Feature","properties":{"sourceId":"1159309201","regionId":"region.0fdb02c0-6187-4081-be26-e42e80639d1f","countryId":"country.jg9ci8"},"geometry":{"type":"Polygon","coordinates":[[[33.5441,15.432],[33.6799,15.6461],[33.7956,15.7066],[34.0188,15.6305],[34.3622,15.5774],[34.2267,15.8716],[34.1963,16.0173],[34.0487,15.9955],[33.8816,15.9289],[33.7076,15.9178],[33.4987,16.0078],[33.0043,16.1355],[32.6397,16.3197],[32.114,16.4016],[32.0183,16.4594],[31.8519,16.6711],[31.6024,16.5388],[31.8516,15.9964],[32.005,15.7996],[32.2216,15.4415],[32.3078,15.2093],[32.3982,15.1787],[32.6148,15.1935],[32.6484,15.2429],[32.8633,15.3039],[33.1088,15.3192],[33.2223,15.3959],[33.5441,15.432]]]}},{"type":"Feature","properties":{"sourceId":"1159309221","regionId":"region.1f5c6563-e0c5-435f-b165-751ab5639b2c","countryId":"country.jg9ci8"},"geometry":{"type":"Polygon","coordinates":[[[27.2249,11.4227],[27.3713,11.3407],[27.4766,11.3407],[27.645,11.4038],[27.8923,11.6459],[28.0291,11.9458],[28.2344,11.9458],[28.3186,11.909],[28.5343,11.9353],[28.6238,12.0406],[28.6922,12.2774],[28.8817,12.4773],[28.9764,12.4879],[29.2448,12.2984],[29.5001,12.2814],[29.7695,12.6852],[29.8424,12.7282],[29.9814,12.7193],[30.0156,12.548],[30.0816,12.4988],[30.3416,12.5094],[30.4659,12.4691],[30.6188,12.2916],[30.731,12.2757],[30.8435,12.3729],[31.0106,12.4687],[31.1161,12.6128],[31.3015,12.6272],[31.4935,12.6964],[31.6895,12.5926],[31.6428,12.965],[31.7672,13.0863],[32.0489,13.2783],[32.0489,13.5032],[31.9404,13.547],[31.8526,13.6371],[31.7098,13.9003],[31.5878,13.9807],[31.535,14.1189],[31.5177,14.3436],[31.5604,14.544],[31.736,14.6821],[31.8426,14.9089],[31.9647,14.9953],[31.9871,15.077],[32.3078,15.2093],[32.2216,15.4415],[32.005,15.7996],[31.8516,15.9964],[31.6024,16.5388],[31.4085,16.5931],[31.062,16.5623],[27.4964,16.6788],[26.937,16.6727],[26.9165,16.6471],[27.1305,14.8761],[27.2277,14.7464],[27.3349,14.4137],[27.484,14.0013],[27.4424,13.7726],[27.5226,13.6068],[27.5065,13.5219],[27.3687,13.339],[27.3611,13.2501],[27.1443,12.9532],[27.1127,12.8781],[27.109,12.621],[27.018,12.3721],[27.0552,12.1029],[27.1917,11.8273],[27.2244,11.6644],[27.2249,11.4227]]]}}]}