{"type":"FeatureCollection","features":[{"type":"Feature","properties":{"sourceId":"1159309273","regionId":"region.9df158d0-5051-4813-b4bd-432e95330794","countryId":"country.hs6fyh"},"geometry":{"type":"Polygon","coordinates":[[[83.655,29.1604],[83.5171,29.1917],[83.328,29.485],[83.1621,29.6252],[83.0329,29.6205],[82.8997,29.6884],[82.8366,29.6598],[82.5418,29.9232],[82.3944,30.0031],[82.1445,30.0694],[82.0888,30.3301],[81.779,30.358],[81.5916,30.4143],[81.4831,30.3319],[81.3875,30.3739],[81.3573,30.1736],[81.2679,30.0721],[81.423,30.0248],[81.4557,29.9125],[81.5738,29.9438],[81.7605,29.9131],[81.6964,29.6875],[81.778,29.6078],[81.7086,29.468],[81.7238,29.3489],[81.5341,29.3532],[81.4737,29.2952],[81.4852,29.1689],[81.5486,29.1257],[81.5743,29.0568],[81.8449,28.9812],[82.015,29.011],[82.0887,28.9831],[82.268,29.1048],[82.4004,29.0234],[82.5681,28.9852],[82.6951,28.9147],[82.7576,28.8178],[82.9247,28.8204],[83.1479,28.7371],[83.2928,28.7203],[83.4739,28.7769],[83.6097,28.9831],[83.655,29.1604]]]}},{"type":"Feature","properties":{"sourceId":"1159309277","regionId":"region.52987c11-b144-4b54-a670-4d60efd1375a","countryId":"country.hs6fyh"},"geometry":{"type":"Polygon","coordinates":[[[80.996,30.197],[80.8364,30.17],[80.8298,30.1171],[80.6541,29.9706],[80.5713,29.9469],[80.4762,29.8061],[80.369,29.7579],[80.3852,29.6048],[80.2137,29.4169],[80.2787,29.2681],[80.2331,29.1393],[80.1326,29.1102],[80.0994,28.9773],[80.0339,28.9159],[80.0731,28.8209],[80.2333,28.7327],[80.3498,28.6202],[80.5344,28.6796],[80.4927,28.9868],[80.5568,29.1251],[80.7177,29.2404],[80.7646,29.3538],[80.8856,29.4306],[80.8026,29.506],[80.7859,29.6745],[81.0383,29.7394],[81.0009,29.9223],[81.0845,30.0279],[80.996,30.197]]]}},{"type":"Feature","properties":{"sourceId":"1159309279","regionId":"region.314d3935-d5db-48e3-8e6b-418f4f2930a6","countryId":"country.hs6fyh"},"geometry":{"type":"Polygon","coordinates":[[[81.0845,30.0279],[81.0009,29.9223],[81.0383,29.7394],[80.7859,29.6745],[80.8026,29.506],[80.8856,29.4306],[80.7646,29.3538],[80.7177,29.2404],[80.5568,29.1251],[80.4927,28.9868],[80.5344,28.6796],[80.8867,28.4528],[81.0471,28.3891],[81.2719,28.6361],[81.2077,28.908],[81.4258,28.9037],[81.4101,29.024],[81.5486,29.1257],[81.4852,29.1689],[81.4737,29.2952],[81.5341,29.3532],[81.7238,29.3489],[81.7086,29.468],[81.778,29.6078],[81.6964,29.6875],[81.7605,29.9131],[81.5738,29.9438],[81.4557,29.9125],[81.423,30.0248],[81.2679,30.0721],[81.1945,30.0045],[81.0845,30.0279]]]}},{"type":"Feature","properties":{"sourceId":"1159309271","regionId":"region.e663011d-35ae-4b44-a3a6-43e61ea6eca2","countryId":"country.hs6fyh"},"geometry":{"type":"Polygon","coordinates":[[[84.2253,28.9141],[84.2314,29.026],[84.1323,29.1438],[84.0991,29.247],[83.9456,29.2918],[83.7197,29.2336],[83.655,29.1604],[83.6097,28.9831],[83.4739,28.7769],[83.2928,28.7203],[83.1479,28.7371],[83.0993,28.6481],[82.9579,28.5964],[82.8892,28.4676],[83.0891,28.2456],[83.1677,28.2585],[83.4955,28.1104],[83.5899,28.0038],[83.6709,28.0457],[83.7765,28.2619],[83.6933,28.3955],[83.8446,28.6267],[83.7954,28.6925],[83.9469,28.8225],[84.2253,28.9141]]]}},{"type":"Feature","properties":{"sourceId":"1159310445","regionId":"region.3bdada72-7be9-479b-91a6-86f3a669ab5a","countryId":"country.hs6fyh"},"geometry":{"type":"Polygon","coordinates":[[[84.2253,28.9141],[83.9469,28.8225],[83.7954,28.6925],[83.8446,28.6267],[83.6933,28.3955],[83.7765,28.2619],[83.6709,28.0457],[83.5899,28.0038],[83.8255,27.8763],[83.9925,27.906],[84.0926,27.8629],[84.2684,27.8459],[84.3212,27.7594],[84.4127,27.7582],[84.577,27.8806],[84.6547,27.8417],[84.8411,28.0902],[85.0819,28.3317],[85.0776,28.4357],[85.168,28.5832],[85.0549,28.6387],[84.9187,28.5357],[84.6778,28.6044],[84.6072,28.6982],[84.4508,28.7339],[84.354,28.8613],[84.2253,28.9141]]]}},{"type":"Feature","properties":{"sourceId":"1159309281","regionId":"region.501e0373-cac5-4522-a70f-dc9e8582cdb2","countryId":"country.hs6fyh"},"geometry":{"type":"Polygon","coordinates":[[[85.0819,28.3317],[84.8411,28.0902],[84.6547,27.8417],[84.6734,27.7411],[84.8608,27.6808],[85.0608,27.7182],[85.2022,27.6783],[85.2625,27.4897],[85.504,27.3847],[85.6828,27.3559],[85.8187,27.439],[85.8067,27.5005],[85.9957,27.7408],[86.0546,27.888],[85.9803,27.8852],[85.8483,28.1589],[85.6751,28.3064],[85.6118,28.2511],[85.4316,28.2971],[85.2596,28.2669],[85.0819,28.3317]]]}},{"type":"Feature","properties":{"sourceId":"1159309283","regionId":"region.5974fb94-7822-4aff-84af-aa0e84b5c653","countryId":"country.hs6fyh"},"geometry":{"type":"Polygon","coordinates":[[[86.5168,27.9714],[86.4388,27.9109],[86.203,28.0026],[86.156,28.1565],[86.0687,28.0768],[86.1129,27.9268],[86.0546,27.888],[85.9957,27.7408],[85.8067,27.5005],[85.8187,27.439],[85.6828,27.3559],[85.504,27.3847],[85.5003,27.1432],[85.4157,27.0176],[85.3554,26.7599],[85.5986,26.8544],[85.6878,26.8119],[85.7129,26.6532],[85.8216,26.5717],[86.0114,26.6544],[86.1464,26.6014],[86.199,26.7124],[86.1464,26.8977],[86.3551,26.9884],[86.3378,27.2269],[86.2099,27.2522],[86.2742,27.4513],[86.5897,27.7448],[86.5646,27.9137],[86.5168,27.9714]]]}},{"type":"Feature","properties":{"sourceId":"1159309289","regionId":"region.3ed09297-6770-431b-98fb-24b66dba83f2","countryId":"country.hs6fyh"},"geometry":{"type":"Polygon","coordinates":[[[86.9821,27.9507],[86.77,28.0121],[86.662,28.1068],[86.5442,28.093],[86.5168,27.9714],[86.5646,27.9137],[86.5897,27.7448],[86.2742,27.4513],[86.2099,27.2522],[86.3378,27.2269],[86.3551,26.9884],[86.1464,26.8977],[86.199,26.7124],[86.1464,26.6014],[86.2844,26.612],[86.7136,26.4146],[86.9352,26.5203],[87.0041,26.723],[87.1542,26.8367],[87.1712,26.9209],[86.9668,26.9064],[86.9162,27.1281],[86.9575,27.3267],[86.9427,27.4747],[86.9984,27.6983],[86.9821,27.9507]]]}},{"type":"Feature","properties":{"sourceId":"1159309291","regionId":"region.1066476c-faf7-4027-b3c1-506d7cd4b57c","countryId":"country.hs6fyh"},"geometry":{"type":"Polygon","coordinates":[[[87.6785,27.8134],[87.5316,27.8368],[87.3868,27.8044],[87.1558,27.8258],[86.9821,27.9507],[86.9984,27.6983],[86.9427,27.4747],[86.9575,27.3267],[86.9162,27.1281],[86.9668,26.9064],[87.1712,26.9209],[87.1542,26.8367],[87.0041,26.723],[86.9352,26.5203],[87.0413,26.5802],[87.0833,26.4321],[87.3262,26.3533],[87.3842,26.4186],[87.587,26.378],[87.6487,26.41],[87.6665,26.7405],[87.4806,26.9812],[87.6032,27.1022],[87.7019,27.1492],[87.7185,27.2368],[87.5162,27.3042],[87.4462,27.3833],[87.4795,27.5413],[87.5479,27.6772],[87.606,27.6804],[87.6785,27.8134]]]}},{"type":"Feature","properties":{"sourceId":"1159309293","regionId":"region.9ceea176-0931-4f48-b3ca-7b0453255164","countryId":"country.hs6fyh"},"geometry":{"type":"Polygon","coordinates":[[[88.1182,27.8609],[87.8259,27.9066],[87.6785,27.8134],[87.606,27.6804],[87.5479,27.6772],[87.4795,27.5413],[87.4462,27.3833],[87.5162,27.3042],[87.7185,27.2368],[87.7019,27.1492],[87.6032,27.1022],[87.4806,26.9812],[87.6665,26.7405],[87.6487,26.41],[87.8707,26.4607],[88.0066,26.3699],[88.0871,26.5391],[88.1691,26.744],[88.1553,26.8456],[88.0769,26.9918],[87.9707,27.1027],[88.0047,27.2492],[88.0351,27.3226],[88.0233,27.4949],[88.1597,27.7741],[88.1182,27.8609]]]}},{"type":"Feature","properties":{"sourceId":"1159309285","regionId":"region.08a3aceb-38b4-4330-b9d8-5831809b85f6","countryId":"country.hs6fyh"},"geometry":{"type":"Polygon","coordinates":[[[85.3554,26.7599],[85.4157,27.0176],[85.5003,27.1432],[85.504,27.3847],[85.2625,27.4897],[85.2022,27.6783],[85.0608,27.7182],[84.8608,27.6808],[84.6734,27.7411],[84.6547,27.8417],[84.577,27.8806],[84.4127,27.7582],[84.179,27.633],[84.1033,27.5368],[83.959,27.5523],[83.922,27.4497],[84.0796,27.5095],[84.2894,27.3761],[84.577,27.329],[84.6577,27.2034],[84.6402,27.0284],[84.8019,27.0138],[84.924,26.9557],[85.044,26.8437],[85.162,26.851],[85.1949,26.7589],[85.3554,26.7599]]]}},{"type":"Feature","properties":{"sourceId":"1159309275","regionId":"region.5d5fbdde-494f-4282-b70d-92909ebdd495","countryId":"country.hs6fyh"},"geometry":{"type":"Polygon","coordinates":[[[83.922,27.4497],[83.959,27.5523],[84.1033,27.5368],[84.179,27.633],[84.4127,27.7582],[84.3212,27.7594],[84.2684,27.8459],[84.0926,27.8629],[83.9925,27.906],[83.8255,27.8763],[83.5899,28.0038],[83.4955,28.1104],[83.1677,28.2585],[83.0891,28.2456],[82.9722,28.0002],[82.9932,27.9356],[82.846,27.9023],[82.6739,27.6965],[82.7521,27.495],[83.0105,27.4434],[83.1328,27.4442],[83.3049,27.3319],[83.361,27.4622],[83.5904,27.4566],[83.8533,27.3462],[83.922,27.4497]]]}},{"type":"Feature","properties":{"sourceId":"1159308411","regionId":"region.a203558f-6300-4022-a164-c77374410710","countryId":"country.hs6fyh"},"geometry":{"type":"Polygon","coordinates":[[[82.6739,27.6965],[82.846,27.9023],[82.9932,27.9356],[82.9722,28.0002],[83.0891,28.2456],[82.8892,28.4676],[82.9579,28.5964],[83.0993,28.6481],[83.1479,28.7371],[82.9247,28.8204],[82.7576,28.8178],[82.6951,28.9147],[82.5681,28.9852],[82.4842,28.8768],[82.3174,28.7696],[82.1605,28.6126],[82.0438,28.6317],[81.9639,28.442],[81.9807,28.3452],[82.095,28.2485],[82.0132,28.1598],[82.1678,28.0412],[82.1662,27.9577],[82.0502,27.9056],[82.4019,27.6772],[82.6739,27.6965]]]}},{"type":"Feature","properties":{"sourceId":"1159309267","regionId":"region.fccd458b-2caf-4b78-a5a5-fae8592ac7dc","countryId":"country.hs6fyh"},"geometry":{"type":"Polygon","coordinates":[[[82.0502,27.9056],[82.1662,27.9577],[82.1678,28.0412],[82.0132,28.1598],[82.095,28.2485],[81.9807,28.3452],[81.9639,28.442],[82.0438,28.6317],[82.1605,28.6126],[82.3174,28.7696],[82.4842,28.8768],[82.5681,28.9852],[82.4004,29.0234],[82.268,29.1048],[82.0887,28.9831],[82.015,29.011],[81.8449,28.9812],[81.5743,29.0568],[81.5486,29.1257],[81.4101,29.024],[81.4258,28.9037],[81.2077,28.908],[81.2719,28.6361],[81.0471,28.3891],[81.1904,28.3381],[81.3071,28.1238],[81.396,28.1606],[81.4582,28.0773],[81.6889,27.9632],[81.8557,27.8509],[82.0502,27.9056]]]}}]}