{"type":"FeatureCollection","features":[{"type":"Feature","properties":{"sourceId":"1159315511","regionId":"region.8aa52ea3-9001-4759-a184-aca0db6d045c","countryId":"country.b8da38ac-b364-44d1-82ea-fc39ff807e0b"},"geometry":{"type":"Polygon","coordinates":[[[6.6814,0.4071],[6.5331,0.3481],[6.4617,0.2222],[6.5164,0.0336],[6.66,0.1073],[6.7401,0.2186],[6.7461,0.3381],[6.6814,0.4071]]]}},{"type":"Feature","properties":{"sourceId":"1159315955","regionId":"region.0238dcba-839f-4964-b86f-cc3dff115f54","countryId":"country.b8da38ac-b364-44d1-82ea-fc39ff807e0b"},"geometry":{"type":"Polygon","coordinates":[[[7.4627,1.6745],[7.403,1.6998],[7.3325,1.5653],[7.4255,1.5627],[7.4627,1.6745]]]}}]}