{"type":"FeatureCollection","features":[{"type":"Feature","properties":{"sourceId":"1159309243","regionId":"region.6066e8d5-5f4d-4e50-87c5-37afb9e99d6c","countryId":"country.15217la"},"geometry":{"type":"Polygon","coordinates":[[[4.6258,13.7232],[4.8569,13.7741],[4.9251,13.7331],[5.2735,13.7525],[5.3741,13.8553],[5.5543,13.8734],[6.1204,13.6541],[6.2842,13.6677],[6.3334,13.9232],[6.5173,14.0412],[6.5305,14.1658],[6.4718,14.4148],[6.5325,14.9237],[6.6737,15.4284],[6.6143,16.0008],[6.6144,16.2012],[6.4597,16.2405],[6.3391,16.3539],[6.1205,16.8616],[6.0277,16.9639],[5.8033,17.1279],[5.2686,17.4504],[5.0939,17.6596],[4.9198,17.7983],[4.8573,17.9456],[4.7182,17.9644],[4.7368,18.0907],[4.7325,18.3516],[4.8635,18.6123],[4.7689,18.6393],[4.2303,18.6454],[4.2324,17.9752],[4.2356,16.9959],[4.182,16.8096],[4.184,16.4161],[4.0606,16.2983],[3.9712,16.0861],[3.9833,15.984],[3.9035,15.8863],[3.8738,15.7209],[4.1051,15.0895],[4.1119,14.8873],[4.2536,14.6579],[4.3432,14.5906],[4.4193,14.4397],[4.4692,14.0621],[4.5674,13.8978],[4.6258,13.7232]]]}},{"type":"Feature","properties":{"sourceId":"1159309239","regionId":"region.9f1a3f4b-4f3b-4075-955c-5eae8a257a35","countryId":"country.15217la"},"geometry":{"type":"Polygon","coordinates":[[[4.1203,13.2106],[4.1258,13.473],[4.2485,13.4941],[4.4058,13.6412],[4.6258,13.7232],[4.5674,13.8978],[4.4692,14.0621],[4.4193,14.4397],[4.3432,14.5906],[4.2536,14.6579],[4.2352,14.5388],[4.1501,14.4548],[3.9554,14.38],[3.8187,14.2649],[3.7176,14.0037],[3.5324,13.8358],[3.3333,13.7469],[3.1741,13.7979],[3.1042,13.616],[2.988,13.6034],[2.8869,13.5161],[2.8771,13.3889],[2.8198,13.264],[2.7096,13.2732],[2.476,13.1365],[2.5374,13.0012],[2.6971,12.9837],[2.6057,12.8511],[2.6316,12.5155],[2.7252,12.5339],[2.7427,12.4431],[2.8443,12.3992],[2.9368,12.3009],[3.2551,12.0188],[3.2927,11.9187],[3.5035,11.83],[3.5964,11.6958],[3.667,11.7597],[3.6039,11.9056],[3.6536,11.9868],[3.624,12.0943],[3.6515,12.269],[3.6457,12.5285],[3.9291,12.7504],[4.0888,12.9962],[4.1203,13.2106]]]}},{"type":"Feature","properties":{"sourceId":"1159309229","regionId":"region.465e4bc1-c395-41d0-b571-6994037b8795","countryId":"country.15217la"},"geometry":{"type":"Polygon","coordinates":[[[13.6073,13.7041],[13.4492,14.3801],[13.4823,14.4836],[13.6081,14.5183],[13.6483,14.6494],[13.7644,14.7191],[13.7605,14.8664],[13.8339,15.0196],[14.369,15.7496],[15.0258,16.4325],[15.4685,16.9049],[15.4902,17.1245],[15.5677,18],[13.0001,17.9995],[12.2371,17.6574],[11.9975,17.5004],[12.0001,14.6085],[11.9154,14.5641],[11.8806,14.3757],[11.7753,14.3717],[11.5241,14.2132],[11.3417,14.1575],[11.2215,14.1723],[10.8154,13.8068],[10.7965,13.7055],[10.6233,13.5296],[10.6479,13.3694],[11.44,13.3644],[11.8528,13.2454],[12.0576,13.1168],[12.2014,13.1254],[12.3867,13.0786],[12.4727,13.0642],[12.5611,13.2428],[12.6831,13.2889],[12.8838,13.496],[13.0549,13.5484],[13.2281,13.548],[13.2661,13.638],[13.36,13.7144],[13.6073,13.7041]]]}},{"type":"Feature","properties":{"sourceId":"1159309235","regionId":"region.5960a7b7-82d7-428e-9577-1684d66dd7cc","countryId":"country.15217la"},"geometry":{"type":"Polygon","coordinates":[[[6.7539,13.1749],[6.9066,13.0069],[7.0629,12.9951],[7.1982,13.1174],[7.392,13.1125],[7.7556,13.3271],[7.824,13.3453],[8.0775,13.31],[8.2467,13.2113],[8.3183,13.3612],[8.2946,13.5019],[8.3179,13.609],[8.2274,13.6619],[8.2375,13.7505],[8.5229,13.8916],[8.519,14.1106],[8.3798,14.2096],[8.357,14.2799],[8.2333,14.3707],[8.073,14.4458],[8.0156,14.5206],[7.9151,14.5149],[7.8069,14.4248],[7.7154,14.4614],[7.7026,14.6122],[7.5599,14.7189],[7.4953,14.842],[7.4637,15.0059],[7.4118,15.1051],[7.4027,15.2643],[7.3245,15.3345],[7.1241,15.4393],[6.6737,15.4284],[6.5325,14.9237],[6.4718,14.4148],[6.5305,14.1658],[6.5173,14.0412],[6.3334,13.9232],[6.2842,13.6677],[6.3689,13.6263],[6.6725,13.3212],[6.7539,13.1749]]]}},{"type":"Feature","properties":{"sourceId":"1159309237","regionId":"region.dccda607-9d7d-4c5e-b1b3-5b7db59bf9ba","countryId":"country.15217la"},"geometry":{"type":"Polygon","coordinates":[[[10.6479,13.3694],[10.6233,13.5296],[10.7965,13.7055],[10.8154,13.8068],[11.2215,14.1723],[11.3417,14.1575],[11.5241,14.2132],[11.7753,14.3717],[11.8806,14.3757],[11.9154,14.5641],[12.0001,14.6085],[11.9975,17.5004],[11.6581,17.3821],[11.2493,17.1119],[10.955,17.0269],[9.3208,16.0001],[8.9688,15.8707],[8.559,15.6502],[8.3756,15.5875],[8.0952,15.5808],[8.0165,15.5404],[7.8457,15.5385],[7.4447,15.5977],[7.3245,15.3345],[7.4027,15.2643],[7.4118,15.1051],[7.4637,15.0059],[7.4953,14.842],[7.5599,14.7189],[7.7026,14.6122],[7.7154,14.4614],[7.8069,14.4248],[7.9151,14.5149],[8.0156,14.5206],[8.073,14.4458],[8.2333,14.3707],[8.357,14.2799],[8.3798,14.2096],[8.519,14.1106],[8.5229,13.8916],[8.2375,13.7505],[8.2274,13.6619],[8.3179,13.609],[8.2946,13.5019],[8.3183,13.3612],[8.2467,13.2113],[8.3978,13.0754],[8.5335,13.0646],[8.6793,12.9236],[8.9779,12.8432],[9.2694,12.8098],[9.3779,12.8258],[9.5903,12.8014],[9.6477,12.8305],[9.9301,13.146],[10.1615,13.2672],[10.6479,13.3694]]]}},{"type":"Feature","properties":{"sourceId":"1159315951","regionId":"region.258bc615-42c1-4ce5-8091-c1eefecf1632","countryId":"country.15217la"},"geometry":{"type":"Polygon","coordinates":[[[2.8443,12.3992],[2.7427,12.4431],[2.7252,12.5339],[2.6316,12.5155],[2.6057,12.8511],[2.6971,12.9837],[2.5374,13.0012],[2.476,13.1365],[2.7096,13.2732],[2.8198,13.264],[2.8771,13.3889],[2.8869,13.5161],[2.988,13.6034],[3.1042,13.616],[3.1741,13.7979],[3.3333,13.7469],[3.5324,13.8358],[3.7176,14.0037],[3.8187,14.2649],[3.9554,14.38],[4.1501,14.4548],[4.2352,14.5388],[4.2536,14.6579],[4.1119,14.8873],[4.1051,15.0895],[3.8738,15.7209],[3.6922,15.6315],[3.5265,15.496],[3.5071,15.354],[3.073,15.4272],[3.0002,15.3391],[2.0814,15.3086],[1.3315,15.2836],[1.2709,15.2599],[0.9737,14.9913],[0.6701,14.9397],[0.5148,14.9936],[0.3532,14.9634],[0.2213,14.9959],[0.2185,14.911],[0.1841,14.8196],[0.2197,14.7312],[0.1529,14.5467],[0.2024,14.4355],[0.3888,14.2516],[0.3392,14.1258],[0.3692,14.0391],[0.4999,13.851],[0.6005,13.7687],[0.6207,13.68],[0.7534,13.6841],[0.7953,13.626],[0.951,13.5832],[1.0482,13.4419],[1.1877,13.3641],[1.1676,13.3134],[0.9835,13.3684],[0.9717,13.0858],[1.114,12.9962],[1.3048,12.8385],[1.5359,12.6475],[1.8261,12.6042],[1.9717,12.7242],[2.109,12.7056],[2.2032,12.5833],[2.245,12.4242],[2.0693,12.3833],[2.0709,12.3069],[2.3381,11.9401],[2.3902,11.8965],[2.4553,12.0087],[2.4056,12.0467],[2.3612,12.2189],[2.488,12.2804],[2.6286,12.3008],[2.8443,12.3992]],[[2.12,13.6162],[2.2764,13.5735],[2.2356,13.394],[2.0151,13.4598],[1.9765,13.5875],[2.12,13.6162]]]}},{"type":"Feature","properties":{"sourceId":"1159309231","regionId":"region.013ba82b-b2e2-4f74-965f-11a64df5ecf6","countryId":"country.15217la"},"geometry":{"type":"Polygon","coordinates":[[[11.9689,23.5174],[11.0844,22.9958],[10.4038,22.5946],[9.7233,22.1934],[8.6345,21.5515],[7.4827,20.8726],[7.0205,20.4954],[6.61,20.1429],[5.8376,19.4786],[5.7493,19.4337],[5.0828,19.306],[4.2286,19.1422],[4.2303,18.6454],[4.7689,18.6393],[4.8635,18.6123],[4.7325,18.3516],[4.7368,18.0907],[4.7182,17.9644],[4.8573,17.9456],[4.9198,17.7983],[5.0939,17.6596],[5.2686,17.4504],[5.8033,17.1279],[6.0277,16.9639],[6.1205,16.8616],[6.3391,16.3539],[6.4597,16.2405],[6.6144,16.2012],[6.6143,16.0008],[6.6737,15.4284],[7.1241,15.4393],[7.3245,15.3345],[7.4447,15.5977],[7.8457,15.5385],[8.0165,15.5404],[8.0952,15.5808],[8.3756,15.5875],[8.559,15.6502],[8.9688,15.8707],[9.3208,16.0001],[10.955,17.0269],[11.2493,17.1119],[11.6581,17.3821],[11.9975,17.5004],[12.2371,17.6574],[13.0001,17.9995],[15.5677,18],[15.6516,18.9494],[15.736,19.9035],[15.963,20.3192],[15.954,20.3746],[15.5442,20.799],[15.6093,20.9507],[15.301,21.4013],[15.1804,21.5073],[15.172,21.9934],[14.9799,22.9957],[14.2317,22.6179],[14.2016,22.6232],[13.5996,23.119],[13.4823,23.1797],[12.8512,23.3205],[11.9689,23.5174]]]}},{"type":"Feature","properties":{"sourceId":"1159309241","regionId":"region.8a4cfe02-3402-4a48-80f7-eec75d5e4e7d","countryId":"country.15217la"},"geometry":{"type":"Polygon","coordinates":[[[2.12,13.6162],[1.9765,13.5875],[2.0151,13.4598],[2.2356,13.394],[2.2764,13.5735],[2.12,13.6162]]]}}]}