{"type":"FeatureCollection","features":[{"type":"Feature","properties":{"sourceId":"1159317685","regionId":"region.cf3fdfca-ac0d-41f7-8827-2567d15b6eef","countryId":"country.nusos0"},"geometry":{"type":"Polygon","coordinates":[[[25.4197,58.0083],[25.2021,57.992],[25.0942,58.0673],[25.1344,57.9302],[25.2456,57.8003],[25.4554,57.7893],[25.2612,57.9381],[25.4197,58.0083]]]}},{"type":"Feature","properties":{"sourceId":"1159317683","regionId":"region.0b483a75-a4bb-4a9c-9cae-fc38278a0e34","countryId":"country.nusos0"},"geometry":{"type":"Polygon","coordinates":[[[25.0349,58.0486],[24.8274,57.9819],[24.8957,57.8312],[25.0175,57.7965],[25.2456,57.8003],[25.1344,57.9302],[25.0942,58.0673],[25.0349,58.0486]]]}},{"type":"Feature","properties":{"sourceId":"1159317655","regionId":"region.3e2fbb99-3f9e-4e2e-a787-c39d0e40f2b0","countryId":"country.nusos0"},"geometry":{"type":"Polygon","coordinates":[[[24.8274,57.9819],[24.5824,57.946],[24.6492,57.7707],[24.8286,57.7192],[24.8814,57.6247],[25.0937,57.6531],[25.0175,57.7965],[24.8957,57.8312],[24.8274,57.9819]]]}},{"type":"Feature","properties":{"sourceId":"1159317687","regionId":"region.e8779cf1-64d5-45e6-9592-4f4bf89fd6b6","countryId":"country.nusos0"},"geometry":{"type":"Polygon","coordinates":[[[25.5518,57.9499],[25.4197,58.0083],[25.2612,57.9381],[25.4554,57.7893],[25.5529,57.7924],[25.4663,57.8598],[25.7038,57.9213],[25.5518,57.9499]]]}},{"type":"Feature","properties":{"sourceId":"1159317653","regionId":"region.1838d5ed-17db-49c5-8030-3dd1ff6f732d","countryId":"country.nusos0"},"geometry":{"type":"Polygon","coordinates":[[[24.5824,57.946],[24.3062,57.8682],[24.3949,57.4],[24.5783,57.4647],[24.4183,57.6706],[24.5644,57.6733],[24.6492,57.7707],[24.5824,57.946]]]}},{"type":"Feature","properties":{"sourceId":"1159317713","regionId":"region.e1201309-2671-4795-aa19-9c53747bd9ea","countryId":"country.nusos0"},"geometry":{"type":"Polygon","coordinates":[[[26.4307,57.5618],[26.3513,57.5802],[26.3115,57.4993],[26.2762,57.331],[26.5942,57.3913],[26.7035,57.424],[26.7958,57.5713],[26.4996,57.5158],[26.4307,57.5618]]]}},{"type":"Feature","properties":{"sourceId":"1159311067","regionId":"region.afe7bfdd-1c2f-4049-9b2a-da176623e639","countryId":"country.nusos0"},"geometry":{"type":"Polygon","coordinates":[[[26.3513,57.5802],[26.0247,57.7744],[26.0027,57.846],[25.7926,57.856],[25.7038,57.9213],[25.4663,57.8598],[25.5529,57.7924],[25.6887,57.7377],[25.8474,57.7524],[25.9451,57.5301],[26.1234,57.5692],[26.3115,57.4993],[26.3513,57.5802]]]}},{"type":"Feature","properties":{"sourceId":"1159311065","regionId":"region.fb8abc7f-60f0-4901-a06f-a4e184b2d0d2","countryId":"country.nusos0"},"geometry":{"type":"Polygon","coordinates":[[[27.3529,57.5276],[27.0615,57.5557],[26.9466,57.6153],[26.7958,57.5713],[26.7035,57.424],[26.5942,57.3913],[26.7148,57.3065],[26.9885,57.3044],[27.1566,57.2264],[27.4871,57.2739],[27.6944,57.3564],[27.5113,57.4304],[27.5282,57.5285],[27.3529,57.5276]]]}},{"type":"Feature","properties":{"sourceId":"1159317731","regionId":"region.b3a25953-4028-4ff1-818a-308797258acc","countryId":"country.nusos0"},"geometry":{"type":"Polygon","coordinates":[[[27.6944,57.3564],[27.4871,57.2739],[27.4029,57.1597],[27.6376,57.0184],[27.7458,57.0315],[27.8403,57.2906],[27.6944,57.3564]]]}},{"type":"Feature","properties":{"sourceId":"1159317733","regionId":"region.aaf7e7b3-c126-4e4f-8d53-880fdbf55aa9","countryId":"country.nusos0"},"geometry":{"type":"Polygon","coordinates":[[[27.7458,57.0315],[27.6376,57.0184],[27.4166,56.9022],[27.4467,56.8527],[27.6444,56.8418],[27.7458,57.0315]]]}},{"type":"Feature","properties":{"sourceId":"1159317735","regionId":"region.04ee1155-4d64-4aa3-840c-cdbd9227c8d3","countryId":"country.nusos0"},"geometry":{"type":"Polygon","coordinates":[[[27.6444,56.8418],[27.4467,56.8527],[27.3399,56.7827],[27.5802,56.6194],[27.6445,56.6864],[27.8655,56.7427],[27.7864,56.8713],[27.6444,56.8418]]]}},{"type":"Feature","properties":{"sourceId":"1159317737","regionId":"region.6b671364-1264-45b1-9d39-0b392014ae3c","countryId":"country.nusos0"},"geometry":{"type":"Polygon","coordinates":[[[27.8655,56.7427],[27.6445,56.6864],[27.5802,56.6194],[27.5611,56.5759],[27.8127,56.5518],[27.9189,56.4819],[28.0933,56.5016],[27.981,56.687],[27.8655,56.7427]]]}},{"type":"Feature","properties":{"sourceId":"1159311059","regionId":"region.dbafeaf3-6a24-44fb-8a7f-38656b67e894","countryId":"country.nusos0"},"geometry":{"type":"Polygon","coordinates":[[[28.0933,56.5016],[27.9189,56.4819],[27.8127,56.5518],[27.5611,56.5759],[27.4871,56.4995],[27.6899,56.3606],[27.6676,56.2402],[27.8529,56.1819],[28.0704,56.2085],[28.1208,56.2748],[27.9551,56.3783],[28.1679,56.4271],[28.0933,56.5016]]]}},{"type":"Feature","properties":{"sourceId":"1159317739","regionId":"region.a0183fa8-763b-420e-8da2-f9a497d761e2","countryId":"country.nusos0"},"geometry":{"type":"Polygon","coordinates":[[[28.1679,56.4271],[27.9551,56.3783],[28.1208,56.2748],[28.0704,56.2085],[28.0511,56.1407],[28.1489,56.1424],[28.2148,56.2814],[28.1679,56.4271]]]}},{"type":"Feature","properties":{"sourceId":"1159311071","regionId":"region.847a10ea-c757-44f1-8f71-53c7f2ea2f21","countryId":"country.nusos0"},"geometry":{"type":"Polygon","coordinates":[[[25.3491,56.1599],[25.2936,56.4079],[25.0743,56.4027],[25.0135,56.4957],[24.871,56.4426],[25.0731,56.1978],[25.3491,56.1599]]]}},{"type":"Feature","properties":{"sourceId":"1159317609","regionId":"region.cb9ba7c2-0e12-4041-aaf0-45910e634ebc","countryId":"country.nusos0"},"geometry":{"type":"Polygon","coordinates":[[[25.3491,56.1599],[25.6497,56.1438],[25.6938,56.2286],[25.7339,56.351],[25.5946,56.4671],[25.2936,56.4079],[25.3491,56.1599]]]}},{"type":"Feature","properties":{"sourceId":"1159317613","regionId":"region.28927098-efa8-449d-97e9-9b2a5b848fff","countryId":"country.nusos0"},"geometry":{"type":"Polygon","coordinates":[[[24.871,56.4426],[25.0135,56.4957],[24.95,56.5786],[24.7325,56.5442],[24.5219,56.7136],[24.3554,56.6616],[24.3806,56.5296],[24.5129,56.4545],[24.5728,56.3098],[24.871,56.4426]]]}},{"type":"Feature","properties":{"sourceId":"1159311063","regionId":"region.26d7262a-e9ac-44e1-b40d-8db19fc3539b","countryId":"country.nusos0"},"geometry":{"type":"Polygon","coordinates":[[[21.9832,56.3884],[22.5782,56.387],[22.6814,56.3503],[22.8596,56.3971],[22.7266,56.4245],[22.7121,56.5654],[22.5497,56.5791],[22.4422,56.7711],[22.4909,56.8515],[22.4549,56.9171],[22.1627,56.795],[22.1261,56.5822],[21.9667,56.5066],[21.9832,56.3884]]]}},{"type":"Feature","properties":{"sourceId":"1159317587","regionId":"region.8d531793-bbe6-4dd6-a7f3-be716281f62b","countryId":"country.nusos0"},"geometry":{"type":"Polygon","coordinates":[[[21.4855,56.2658],[21.3799,56.3282],[21.2263,56.3517],[21.0558,56.1683],[20.971,56.2597],[21.0534,56.0726],[21.1904,56.0845],[21.3276,56.2244],[21.4855,56.2658]]]}},{"type":"Feature","properties":{"sourceId":"1159317579","regionId":"region.9dedb05f-8cab-4d6c-b0a1-ec04426d763c","countryId":"country.nusos0"},"geometry":{"type":"Polygon","coordinates":[[[21.7365,56.3237],[21.6655,56.4178],[21.7124,56.55],[21.5717,56.5606],[21.3543,56.503],[21.4374,56.4071],[21.3799,56.3282],[21.4855,56.2658],[21.7365,56.3237]]]}},{"type":"Feature","properties":{"sourceId":"1159317575","regionId":"region.ecb1d170-ad09-4556-b0bf-daeeaa7c1d34","countryId":"country.nusos0"},"geometry":{"type":"Polygon","coordinates":[[[21.9653,56.3837],[21.9832,56.3884],[21.9667,56.5066],[21.7954,56.5733],[21.7124,56.55],[21.6655,56.4178],[21.7365,56.3237],[21.9653,56.3837]]]}},{"type":"Feature","properties":{"sourceId":"1159317625","regionId":"region.f3b9be3d-3bb4-44e2-ab70-a3c61560358c","countryId":"country.nusos0"},"geometry":{"type":"Polygon","coordinates":[[[22.8596,56.3971],[23.0167,56.3239],[23.1726,56.358],[23.1488,56.4331],[23.088,56.5457],[22.9611,56.6012],[22.7981,56.5683],[22.7121,56.5654],[22.7266,56.4245],[22.8596,56.3971]]]}},{"type":"Feature","properties":{"sourceId":"1159311073","regionId":"region.b49ecd47-1186-42ca-84f7-62ddf4eb5126","countryId":"country.nusos0"},"geometry":{"type":"Polygon","coordinates":[[[24.5728,56.3098],[24.5129,56.4545],[24.3806,56.5296],[24.0789,56.5355],[24.0177,56.502],[24.091,56.383],[23.9813,56.3124],[24.1404,56.2576],[24.2876,56.2955],[24.4472,56.2605],[24.5728,56.3098]]]}},{"type":"Feature","properties":{"sourceId":"1159317623","regionId":"region.1fe574ff-b599-4e10-813e-368fe5838de0","countryId":"country.nusos0"},"geometry":{"type":"Polygon","coordinates":[[[23.378,56.3546],[23.4151,56.4933],[23.1488,56.4331],[23.1726,56.358],[23.378,56.3546]]]}},{"type":"Feature","properties":{"sourceId":"1159311083","regionId":"region.aa1eca77-a74b-4afa-bc96-82b175e0a6f2","countryId":"country.nusos0"},"geometry":{"type":"Polygon","coordinates":[[[23.378,56.3546],[23.8711,56.3321],[23.8407,56.4342],[23.9923,56.5025],[23.7919,56.6469],[23.7076,56.5919],[23.618,56.6695],[23.7312,56.6905],[23.7563,56.7441],[23.7696,56.8],[23.5068,56.8946],[23.4866,56.8159],[23.4174,56.7068],[23.4151,56.4933],[23.378,56.3546]]]}},{"type":"Feature","properties":{"sourceId":"1159317619","regionId":"region.e04f9c98-545b-41db-9784-226f8fd8f3bf","countryId":"country.nusos0"},"geometry":{"type":"Polygon","coordinates":[[[23.9813,56.3124],[24.091,56.383],[24.0177,56.502],[23.9923,56.5025],[23.8407,56.4342],[23.8711,56.3321],[23.9813,56.3124]]]}},{"type":"Feature","properties":{"sourceId":"1159317611","regionId":"region.134057e1-7844-44ae-ab5c-715a9bc29f6b","countryId":"country.nusos0"},"geometry":{"type":"Polygon","coordinates":[[[25.7955,56.0401],[26.0255,56.0794],[25.8764,56.2219],[25.6938,56.2286],[25.6497,56.1438],[25.7955,56.0401]]]}},{"type":"Feature","properties":{"sourceId":"1159317745","regionId":"region.bbbc0fd4-bd76-4ea0-a2b1-f9ad392fee0c","countryId":"country.nusos0"},"geometry":{"type":"Polygon","coordinates":[[[25.9613,55.9585],[26.2269,55.7969],[26.2915,55.9406],[26.393,55.9777],[26.3453,56.0935],[26.2058,56.1636],[26.0255,56.0794],[25.7955,56.0401],[25.9613,55.9585]]]}},{"type":"Feature","properties":{"sourceId":"1159311077","regionId":"region.4e3b51ca-4dbd-42cc-8a83-9223941d4c6d","countryId":"country.nusos0"},"geometry":{"type":"Polygon","coordinates":[[[26.5945,55.667],[26.8228,55.7061],[26.9794,55.8263],[26.9677,56.0078],[26.8885,56.1289],[26.6479,56.1353],[26.3354,56.1897],[26.3008,56.1833],[26.3453,56.0935],[26.393,55.9777],[26.2915,55.9406],[26.2269,55.7969],[26.2797,55.7432],[26.5945,55.667]],[[26.5184,55.8266],[26.4719,55.9332],[26.6319,55.8974],[26.5184,55.8266]]]}},{"type":"Feature","properties":{"sourceId":"1159317741","regionId":"region.cc15fb56-ff6d-4b1c-b39e-9adc271347d4","countryId":"country.nusos0"},"geometry":{"type":"Polygon","coordinates":[[[28.0511,56.1407],[28.0704,56.2085],[27.8529,56.1819],[27.6676,56.2402],[27.2959,56.203],[27.2639,56.0729],[27.3701,56.0806],[27.572,55.9978],[27.7601,55.9754],[27.9115,56.1002],[28.0511,56.1407]]]}},{"type":"Feature","properties":{"sourceId":"1159311057","regionId":"region.e5ba9429-b019-44c5-b87c-c6da2632ea64","countryId":"country.nusos0"},"geometry":{"type":"Polygon","coordinates":[[[27.7601,55.9754],[27.572,55.9978],[27.3701,56.0806],[27.2639,56.0729],[27.1474,55.9849],[26.9677,56.0078],[26.9794,55.8263],[27.2824,55.7919],[27.5927,55.7942],[27.645,55.9228],[27.7601,55.9754]]]}},{"type":"Feature","properties":{"sourceId":"1159317583","regionId":"region.9c5790d2-1300-4f2d-b38c-589adf511aae","countryId":"country.nusos0"},"geometry":{"type":"Polygon","coordinates":[[[20.971,56.2597],[21.0558,56.1683],[21.2263,56.3517],[21.0632,56.494],[21.0358,56.4739],[21.0054,56.4459],[20.971,56.2597]]]}},{"type":"Feature","properties":{"sourceId":"1159315925","regionId":"region.900f830e-3ffb-4377-bf41-ff3e1c56b0d5","countryId":"country.nusos0"},"geometry":{"type":"Polygon","coordinates":[[[21.0529,56.5111],[21.1032,56.5328],[21.0206,56.615],[21.0529,56.5111]]]}},{"type":"Feature","properties":{"sourceId":"1159317581","regionId":"region.bbf088a4-5726-42bd-a082-e21967d33f11","countryId":"country.nusos0"},"geometry":{"type":"Polygon","coordinates":[[[21.0632,56.494],[21.2263,56.3517],[21.3799,56.3282],[21.4374,56.4071],[21.3543,56.503],[21.2562,56.5308],[21.2583,56.6566],[21.0462,56.6562],[21.0206,56.615],[21.1032,56.5328],[21.0529,56.5111],[21.0632,56.494]]]}},{"type":"Feature","properties":{"sourceId":"1159317589","regionId":"region.b90f1994-f2f2-4c1c-9894-4e942bee3b3d","countryId":"country.nusos0"},"geometry":{"type":"Polygon","coordinates":[[[21.0462,56.6562],[21.2583,56.6566],[21.3159,56.7397],[21.4364,56.8676],[21.4934,56.9038],[21.3958,56.9424],[21.3282,56.9736],[21.0652,56.8463],[21.0462,56.6562]]]}},{"type":"Feature","properties":{"sourceId":"1159311053","regionId":"region.84bec1a2-9bd7-4b5f-b1eb-efa9e652d7d4","countryId":"country.nusos0"},"geometry":{"type":"Polygon","coordinates":[[[21.3282,56.9736],[21.3958,56.9424],[21.5738,57.0856],[22.1925,57.1246],[22.2064,57.1779],[22.3089,57.2889],[22.2596,57.3979],[22.2719,57.5072],[22.1945,57.6576],[21.9559,57.593],[21.7717,57.5861],[21.6217,57.4732],[21.6748,57.4009],[21.5115,57.3787],[21.4214,57.2887],[21.4136,57.0732],[21.3282,56.9736]]]}},{"type":"Feature","properties":{"sourceId":"1159315927","regionId":"region.84bec1a2-9bd7-4b5f-b1eb-efa9e652d7d4","countryId":"country.nusos0"},"geometry":{"type":"Polygon","coordinates":[[[21.5115,57.3787],[21.6748,57.4009],[21.6217,57.4732],[21.5115,57.3787]]]}},{"type":"Feature","properties":{"sourceId":"1159317561","regionId":"region.299fd41c-566c-4c79-98bc-4c30aa432448","countryId":"country.nusos0"},"geometry":{"type":"Polygon","coordinates":[[[22.1945,57.6576],[22.2719,57.5072],[22.2596,57.3979],[22.4765,57.4136],[22.6251,57.5027],[22.5872,57.665],[22.4837,57.7425],[22.1945,57.6576]]]}},{"type":"Feature","properties":{"sourceId":"1159317563","regionId":"region.7350911f-7ed1-4c1d-9599-f344e0cba38f","countryId":"country.nusos0"},"geometry":{"type":"Polygon","coordinates":[[[22.5872,57.665],[22.6251,57.5027],[22.8469,57.3884],[22.9946,57.4119],[22.6561,57.5858],[22.5872,57.665]]]}},{"type":"Feature","properties":{"sourceId":"1159311099","regionId":"region.ddbc1cee-81df-497e-8a13-c4b4a99217ac","countryId":"country.nusos0"},"geometry":{"type":"Polygon","coordinates":[[[22.9946,57.4119],[22.8469,57.3884],[22.6251,57.5027],[22.4765,57.4136],[22.2596,57.3979],[22.3089,57.2889],[22.2064,57.1779],[22.5082,57.0138],[22.6415,57.0947],[22.9309,57.1446],[23.0804,57.2385],[22.9201,57.3335],[23.0314,57.3945],[22.9946,57.4119]]]}},{"type":"Feature","properties":{"sourceId":"1159317565","regionId":"region.44892f55-aa65-45f9-bbba-00a4c9215e36","countryId":"country.nusos0"},"geometry":{"type":"Polygon","coordinates":[[[23.0314,57.3945],[22.9201,57.3335],[23.0804,57.2385],[23.1128,57.2653],[23.1602,57.3186],[23.0314,57.3945]]]}},{"type":"Feature","properties":{"sourceId":"1159317637","regionId":"region.eb060b7c-a997-4ce5-8431-d0754036ee48","countryId":"country.nusos0"},"geometry":{"type":"Polygon","coordinates":[[[23.1602,57.3186],[23.1128,57.2653],[23.113,57.1375],[23.231,57.066],[23.1416,56.9355],[23.4772,56.9365],[23.5786,56.9821],[23.2505,57.1144],[23.1602,57.3186]]]}},{"type":"Feature","properties":{"sourceId":"1159317635","regionId":"region.ca6ee59f-4b4f-48ee-972b-4f347375e4e6","countryId":"country.nusos0"},"geometry":{"type":"Polygon","coordinates":[[[23.5786,56.9821],[23.4772,56.9365],[23.492,56.9346],[23.8639,56.9551],[23.9545,56.9914],[23.9269,57.0063],[23.5786,56.9821]]]}},{"type":"Feature","properties":{"sourceId":"1159311107","regionId":"region.c12db77d-c007-4906-b720-ecfcf5aaf243","countryId":"country.nusos0"},"geometry":{"type":"Polygon","coordinates":[[[23.9269,57.0063],[23.9545,56.9914],[23.9427,56.9387],[24.0663,56.8861],[24.0881,56.8761],[24.197,56.8821],[24.2347,56.9304],[24.3202,56.969],[24.1624,57.0528],[24.113,57.0887],[23.9269,57.0063]]]}},{"type":"Feature","properties":{"sourceId":"1159317645","regionId":"region.8d30d370-e45f-4192-9bf3-8f7b89935bab","countryId":"country.nusos0"},"geometry":{"type":"Polygon","coordinates":[[[24.113,57.0887],[24.1624,57.0528],[24.2473,57.0601],[24.3488,57.1838],[24.3308,57.1998],[24.113,57.0887]]]}},{"type":"Feature","properties":{"sourceId":"1159317651","regionId":"region.8df89cf6-ea33-4b4c-908b-2bf80e5db112","countryId":"country.nusos0"},"geometry":{"type":"Polygon","coordinates":[[[24.3308,57.1998],[24.3488,57.1838],[24.3724,57.1824],[24.4613,57.2948],[24.4048,57.3481],[24.3308,57.1998]]]}},{"type":"Feature","properties":{"sourceId":"1159311089","regionId":"region.21f0b744-9324-44c1-af8c-f11eaa3ce4ca","countryId":"country.nusos0"},"geometry":{"type":"Polygon","coordinates":[[[24.4048,57.3481],[24.4613,57.2948],[24.6816,57.2231],[24.6881,57.3896],[24.8316,57.3955],[25.0796,57.5002],[24.8814,57.6247],[24.8286,57.7192],[24.6492,57.7707],[24.5644,57.6733],[24.4183,57.6706],[24.5783,57.4647],[24.3949,57.4],[24.4048,57.3481]]]}},{"type":"Feature","properties":{"sourceId":"1159317709","regionId":"region.8035da73-c7c4-4c0d-8cf4-0a3885b33c51","countryId":"country.nusos0"},"geometry":{"type":"Polygon","coordinates":[[[26.3115,57.4993],[26.1234,57.5692],[25.9451,57.5301],[25.7763,57.4997],[25.6579,57.4646],[25.7451,57.2751],[25.7699,57.2787],[26.0586,57.2653],[26.2762,57.331],[26.3115,57.4993]]]}},{"type":"Feature","properties":{"sourceId":"1159311055","regionId":"region.537f0562-5012-48c2-ad28-edb149c6e72b","countryId":"country.nusos0"},"geometry":{"type":"Polygon","coordinates":[[[27.4871,57.2739],[27.1566,57.2264],[27.0081,57.1145],[27.3255,57.0617],[27.3323,56.9364],[27.2002,56.8612],[26.9851,56.8782],[26.9533,56.8467],[26.9285,56.8311],[27.3399,56.7827],[27.4467,56.8527],[27.4166,56.9022],[27.6376,57.0184],[27.4029,57.1597],[27.4871,57.2739]]]}},{"type":"Feature","properties":{"sourceId":"1159317689","regionId":"region.487dfaa2-8d8f-447b-be9b-947fa27893f7","countryId":"country.nusos0"},"geometry":{"type":"Polygon","coordinates":[[[25.5912,57.6141],[25.7763,57.4997],[25.9451,57.5301],[25.8474,57.7524],[25.6887,57.7377],[25.5912,57.6141]]]}},{"type":"Feature","properties":{"sourceId":"1159317691","regionId":"region.dba5fa25-5f82-47cc-905a-280a31e66dae","countryId":"country.nusos0"},"geometry":{"type":"Polygon","coordinates":[[[25.7763,57.4997],[25.5912,57.6141],[25.4569,57.5373],[25.3771,57.5091],[25.3988,57.4412],[25.6579,57.4646],[25.7763,57.4997]]]}},{"type":"Feature","properties":{"sourceId":"1159311103","regionId":"region.3f75898b-5a4a-4e5d-b6de-47c1047132b9","countryId":"country.nusos0"},"geometry":{"type":"Polygon","coordinates":[[[25.5529,57.7924],[25.4554,57.7893],[25.2456,57.8003],[25.0175,57.7965],[25.0937,57.6531],[25.1986,57.6547],[25.3787,57.5498],[25.4569,57.5373],[25.5912,57.6141],[25.6887,57.7377],[25.5529,57.7924]]]}},{"type":"Feature","properties":{"sourceId":"1159317697","regionId":"region.cee8eabe-b6c4-4aa8-9955-1271b108e61e","countryId":"country.nusos0"},"geometry":{"type":"Polygon","coordinates":[[[24.8814,57.6247],[25.0796,57.5002],[25.1969,57.4218],[25.3869,57.3861],[25.3988,57.4412],[25.3771,57.5091],[25.3787,57.5498],[25.1986,57.6547],[25.0937,57.6531],[24.8814,57.6247]]]}},{"type":"Feature","properties":{"sourceId":"1159311061","regionId":"region.0ec4a6ec-692c-4519-99d4-10d44364806e","countryId":"country.nusos0"},"geometry":{"type":"Polygon","coordinates":[[[26.9285,56.8311],[26.7726,56.681],[26.9818,56.5932],[27.0413,56.4664],[26.9254,56.4476],[26.8976,56.4113],[27.038,56.1801],[27.2959,56.203],[27.6676,56.2402],[27.6899,56.3606],[27.4871,56.4995],[27.5611,56.5759],[27.5802,56.6194],[27.3399,56.7827],[26.9285,56.8311]],[[27.3391,56.4749],[27.2743,56.5155],[27.3637,56.5552],[27.3391,56.4749]]]}},{"type":"Feature","properties":{"sourceId":"1159317717","regionId":"region.5c37262e-ad91-447b-b4a3-29ed7008041e","countryId":"country.nusos0"},"geometry":{"type":"Polygon","coordinates":[[[25.7451,57.2751],[25.601,57.2648],[25.5603,57.2226],[25.5634,57.1474],[25.6166,57.066],[25.504,56.9948],[25.8864,56.9642],[25.9231,57.0974],[25.7716,57.1991],[25.7699,57.2787],[25.7451,57.2751]]]}},{"type":"Feature","properties":{"sourceId":"1159317707","regionId":"region.7233ce09-b3f0-47ed-82f6-2c431bc2e982","countryId":"country.nusos0"},"geometry":{"type":"MultiPolygon","coordinates":[[[[25.6579,57.4646],[25.601,57.2648],[25.7451,57.2751],[25.6579,57.4646]]],[[[26.0586,57.2653],[25.7699,57.2787],[25.7716,57.1991],[26.0134,57.2211],[26.0586,57.2653]]]]}},{"type":"Feature","properties":{"sourceId":"1159317705","regionId":"region.14e78c89-5967-4c6b-b30a-64b9f95eeeaf","countryId":"country.nusos0"},"geometry":{"type":"Polygon","coordinates":[[[25.6579,57.4646],[25.3988,57.4412],[25.3869,57.3861],[25.2315,57.3306],[25.5603,57.2226],[25.601,57.2648],[25.6579,57.4646]]]}},{"type":"Feature","properties":{"sourceId":"1159317699","regionId":"region.006e5b9f-2ef9-4f22-88d2-d60cd01b85c4","countryId":"country.nusos0"},"geometry":{"type":"Polygon","coordinates":[[[25.0796,57.5002],[24.8316,57.3955],[24.9331,57.2462],[25.0906,57.2476],[25.2315,57.2962],[25.2315,57.3306],[25.3869,57.3861],[25.1969,57.4218],[25.0796,57.5002]]]}},{"type":"Feature","properties":{"sourceId":"1159317661","regionId":"region.981a4ed8-c974-49c5-9227-ca550d53b5d8","countryId":"country.nusos0"},"geometry":{"type":"Polygon","coordinates":[[[24.8316,57.3955],[24.6881,57.3896],[24.6816,57.2231],[24.6659,57.1254],[24.7799,57.1352],[24.9004,57.2187],[24.9331,57.2462],[24.8316,57.3955]]]}},{"type":"Feature","properties":{"sourceId":"1159311081","regionId":"region.8614fda0-b5f6-4d09-a51f-e57eb4dcce2e","countryId":"country.nusos0"},"geometry":{"type":"Polygon","coordinates":[[[26.2762,57.331],[26.0586,57.2653],[26.0134,57.2211],[26.1682,57.1434],[26.1168,57.0781],[26.1832,57.0826],[26.3694,57.0446],[26.5682,56.9484],[26.86,56.983],[27.0081,57.1145],[27.1566,57.2264],[26.9885,57.3044],[26.7148,57.3065],[26.5942,57.3913],[26.2762,57.331]]]}},{"type":"Feature","properties":{"sourceId":"1159317727","regionId":"region.5a16d4b2-06fa-434a-9fa0-d5a6e88273ff","countryId":"country.nusos0"},"geometry":{"type":"Polygon","coordinates":[[[26.86,56.983],[26.9851,56.8782],[27.2002,56.8612],[27.3323,56.9364],[27.3255,57.0617],[27.0081,57.1145],[26.86,56.983]]]}},{"type":"Feature","properties":{"sourceId":"1159317715","regionId":"region.549c804b-b987-4120-8194-fdb801e371cc","countryId":"country.nusos0"},"geometry":{"type":"Polygon","coordinates":[[[26.0134,57.2211],[25.7716,57.1991],[25.9231,57.0974],[26.1168,57.0781],[26.1682,57.1434],[26.0134,57.2211]]]}},{"type":"Feature","properties":{"sourceId":"1159317743","regionId":"region.c7f41fc2-b3a1-49a1-8e1c-b038c1410c10","countryId":"country.nusos0"},"geometry":{"type":"Polygon","coordinates":[[[27.038,56.1801],[26.8885,56.1289],[26.9677,56.0078],[27.1474,55.9849],[27.2639,56.0729],[27.2959,56.203],[27.038,56.1801]]]}},{"type":"Feature","properties":{"sourceId":"1159317753","regionId":"region.afc9bb8a-2b55-4377-8326-7d14c8eb346d","countryId":"country.nusos0"},"geometry":{"type":"Polygon","coordinates":[[[26.9254,56.4476],[26.7437,56.5588],[26.6278,56.5437],[26.5405,56.4897],[26.5764,56.4333],[26.7832,56.2823],[26.8885,56.1289],[27.038,56.1801],[26.8976,56.4113],[26.9254,56.4476]]]}},{"type":"Feature","properties":{"sourceId":"1159317755","regionId":"region.3e75d3e6-c4f1-4d9a-8a59-e26d420a5b3b","countryId":"country.nusos0"},"geometry":{"type":"Polygon","coordinates":[[[26.7437,56.5588],[26.9254,56.4476],[27.0413,56.4664],[26.9818,56.5932],[26.7726,56.681],[26.7437,56.5588]]]}},{"type":"Feature","properties":{"sourceId":"1159317633","regionId":"region.f9ad93e9-7599-4d9f-929e-4fee2ad2d4ae","countryId":"country.nusos0"},"geometry":{"type":"Polygon","coordinates":[[[23.9545,56.9914],[23.8639,56.9551],[23.492,56.9346],[23.5068,56.8946],[23.7696,56.8],[23.855,56.8264],[23.9427,56.9387],[23.9545,56.9914]]]}},{"type":"Feature","properties":{"sourceId":"1159317649","regionId":"region.3fe8c840-de07-4dcd-831a-4c99bf7060d0","countryId":"country.nusos0"},"geometry":{"type":"Polygon","coordinates":[[[24.3202,56.969],[24.3717,56.9444],[24.5655,57.06],[24.5087,57.106],[24.2473,57.0601],[24.1624,57.0528],[24.3202,56.969]]]}},{"type":"Feature","properties":{"sourceId":"1159317627","regionId":"region.056c340d-2aea-4f3f-8f35-f29a7b19c2ea","countryId":"country.nusos0"},"geometry":{"type":"Polygon","coordinates":[[[24.197,56.8821],[24.0881,56.8761],[23.9963,56.7305],[24.0081,56.71],[24.1882,56.7179],[24.3466,56.7871],[24.5255,56.7524],[24.5127,56.8171],[24.444,56.8377],[24.197,56.8821]]]}},{"type":"Feature","properties":{"sourceId":"1159317631","regionId":"region.2a600c00-12d1-4cda-85ac-78c8ead2deb7","countryId":"country.nusos0"},"geometry":{"type":"Polygon","coordinates":[[[23.9427,56.9387],[23.855,56.8264],[24.0663,56.8861],[23.9427,56.9387]]]}},{"type":"Feature","properties":{"sourceId":"1159317629","regionId":"region.38a0ee2f-dd55-4efa-b1f4-3dd60169cc7e","countryId":"country.nusos0"},"geometry":{"type":"MultiPolygon","coordinates":[[[[24.0663,56.8861],[23.855,56.8264],[23.7696,56.8],[23.7563,56.7441],[23.9963,56.7305],[24.0881,56.8761],[24.0663,56.8861]]],[[[24.2305,56.6994],[24.1882,56.7179],[24.0081,56.71],[24.0339,56.6882],[24.2305,56.6994]]]]}},{"type":"Feature","properties":{"sourceId":"1159317671","regionId":"region.f9efff4b-a497-4c63-90a4-03318a97d048","countryId":"country.nusos0"},"geometry":{"type":"Polygon","coordinates":[[[24.2347,56.9304],[24.197,56.8821],[24.444,56.8377],[24.4574,56.8868],[24.4056,56.9265],[24.2347,56.9304]]]}},{"type":"Feature","properties":{"sourceId":"1159317669","regionId":"region.86a9535f-f397-4383-876f-793f0c823e2a","countryId":"country.nusos0"},"geometry":{"type":"Polygon","coordinates":[[[24.2347,56.9304],[24.4056,56.9265],[24.3717,56.9444],[24.3202,56.969],[24.2347,56.9304]]]}},{"type":"Feature","properties":{"sourceId":"1159317659","regionId":"region.41cd9252-8ac1-4ffc-901f-63df65cc8c42","countryId":"country.nusos0"},"geometry":{"type":"Polygon","coordinates":[[[24.6816,57.2231],[24.4613,57.2948],[24.3724,57.1824],[24.5087,57.106],[24.6659,57.1254],[24.6816,57.2231]]]}},{"type":"Feature","properties":{"sourceId":"1159317677","regionId":"region.b9f219ef-19e6-4446-b6e0-d13194d9e727","countryId":"country.nusos0"},"geometry":{"type":"Polygon","coordinates":[[[25.1475,56.9894],[24.9893,57.0606],[24.8178,56.9895],[24.8074,56.9339],[25.1426,56.9508],[25.1475,56.9894]]]}},{"type":"Feature","properties":{"sourceId":"1159317665","regionId":"region.7de756aa-16ea-405c-b3cd-b3fe5b0fe9bc","countryId":"country.nusos0"},"geometry":{"type":"Polygon","coordinates":[[[25.1475,56.9894],[25.1125,57.1098],[24.9004,57.2187],[24.7799,57.1352],[24.6301,57.061],[24.8178,56.9895],[24.9893,57.0606],[25.1475,56.9894]]]}},{"type":"Feature","properties":{"sourceId":"1159311091","regionId":"region.c8b79706-4f05-4ac7-b80e-4149c5ae3cd1","countryId":"country.nusos0"},"geometry":{"type":"Polygon","coordinates":[[[26.9533,56.8467],[26.8613,56.9],[26.4731,56.8546],[26.5682,56.9484],[26.3694,57.0446],[26.3932,56.9705],[26.2226,56.9282],[26.1832,57.0826],[26.1168,57.0781],[25.9231,57.0974],[25.8864,56.9642],[25.7655,56.8282],[25.9321,56.6378],[26.3756,56.6359],[26.6484,56.7168],[26.7726,56.681],[26.9285,56.8311],[26.9533,56.8467]]]}},{"type":"Feature","properties":{"sourceId":"1159317723","regionId":"region.cc88120d-e211-4441-b4df-291ece4c814c","countryId":"country.nusos0"},"geometry":{"type":"Polygon","coordinates":[[[26.9851,56.8782],[26.86,56.983],[26.5682,56.9484],[26.4731,56.8546],[26.8613,56.9],[26.9533,56.8467],[26.9851,56.8782]]]}},{"type":"Feature","properties":{"sourceId":"1159317725","regionId":"region.1e77c244-370f-4947-a135-cd7a7980e5bb","countryId":"country.nusos0"},"geometry":{"type":"Polygon","coordinates":[[[26.7726,56.681],[26.6484,56.7168],[26.3756,56.6359],[26.6278,56.5437],[26.7437,56.5588],[26.7726,56.681]]]}},{"type":"Feature","properties":{"sourceId":"1159317703","regionId":"region.61414813-8f08-482d-9e75-3b7c6445eec6","countryId":"country.nusos0"},"geometry":{"type":"Polygon","coordinates":[[[25.4882,56.9945],[25.504,56.9948],[25.6166,57.066],[25.5634,57.1474],[25.3802,57.1881],[25.2315,57.2962],[25.0906,57.2476],[25.1125,57.1098],[25.1475,56.9894],[25.1426,56.9508],[25.4882,56.9945]]]}},{"type":"Feature","properties":{"sourceId":"1159317719","regionId":"region.188116e1-6e02-4c7a-aab3-c58a6d6f1396","countryId":"country.nusos0"},"geometry":{"type":"Polygon","coordinates":[[[25.4882,56.9945],[25.5054,56.8131],[25.6922,56.7705],[25.7655,56.8282],[25.8864,56.9642],[25.504,56.9948],[25.4882,56.9945]]]}},{"type":"Feature","properties":{"sourceId":"1159317721","regionId":"region.40ec7d6d-1a30-43af-a37a-ad7620d3609d","countryId":"country.nusos0"},"geometry":{"type":"Polygon","coordinates":[[[26.3694,57.0446],[26.1832,57.0826],[26.2226,56.9282],[26.3932,56.9705],[26.3694,57.0446]]]}},{"type":"Feature","properties":{"sourceId":"1159311093","regionId":"region.bbb350fc-c5ba-4a1c-934e-93635d54c15f","countryId":"country.nusos0"},"geometry":{"type":"Polygon","coordinates":[[[25.4882,56.9945],[25.1426,56.9508],[24.8074,56.9339],[24.6933,56.8955],[24.5877,56.8122],[24.7249,56.7364],[24.9236,56.8007],[25.0975,56.7372],[25.1763,56.7033],[25.2784,56.6969],[25.5054,56.8131],[25.4882,56.9945]]]}},{"type":"Feature","properties":{"sourceId":"1159317667","regionId":"region.daf12823-f098-480e-9105-3b0c0c85425a","countryId":"country.nusos0"},"geometry":{"type":"Polygon","coordinates":[[[24.8074,56.9339],[24.8178,56.9895],[24.6301,57.061],[24.5655,57.06],[24.3717,56.9444],[24.4056,56.9265],[24.4574,56.8868],[24.6933,56.8955],[24.8074,56.9339]]]}},{"type":"Feature","properties":{"sourceId":"1159317673","regionId":"region.ba1331f6-8b16-4628-8661-ffd61cf75516","countryId":"country.nusos0"},"geometry":{"type":"Polygon","coordinates":[[[24.5127,56.8171],[24.5877,56.8122],[24.6933,56.8955],[24.4574,56.8868],[24.444,56.8377],[24.5127,56.8171]]]}},{"type":"Feature","properties":{"sourceId":"1159311097","regionId":"region.07f438c0-a07e-41ec-9b05-390f402fd586","countryId":"country.nusos0"},"geometry":{"type":"Polygon","coordinates":[[[24.5255,56.7524],[24.3466,56.7871],[24.1882,56.7179],[24.2305,56.6994],[24.3554,56.6616],[24.5219,56.7136],[24.5255,56.7524]]]}},{"type":"Feature","properties":{"sourceId":"1159317681","regionId":"region.3f04b973-8f46-4a4b-8d2e-e0e48382b4f9","countryId":"country.nusos0"},"geometry":{"type":"Polygon","coordinates":[[[24.5219,56.7136],[24.7325,56.5442],[24.95,56.5786],[25.0495,56.612],[25.0243,56.6246],[24.7998,56.7152],[24.9236,56.8007],[24.7249,56.7364],[24.5877,56.8122],[24.5127,56.8171],[24.5255,56.7524],[24.5219,56.7136]]]}},{"type":"Feature","properties":{"sourceId":"1159317615","regionId":"region.3bb24935-cb2f-40c3-a8ed-db18a6523b7a","countryId":"country.nusos0"},"geometry":{"type":"Polygon","coordinates":[[[24.3554,56.6616],[24.2305,56.6994],[24.0339,56.6882],[24.0789,56.5355],[24.3806,56.5296],[24.3554,56.6616]]]}},{"type":"Feature","properties":{"sourceId":"1159317597","regionId":"region.c717a0b2-442e-484a-af38-ba642ba5389e","countryId":"country.nusos0"},"geometry":{"type":"Polygon","coordinates":[[[25.7655,56.8282],[25.6922,56.7705],[25.4955,56.6118],[25.5698,56.5767],[25.7569,56.6123],[25.9321,56.6378],[25.7655,56.8282]]]}},{"type":"Feature","properties":{"sourceId":"1159317599","regionId":"region.5be4e3cc-36b8-45e3-9431-fca84d0b7afa","countryId":"country.nusos0"},"geometry":{"type":"Polygon","coordinates":[[[25.5054,56.8131],[25.2784,56.6969],[25.2934,56.5911],[25.4955,56.6118],[25.6922,56.7705],[25.5054,56.8131]]]}},{"type":"Feature","properties":{"sourceId":"1159317601","regionId":"region.5c8801d1-0631-401e-84cd-760d1509b9f4","countryId":"country.nusos0"},"geometry":{"type":"Polygon","coordinates":[[[25.2784,56.6969],[25.1763,56.7033],[25.1386,56.6191],[25.2934,56.5911],[25.2784,56.6969]]]}},{"type":"Feature","properties":{"sourceId":"1159317605","regionId":"region.d8a10ecc-da39-4048-a1c6-876c1348a734","countryId":"country.nusos0"},"geometry":{"type":"Polygon","coordinates":[[[25.0975,56.7372],[25.0243,56.6246],[25.0495,56.612],[25.1386,56.6191],[25.1763,56.7033],[25.0975,56.7372]]]}},{"type":"Feature","properties":{"sourceId":"1159317679","regionId":"region.56645d1b-0935-4506-936e-dda97e61012f","countryId":"country.nusos0"},"geometry":{"type":"Polygon","coordinates":[[[25.0975,56.7372],[24.9236,56.8007],[24.7998,56.7152],[25.0243,56.6246],[25.0975,56.7372]]]}},{"type":"Feature","properties":{"sourceId":"1159317607","regionId":"region.937c4bcd-6a67-4210-a717-9d590207bb2a","countryId":"country.nusos0"},"geometry":{"type":"Polygon","coordinates":[[[24.95,56.5786],[25.0135,56.4957],[25.0743,56.4027],[25.2936,56.4079],[25.5946,56.4671],[25.5698,56.5767],[25.4955,56.6118],[25.2934,56.5911],[25.1386,56.6191],[25.0495,56.612],[24.95,56.5786]]]}},{"type":"Feature","properties":{"sourceId":"1159311095","regionId":"region.ee63b8be-2834-45e3-b21a-13174677359f","countryId":"country.nusos0"},"geometry":{"type":"Polygon","coordinates":[[[26.6479,56.1353],[26.8885,56.1289],[26.7832,56.2823],[26.5764,56.4333],[26.6012,56.2823],[26.6479,56.1353]]]}},{"type":"Feature","properties":{"sourceId":"1159317749","regionId":"region.c566f36c-5a64-4bfc-9dd2-5e0e4ec77380","countryId":"country.nusos0"},"geometry":{"type":"Polygon","coordinates":[[[26.3354,56.1897],[26.2931,56.2844],[26.6012,56.2823],[26.5764,56.4333],[26.5405,56.4897],[26.3626,56.4508],[26.2572,56.512],[26.0885,56.4064],[26.1935,56.2261],[26.3008,56.1833],[26.3354,56.1897]]]}},{"type":"Feature","properties":{"sourceId":"1159317751","regionId":"region.54255af0-514a-4248-97b0-d644676c2d68","countryId":"country.nusos0"},"geometry":{"type":"Polygon","coordinates":[[[26.3354,56.1897],[26.6479,56.1353],[26.6012,56.2823],[26.2931,56.2844],[26.3354,56.1897]]]}},{"type":"Feature","properties":{"sourceId":"1159311085","regionId":"region.9703677a-4dc7-42aa-9f39-72b43665a1ef","countryId":"country.nusos0"},"geometry":{"type":"Polygon","coordinates":[[[26.0885,56.4064],[25.8766,56.4953],[25.8207,56.4868],[25.7339,56.351],[25.6938,56.2286],[25.8764,56.2219],[26.0255,56.0794],[26.2058,56.1636],[26.3453,56.0935],[26.3008,56.1833],[26.1935,56.2261],[26.0885,56.4064]]]}},{"type":"Feature","properties":{"sourceId":"1159317591","regionId":"region.ab612a7f-f4ea-4a11-b686-80ac4197238c","countryId":"country.nusos0"},"geometry":{"type":"Polygon","coordinates":[[[26.0885,56.4064],[26.2572,56.512],[26.3626,56.4508],[26.5405,56.4897],[26.6278,56.5437],[26.3756,56.6359],[25.9321,56.6378],[25.7569,56.6123],[25.8264,56.5272],[25.8766,56.4953],[26.0885,56.4064]]]}},{"type":"Feature","properties":{"sourceId":"1159317595","regionId":"region.e7414e39-8eec-4198-b72e-cc18443e4ef2","countryId":"country.nusos0"},"geometry":{"type":"Polygon","coordinates":[[[25.7569,56.6123],[25.5698,56.5767],[25.5946,56.4671],[25.7339,56.351],[25.8207,56.4868],[25.8264,56.5272],[25.7569,56.6123]]]}},{"type":"Feature","properties":{"sourceId":"1159317577","regionId":"region.56fcdf2d-bafa-4b84-9197-b145736c45b7","countryId":"country.nusos0"},"geometry":{"type":"Polygon","coordinates":[[[21.4364,56.8676],[21.3159,56.7397],[21.5717,56.5606],[21.7124,56.55],[21.7954,56.5733],[21.823,56.6879],[21.593,56.8451],[21.4364,56.8676]]]}},{"type":"Feature","properties":{"sourceId":"1159311047","regionId":"region.a5089c84-9260-43c3-8310-2c5bfd6efe85","countryId":"country.nusos0"},"geometry":{"type":"Polygon","coordinates":[[[21.4364,56.8676],[21.593,56.8451],[21.823,56.6879],[21.9347,56.7986],[22.1627,56.795],[22.4549,56.9171],[22.5082,57.0138],[22.2064,57.1779],[22.1925,57.1246],[21.5738,57.0856],[21.7061,56.9563],[21.4934,56.9038],[21.4364,56.8676]]]}},{"type":"Feature","properties":{"sourceId":"1159317569","regionId":"region.a0ed0495-bb23-431d-b1ce-dd4ecfcf5740","countryId":"country.nusos0"},"geometry":{"type":"Polygon","coordinates":[[[21.4934,56.9038],[21.7061,56.9563],[21.5738,57.0856],[21.3958,56.9424],[21.4934,56.9038]]]}},{"type":"Feature","properties":{"sourceId":"1159317573","regionId":"region.8efdcfe0-c4cf-4a93-a7a6-d2b9816ff501","countryId":"country.nusos0"},"geometry":{"type":"Polygon","coordinates":[[[21.7954,56.5733],[21.9667,56.5066],[22.1261,56.5822],[22.1627,56.795],[21.9347,56.7986],[21.823,56.6879],[21.7954,56.5733]]]}},{"type":"Feature","properties":{"sourceId":"1159317641","regionId":"region.b3e2a8d1-8040-4cbb-93d2-bf7953254299","countryId":"country.nusos0"},"geometry":{"type":"Polygon","coordinates":[[[22.4549,56.9171],[22.4909,56.8515],[22.7889,56.8039],[22.9432,56.855],[22.8306,56.9498],[22.8413,57.0785],[22.9309,57.1446],[22.6415,57.0947],[22.5082,57.0138],[22.4549,56.9171]]]}},{"type":"Feature","properties":{"sourceId":"1159311101","regionId":"region.e07b933d-0a28-4f87-8163-caa51f4ce668","countryId":"country.nusos0"},"geometry":{"type":"Polygon","coordinates":[[[23.492,56.9346],[23.4772,56.9365],[23.1416,56.9355],[23.231,57.066],[23.113,57.1375],[23.1128,57.2653],[23.0804,57.2385],[22.9309,57.1446],[22.8413,57.0785],[22.8306,56.9498],[22.9432,56.855],[23.1233,56.6988],[23.2996,56.7154],[23.4866,56.8159],[23.5068,56.8946],[23.492,56.9346]]]}},{"type":"Feature","properties":{"sourceId":"1159311079","regionId":"region.66d43fa2-a3d9-4887-9b3b-2553b6e8cb38","countryId":"country.nusos0"},"geometry":{"type":"Polygon","coordinates":[[[23.4866,56.8159],[23.2996,56.7154],[23.1233,56.6988],[22.826,56.6981],[22.7981,56.5683],[22.9611,56.6012],[23.088,56.5457],[23.1488,56.4331],[23.4151,56.4933],[23.4174,56.7068],[23.4866,56.8159]]]}},{"type":"Feature","properties":{"sourceId":"1159317643","regionId":"region.c1eee645-8b48-42a9-b455-a9fe9b155028","countryId":"country.nusos0"},"geometry":{"type":"Polygon","coordinates":[[[22.826,56.6981],[23.1233,56.6988],[22.9432,56.855],[22.7889,56.8039],[22.826,56.6981]]]}},{"type":"Feature","properties":{"sourceId":"1159317571","regionId":"region.2f738344-66c8-4368-b6d2-35096fe2355b","countryId":"country.nusos0"},"geometry":{"type":"Polygon","coordinates":[[[22.7889,56.8039],[22.4909,56.8515],[22.4422,56.7711],[22.5497,56.5791],[22.7121,56.5654],[22.7981,56.5683],[22.826,56.6981],[22.7889,56.8039]]]}},{"type":"Feature","properties":{"sourceId":"1159317617","regionId":"region.d6bf9ae8-cbde-45a7-9b40-00d1235cd027","countryId":"country.nusos0"},"geometry":{"type":"Polygon","coordinates":[[[23.9963,56.7305],[23.7563,56.7441],[23.7312,56.6905],[23.7919,56.6469],[23.9923,56.5025],[24.0177,56.502],[24.0789,56.5355],[24.0339,56.6882],[24.0081,56.71],[23.9963,56.7305]]]}},{"type":"Feature","properties":{"sourceId":"1159315931","regionId":"region.aa1eca77-a74b-4afa-bc96-82b175e0a6f2","countryId":"country.nusos0"},"geometry":{"type":"Polygon","coordinates":[[[23.7312,56.6905],[23.618,56.6695],[23.7076,56.5919],[23.7919,56.6469],[23.7312,56.6905]]]}},{"type":"Feature","properties":{"sourceId":"1159315935","regionId":"region.4e3b51ca-4dbd-42cc-8a83-9223941d4c6d","countryId":"country.nusos0"},"geometry":{"type":"Polygon","coordinates":[[[26.5184,55.8266],[26.6319,55.8974],[26.4719,55.9332],[26.5184,55.8266]]]}},{"type":"Feature","properties":{"sourceId":"1159315933","regionId":"region.32ae5c4a-3f11-46eb-ba5b-c7407caec032","countryId":"country.nusos0"},"geometry":{"type":"Polygon","coordinates":[[[27.3391,56.4749],[27.3637,56.5552],[27.2743,56.5155],[27.3391,56.4749]]]}},{"type":"Feature","properties":{"sourceId":"1159311049","regionId":"region.6757aa13-aeea-4025-a2ae-623d8ccf9f92","countryId":"country.nusos0"},"geometry":{"type":"Polygon","coordinates":[[[21.3159,56.7397],[21.2583,56.6566],[21.2562,56.5308],[21.3543,56.503],[21.5717,56.5606],[21.3159,56.7397]]]}},{"type":"Feature","properties":{"sourceId":"1159317663","regionId":"region.ed420a94-e721-481a-b4c2-24305f3f0324","countryId":"country.nusos0"},"geometry":{"type":"Polygon","coordinates":[[[24.6301,57.061],[24.7799,57.1352],[24.6659,57.1254],[24.5087,57.106],[24.5655,57.06],[24.6301,57.061]]]}},{"type":"Feature","properties":{"sourceId":"1159317647","regionId":"region.bea62591-7ad7-4e8f-a4de-dccda0f68146","countryId":"country.nusos0"},"geometry":{"type":"Polygon","coordinates":[[[24.3488,57.1838],[24.2473,57.0601],[24.5087,57.106],[24.3724,57.1824],[24.3488,57.1838]]]}},{"type":"Feature","properties":{"sourceId":"1159317695","regionId":"region.830eb773-1543-4cca-b685-f84656deb41c","countryId":"country.nusos0"},"geometry":{"type":"Polygon","coordinates":[[[25.4569,57.5373],[25.3787,57.5498],[25.3771,57.5091],[25.4569,57.5373]]]}},{"type":"Feature","properties":{"sourceId":"1159311075","regionId":"region.b9862565-d739-4da1-94aa-846cde8f9857","countryId":"country.nusos0"},"geometry":{"type":"Polygon","coordinates":[[[25.2315,57.2962],[25.3802,57.1881],[25.5634,57.1474],[25.5603,57.2226],[25.2315,57.3306],[25.2315,57.2962]]]}},{"type":"Feature","properties":{"sourceId":"1159317701","regionId":"region.27edb43c-661a-404d-ada0-aea4b620f6b7","countryId":"country.nusos0"},"geometry":{"type":"Polygon","coordinates":[[[25.0906,57.2476],[24.9331,57.2462],[24.9004,57.2187],[25.1125,57.1098],[25.0906,57.2476]]]}},{"type":"Feature","properties":{"sourceId":"1159317593","regionId":"region.9703677a-4dc7-42aa-9f39-72b43665a1ef","countryId":"country.nusos0"},"geometry":{"type":"Polygon","coordinates":[[[25.8207,56.4868],[25.8766,56.4953],[25.8264,56.5272],[25.8207,56.4868]]]}}]}