{"type":"FeatureCollection","features":[{"type":"Feature","properties":{"sourceId":"1159309361","regionId":"region.17a6112e-8ac5-4400-8b02-2021e931f831","countryId":"country.1fog5xu"},"geometry":{"type":"Polygon","coordinates":[[[11.1823,32.2622],[11.2474,32.3657],[11.3825,32.4386],[11.3704,32.4942],[11.1073,32.6781],[11.1344,32.9015],[11.0016,33.0616],[10.5086,33.2541],[10.0765,33.097],[9.9095,33.0748],[9.9875,32.9752],[9.9247,32.8097],[9.9112,32.6753],[9.7503,32.7956],[9.6214,32.7905],[9.5242,32.7354],[8.3326,32.5264],[9.0199,32.1049],[9.0633,32.0002],[9.2644,31.2193],[9.5197,30.2289],[9.7435,30.3313],[9.8713,30.3552],[10.1922,30.7313],[10.2702,30.9156],[10.2448,31.0782],[10.1081,31.4118],[10.1169,31.4944],[10.264,31.6805],[10.5135,31.757],[10.5846,31.8403],[10.6059,31.9536],[10.8056,32.0324],[10.8732,32.1367],[11.1823,32.2622]]]}},{"type":"Feature","properties":{"sourceId":"1159309355","regionId":"region.221266e9-60ea-4f46-aef1-82407c495b5f","countryId":"country.1fog5xu"},"geometry":{"type":"MultiPolygon","coordinates":[[[[11.5261,32.4179],[11.5374,32.5435],[11.4499,32.638],[11.4565,32.9021],[11.5051,33.1812],[11.1795,33.2111],[11.1707,33.3318],[11.0899,33.4541],[11.1082,33.5496],[10.9779,33.6431],[10.9094,33.5396],[10.7171,33.4835],[10.7166,33.7069],[10.4602,33.6527],[10.2729,33.4369],[10.0594,33.3287],[9.7407,33.2912],[9.9123,33.2086],[9.9095,33.0748],[10.0765,33.097],[10.5086,33.2541],[11.0016,33.0616],[11.1344,32.9015],[11.1073,32.6781],[11.3704,32.4942],[11.3825,32.4386],[11.2474,32.3657],[11.1823,32.2622],[11.5261,32.4179]]],[[[10.9915,33.8417],[10.736,33.8848],[10.7402,33.7155],[10.8937,33.6582],[11.0603,33.8007],[10.9915,33.8417]]]]}},{"type":"Feature","properties":{"sourceId":"1159309373","regionId":"region.40f31030-16d1-42a0-b4ac-dd4130ad1371","countryId":"country.1fog5xu"},"geometry":{"type":"Polygon","coordinates":[[[8.6025,36.9395],[8.6238,36.8261],[8.444,36.7962],[8.4079,36.6426],[8.1699,36.5258],[8.1679,36.492],[8.3492,36.4488],[8.3554,36.3561],[8.5914,36.4044],[8.9173,36.4381],[9.0117,36.4492],[9.0737,36.5422],[9.0208,36.7429],[8.9128,36.7843],[8.9771,36.8671],[8.896,37.0189],[8.6025,36.9395]]]}},{"type":"Feature","properties":{"sourceId":"1159309357","regionId":"region.a91e0c7b-2877-42da-a7fa-5c6adda3d49a","countryId":"country.1fog5xu"},"geometry":{"type":"Polygon","coordinates":[[[7.7083,33.4107],[7.7507,33.2077],[8.0868,33.0943],[8.2829,32.8364],[8.3326,32.5264],[9.5242,32.7354],[9.6214,32.7905],[9.7503,32.7956],[9.9112,32.6753],[9.9247,32.8097],[9.9875,32.9752],[9.9095,33.0748],[9.9123,33.2086],[9.7407,33.2912],[9.5544,33.4828],[9.5884,33.575],[9.376,33.7205],[9.2685,33.9177],[9.2723,34.0593],[9.3354,34.1024],[9.2678,34.2048],[9.0311,34.1699],[8.8925,34.1184],[8.6692,34.0909],[8.534,33.9141],[7.9182,33.4994],[7.7083,33.4107]]]}},{"type":"Feature","properties":{"sourceId":"1159309363","regionId":"region.39cce500-0b0b-4e1b-8caf-b5ec2116c1fb","countryId":"country.1fog5xu"},"geometry":{"type":"Polygon","coordinates":[[[7.7083,33.4107],[7.9182,33.4994],[8.534,33.9141],[8.6692,34.0909],[8.3578,34.0921],[8.2924,34.1747],[8.1665,34.2065],[8.031,34.3145],[8.1007,34.439],[8.1025,34.5364],[7.8315,34.4144],[7.7743,34.261],[7.6315,34.1991],[7.5392,34.1138],[7.4798,33.8939],[7.553,33.6587],[7.7083,33.4107]]]}},{"type":"Feature","properties":{"sourceId":"1159309387","regionId":"region.05439403-319d-4352-b981-e03a8cd804bb","countryId":"country.1fog5xu"},"geometry":{"type":"Polygon","coordinates":[[[8.1025,34.5364],[8.1007,34.439],[8.031,34.3145],[8.1665,34.2065],[8.2924,34.1747],[8.3578,34.0921],[8.6692,34.0909],[8.8925,34.1184],[9.0311,34.1699],[9.2678,34.2048],[9.5585,34.2523],[9.5629,34.3706],[9.2781,34.5517],[9.2426,34.6505],[8.9676,34.6977],[8.8059,34.7506],[8.6014,34.6818],[8.5696,34.6374],[8.2587,34.7413],[8.2365,34.6477],[8.1025,34.5364]]]}},{"type":"Feature","properties":{"sourceId":"1159309383","regionId":"region.9fd35234-2320-403e-b5ea-5ad970dc7d17","countryId":"country.1fog5xu"},"geometry":{"type":"Polygon","coordinates":[[[8.2587,34.7413],[8.5696,34.6374],[8.6014,34.6818],[8.8059,34.7506],[9.051,34.867],[9.1133,35.0041],[9.2711,35.052],[9.2629,35.1976],[9.1482,35.2496],[9.327,35.4807],[9.0829,35.6138],[9.0022,35.7034],[8.6993,35.7841],[8.6023,35.649],[8.4408,35.6654],[8.3272,35.6214],[8.29,35.4026],[8.3174,35.2895],[8.4313,35.2417],[8.3137,35.1031],[8.2489,34.902],[8.2587,34.7413]]]}},{"type":"Feature","properties":{"sourceId":"1159309381","regionId":"region.8dabefc8-84bc-40f3-a974-45c9aafcbe44","countryId":"country.1fog5xu"},"geometry":{"type":"Polygon","coordinates":[[[8.3272,35.6214],[8.4408,35.6654],[8.6023,35.649],[8.6993,35.7841],[9.0022,35.7034],[9.0218,35.8258],[9.1502,36.0452],[9.0276,36.1434],[8.9173,36.4381],[8.5914,36.4044],[8.3554,36.3561],[8.2684,35.9699],[8.2414,35.8277],[8.3272,35.6214]]]}},{"type":"Feature","properties":{"sourceId":"1159309385","regionId":"region.7a444fdf-8fec-4856-b41c-9545ca788bfe","countryId":"country.1fog5xu"},"geometry":{"type":"Polygon","coordinates":[[[10.0101,34.1731],[9.9306,34.1582],[9.7137,34.2487],[9.5585,34.2523],[9.2678,34.2048],[9.3354,34.1024],[9.2723,34.0593],[9.2685,33.9177],[9.376,33.7205],[9.5884,33.575],[9.5544,33.4828],[9.7407,33.2912],[10.0594,33.3287],[10.2729,33.4369],[10.4602,33.6527],[10.3303,33.7028],[10.1631,33.8362],[10.0488,33.9835],[10.0101,34.1731]]]}},{"type":"Feature","properties":{"sourceId":"1159309343","regionId":"region.7f473b9b-0970-4528-92ec-efa74f9ccdb4","countryId":"country.1fog5xu"},"geometry":{"type":"Polygon","coordinates":[[[11.0159,35.0928],[10.6238,35.2424],[10.4208,35.1086],[10.2287,35.1465],[10.0516,35.014],[9.8265,34.6507],[9.8394,34.596],[10.0502,34.5465],[10.0352,34.4744],[9.7175,34.3196],[9.7137,34.2487],[9.9306,34.1582],[10.0101,34.1731],[10.1267,34.3256],[10.3787,34.4231],[10.4319,34.4963],[10.597,34.5447],[10.9163,34.8736],[10.9177,34.9574],[11.0159,35.0928]]]}},{"type":"Feature","properties":{"sourceId":"1159309393","regionId":"region.b12c5b90-a5b1-4b6f-99d6-91fefd2a50d3","countryId":"country.1fog5xu"},"geometry":{"type":"Polygon","coordinates":[[[11.0139,35.5629],[10.8404,35.4605],[10.6011,35.502],[10.5389,35.4201],[10.3569,35.492],[10.3057,35.5762],[10.1742,35.3591],[10.2287,35.1465],[10.4208,35.1086],[10.6238,35.2424],[11.0159,35.0928],[11.1116,35.2056],[11.0422,35.3344],[11.0577,35.4867],[11.0139,35.5629]]]}},{"type":"Feature","properties":{"sourceId":"1159308453","regionId":"region.9941a1ea-fcf9-469d-8e09-dc73f1432817","countryId":"country.1fog5xu"},"geometry":{"type":"Polygon","coordinates":[[[10.6913,35.7896],[10.6011,35.502],[10.8404,35.4605],[11.0139,35.5629],[10.9718,35.6541],[10.8412,35.6988],[10.8414,35.7665],[10.6913,35.7896]]]}},{"type":"Feature","properties":{"sourceId":"1159308457","regionId":"region.90523a79-6fb9-4fe0-8db7-ee0ba01a600e","countryId":"country.1fog5xu"},"geometry":{"type":"Polygon","coordinates":[[[10.5294,36.3503],[10.3655,36.3651],[10.3518,36.2388],[10.2065,36.1331],[10.2537,36.0063],[10.1624,35.8198],[10.3057,35.5762],[10.3569,35.492],[10.5389,35.4201],[10.6011,35.502],[10.6913,35.7896],[10.6086,35.8559],[10.4795,36.0793],[10.4793,36.217],[10.5294,36.3503]]]}},{"type":"Feature","properties":{"sourceId":"1159309375","regionId":"region.7dbceb88-46c5-4d81-b9d1-73023f529600","countryId":"country.1fog5xu"},"geometry":{"type":"Polygon","coordinates":[[[10.4168,36.7296],[10.3412,36.4706],[10.3655,36.3651],[10.5294,36.3503],[10.7999,36.4519],[11.0221,36.7883],[11.1168,36.8384],[11.0127,37.0848],[10.7335,36.8958],[10.5669,36.8632],[10.5382,36.772],[10.4168,36.7296]]]}},{"type":"Feature","properties":{"sourceId":"1159309369","regionId":"region.55267464-60ed-44f8-b43c-70c5a3464302","countryId":"country.1fog5xu"},"geometry":{"type":"Polygon","coordinates":[[[10.2539,36.7914],[10.2111,36.7222],[10.0547,36.6895],[9.9714,36.6354],[10.1084,36.571],[10.2582,36.4437],[10.3412,36.4706],[10.4168,36.7296],[10.2539,36.7914]]]}},{"type":"Feature","properties":{"sourceId":"1159309379","regionId":"region.ae3e2918-85a1-4abe-a394-124aaeb12b17","countryId":"country.1fog5xu"},"geometry":{"type":"Polygon","coordinates":[[[10.337,36.8918],[9.9979,36.772],[10.0547,36.6895],[10.2111,36.7222],[10.2539,36.7914],[10.337,36.8918]]]}},{"type":"Feature","properties":{"sourceId":"1159309365","regionId":"region.c9b5ba5d-329d-42c7-819a-101d19b101f1","countryId":"country.1fog5xu"},"geometry":{"type":"Polygon","coordinates":[[[10.2182,37.1289],[10.1117,37.1106],[9.9858,36.9348],[9.8079,36.9564],[9.553,36.8293],[9.7625,36.7183],[9.8561,36.5704],[9.9714,36.6354],[10.0547,36.6895],[9.9979,36.772],[10.337,36.8918],[10.2201,36.9766],[10.2182,37.1289]]]}},{"type":"Feature","properties":{"sourceId":"1159309371","regionId":"region.55ccd06d-3dc1-467a-95b9-20c453704a4f","countryId":"country.1fog5xu"},"geometry":{"type":"Polygon","coordinates":[[[9.0794,37.1668],[9.0744,37.0772],[9.1937,37.0253],[9.2542,36.9089],[9.3696,36.8426],[9.4271,36.7337],[9.553,36.8293],[9.8079,36.9564],[9.9858,36.9348],[10.1117,37.1106],[10.2182,37.1289],[10.1463,37.2365],[10.0513,37.2666],[9.8159,37.1518],[9.7718,37.2133],[9.8589,37.3288],[9.6663,37.3354],[9.3425,37.2353],[9.2107,37.2338],[9.0794,37.1668]]]}},{"type":"Feature","properties":{"sourceId":"1159309367","regionId":"region.00ea6a2f-035b-4658-bf8c-b9230be78cc9","countryId":"country.1fog5xu"},"geometry":{"type":"Polygon","coordinates":[[[8.896,37.0189],[8.9771,36.8671],[8.9128,36.7843],[9.0208,36.7429],[9.0737,36.5422],[9.0117,36.4492],[9.1175,36.3731],[9.3181,36.3561],[9.3906,36.44],[9.5715,36.405],[9.7308,36.4429],[9.8561,36.5704],[9.7625,36.7183],[9.553,36.8293],[9.4271,36.7337],[9.3696,36.8426],[9.2542,36.9089],[9.1937,37.0253],[9.0744,37.0772],[9.0794,37.1668],[8.896,37.0189]]]}},{"type":"Feature","properties":{"sourceId":"1159309391","regionId":"region.31b31ea5-7b63-41ea-b183-b40ccceeea27","countryId":"country.1fog5xu"},"geometry":{"type":"Polygon","coordinates":[[[9.4542,35.4879],[9.2775,35.6961],[9.5031,35.7377],[9.4891,35.899],[9.7281,36.0667],[9.7287,36.1755],[9.5737,36.2529],[9.6768,36.3026],[9.7308,36.4429],[9.5715,36.405],[9.3906,36.44],[9.3181,36.3561],[9.1175,36.3731],[9.0117,36.4492],[8.9173,36.4381],[9.0276,36.1434],[9.1502,36.0452],[9.0218,35.8258],[9.0022,35.7034],[9.0829,35.6138],[9.327,35.4807],[9.4542,35.4879]]]}},{"type":"Feature","properties":{"sourceId":"1159309389","regionId":"region.c719bc3b-c511-4a0c-adab-4fc8cb5da8ca","countryId":"country.1fog5xu"},"geometry":{"type":"Polygon","coordinates":[[[9.4542,35.4879],[9.327,35.4807],[9.1482,35.2496],[9.2629,35.1976],[9.2711,35.052],[9.1133,35.0041],[9.051,34.867],[8.8059,34.7506],[8.9676,34.6977],[9.2426,34.6505],[9.2781,34.5517],[9.5629,34.3706],[9.5585,34.2523],[9.7137,34.2487],[9.7175,34.3196],[10.0352,34.4744],[10.0502,34.5465],[9.8394,34.596],[9.8265,34.6507],[10.0516,35.014],[9.9922,35.1459],[9.7079,35.1958],[9.4735,35.3661],[9.4542,35.4879]]]}},{"type":"Feature","properties":{"sourceId":"1159308455","regionId":"region.f4778fa3-c98e-4ad7-a416-c258cd51da7e","countryId":"country.1fog5xu"},"geometry":{"type":"Polygon","coordinates":[[[10.2065,36.1331],[10.0315,36.0112],[9.9031,36.0685],[9.7281,36.0667],[9.4891,35.899],[9.5031,35.7377],[9.2775,35.6961],[9.4542,35.4879],[9.4735,35.3661],[9.7079,35.1958],[9.9922,35.1459],[10.0516,35.014],[10.2287,35.1465],[10.1742,35.3591],[10.3057,35.5762],[10.1624,35.8198],[10.2537,36.0063],[10.2065,36.1331]]]}},{"type":"Feature","properties":{"sourceId":"1159308461","regionId":"region.6dde9d3c-10ff-430a-85e4-957672af181c","countryId":"country.1fog5xu"},"geometry":{"type":"Polygon","coordinates":[[[10.3412,36.4706],[10.2582,36.4437],[10.1084,36.571],[9.9714,36.6354],[9.8561,36.5704],[9.7308,36.4429],[9.6768,36.3026],[9.5737,36.2529],[9.7287,36.1755],[9.7281,36.0667],[9.9031,36.0685],[10.0315,36.0112],[10.2065,36.1331],[10.3518,36.2388],[10.3655,36.3651],[10.3412,36.4706]]]}}]}