{"type":"FeatureCollection","features":[{"type":"Feature","properties":{"sourceId":"1159313651","regionId":"region.efa3d780-f3de-4e3d-a29d-ba5b8320d40a","countryId":"country.mce667"},"geometry":{"type":"Polygon","coordinates":[[[18.6264,3.4769],[18.5134,3.5922],[18.2485,3.5749],[18.1816,3.4774],[18.082,3.5635],[17.8564,3.5373],[17.8083,3.6086],[17.4145,3.6834],[17.3344,3.6185],[16.9686,3.5335],[16.6394,3.5286],[16.5677,3.4644],[16.5115,3.2272],[16.4655,3.1565],[16.4908,3.0678],[16.4455,2.9577],[16.4838,2.8604],[16.4275,2.7265],[16.5597,2.5081],[16.6724,2.4896],[16.7341,2.388],[16.7571,2.1156],[16.7219,2.0526],[16.7562,1.7965],[16.706,1.6619],[16.7313,1.5429],[16.6985,1.4744],[16.796,1.2004],[16.7735,1.0593],[16.6931,0.9868],[16.7157,0.8262],[17.0495,0.3941],[17.203,0.2104],[17.1512,0.0704],[17.1873,-0.1728],[17.1533,-0.2025],[17.1392,-0.4407],[17.2173,-0.4734],[17.208,-0.688],[17.2805,-0.7461],[17.5459,-0.7565],[17.7495,-0.5234],[17.7164,-0.1958],[17.7571,-0.0095],[17.854,0.2411],[17.9399,0.3613],[17.952,0.4743],[17.8993,0.5833],[17.9077,0.7405],[17.8666,1.0166],[17.9634,1.1915],[18.0123,1.422],[18.0714,1.5515],[18.0724,2.16],[18.174,2.3361],[18.2462,2.5189],[18.3932,2.7137],[18.5284,3.0648],[18.6131,3.1282],[18.6424,3.3238],[18.6264,3.4769]]]}},{"type":"Feature","properties":{"sourceId":"1159315051","regionId":"region.f5f407bd-4d72-461f-95e5-f049d1f669b7","countryId":"country.mce667"},"geometry":{"type":"Polygon","coordinates":[[[17.5459,-0.7565],[17.2805,-0.7461],[17.208,-0.688],[17.2173,-0.4734],[17.1392,-0.4407],[17.1533,-0.2025],[17.1873,-0.1728],[17.1512,0.0704],[17.203,0.2104],[17.0495,0.3941],[16.3415,0.0421],[16.2183,0.1185],[16.1282,0.1239],[16.1045,0.2573],[15.8753,0.4435],[15.734,0.4653],[15.5853,0.4232],[15.5271,0.3536],[15.2853,0.4114],[15.134,0.3011],[15.2275,0.1966],[15.1928,0.075],[14.8975,0.033],[14.9022,-0.0979],[14.9503,-0.2256],[15.0891,-0.2606],[15.1502,-0.4734],[15.1093,-0.5756],[15.0098,-0.6879],[15.1669,-0.8247],[15.1457,-0.9354],[14.9924,-1.0942],[14.7297,-1.1186],[14.4394,-1.1857],[14.4323,-1.3501],[14.4821,-1.3886],[14.3738,-1.6041],[14.403,-1.6709],[14.3686,-1.9221],[14.388,-2.015],[14.4805,-2.0174],[14.5876,-1.9305],[14.7627,-1.6624],[14.8736,-1.592],[14.9843,-1.5687],[15.0907,-1.4446],[15.1426,-1.2823],[15.2286,-1.153],[15.3678,-1.0649],[15.4429,-0.978],[15.5801,-0.9382],[15.7093,-0.9589],[15.7476,-1.0568],[15.903,-1.1198],[15.948,-1.1779],[16.0933,-1.2206],[16.2699,-1.3165],[16.3433,-1.4735],[16.4413,-1.5423],[16.5439,-1.5271],[16.656,-1.5903],[16.8397,-1.2625],[17.0287,-1.0945],[17.2977,-1.0211],[17.5459,-0.7565]]]}},{"type":"Feature","properties":{"sourceId":"1159315059","regionId":"region.3ceb163e-5742-427c-bff0-145103a58dd3","countryId":"country.mce667"},"geometry":{"type":"Polygon","coordinates":[[[16.656,-1.5903],[16.5439,-1.5271],[16.4413,-1.5423],[16.3433,-1.4735],[16.2699,-1.3165],[16.0933,-1.2206],[15.948,-1.1779],[15.903,-1.1198],[15.7476,-1.0568],[15.7093,-0.9589],[15.5801,-0.9382],[15.4429,-0.978],[15.3678,-1.0649],[15.2286,-1.153],[15.1426,-1.2823],[15.0907,-1.4446],[14.9843,-1.5687],[14.8736,-1.592],[14.7627,-1.6624],[14.5876,-1.9305],[14.4805,-2.0174],[14.388,-2.015],[14.3686,-1.9221],[14.2522,-1.9676],[14.2384,-2.1202],[14.1512,-2.259],[14.227,-2.3231],[14.1006,-2.4781],[14.1862,-2.6183],[14.2977,-2.6955],[14.3394,-2.8625],[14.2609,-2.9813],[14.5205,-3.0806],[14.8002,-2.7702],[14.8933,-2.7175],[14.9392,-2.8942],[15.1056,-2.8922],[15.2428,-3.0198],[15.4736,-3.0064],[15.7249,-2.8459],[15.8231,-2.8248],[16.0336,-2.9462],[16.184,-2.9404],[16.2256,-2.6352],[16.1769,-2.2868],[16.2313,-2.129],[16.525,-1.8585],[16.6172,-1.7287],[16.656,-1.5903]]]}},{"type":"Feature","properties":{"sourceId":"1159315049","regionId":"region.2987ed3b-d1d1-492b-87d6-9f47706a3d6a","countryId":"country.mce667"},"geometry":{"type":"Polygon","coordinates":[[[16.184,-2.9404],[16.0336,-2.9462],[15.8231,-2.8248],[15.7249,-2.8459],[15.4736,-3.0064],[15.2428,-3.0198],[15.1056,-2.8922],[14.9392,-2.8942],[14.8933,-2.7175],[14.8002,-2.7702],[14.5205,-3.0806],[14.2609,-2.9813],[14.1621,-3.0536],[14.1137,-3.191],[13.9207,-3.4157],[13.8603,-3.5384],[14.0401,-3.5686],[14.1505,-3.4581],[14.2431,-3.5003],[14.3075,-3.6323],[14.2128,-3.6907],[14.3773,-3.9514],[14.2482,-3.9875],[14.1439,-4.0948],[14.1607,-4.1514],[13.9621,-4.2837],[13.9054,-4.4901],[14.0211,-4.4154],[14.1464,-4.3899],[14.3686,-4.2784],[14.4665,-4.448],[14.35,-4.5669],[14.4069,-4.676],[14.3965,-4.8559],[14.5199,-4.8413],[14.6345,-4.9036],[14.8312,-4.8151],[14.931,-4.6469],[15.0761,-4.5201],[14.956,-4.364],[15.0263,-4.2643],[15.1179,-4.0294],[15.094,-3.8622],[15.2152,-3.7386],[15.2749,-3.448],[15.4345,-3.5077],[15.5539,-3.6391],[15.7118,-3.4981],[15.8034,-3.534],[15.9578,-3.8151],[16.1155,-3.5442],[16.2275,-3.2899],[16.184,-2.9404]]]}},{"type":"Feature","properties":{"sourceId":"1159315941","regionId":"region.7c8b7329-7593-4c2f-985a-2901096f1b6f","countryId":"country.mce667"},"geometry":{"type":"Polygon","coordinates":[[[15.9578,-3.8151],[15.8034,-3.534],[15.7118,-3.4981],[15.5539,-3.6391],[15.4345,-3.5077],[15.2749,-3.448],[15.2152,-3.7386],[15.094,-3.8622],[15.1179,-4.0294],[15.0263,-4.2643],[14.956,-4.364],[15.0761,-4.5201],[15.1507,-4.4252],[15.204,-4.339],[15.4589,-4.2138],[15.5668,-4.038],[15.888,-3.9405],[15.9578,-3.8151]]]}},{"type":"Feature","properties":{"sourceId":"1159313347","regionId":"region.97484ab4-d69d-4bf8-85b4-14bf0582cfe3","countryId":"country.mce667"},"geometry":{"type":"Polygon","coordinates":[[[13.5799,-4.783],[13.6901,-4.6911],[13.711,-4.4645],[13.79,-4.4246],[13.9054,-4.4901],[13.9621,-4.2837],[14.1607,-4.1514],[14.1439,-4.0948],[14.2482,-3.9875],[14.3773,-3.9514],[14.2128,-3.6907],[14.3075,-3.6323],[14.2431,-3.5003],[14.1505,-3.4581],[14.0401,-3.5686],[13.8603,-3.5384],[13.7172,-3.7331],[13.6136,-3.7662],[13.5128,-4.0206],[13.3809,-4.0393],[13.3468,-3.928],[13.0305,-3.9276],[12.8998,-3.8322],[12.7959,-3.5623],[12.6569,-3.5282],[12.6173,-3.6047],[12.6448,-3.7587],[12.6046,-3.8093],[12.8643,-4.093],[12.9888,-4.3195],[13.0642,-4.3776],[13.2401,-4.4036],[13.387,-4.6219],[13.5625,-4.7269],[13.5799,-4.783]]]}},{"type":"Feature","properties":{"sourceId":"1159315057","regionId":"region.d4ea9570-87e2-4d04-9cbc-3ac669dbea59","countryId":"country.mce667"},"geometry":{"type":"Polygon","coordinates":[[[13.0737,-4.6353],[13.3588,-4.7948],[13.3927,-4.8853],[13.4935,-4.7997],[13.5799,-4.783],[13.5625,-4.7269],[13.387,-4.6219],[13.2401,-4.4036],[13.0642,-4.3776],[12.9888,-4.3195],[12.8643,-4.093],[12.6046,-3.8093],[12.6448,-3.7587],[12.6173,-3.6047],[12.6569,-3.5282],[12.6043,-3.4159],[12.7242,-3.3002],[12.9229,-3.2851],[13.108,-3.1398],[13.1297,-2.9886],[13.0189,-2.915],[13.0749,-2.8081],[13.0379,-2.6034],[13.051,-2.3863],[12.994,-2.3601],[12.9824,-2.233],[12.9071,-2.1954],[12.8046,-1.9191],[12.741,-1.8907],[12.6324,-1.8252],[12.45,-1.8993],[12.4315,-2.0054],[12.4702,-2.1563],[12.4593,-2.3299],[12.0623,-2.415],[11.9384,-2.3291],[11.7561,-2.4151],[11.6697,-2.3527],[11.5582,-2.3494],[11.6103,-2.6789],[11.5356,-2.805],[11.6368,-2.8333],[11.7637,-2.9826],[11.7064,-3.0499],[11.6875,-3.171],[11.9444,-3.3032],[11.8278,-3.5481],[11.8985,-3.6224],[11.8408,-3.71],[12.0619,-3.8665],[12.3518,-3.9813],[12.4522,-4.05],[12.5545,-4.1851],[12.5908,-4.3195],[12.7322,-4.3466],[12.7827,-4.4001],[13.0737,-4.6353]]]}},{"type":"Feature","properties":{"sourceId":"1159315053","regionId":"region.c1916477-06b7-46ca-8b17-a291cb861d7a","countryId":"country.mce667"},"geometry":{"type":"Polygon","coordinates":[[[12.7827,-4.4001],[12.7322,-4.3466],[12.5908,-4.3195],[12.5545,-4.1851],[12.4522,-4.05],[12.3518,-3.9813],[12.0619,-3.8665],[11.8408,-3.71],[11.6492,-3.6733],[11.5698,-3.5449],[11.4826,-3.5093],[11.414,-3.5876],[11.2125,-3.6973],[11.114,-3.9369],[11.3582,-4.1119],[11.4014,-4.2214],[11.693,-4.4635],[11.8064,-4.5771],[11.7816,-4.6804],[11.8417,-4.7415],[11.8982,-4.7418],[11.8862,-4.8552],[12.0096,-5.0196],[12.2352,-4.804],[12.3324,-4.7659],[12.3776,-4.6194],[12.6081,-4.565],[12.7827,-4.4001]]]}},{"type":"Feature","properties":{"sourceId":"1159313653","regionId":"region.25895792-670e-4a78-8c2c-1d17c83ae20c","countryId":"country.mce667"},"geometry":{"type":"Polygon","coordinates":[[[13.2946,2.1611],[13.2811,2.045],[13.2069,1.9936],[13.1925,1.8447],[13.1296,1.5925],[13.2395,1.428],[13.2336,1.3088],[13.1849,1.2226],[13.4139,1.2955],[13.5434,1.2835],[13.6422,1.3574],[13.7582,1.3765],[13.7947,1.4344],[14.1244,1.3936],[14.2199,1.355],[14.4941,1.3911],[14.5284,1.2647],[14.5866,1.2204],[14.773,1.1819],[14.9497,1.0604],[15.0747,1.0435],[15.1534,0.9554],[15.07,0.8885],[15.0942,0.8127],[15.0915,0.527],[15.2853,0.4114],[15.5271,0.3536],[15.5853,0.4232],[15.734,0.4653],[15.8753,0.4435],[16.1045,0.2573],[16.1282,0.1239],[16.2183,0.1185],[16.3415,0.0421],[17.0495,0.3941],[16.7157,0.8262],[16.6931,0.9868],[16.7735,1.0593],[16.796,1.2004],[16.6985,1.4744],[16.7313,1.5429],[16.706,1.6619],[16.7562,1.7965],[16.7219,2.0526],[16.7571,2.1156],[16.7341,2.388],[16.6724,2.4896],[16.5597,2.5081],[16.4275,2.7265],[16.1967,2.2365],[16.1044,2.1936],[16.0649,1.979],[16.159,1.7348],[16.0699,1.6546],[16.0263,1.7523],[15.8899,1.7933],[15.7647,1.9087],[15.4829,1.9759],[15.3492,1.9233],[15.2337,2.0313],[15.0916,1.9844],[14.963,2.0104],[14.8715,2.1017],[14.7057,2.1055],[14.5621,2.2088],[14.4187,2.1353],[14.267,2.1524],[13.6623,2.1578],[13.2946,2.1611]]]}},{"type":"Feature","properties":{"sourceId":"1159311299","regionId":"region.46e24952-2d51-42f4-b80c-e8c4641d7a61","countryId":"country.mce667"},"geometry":{"type":"Polygon","coordinates":[[[14.2199,1.355],[14.2747,1.1556],[14.4008,0.9703],[14.4681,0.9132],[14.4476,0.8162],[14.3384,0.6939],[14.3288,0.6212],[14.2318,0.5426],[14.076,0.5395],[14.0404,0.4138],[13.9452,0.3504],[13.8712,0.1964],[13.8881,-0.0921],[13.8312,-0.2054],[14.0588,-0.2588],[14.1214,-0.3022],[14.1597,-0.4551],[14.2927,-0.4364],[14.4665,-0.5527],[14.499,-0.6309],[14.4516,-0.7512],[14.4571,-0.8561],[14.3918,-1.0233],[14.4394,-1.1857],[14.7297,-1.1186],[14.9924,-1.0942],[15.1457,-0.9354],[15.1669,-0.8247],[15.0098,-0.6879],[15.1093,-0.5756],[15.1502,-0.4734],[15.0891,-0.2606],[14.9503,-0.2256],[14.9022,-0.0979],[14.8975,0.033],[15.1928,0.075],[15.2275,0.1966],[15.134,0.3011],[15.2853,0.4114],[15.0915,0.527],[15.0942,0.8127],[15.07,0.8885],[15.1534,0.9554],[15.0747,1.0435],[14.9497,1.0604],[14.773,1.1819],[14.5866,1.2204],[14.5284,1.2647],[14.4941,1.3911],[14.2199,1.355]]]}},{"type":"Feature","properties":{"sourceId":"1159315055","regionId":"region.59d3c4bf-8843-49ed-bde0-94de6c2daadf","countryId":"country.mce667"},"geometry":{"type":"Polygon","coordinates":[[[14.1006,-2.4781],[13.885,-2.4885],[13.8639,-2.3215],[13.7707,-2.1191],[13.5934,-2.3268],[13.4454,-2.4271],[13.361,-2.4288],[13.1867,-2.3641],[12.994,-2.3601],[13.051,-2.3863],[13.0379,-2.6034],[13.0749,-2.8081],[13.0189,-2.915],[13.1297,-2.9886],[13.108,-3.1398],[12.9229,-3.2851],[12.7242,-3.3002],[12.6043,-3.4159],[12.6569,-3.5282],[12.7959,-3.5623],[12.8998,-3.8322],[13.0305,-3.9276],[13.3468,-3.928],[13.3809,-4.0393],[13.5128,-4.0206],[13.6136,-3.7662],[13.7172,-3.7331],[13.8603,-3.5384],[13.9207,-3.4157],[14.1137,-3.191],[14.1621,-3.0536],[14.2609,-2.9813],[14.3394,-2.8625],[14.2977,-2.6955],[14.1862,-2.6183],[14.1006,-2.4781]]]}},{"type":"Feature","properties":{"sourceId":"1159317835","regionId":"region.dc6b7bbf-22d5-491a-a6f0-06e5da7ab725","countryId":"country.mce667"},"geometry":{"type":"Polygon","coordinates":[[[11.8862,-4.8552],[11.8982,-4.7418],[11.8417,-4.7415],[11.8862,-4.8552]]]}}]}