{"type":"FeatureCollection","features":[{"type":"Feature","properties":{"sourceId":"1159310437","regionId":"region.482b9ab3-1327-49f1-89bb-a049a31e8ec2","countryId":"country.17se0x"},"geometry":{"type":"Polygon","coordinates":[[[50.8079,24.7466],[50.7264,24.8817],[50.5622,25.0548],[50.5251,25.2927],[50.4629,25.4469],[50.348,25.4821],[50.2341,25.6152],[50.1183,25.8679],[50.1013,25.9895],[49.9758,26.1396],[50.1584,26.1025],[50.216,26.2151],[50.1916,26.4036],[50.0306,26.4946],[49.9421,26.8583],[49.8718,26.8625],[49.6995,26.9582],[49.5164,27.1884],[49.4071,27.1327],[49.3384,27.1896],[49.3049,27.3255],[49.1614,27.4269],[49.2398,27.5451],[49.0889,27.5511],[48.9685,27.6203],[48.8733,27.6125],[48.7852,27.7447],[48.8779,27.8368],[48.6065,28.1265],[48.6184,28.2173],[48.5349,28.2988],[48.4946,28.5001],[48.4328,28.5405],[47.6681,28.5335],[47.5968,28.6088],[47.5499,28.7706],[47.4463,28.9762],[47.4341,28.9946],[46.5324,29.0957],[46.4273,29.0761],[45.9409,28.9063],[45.801,28.8382],[45.5648,28.6023],[45.2127,28.0165],[44.9953,27.773],[44.9387,27.6195],[44.99,27.5326],[45.1583,27.3917],[45.2453,27.2319],[45.5285,27.0857],[45.6924,27.0534],[45.8691,26.8883],[45.9773,26.8446],[46.1425,26.8402],[46.2938,26.7861],[46.5406,26.6271],[46.8518,26.6101],[47.083,26.398],[47.403,26.2826],[47.465,26.1746],[47.4876,24.8337],[47.5346,24.7346],[47.8885,24.5021],[48.1412,24.2701],[48.2232,24.1587],[48.2896,23.9999],[48.2991,23.655],[48.0142,21.5002],[47.7451,19.5313],[47.4286,17.0931],[47.589,17.4633],[48.1619,18.1489],[49.0358,18.5797],[49.1288,18.6121],[49.7384,18.6942],[51.0198,18.8666],[51.9786,18.9956],[52.7744,19.2608],[53.63,19.546],[54.3146,19.7742],[54.9784,19.9954],[55.3446,21.0969],[55.6002,21.8661],[55.6267,22.0238],[55.1868,22.7036],[55.1053,22.6209],[54.1343,22.7403],[53.4389,22.8259],[52.5831,22.9311],[52.5385,22.9548],[52.2241,23.3284],[51.5935,24.0783],[51.5693,24.2562],[51.4129,24.3235],[51.2822,24.303],[51.3064,24.406],[51.3953,24.4879],[51.2688,24.6245],[51.2153,24.6259],[51.0955,24.5602],[50.9789,24.5677],[50.881,24.6364],[50.8079,24.7466]]]}},{"type":"Feature","properties":{"sourceId":"1159309301","regionId":"region.bd8d4518-9754-4bca-aba1-b5d300ff4ec4","countryId":"country.17se0x"},"geometry":{"type":"Polygon","coordinates":[[[42.7834,30.551],[42.0754,31.0799],[41.5476,31.3487],[40.4241,31.9205],[40.0293,31.9944],[39.1464,32.1181],[38.9633,31.9944],[37.9865,31.7534],[37.8661,31.3719],[37.8765,31.2311],[38.0494,31.0781],[38.1296,30.9487],[38.3057,30.883],[38.7512,30.9215],[39.0589,30.9609],[39.1919,30.9581],[39.8678,30.8682],[40.0215,30.7773],[40.1754,30.7363],[40.9511,30.711],[41.2112,30.5508],[41.4643,30.5299],[41.589,30.4382],[41.6813,30.2815],[41.8792,30.1399],[41.8827,30.0618],[41.7547,29.9642],[40.9196,29.511],[40.8113,29.4383],[40.7418,29.3336],[40.7165,29.0004],[40.5436,28.8163],[40.7396,28.7601],[41.2706,28.8679],[41.4166,28.8704],[41.659,28.8009],[42.001,28.8309],[42.3424,28.7606],[42.4336,28.7151],[42.6184,28.5461],[42.7377,28.5266],[42.8765,28.5825],[43.0005,28.5716],[43.0301,28.4321],[43.0872,28.3895],[43.3026,28.3789],[43.4961,28.3184],[43.6531,28.4024],[43.7824,28.3708],[43.9512,28.1008],[44.0353,27.9035],[44.1824,27.7991],[44.4908,27.7576],[44.5934,27.7095],[44.7989,27.5204],[44.9016,27.4582],[44.99,27.5326],[44.9387,27.6195],[44.9953,27.773],[45.2127,28.0165],[45.5648,28.6023],[45.801,28.8382],[45.9409,28.9063],[46.4273,29.0761],[46.3575,29.0631],[45.4349,29.1362],[44.6918,29.2018],[43.824,29.814],[42.7834,30.551]]]}},{"type":"Feature","properties":{"sourceId":"1159309303","regionId":"region.e7cb3a7e-e87d-48c0-8d96-1a1a4a19e5cc","countryId":"country.17se0x"},"geometry":{"type":"Polygon","coordinates":[[[37.2217,31.2473],[37.48,31.0073],[37.9811,30.4995],[37.6345,30.3128],[37.4702,29.9946],[36.7562,29.8655],[36.7049,29.8312],[36.4771,29.4946],[36.0695,29.2],[35.7403,29.2317],[34.9494,29.3517],[34.8526,29.0451],[34.8428,28.8846],[34.9965,28.8908],[35.2199,28.8612],[35.3737,28.9293],[35.8552,28.9843],[36.0512,28.9419],[36.1524,28.8794],[36.41,28.5831],[36.5051,28.5618],[36.8545,28.6446],[36.9911,28.6373],[37.2259,28.5774],[37.4496,28.5847],[37.5454,28.7543],[37.6945,28.8599],[37.7724,28.8071],[37.7726,28.5005],[37.8444,28.3631],[37.9566,28.2912],[38.1282,28.2461],[38.3639,28.2294],[38.4561,28.2582],[38.5965,28.2279],[38.6619,28.1395],[38.9038,28.2079],[39.0001,28.1679],[39.1563,28.3027],[39.5347,28.4613],[39.7095,28.504],[40.0804,28.6904],[40.4589,28.8272],[40.5436,28.8163],[40.7165,29.0004],[40.7418,29.3336],[40.8113,29.4383],[40.9196,29.511],[41.7547,29.9642],[41.8827,30.0618],[41.8792,30.1399],[41.6813,30.2815],[41.589,30.4382],[41.4643,30.5299],[41.2112,30.5508],[40.9511,30.711],[40.1754,30.7363],[40.0215,30.7773],[39.8678,30.8682],[39.1919,30.9581],[39.0589,30.9609],[38.7512,30.9215],[38.3057,30.883],[38.1296,30.9487],[38.0494,31.0781],[37.8765,31.2311],[37.8661,31.3719],[37.9865,31.7534],[37.7614,31.6961],[36.9979,31.5008],[37.2217,31.2473]]]}},{"type":"Feature","properties":{"sourceId":"1159310499","regionId":"region.16c9d370-643a-4c07-8379-38c63157c241","countryId":"country.17se0x"},"geometry":{"type":"Polygon","coordinates":[[[47.4286,17.0931],[47.7451,19.5313],[47.615,19.4961],[45.2726,19.2569],[45.0143,19.2737],[44.795,19.3477],[44.5168,19.5126],[44.5052,19.3318],[44.4138,19.2744],[44.3598,19.1685],[44.3956,18.9248],[44.3325,18.8165],[44.0611,18.6915],[43.9683,18.5442],[43.6941,18.2906],[43.6382,18.1691],[43.6764,17.9979],[43.6436,17.6847],[43.6662,17.5703],[43.6384,17.4385],[43.7506,17.3457],[44.1045,17.352],[44.4041,17.4187],[44.562,17.4045],[44.6465,17.4318],[44.9725,17.4297],[45.2221,17.4174],[45.4304,17.312],[46.3226,17.2241],[46.7101,17.2754],[46.7472,17.2548],[46.9703,16.9568],[46.997,16.9485],[47.1909,16.9589],[47.4286,17.0931]]]}},{"type":"Feature","properties":{"sourceId":"1159309309","regionId":"region.ad86651f-583a-40a3-91bf-74b00c822126","countryId":"country.17se0x"},"geometry":{"type":"Polygon","coordinates":[[[43.6384,17.4385],[43.6662,17.5703],[43.6436,17.6847],[43.6764,17.9979],[43.6382,18.1691],[43.6941,18.2906],[43.9683,18.5442],[44.0611,18.6915],[44.3325,18.8165],[44.3956,18.9248],[44.3598,19.1685],[44.4138,19.2744],[44.5052,19.3318],[44.5168,19.5126],[44.1064,19.867],[43.9368,20.1069],[43.9687,20.3343],[44.062,20.5391],[43.8137,20.8535],[43.6675,20.9762],[43.404,20.8506],[43.2216,20.865],[42.9517,20.8105],[42.6345,20.6241],[42.3812,20.4081],[42.2313,20.3449],[42.1528,20.3987],[42.032,20.6249],[41.9844,20.4714],[42.0306,20.373],[41.9835,20.2757],[41.8435,20.1783],[41.7998,20.0037],[41.6987,19.7971],[41.8586,19.7622],[41.8337,19.5702],[41.8893,19.3834],[41.8317,19.2448],[41.5882,19.2205],[41.4937,19.1598],[41.3905,19.1534],[41.3837,18.9204],[41.4709,18.7856],[41.6663,18.7763],[41.7344,18.7229],[41.803,18.5252],[41.7707,18.314],[41.9226,18.3121],[41.9172,18.1379],[41.9623,18.0452],[42.0744,18.0461],[42.1667,17.9237],[42.3678,17.9051],[42.6291,17.6608],[42.6907,17.7018],[42.7899,17.9433],[42.9252,17.9927],[42.9626,17.8672],[43.1448,17.666],[43.2216,17.6399],[43.342,17.4825],[43.435,17.5229],[43.6384,17.4385]]]}},{"type":"Feature","properties":{"sourceId":"1159309137","regionId":"region.ac880daf-a489-479f-b975-3b5fa910087f","countryId":"country.17se0x"},"geometry":{"type":"MultiPolygon","coordinates":[[[[43.1857,16.6848],[43.2086,16.7734],[43.1087,16.927],[43.1562,17.2097],[43.2486,17.2519],[43.2159,17.3872],[43.342,17.4825],[43.2216,17.6399],[43.1448,17.666],[42.9626,17.8672],[42.9252,17.9927],[42.7899,17.9433],[42.6907,17.7018],[42.6291,17.6608],[42.3678,17.9051],[42.1667,17.9237],[42.0744,18.0461],[41.9623,18.0452],[41.9172,18.1379],[41.9226,18.3121],[41.7707,18.314],[41.5971,18.1211],[41.7192,17.9092],[41.8695,17.8205],[42.0935,17.6521],[42.3015,17.4536],[42.3391,17.1736],[42.4375,17.0651],[42.5442,17.0043],[42.5418,16.878],[42.6358,16.8152],[42.7373,16.6711],[42.7249,16.5664],[42.7883,16.4719],[42.7895,16.371],[42.9174,16.4838],[43.0363,16.5363],[43.0849,16.6726],[43.1857,16.6848]]],[[[41.9189,16.7912],[41.9452,16.9423],[41.835,16.8917],[41.9189,16.7912]]]]}},{"type":"Feature","properties":{"sourceId":"1159309247","regionId":"region.023114e0-c5c2-4903-9cf3-938fa78e5588","countryId":"country.17se0x"},"geometry":{"type":"Polygon","coordinates":[[[37.3828,24.5396],[37.4313,24.657],[37.638,24.6895],[37.7348,24.7772],[37.9437,24.797],[38.0005,24.8726],[37.9881,25.2017],[38.0234,25.4291],[37.8687,25.5215],[37.8031,25.719],[37.6248,25.8843],[37.5463,26.0197],[37.3677,26.1123],[37.2723,26.0778],[37.1669,26.3355],[37.2527,26.5079],[37.2539,26.5927],[37.0538,26.6741],[36.9795,26.8416],[36.9851,27.1199],[36.8241,27.2407],[36.9391,27.2664],[37.1957,27.3745],[37.4057,27.3115],[37.5451,27.303],[37.7322,27.3933],[37.8176,27.3385],[37.9405,27.0953],[38.1363,27.0534],[38.2312,26.9399],[38.4007,26.8106],[38.4907,26.8747],[38.6573,26.8424],[38.8103,26.8481],[38.9953,26.7718],[39.1159,26.6888],[39.3039,26.6719],[39.7196,26.7296],[39.8162,26.6568],[40,26.9904],[40.1575,27.1254],[40.1656,27.1873],[39.9198,27.361],[39.7875,27.7955],[39.472,28.0244],[39.058,28.1294],[39.0001,28.1679],[38.9038,28.2079],[38.6619,28.1395],[38.5965,28.2279],[38.4561,28.2582],[38.3639,28.2294],[38.1282,28.2461],[37.9566,28.2912],[37.8444,28.3631],[37.7726,28.5005],[37.7724,28.8071],[37.6945,28.8599],[37.5454,28.7543],[37.4496,28.5847],[37.2259,28.5774],[36.9911,28.6373],[36.8545,28.6446],[36.5051,28.5618],[36.41,28.5831],[36.1524,28.8794],[36.0512,28.9419],[35.8552,28.9843],[35.3737,28.9293],[35.2199,28.8612],[34.9965,28.8908],[34.8428,28.8846],[34.7785,28.6645],[34.8038,28.5271],[34.6267,28.1605],[34.779,28.0958],[34.9009,28.0823],[35.0519,28.1196],[35.2163,28.0544],[35.1815,28.0029],[35.3228,27.8763],[35.492,27.6324],[35.5596,27.4556],[35.8128,27.1911],[35.8317,27.0927],[35.9767,26.9477],[36.0977,26.754],[36.2298,26.6256],[36.3828,26.3345],[36.5366,26.0824],[36.6961,26.0223],[36.6634,25.8557],[36.7249,25.7539],[36.8174,25.758],[36.9363,25.6461],[37.1053,25.3222],[37.2305,25.1937],[37.28,24.9641],[37.2566,24.8712],[37.1486,24.851],[37.3828,24.5396]]]}},{"type":"Feature","properties":{"sourceId":"1159309295","regionId":"region.8e82ba24-9c80-4267-9c7b-8f406de0d279","countryId":"country.17se0x"},"geometry":{"type":"Polygon","coordinates":[[[38.6438,23.4195],[38.9002,23.4492],[39.2068,23.1665],[39.4341,23.1711],[39.4867,23.0681],[39.8697,23.1535],[39.9426,23.1148],[39.9421,22.9812],[39.8984,22.8051],[40.0517,22.7348],[40.1049,22.4998],[40.2658,22.5125],[40.4089,22.6163],[40.6649,22.5863],[40.8023,22.7572],[41.0872,22.9648],[41.2841,23.1335],[41.4003,23.1733],[41.4301,23.2708],[41.2817,23.3574],[41.3614,23.4633],[41.6688,23.6024],[41.7645,23.7304],[41.7364,23.9232],[41.7924,23.964],[41.9864,23.9493],[42.0013,24.4052],[42.0963,24.6115],[41.96,24.7442],[41.8734,24.999],[41.7144,25.0467],[41.6374,25.1472],[41.6564,25.4064],[41.6101,25.486],[41.4098,25.5365],[41.0443,25.5981],[40.8713,25.5915],[40.7593,25.5408],[40.6282,25.4186],[40.3621,25.3956],[40.1138,25.3164],[39.9937,25.3374],[39.9475,25.4221],[39.9565,25.6879],[39.9042,25.9528],[39.9597,26.2884],[39.7788,26.4088],[39.8404,26.5473],[39.8162,26.6568],[39.7196,26.7296],[39.3039,26.6719],[39.1159,26.6888],[38.9953,26.7718],[38.8103,26.8481],[38.6573,26.8424],[38.4907,26.8747],[38.4007,26.8106],[38.2312,26.9399],[38.1363,27.0534],[37.9405,27.0953],[37.8176,27.3385],[37.7322,27.3933],[37.5451,27.303],[37.4057,27.3115],[37.1957,27.3745],[36.9391,27.2664],[36.8241,27.2407],[36.9851,27.1199],[36.9795,26.8416],[37.0538,26.6741],[37.2539,26.5927],[37.2527,26.5079],[37.1669,26.3355],[37.2723,26.0778],[37.3677,26.1123],[37.5463,26.0197],[37.6248,25.8843],[37.8031,25.719],[37.8687,25.5215],[38.0234,25.4291],[37.9881,25.2017],[38.0005,24.8726],[37.9437,24.797],[37.7348,24.7772],[37.638,24.6895],[37.4313,24.657],[37.3828,24.5396],[37.4567,24.4412],[37.4294,24.3673],[37.5227,24.2677],[37.6761,24.2912],[37.8656,24.1499],[38.0791,24.0704],[38.1854,23.9759],[38.3653,23.8704],[38.4526,23.784],[38.4948,23.6446],[38.6002,23.5682],[38.6438,23.4195]]]}},{"type":"Feature","properties":{"sourceId":"1159309311","regionId":"region.8f7a6b69-5f22-4f77-83b9-26bf425eccfb","countryId":"country.17se0x"},"geometry":{"type":"Polygon","coordinates":[[[41.5971,18.1211],[41.7707,18.314],[41.803,18.5252],[41.7344,18.7229],[41.6663,18.7763],[41.4709,18.7856],[41.3837,18.9204],[41.3905,19.1534],[41.4937,19.1598],[41.5882,19.2205],[41.8317,19.2448],[41.8893,19.3834],[41.8337,19.5702],[41.8586,19.7622],[41.6987,19.7971],[41.5054,19.7687],[41.4565,19.7037],[41.3486,19.3985],[41.1705,19.3969],[40.9691,19.5796],[40.958,19.9113],[40.9162,20.0003],[40.8056,20.0467],[40.9145,20.1937],[41.1148,20.245],[41.2498,20.4694],[41.2497,20.721],[41.3308,20.7629],[41.4233,20.7086],[41.5279,20.5722],[41.7733,20.6112],[41.9097,20.6754],[42.032,20.6249],[42.1528,20.3987],[42.2313,20.3449],[42.3812,20.4081],[42.6345,20.6241],[42.9517,20.8105],[43.2216,20.865],[43.404,20.8506],[43.6675,20.9762],[43.4064,21.3412],[43.3892,21.423],[43.4362,21.6116],[43.4237,21.7786],[43.5083,21.9756],[43.4584,22.3096],[43.4862,22.4977],[43.3109,22.5541],[43.1486,22.5222],[43.0153,22.5674],[42.9859,22.654],[43.0105,22.8176],[42.9159,22.9003],[42.4977,22.923],[42.3531,23.0007],[42.2243,23.2844],[42.1948,23.427],[42.107,23.6626],[41.9793,23.7919],[41.9864,23.9493],[41.7924,23.964],[41.7364,23.9232],[41.7645,23.7304],[41.6688,23.6024],[41.3614,23.4633],[41.2817,23.3574],[41.4301,23.2708],[41.4003,23.1733],[41.2841,23.1335],[41.0872,22.9648],[40.8023,22.7572],[40.6649,22.5863],[40.4089,22.6163],[40.2658,22.5125],[40.1049,22.4998],[40.0517,22.7348],[39.8984,22.8051],[39.9421,22.9812],[39.9426,23.1148],[39.8697,23.1535],[39.4867,23.0681],[39.4341,23.1711],[39.2068,23.1665],[38.9002,23.4492],[38.6438,23.4195],[38.7114,23.2357],[38.8064,23.0932],[38.8142,22.9827],[38.8939,22.9652],[38.9647,22.8704],[38.9577,22.775],[39.0815,22.5468],[39.0821,22.4363],[39.1428,22.3906],[39.0404,22.2358],[38.9786,21.8621],[39.0794,21.7064],[39.1711,21.4041],[39.0807,21.315],[39.1702,21.1915],[39.2969,20.928],[39.506,20.7464],[39.4929,20.7062],[39.6465,20.4616],[39.7601,20.3508],[39.9232,20.2636],[40.0676,20.2865],[40.2678,20.1253],[40.5226,19.9725],[40.6287,19.7921],[40.7254,19.7893],[40.7909,19.7141],[40.7847,19.5963],[40.9447,19.5057],[40.9559,19.3433],[41.0091,19.304],[41.0686,19.1254],[41.1765,19.0674],[41.1372,18.9577],[41.249,18.8342],[41.2102,18.6979],[41.2673,18.6013],[41.3557,18.569],[41.4382,18.4642],[41.4509,18.356],[41.5971,18.1211]]]}},{"type":"Feature","properties":{"sourceId":"1159310501","regionId":"region.0ff6e185-1c3a-4412-8200-3d29103a2f7a","countryId":"country.17se0x"},"geometry":{"type":"Polygon","coordinates":[[[44.6276,27.2224],[44.8153,27.0985],[44.8209,26.9542],[44.6797,26.8862],[44.5245,26.7163],[44.3917,26.6483],[44.3757,26.4062],[44.676,26.0009],[44.668,25.8904],[44.7269,25.7569],[44.7121,25.5785],[44.3432,25.5612],[44.1303,25.5868],[43.9898,25.548],[43.8694,25.3849],[43.6798,25.2637],[43.3459,25.1915],[43.2031,25.0789],[43.0876,24.9102],[43.134,24.7784],[43.0099,24.6822],[42.8844,24.7048],[42.6926,24.6842],[42.5118,24.7018],[42.2904,24.7823],[42.1816,24.7411],[42.0963,24.6115],[42.0013,24.4052],[41.9864,23.9493],[41.9793,23.7919],[42.107,23.6626],[42.1948,23.427],[42.2243,23.2844],[42.3531,23.0007],[42.4977,22.923],[42.9159,22.9003],[43.0105,22.8176],[42.9859,22.654],[43.0153,22.5674],[43.1486,22.5222],[43.3109,22.5541],[43.4862,22.4977],[43.4584,22.3096],[43.5083,21.9756],[43.4237,21.7786],[43.4362,21.6116],[43.3892,21.423],[43.4064,21.3412],[43.6675,20.9762],[43.8137,20.8535],[44.062,20.5391],[43.9687,20.3343],[43.9368,20.1069],[44.1064,19.867],[44.5168,19.5126],[44.795,19.3477],[45.0143,19.2737],[45.2726,19.2569],[47.615,19.4961],[47.7451,19.5313],[48.0142,21.5002],[48.2991,23.655],[48.2896,23.9999],[48.2232,24.1587],[48.1412,24.2701],[47.8885,24.5021],[47.5346,24.7346],[47.4876,24.8337],[47.465,26.1746],[47.403,26.2826],[47.083,26.398],[46.8518,26.6101],[46.5406,26.6271],[46.2938,26.7861],[46.1425,26.8402],[45.9773,26.8446],[45.8691,26.8883],[45.6924,27.0534],[45.5285,27.0857],[45.2453,27.2319],[45.1583,27.3917],[44.99,27.5326],[44.9016,27.4582],[44.7989,27.5204],[44.6245,27.3633],[44.6276,27.2224]]]}},{"type":"Feature","properties":{"sourceId":"1159309297","regionId":"region.91a91010-279d-4a03-9a3a-b6ab708e16ba","countryId":"country.17se0x"},"geometry":{"type":"Polygon","coordinates":[[[44.6276,27.2224],[44.5086,27.0933],[44.4357,27.0702],[44.1965,27.118],[43.9974,27.2787],[43.8925,27.3279],[43.7969,27.3046],[43.4175,27.1313],[43.2588,27.0053],[43.1471,26.8589],[42.9183,26.7712],[42.5351,26.5105],[42.3324,26.2611],[42.2147,26.251],[42.1421,26.1424],[42.1537,25.958],[41.9585,25.9728],[41.9,25.8487],[41.9091,25.7061],[41.7434,25.6747],[41.4098,25.5365],[41.6101,25.486],[41.6564,25.4064],[41.6374,25.1472],[41.7144,25.0467],[41.8734,24.999],[41.96,24.7442],[42.0963,24.6115],[42.1816,24.7411],[42.2904,24.7823],[42.5118,24.7018],[42.6926,24.6842],[42.8844,24.7048],[43.0099,24.6822],[43.134,24.7784],[43.0876,24.9102],[43.2031,25.0789],[43.3459,25.1915],[43.6798,25.2637],[43.8694,25.3849],[43.9898,25.548],[44.1303,25.5868],[44.3432,25.5612],[44.7121,25.5785],[44.7269,25.7569],[44.668,25.8904],[44.676,26.0009],[44.3757,26.4062],[44.3917,26.6483],[44.5245,26.7163],[44.6797,26.8862],[44.8209,26.9542],[44.8153,27.0985],[44.6276,27.2224]]]}},{"type":"Feature","properties":{"sourceId":"1159309299","regionId":"region.d2801761-f3f6-4e5a-a369-fad96d2aaaf6","countryId":"country.17se0x"},"geometry":{"type":"Polygon","coordinates":[[[41.4098,25.5365],[41.7434,25.6747],[41.9091,25.7061],[41.9,25.8487],[41.9585,25.9728],[42.1537,25.958],[42.1421,26.1424],[42.2147,26.251],[42.3324,26.2611],[42.5351,26.5105],[42.9183,26.7712],[43.1471,26.8589],[43.2588,27.0053],[43.4175,27.1313],[43.7969,27.3046],[43.8925,27.3279],[43.9974,27.2787],[44.1965,27.118],[44.4357,27.0702],[44.5086,27.0933],[44.6276,27.2224],[44.6245,27.3633],[44.7989,27.5204],[44.5934,27.7095],[44.4908,27.7576],[44.1824,27.7991],[44.0353,27.9035],[43.9512,28.1008],[43.7824,28.3708],[43.6531,28.4024],[43.4961,28.3184],[43.3026,28.3789],[43.0872,28.3895],[43.0301,28.4321],[43.0005,28.5716],[42.8765,28.5825],[42.7377,28.5266],[42.6184,28.5461],[42.4336,28.7151],[42.3424,28.7606],[42.001,28.8309],[41.659,28.8009],[41.4166,28.8704],[41.2706,28.8679],[40.7396,28.7601],[40.5436,28.8163],[40.4589,28.8272],[40.0804,28.6904],[39.7095,28.504],[39.5347,28.4613],[39.1563,28.3027],[39.0001,28.1679],[39.058,28.1294],[39.472,28.0244],[39.7875,27.7955],[39.9198,27.361],[40.1656,27.1873],[40.1575,27.1254],[40,26.9904],[39.8162,26.6568],[39.8404,26.5473],[39.7788,26.4088],[39.9597,26.2884],[39.9042,25.9528],[39.9565,25.6879],[39.9475,25.4221],[39.9937,25.3374],[40.1138,25.3164],[40.3621,25.3956],[40.6282,25.4186],[40.7593,25.5408],[40.8713,25.5915],[41.0443,25.5981],[41.4098,25.5365]]]}},{"type":"Feature","properties":{"sourceId":"1159309307","regionId":"region.f0bf1791-4f6f-4554-a03f-e12141238c8d","countryId":"country.17se0x"},"geometry":{"type":"Polygon","coordinates":[[[42.032,20.6249],[41.9097,20.6754],[41.7733,20.6112],[41.5279,20.5722],[41.4233,20.7086],[41.3308,20.7629],[41.2497,20.721],[41.2498,20.4694],[41.1148,20.245],[40.9145,20.1937],[40.8056,20.0467],[40.9162,20.0003],[40.958,19.9113],[40.9691,19.5796],[41.1705,19.3969],[41.3486,19.3985],[41.4565,19.7037],[41.5054,19.7687],[41.6987,19.7971],[41.7998,20.0037],[41.8435,20.1783],[41.9835,20.2757],[42.0306,20.373],[41.9844,20.4714],[42.032,20.6249]]]}}]}