{"type":"FeatureCollection","features":[{"type":"Feature","properties":{"sourceId":"1159316009","regionId":"region.c480a891-8fe6-45fc-bda7-8521079dcda7","countryId":"country.2f7f4233-514c-485b-b289-248f71b3c562"},"geometry":{"type":"Polygon","coordinates":[[[9.5883,47.063],[9.5828,47.0868],[9.5678,47.0885],[9.5605,47.089],[9.5272,47.1307],[9.5119,47.1294],[9.5029,47.0947],[9.5331,47.0555],[9.5812,47.0569],[9.5883,47.063]]]}},{"type":"Feature","properties":{"sourceId":"1159316015","regionId":"region.eb7683a3-5e68-475c-b033-b5dc0289da8d","countryId":"country.2f7f4233-514c-485b-b289-248f71b3c562"},"geometry":{"type":"MultiPolygon","coordinates":[[[[9.6051,47.0776],[9.5978,47.0907],[9.5828,47.0868],[9.5883,47.063],[9.6051,47.0776]]],[[[9.6095,47.1224],[9.5633,47.148],[9.5761,47.1085],[9.5917,47.1113],[9.6142,47.1107],[9.6095,47.1224]]],[[[9.552,47.1756],[9.5311,47.1947],[9.4864,47.1969],[9.4955,47.156],[9.5483,47.1608],[9.5521,47.1669],[9.552,47.1756]]]]}},{"type":"Feature","properties":{"sourceId":"1159315613","regionId":"region.9f0ec8ec-e369-4812-8562-ade5af20ad44","countryId":"country.2f7f4233-514c-485b-b289-248f71b3c562"},"geometry":{"type":"MultiPolygon","coordinates":[[[[9.6142,47.1107],[9.5917,47.1113],[9.5978,47.0907],[9.6051,47.0776],[9.6142,47.1107]]],[[[9.5605,47.089],[9.5678,47.0885],[9.5761,47.1085],[9.5633,47.148],[9.5483,47.1608],[9.5272,47.1307],[9.5605,47.089]]]]}},{"type":"Feature","properties":{"sourceId":"1159316011","regionId":"region.0d9e07a7-c06d-408d-8f6c-cd3f4b7ff457","countryId":"country.2f7f4233-514c-485b-b289-248f71b3c562"},"geometry":{"type":"MultiPolygon","coordinates":[[[[9.5671,47.1608],[9.5633,47.148],[9.6095,47.1224],[9.5671,47.1608]]],[[[9.5331,47.0555],[9.5029,47.0947],[9.477,47.0639],[9.5331,47.0555]]]]}},{"type":"Feature","properties":{"sourceId":"1159316027","regionId":"region.1367d5eb-6154-47c0-8b01-089e24238ca0","countryId":"country.2f7f4233-514c-485b-b289-248f71b3c562"},"geometry":{"type":"MultiPolygon","coordinates":[[[[9.5521,47.1669],[9.5483,47.1608],[9.5633,47.148],[9.5671,47.1608],[9.5521,47.1669]]],[[[9.5619,47.1906],[9.5311,47.1947],[9.552,47.1756],[9.5619,47.1906]]]]}},{"type":"Feature","properties":{"sourceId":"1159316029","regionId":"region.a2d50675-aaef-49da-a7ba-5358b043168b","countryId":"country.2f7f4233-514c-485b-b289-248f71b3c562"},"geometry":{"type":"Polygon","coordinates":[[[9.5543,47.2116],[9.5199,47.2253],[9.5127,47.2247],[9.5311,47.1947],[9.5619,47.1906],[9.5543,47.2116]]]}},{"type":"Feature","properties":{"sourceId":"1159316025","regionId":"region.ad178dd8-ba02-4426-98d9-7514f6605152","countryId":"country.2f7f4233-514c-485b-b289-248f71b3c562"},"geometry":{"type":"Polygon","coordinates":[[[9.5431,47.2348],[9.5199,47.2253],[9.5543,47.2116],[9.5431,47.2348]]]}},{"type":"Feature","properties":{"sourceId":"1159316023","regionId":"region.b7d16e19-8891-4b16-b5f3-db0bf0391036","countryId":"country.2f7f4233-514c-485b-b289-248f71b3c562"},"geometry":{"type":"Polygon","coordinates":[[[9.5342,47.2512],[9.5199,47.2253],[9.5431,47.2348],[9.5342,47.2512]]]}},{"type":"Feature","properties":{"sourceId":"1159316021","regionId":"region.c29ce374-26be-46ee-9093-1043687d9ca0","countryId":"country.2f7f4233-514c-485b-b289-248f71b3c562"},"geometry":{"type":"Polygon","coordinates":[[[9.5212,47.2628],[9.497,47.2289],[9.5127,47.2247],[9.5199,47.2253],[9.5342,47.2512],[9.5212,47.2628]]]}},{"type":"Feature","properties":{"sourceId":"1159316013","regionId":"region.a4e6ff94-3a6f-49ec-832e-7fda77fd7ad4","countryId":"country.2f7f4233-514c-485b-b289-248f71b3c562"},"geometry":{"type":"MultiPolygon","coordinates":[[[[9.5119,47.1294],[9.5272,47.1307],[9.5483,47.1608],[9.4955,47.156],[9.5119,47.1294]]],[[[9.5678,47.0885],[9.5828,47.0868],[9.5978,47.0907],[9.5917,47.1113],[9.5761,47.1085],[9.5678,47.0885]]]]}},{"type":"Feature","properties":{"sourceId":"1159316017","regionId":"region.e0071bd9-def7-4b99-b282-f3492cc87f68","countryId":"country.2f7f4233-514c-485b-b289-248f71b3c562"},"geometry":{"type":"Polygon","coordinates":[[[9.4864,47.1969],[9.5311,47.1947],[9.5127,47.2247],[9.497,47.2289],[9.4864,47.1969]]]}}]}