{"type":"FeatureCollection","features":[{"type":"Feature","properties":{"sourceId":"1159310987","regionId":"region.71966631-fb34-444a-922a-2f8cb7f23689","countryId":"country.s93ito"},"geometry":{"type":"Polygon","coordinates":[[[-7.2471,55.0693],[-7.1595,55.1508],[-6.9396,55.2391],[-7.3325,55.3728],[-7.5136,55.2744],[-7.5278,55.1326],[-7.8142,55.2019],[-8.263,55.1611],[-8.4566,54.9954],[-8.4907,54.852],[-8.7955,54.6984],[-8.5969,54.6193],[-8.1208,54.6466],[-8.3001,54.478],[-8.1685,54.4635],[-8.0022,54.5434],[-7.8871,54.5321],[-7.708,54.6048],[-7.9066,54.6613],[-7.5517,54.7547],[-7.4158,54.9444],[-7.2471,55.0693]]]}},{"type":"Feature","properties":{"sourceId":"1159311021","regionId":"region.d2536372-b3b3-42bb-9024-3eb3cfaa9f12","countryId":"country.s93ito"},"geometry":{"type":"Polygon","coordinates":[[[-8.1685,54.4635],[-8.3001,54.478],[-8.3817,54.4686],[-8.3382,54.2011],[-8.1572,54.1081],[-8.0927,53.9205],[-7.922,53.8116],[-7.5988,53.9331],[-7.5893,54.0198],[-7.8214,54.1038],[-8.047,54.2359],[-7.9421,54.2989],[-8.1685,54.4635]]]}},{"type":"Feature","properties":{"sourceId":"1159308719","regionId":"region.bd843206-e3be-4514-bd21-12007b0fae93","countryId":"country.s93ito"},"geometry":{"type":"Polygon","coordinates":[[[-7.9421,54.2989],[-8.047,54.2359],[-7.8214,54.1038],[-7.5893,54.0198],[-7.5988,53.9331],[-7.3888,53.779],[-7.3385,53.7954],[-6.9979,53.7734],[-6.8888,53.8795],[-6.7483,53.914],[-7.0065,54.0778],[-7.3165,54.1143],[-7.609,54.1399],[-7.837,54.2043],[-7.9421,54.2989]]]}},{"type":"Feature","properties":{"sourceId":"1159315457","regionId":"region.d06780de-8fa4-4727-9a82-3536a25d0a5d","countryId":"country.s93ito"},"geometry":{"type":"Polygon","coordinates":[[[-6.87,54.326],[-7.0493,54.4115],[-7.1895,54.3357],[-7.1459,54.2521],[-7.3165,54.1143],[-7.0065,54.0778],[-6.7483,53.914],[-6.6844,53.9051],[-6.5505,53.9881],[-6.6052,54.0445],[-6.6484,54.1737],[-6.8239,54.2324],[-6.87,54.326]]]}},{"type":"Feature","properties":{"sourceId":"1159310989","regionId":"region.bd0e961a-3958-4e8e-a409-6a31cd03f1ad","countryId":"country.s93ito"},"geometry":{"type":"Polygon","coordinates":[[[-6.2699,54.0979],[-6.6052,54.0445],[-6.5505,53.9881],[-6.6844,53.9051],[-6.4543,53.7204],[-6.2458,53.7296],[-6.2432,53.8651],[-6.379,53.9169],[-6.2699,54.0979]]]}},{"type":"Feature","properties":{"sourceId":"1159317307","regionId":"region.f150455e-e082-4f5b-ba95-1725644133f3","countryId":"country.s93ito"},"geometry":{"type":"Polygon","coordinates":[[[-6.1498,53.3865],[-6.3475,53.3595],[-6.2727,53.3096],[-6.1805,53.3173],[-6.1498,53.3865]]]}},{"type":"Feature","properties":{"sourceId":"1159317309","regionId":"region.35f1828a-271f-46b4-909a-d9d84493bcde","countryId":"country.s93ito"},"geometry":{"type":"Polygon","coordinates":[[[-6.1805,53.3173],[-6.2727,53.3096],[-6.2856,53.2171],[-6.0889,53.2041],[-6.1805,53.3173]]]}},{"type":"Feature","properties":{"sourceId":"1159311001","regionId":"region.6b6af78a-0fd0-4514-bf74-d1fd89981f43","countryId":"country.s93ito"},"geometry":{"type":"Polygon","coordinates":[[[-6.0889,53.2041],[-6.2856,53.2171],[-6.468,53.224],[-6.7799,52.9921],[-6.731,52.9159],[-6.516,52.8825],[-6.6863,52.7927],[-6.6091,52.7117],[-6.525,52.6829],[-6.3667,52.7876],[-6.151,52.7416],[-5.9966,52.9649],[-6.0889,53.2041]]]}},{"type":"Feature","properties":{"sourceId":"1159310999","regionId":"region.df902cc5-f50e-4c85-9504-4bf646db8d9a","countryId":"country.s93ito"},"geometry":{"type":"Polygon","coordinates":[[[-6.151,52.7416],[-6.3667,52.7876],[-6.525,52.6829],[-6.6091,52.7117],[-6.7741,52.6123],[-6.9233,52.4659],[-6.9945,52.2775],[-6.8971,52.152],[-6.7863,52.21],[-6.3699,52.18],[-6.3183,52.2408],[-6.4481,52.3559],[-6.2091,52.5458],[-6.151,52.7416]]]}},{"type":"Feature","properties":{"sourceId":"1159311007","regionId":"region.e929df13-a04d-4303-963b-2b844123145e","countryId":"country.s93ito"},"geometry":{"type":"Polygon","coordinates":[[[-6.9945,52.2775],[-6.9233,52.4659],[-7.0474,52.7932],[-7.1926,52.8867],[-7.4534,52.7856],[-7.6682,52.7798],[-7.6296,52.7315],[-7.4482,52.5757],[-7.4585,52.4748],[-7.3646,52.3356],[-7.153,52.2715],[-7.0341,52.2571],[-6.9919,52.2668],[-6.9945,52.2775]]]}},{"type":"Feature","properties":{"sourceId":"1159312835","regionId":"region.e2b80569-9cd6-4400-8c03-d97a0f27186e","countryId":"country.s93ito"},"geometry":{"type":"Polygon","coordinates":[[[-6.9919,52.2668],[-7.0341,52.2571],[-7.1004,52.207],[-7.153,52.2715],[-7.3646,52.3356],[-7.591,52.3599],[-7.7804,52.3391],[-7.77,52.2229],[-8.0991,52.2092],[-8.0014,52.0487],[-7.8518,51.9771],[-7.5899,51.9912],[-7.4355,52.1257],[-7.0172,52.1384],[-6.9919,52.2668]]]}},{"type":"Feature","properties":{"sourceId":"1159308709","regionId":"region.842cc0e1-3db9-488f-9e7d-08be3966e4a4","countryId":"country.s93ito"},"geometry":{"type":"Polygon","coordinates":[[[-7.8518,51.9771],[-8.0014,52.0487],[-8.0991,52.2092],[-8.1846,52.2812],[-8.3049,52.3132],[-8.4803,52.2768],[-8.6679,52.3733],[-8.8033,52.3785],[-8.9912,52.2982],[-9.2166,52.294],[-9.2646,52.2229],[-9.1789,52.0777],[-9.2764,51.8799],[-9.4467,51.7899],[-9.6042,51.7775],[-9.8139,51.6866],[-9.8609,51.7548],[-9.9807,51.7319],[-9.7703,51.5922],[-9.8066,51.4457],[-9.425,51.5576],[-9.3492,51.474],[-9.1077,51.5494],[-8.5392,51.6484],[-8.3017,51.7582],[-8.3961,51.8768],[-8.5436,51.8681],[-8.4938,51.9239],[-8.3885,51.8935],[-8.2102,51.8845],[-8.1342,51.8048],[-7.8518,51.9771]]]}},{"type":"Feature","properties":{"sourceId":"1159317299","regionId":"region.842cc0e1-3db9-488f-9e7d-08be3966e4a4","countryId":"country.s93ito"},"geometry":{"type":"Polygon","coordinates":[[[-8.3885,51.8935],[-8.4938,51.9239],[-8.5436,51.8681],[-8.3961,51.8768],[-8.3885,51.8935]]]}},{"type":"Feature","properties":{"sourceId":"1159310963","regionId":"region.cc9c0957-4425-495e-8b55-9720679bc27e","countryId":"country.s93ito"},"geometry":{"type":"Polygon","coordinates":[[[-9.8609,51.7548],[-9.8139,51.6866],[-9.6042,51.7775],[-9.4467,51.7899],[-9.2764,51.8799],[-9.1789,52.0777],[-9.2646,52.2229],[-9.2166,52.294],[-9.3288,52.349],[-9.2995,52.4994],[-9.3625,52.5754],[-9.6719,52.5529],[-9.8484,52.4284],[-9.8372,52.2543],[-10.2758,52.2681],[-10.4497,52.1889],[-10.2677,52.1358],[-10.0281,52.1396],[-9.9296,52.0719],[-10.2662,51.9885],[-10.2346,51.851],[-10.1112,51.746],[-9.8609,51.7548]]]}},{"type":"Feature","properties":{"sourceId":"1159311013","regionId":"region.a8848847-bc45-4674-b67f-0fce785eaf3f","countryId":"country.s93ito"},"geometry":{"type":"Polygon","coordinates":[[[-9.3625,52.5754],[-9.2995,52.4994],[-9.3288,52.349],[-9.2166,52.294],[-8.9912,52.2982],[-8.8033,52.3785],[-8.6679,52.3733],[-8.4803,52.2768],[-8.3049,52.3132],[-8.1846,52.2812],[-8.1676,52.3547],[-8.3927,52.4555],[-8.2255,52.5257],[-8.1874,52.6654],[-8.4497,52.6879],[-8.477,52.7551],[-8.568,52.6765],[-8.5875,52.6236],[-8.6658,52.6529],[-8.7512,52.673],[-9.3625,52.5754]]]}},{"type":"Feature","properties":{"sourceId":"1159308715","regionId":"region.244c07d8-b556-4e09-9a39-5762c29b0ffb","countryId":"country.s93ito"},"geometry":{"type":"Polygon","coordinates":[[[-8.7512,52.673],[-8.6658,52.6529],[-8.568,52.6765],[-8.477,52.7551],[-8.3094,52.9801],[-8.5742,53.0304],[-8.8771,52.9739],[-9.0041,53.1469],[-9.2722,53.1467],[-9.4376,52.9667],[-9.4275,52.8778],[-9.5528,52.6393],[-9.2858,52.5908],[-8.9327,52.6871],[-8.7512,52.673]]]}},{"type":"Feature","properties":{"sourceId":"1159310965","regionId":"region.b7005837-83e6-4c4f-a22b-92e6c5258426","countryId":"country.s93ito"},"geometry":{"type":"Polygon","coordinates":[[[-9.0041,53.1469],[-8.8771,52.9739],[-8.5742,53.0304],[-8.3094,52.9801],[-8.0765,53.1704],[-8.0457,53.2762],[-8.2352,53.3626],[-8.2879,53.5702],[-8.4749,53.7139],[-8.8171,53.6681],[-8.9562,53.6499],[-9.0416,53.5471],[-9.1874,53.4752],[-9.3571,53.5653],[-9.6968,53.6026],[-10.0087,53.6044],[-10.1527,53.5436],[-10.0257,53.3854],[-9.5117,53.2283],[-9.1199,53.2619],[-9.0403,53.3319],[-8.9426,53.2618],[-9.0041,53.1469]]]}},{"type":"Feature","properties":{"sourceId":"1159317293","regionId":"region.b7005837-83e6-4c4f-a22b-92e6c5258426","countryId":"country.s93ito"},"geometry":{"type":"Polygon","coordinates":[[[-8.9426,53.2618],[-9.0403,53.3319],[-9.1199,53.2619],[-8.9426,53.2618]]]}},{"type":"Feature","properties":{"sourceId":"1159309699","regionId":"region.f4d948f3-436e-4251-8869-5f6152d642f8","countryId":"country.s93ito"},"geometry":{"type":"Polygon","coordinates":[[[-9.6968,53.6026],[-9.3571,53.5653],[-9.1874,53.4752],[-9.0416,53.5471],[-8.9562,53.6499],[-8.8171,53.6681],[-8.7052,53.7218],[-8.6796,53.9657],[-8.5832,53.9582],[-8.6451,54.0322],[-8.8459,53.9725],[-9.0031,54.0514],[-8.9622,54.1481],[-9.1339,54.1651],[-9.2095,54.2676],[-9.7855,54.3381],[-9.9882,54.2131],[-9.8385,53.9636],[-9.6155,53.8988],[-9.5664,53.7963],[-9.9084,53.7621],[-9.9084,53.6461],[-9.6968,53.6026]]]}},{"type":"Feature","properties":{"sourceId":"1159311019","regionId":"region.e7464734-82c6-47ec-bc73-284b54b093d8","countryId":"country.s93ito"},"geometry":{"type":"Polygon","coordinates":[[[-9.1339,54.1651],[-8.9622,54.1481],[-9.0031,54.0514],[-8.8459,53.9725],[-8.6451,54.0322],[-8.5832,53.9582],[-8.4513,53.9117],[-8.1572,54.1081],[-8.3382,54.2011],[-8.3817,54.4686],[-8.6129,54.3755],[-8.486,54.2886],[-8.8718,54.2651],[-9.0513,54.2895],[-9.1339,54.1651]]]}},{"type":"Feature","properties":{"sourceId":"1159310991","regionId":"region.1fb2cafa-158e-401d-a826-c238cace008d","countryId":"country.s93ito"},"geometry":{"type":"Polygon","coordinates":[[[-6.2458,53.7296],[-6.4543,53.7204],[-6.6844,53.9051],[-6.7483,53.914],[-6.8888,53.8795],[-6.9979,53.7734],[-7.3385,53.7954],[-7.2137,53.7065],[-6.9476,53.649],[-7.023,53.5064],[-7.1816,53.4276],[-7.0738,53.3757],[-6.9672,53.4471],[-6.4563,53.3884],[-6.198,53.6345],[-6.2458,53.7296]]]}},{"type":"Feature","properties":{"sourceId":"1159317305","regionId":"region.aa931596-fb20-41be-87d9-de8e954e9dac","countryId":"country.s93ito"},"geometry":{"type":"Polygon","coordinates":[[[-6.198,53.6345],[-6.4563,53.3884],[-6.4715,53.3697],[-6.3475,53.3595],[-6.1498,53.3865],[-6.0749,53.5397],[-6.198,53.6345]]]}},{"type":"Feature","properties":{"sourceId":"1159311005","regionId":"region.1ed641b5-dc1b-4a36-b4a8-8e2bc6e82b9b","countryId":"country.s93ito"},"geometry":{"type":"Polygon","coordinates":[[[-6.731,52.9159],[-6.7799,52.9921],[-6.468,53.224],[-6.4715,53.3697],[-6.4563,53.3884],[-6.9672,53.4471],[-7.0738,53.3757],[-6.9878,53.3072],[-7.0921,53.167],[-7.0552,52.9771],[-6.931,52.8845],[-6.731,52.9159]]]}},{"type":"Feature","properties":{"sourceId":"1159308717","regionId":"region.07e53e47-8f93-4414-ab72-d0885b4b2c64","countryId":"country.s93ito"},"geometry":{"type":"Polygon","coordinates":[[[-6.731,52.9159],[-6.931,52.8845],[-7.0474,52.7932],[-6.9233,52.4659],[-6.7741,52.6123],[-6.6091,52.7117],[-6.6863,52.7927],[-6.516,52.8825],[-6.731,52.9159]]]}},{"type":"Feature","properties":{"sourceId":"1159311009","regionId":"region.54ac5615-75a7-4483-b25e-5514922ca437","countryId":"country.s93ito"},"geometry":{"type":"Polygon","coordinates":[[[-6.931,52.8845],[-7.0552,52.9771],[-7.0921,53.167],[-7.3021,53.1391],[-7.362,53.2063],[-7.6251,53.1634],[-7.5921,53.0958],[-7.7285,52.9559],[-7.6682,52.7798],[-7.4534,52.7856],[-7.1926,52.8867],[-7.0474,52.7932],[-6.931,52.8845]]]}},{"type":"Feature","properties":{"sourceId":"1159311003","regionId":"region.0ac589f7-36bb-4682-a1d0-186f0e20be34","countryId":"country.s93ito"},"geometry":{"type":"Polygon","coordinates":[[[-6.468,53.224],[-6.2856,53.2171],[-6.2727,53.3096],[-6.3475,53.3595],[-6.4715,53.3697],[-6.468,53.224]]]}},{"type":"Feature","properties":{"sourceId":"1159310993","regionId":"region.2cdc9d80-8524-4ce4-9890-ea6250df083c","countryId":"country.s93ito"},"geometry":{"type":"Polygon","coordinates":[[[-7.0738,53.3757],[-7.1816,53.4276],[-7.3692,53.3408],[-7.5257,53.3272],[-7.6195,53.4093],[-7.8532,53.3453],[-7.9441,53.3667],[-8.0457,53.2762],[-8.0765,53.1704],[-7.9412,53.1177],[-7.9314,53.0399],[-7.7285,52.9559],[-7.5921,53.0958],[-7.6251,53.1634],[-7.362,53.2063],[-7.3021,53.1391],[-7.0921,53.167],[-6.9878,53.3072],[-7.0738,53.3757]]]}},{"type":"Feature","properties":{"sourceId":"1159310995","regionId":"region.778fdd62-9b59-427d-aca7-3a513a9cb0b3","countryId":"country.s93ito"},"geometry":{"type":"Polygon","coordinates":[[[-7.3385,53.7954],[-7.3888,53.779],[-7.6521,53.5446],[-7.963,53.5243],[-7.9441,53.3667],[-7.8532,53.3453],[-7.6195,53.4093],[-7.5257,53.3272],[-7.3692,53.3408],[-7.1816,53.4276],[-7.023,53.5064],[-6.9476,53.649],[-7.2137,53.7065],[-7.3385,53.7954]]]}},{"type":"Feature","properties":{"sourceId":"1159311023","regionId":"region.14b1d5be-2c37-4a36-9c74-5d5022c1c05f","countryId":"country.s93ito"},"geometry":{"type":"Polygon","coordinates":[[[-7.3888,53.779],[-7.5988,53.9331],[-7.922,53.8116],[-8.0323,53.6192],[-7.963,53.5243],[-7.6521,53.5446],[-7.3888,53.779]]]}},{"type":"Feature","properties":{"sourceId":"1159311017","regionId":"region.cc3425dd-bb49-42bd-8dee-fc4544db712e","countryId":"country.s93ito"},"geometry":{"type":"Polygon","coordinates":[[[-7.9441,53.3667],[-7.963,53.5243],[-8.0323,53.6192],[-7.922,53.8116],[-8.0927,53.9205],[-8.1572,54.1081],[-8.4513,53.9117],[-8.5832,53.9582],[-8.6796,53.9657],[-8.7052,53.7218],[-8.8171,53.6681],[-8.4749,53.7139],[-8.2879,53.5702],[-8.2352,53.3626],[-8.0457,53.2762],[-7.9441,53.3667]]]}},{"type":"Feature","properties":{"sourceId":"1159311011","regionId":"region.8a08c457-54ac-455d-8f7f-140ab84c801d","countryId":"country.s93ito"},"geometry":{"type":"Polygon","coordinates":[[[-7.7285,52.9559],[-7.9314,53.0399],[-7.9412,53.1177],[-8.0765,53.1704],[-8.3094,52.9801],[-8.477,52.7551],[-8.4497,52.6879],[-8.1874,52.6654],[-7.9565,52.5747],[-7.6982,52.5996],[-7.6296,52.7315],[-7.6682,52.7798],[-7.7285,52.9559]]]}},{"type":"Feature","properties":{"sourceId":"1159317303","regionId":"region.74aaa117-70aa-4f52-b49e-cd718f4b4380","countryId":"country.s93ito"},"geometry":{"type":"Polygon","coordinates":[[[-7.3646,52.3356],[-7.4585,52.4748],[-7.4482,52.5757],[-7.6296,52.7315],[-7.6982,52.5996],[-7.9565,52.5747],[-8.1874,52.6654],[-8.2255,52.5257],[-8.3927,52.4555],[-8.1676,52.3547],[-8.1846,52.2812],[-8.0991,52.2092],[-7.77,52.2229],[-7.7804,52.3391],[-7.591,52.3599],[-7.3646,52.3356]]]}},{"type":"Feature","properties":{"sourceId":"1159317301","regionId":"region.e2b80569-9cd6-4400-8c03-d97a0f27186e","countryId":"country.s93ito"},"geometry":{"type":"Polygon","coordinates":[[[-7.153,52.2715],[-7.1004,52.207],[-7.0341,52.2571],[-7.153,52.2715]]]}},{"type":"Feature","properties":{"sourceId":"1159317295","regionId":"region.a8848847-bc45-4674-b67f-0fce785eaf3f","countryId":"country.s93ito"},"geometry":{"type":"Polygon","coordinates":[[[-8.568,52.6765],[-8.6658,52.6529],[-8.5875,52.6236],[-8.568,52.6765]]]}}]}