{"type":"FeatureCollection","features":[{"type":"Feature","properties":{"sourceId":"1159308131","regionId":"region.c21a1c5b-1b95-467f-85c9-6476b83ef0a8","countryId":"country.15794b34-37b2-4053-964a-2dfea1e18400"},"geometry":{"type":"Polygon","coordinates":[[[-61.194,13.0369],[-61.2493,13.0163],[-61.2264,12.9932],[-61.194,13.0369]]]}},{"type":"Feature","properties":{"sourceId":"1159316353","regionId":"region.d0a562d0-7b19-458f-a555-23cfa69a0b4e","countryId":"country.15794b34-37b2-4053-964a-2dfea1e18400"},"geometry":{"type":"Polygon","coordinates":[[[-61.2379,13.1634],[-61.1928,13.2167],[-61.1989,13.2393],[-61.2714,13.1865],[-61.2379,13.1634]]]}},{"type":"Feature","properties":{"sourceId":"1159316351","regionId":"region.5d4e849c-958a-4593-bacf-5aa7e7e594a2","countryId":"country.15794b34-37b2-4053-964a-2dfea1e18400"},"geometry":{"type":"Polygon","coordinates":[[[-61.1355,13.1978],[-61.1928,13.2167],[-61.2379,13.1634],[-61.1355,13.1978]]]}},{"type":"Feature","properties":{"sourceId":"1159316359","regionId":"region.06fd956a-8e4f-4dcc-a20e-882b845be73f","countryId":"country.15794b34-37b2-4053-964a-2dfea1e18400"},"geometry":{"type":"Polygon","coordinates":[[[-61.1713,13.38],[-61.1877,13.2629],[-61.1989,13.2393],[-61.1928,13.2167],[-61.1355,13.1978],[-61.1239,13.3083],[-61.1713,13.38]]]}},{"type":"Feature","properties":{"sourceId":"1159316357","regionId":"region.be542ab5-f7ac-4ecd-984f-0f7840dff219","countryId":"country.15794b34-37b2-4053-964a-2dfea1e18400"},"geometry":{"type":"Polygon","coordinates":[[[-61.2684,13.2659],[-61.1877,13.2629],[-61.1713,13.38],[-61.2684,13.2659]]]}},{"type":"Feature","properties":{"sourceId":"1159316355","regionId":"region.3a822cd2-b207-479c-ab8d-778dfff322b0","countryId":"country.15794b34-37b2-4053-964a-2dfea1e18400"},"geometry":{"type":"Polygon","coordinates":[[[-61.2714,13.1865],[-61.1989,13.2393],[-61.1877,13.2629],[-61.2684,13.2659],[-61.2714,13.1865]]]}}]}