{"type":"FeatureCollection","features":[{"type":"Feature","properties":{"sourceId":"1159309463","regionId":"region.a5528144-e605-4a5e-abdd-f3985beff7e8","countryId":"country.7zmt7h"},"geometry":{"type":"Polygon","coordinates":[[[80.2103,42.1895],[79.9179,42.4244],[79.6965,42.4598],[79.4764,42.454],[79.353,42.5773],[79.2421,42.6298],[79.1483,42.791],[79.0309,42.7562],[78.6871,42.8046],[78.4961,42.8756],[78.0306,42.8547],[77.907,42.8913],[77.4033,42.9198],[77.2119,42.9099],[77.1251,42.8079],[76.8424,42.8019],[76.8037,42.7652],[76.4532,42.7375],[76.2534,42.6737],[76.149,42.6026],[75.8503,42.5919],[75.6371,42.4598],[75.7812,42.3512],[75.9539,42.3753],[75.9819,42.2131],[76.1614,42.034],[76.6201,41.9323],[76.6531,41.7915],[76.7299,41.7278],[76.661,41.6064],[77.2138,41.5853],[77.3443,41.627],[77.3046,41.4379],[77.4154,41.385],[77.3874,41.2664],[77.6458,41.3119],[77.6453,41.2298],[77.8902,41.1997],[78.164,41.2459],[78.2313,41.1729],[78.3597,41.2875],[78.3599,41.3775],[78.6192,41.4781],[78.6721,41.5384],[78.9762,41.6418],[79.3041,41.7876],[79.411,41.7786],[79.611,41.8676],[79.7475,41.8797],[79.8429,42.0018],[80.1819,42.021],[80.2565,42.0844],[80.2103,42.1895]]]}},{"type":"Feature","properties":{"sourceId":"1159309465","regionId":"region.e84e422e-de84-496a-902c-927dbfacedd5","countryId":"country.7zmt7h"},"geometry":{"type":"Polygon","coordinates":[[[78.2313,41.1729],[78.164,41.2459],[77.8902,41.1997],[77.6453,41.2298],[77.6458,41.3119],[77.3874,41.2664],[77.4154,41.385],[77.3046,41.4379],[77.3443,41.627],[77.2138,41.5853],[76.661,41.6064],[76.7299,41.7278],[76.6531,41.7915],[76.6201,41.9323],[76.1614,42.034],[75.9819,42.2131],[75.9539,42.3753],[75.7812,42.3512],[75.6371,42.4598],[75.2931,42.4335],[75.0094,42.4494],[74.8193,42.4236],[74.8736,42.3277],[74.6238,42.2488],[74.3408,42.2379],[74.2798,41.9472],[74.1615,41.9133],[73.9564,41.9713],[73.8009,41.9576],[73.7564,41.9018],[73.9793,41.8335],[73.9465,41.6185],[74.0763,41.565],[74.4072,41.5462],[74.752,41.6118],[74.6385,41.3769],[74.358,41.3031],[74.3999,41.2144],[74.2056,41.2019],[74.0417,40.972],[74.4211,40.6668],[74.5599,40.6283],[74.5817,40.5599],[74.8323,40.5081],[75.0391,40.4411],[75.1939,40.4413],[75.4818,40.6141],[75.5599,40.6329],[75.6669,40.4502],[75.6818,40.2917],[75.9215,40.3091],[76.2442,40.4412],[76.3302,40.3481],[76.4491,40.4155],[76.6242,40.6275],[76.6308,40.7289],[76.7708,40.8671],[76.861,41.0132],[77.0077,41.0442],[77.1188,41.0117],[77.333,41.0207],[77.4749,40.982],[77.6656,41.0013],[77.8667,41.0641],[78.075,41.0395],[78.2313,41.1729]]]}},{"type":"Feature","properties":{"sourceId":"1159309475","regionId":"region.938ed781-6928-4f84-8bde-a4fa7d4bfe7a","countryId":"country.7zmt7h"},"geometry":{"type":"Polygon","coordinates":[[[74.8323,40.5081],[74.5817,40.5599],[74.5599,40.6283],[74.4211,40.6668],[74.0417,40.972],[73.9277,41.0174],[73.8855,41.12],[73.7199,41.002],[73.6929,41.0917],[73.4628,41.095],[73.2579,40.9849],[73.2609,40.9044],[73.135,40.8353],[73.118,40.7829],[72.7839,40.6697],[72.7484,40.5751],[72.5858,40.5087],[72.4479,40.5605],[72.3705,40.3857],[72.2283,40.4596],[72.0993,40.4264],[71.9567,40.3157],[72.0132,40.2621],[72.1863,40.2966],[72.2717,40.1434],[72.2864,39.9511],[72.4813,39.8613],[72.528,39.7393],[72.2378,39.6386],[72.0855,39.6331],[71.7134,39.7384],[71.5754,39.6859],[71.5097,39.585],[71.5129,39.4588],[71.7403,39.4483],[71.7329,39.2851],[71.8435,39.285],[72.0498,39.3689],[72.0948,39.2751],[72.2287,39.1895],[72.3163,39.3288],[72.6505,39.3938],[72.8353,39.3562],[73.1679,39.3554],[73.3676,39.4438],[73.6326,39.4483],[73.8207,39.4682],[73.9268,39.5929],[73.823,39.8057],[74.004,40.0608],[74.1676,40.1064],[74.3699,40.1058],[74.7058,40.3313],[74.8323,40.5081]]]}},{"type":"Feature","properties":{"sourceId":"1159309461","regionId":"region.a01c226c-ad75-4fa2-b2ae-7434ddcb3a2c","countryId":"country.7zmt7h"},"geometry":{"type":"Polygon","coordinates":[[[75.8071,42.9368],[75.6462,42.8061],[75.1786,42.8497],[74.8629,42.9758],[74.7139,42.9999],[74.5582,43.115],[74.2587,43.2158],[74.0399,43.1819],[73.6341,43.0625],[73.493,42.895],[73.5036,42.7941],[73.41,42.5897],[73.5051,42.4216],[73.6766,42.4501],[73.606,42.3147],[73.2797,42.2929],[73.0812,42.2376],[73.1123,42.1393],[73.3818,42.0191],[73.8009,41.9576],[73.9564,41.9713],[74.1615,41.9133],[74.2798,41.9472],[74.3408,42.2379],[74.6238,42.2488],[74.8736,42.3277],[74.8193,42.4236],[75.0094,42.4494],[75.2931,42.4335],[75.6371,42.4598],[75.8503,42.5919],[76.149,42.6026],[76.2534,42.6737],[76.4532,42.7375],[76.8037,42.7652],[76.8424,42.8019],[77.1251,42.8079],[77.2119,42.9099],[76.9569,42.9885],[76.6888,42.9103],[76.4045,42.8892],[76.2545,42.9212],[75.8071,42.9368]],[[74.6298,42.8055],[74.5146,42.8586],[74.6209,42.9357],[74.6718,42.8692],[74.6298,42.8055]]]}},{"type":"Feature","properties":{"sourceId":"1159309473","regionId":"region.ee440451-86a0-4851-91ed-7169f0bf0d0f","countryId":"country.7zmt7h"},"geometry":{"type":"Polygon","coordinates":[[[73.5051,42.4216],[73.3262,42.4287],[73.3166,42.4937],[73.1151,42.5508],[72.8408,42.5557],[72.7258,42.6529],[72.4767,42.6826],[72.2924,42.7611],[72.1049,42.7503],[71.8477,42.8341],[71.5836,42.7596],[71.4046,42.7949],[71.149,42.6779],[71.127,42.5906],[71.0032,42.5635],[70.8888,42.3386],[70.9478,42.2481],[71.0776,42.2812],[71.2499,42.1984],[71.4084,42.1817],[71.6272,42.2029],[72.1269,42.0698],[72.2126,42.1642],[72.3833,42.2065],[72.6281,42.1522],[72.8033,42.0658],[73.1123,42.1393],[73.0812,42.2376],[73.2797,42.2929],[73.606,42.3147],[73.6766,42.4501],[73.5051,42.4216]]]}},{"type":"Feature","properties":{"sourceId":"1159309471","regionId":"region.f13965a8-75eb-4769-9f13-7d3d774e5029","countryId":"country.7zmt7h"},"geometry":{"type":"Polygon","coordinates":[[[71.2499,42.1984],[70.9771,42.0442],[70.8455,42.0304],[70.8251,41.9363],[70.5501,41.8241],[70.4537,41.7121],[70.1693,41.5783],[70.2034,41.5056],[70.3444,41.4938],[70.4708,41.4049],[70.6338,41.4675],[70.7597,41.3725],[70.7563,41.2696],[70.9142,41.193],[71.0247,41.1898],[71.2761,41.1132],[71.4215,41.1621],[71.4126,41.3347],[71.5855,41.3235],[71.6841,41.5341],[71.863,41.3122],[71.8716,41.1945],[72.0338,41.1566],[72.1699,41.1687],[72.1955,41.0064],[72.4767,41.0118],[72.6195,40.8801],[73.0034,40.8702],[73.135,40.8353],[73.2609,40.9044],[73.2579,40.9849],[73.4628,41.095],[73.6929,41.0917],[73.7199,41.002],[73.8855,41.12],[73.9277,41.0174],[74.0417,40.972],[74.2056,41.2019],[74.3999,41.2144],[74.358,41.3031],[74.6385,41.3769],[74.752,41.6118],[74.4072,41.5462],[74.0763,41.565],[73.9465,41.6185],[73.9793,41.8335],[73.7564,41.9018],[73.8009,41.9576],[73.3818,42.0191],[73.1123,42.1393],[72.8033,42.0658],[72.6281,42.1522],[72.3833,42.2065],[72.2126,42.1642],[72.1269,42.0698],[71.6272,42.2029],[71.4084,42.1817],[71.2499,42.1984]]]}},{"type":"Feature","properties":{"sourceId":"1159309469","regionId":"region.f756abfd-0a4f-4901-8fdd-e17462297d20","countryId":"country.7zmt7h"},"geometry":{"type":"Polygon","coordinates":[[[72.0132,40.2621],[71.8365,40.2492],[71.6731,40.1479],[71.3651,40.2941],[70.959,40.2384],[70.6394,40.0849],[70.6274,39.9939],[70.1472,40.137],[69.9696,40.2116],[69.5755,40.1036],[69.4631,40.0254],[69.5016,39.9225],[69.4054,39.8961],[69.314,39.9869],[69.2263,39.751],[69.2912,39.6589],[69.2862,39.5397],[69.4961,39.5326],[69.6694,39.5778],[69.8304,39.5362],[70.0197,39.5686],[70.206,39.5241],[70.46,39.5995],[70.6221,39.5635],[70.6556,39.4946],[70.7397,39.3862],[71.0093,39.4076],[71.0629,39.4956],[71.2369,39.5145],[71.3616,39.5876],[71.5097,39.585],[71.5754,39.6859],[71.7134,39.7384],[72.0855,39.6331],[72.2378,39.6386],[72.528,39.7393],[72.4813,39.8613],[72.2864,39.9511],[72.2717,40.1434],[72.1863,40.2966],[72.0132,40.2621]],[[71.0086,40.1578],[71.2211,39.9317],[71.1137,39.8745],[70.953,40.0792],[71.0086,40.1578]]]}},{"type":"Feature","properties":{"sourceId":"1159309459","regionId":"region.e3e0588a-59f0-4ce9-b2a3-f43179d56128","countryId":"country.7zmt7h"},"geometry":{"type":"Polygon","coordinates":[[[74.6298,42.8055],[74.6718,42.8692],[74.6209,42.9357],[74.5146,42.8586],[74.6298,42.8055]]]}}]}