{"type":"FeatureCollection","features":[{"type":"Feature","properties":{"sourceId":"1159311541","regionId":"region.0cf246d5-e50c-408c-950b-740f4e5925d9","countryId":"country.jmri14"},"geometry":{"type":"Polygon","coordinates":[[[-14.8603,13.7656],[-15.0977,13.82],[-15.2673,13.7418],[-15.3941,13.7715],[-15.498,13.6415],[-15.3793,13.6326],[-15.3019,13.4962],[-15.3,13.4962],[-15.1813,13.5598],[-15.1376,13.59],[-15.0151,13.4957],[-14.7796,13.4109],[-14.7316,13.359],[-14.5521,13.3231],[-14.4621,13.5167],[-14.5855,13.6605],[-14.7286,13.6193],[-14.8029,13.6523],[-14.8603,13.7656]]]}},{"type":"Feature","properties":{"sourceId":"1159317177","regionId":"region.af8941ef-0e26-4ef1-ad5a-847bc3eabb34","countryId":"country.jmri14"},"geometry":{"type":"Polygon","coordinates":[[[-15.498,13.6415],[-15.5182,13.5831],[-16.0854,13.5852],[-16.5614,13.5869],[-16.5218,13.359],[-16.3219,13.3428],[-16.1416,13.4546],[-16.0902,13.4405],[-15.7699,13.4651],[-15.5561,13.5283],[-15.3329,13.4546],[-15.3019,13.4962],[-15.3793,13.6326],[-15.498,13.6415]]]}},{"type":"Feature","properties":{"sourceId":"1159311543","regionId":"region.b7550b1b-05a9-4ae0-8992-3f4c53e28682","countryId":"country.jmri14"},"geometry":{"type":"Polygon","coordinates":[[[-14.4621,13.5167],[-14.5521,13.3231],[-14.395,13.243],[-14.2017,13.2296],[-14.0566,13.2972],[-13.851,13.3358],[-13.8187,13.4294],[-13.8825,13.5038],[-13.9675,13.5756],[-14.0929,13.5547],[-14.3299,13.4564],[-14.4621,13.5167]]]}},{"type":"Feature","properties":{"sourceId":"1159311547","regionId":"region.8887f274-d04c-42e8-bb32-a17c1ec0932a","countryId":"country.jmri14"},"geometry":{"type":"Polygon","coordinates":[[[-15.1813,13.5598],[-15.3,13.4962],[-15.3406,13.4408],[-15.5554,13.5092],[-15.785,13.4348],[-15.9949,13.413],[-16.1612,13.4287],[-16.2276,13.3419],[-16.1513,13.2839],[-15.8244,13.2485],[-15.8071,13.3398],[-15.5195,13.3866],[-15.3424,13.3626],[-15.2278,13.4252],[-15.1813,13.5598]]]}},{"type":"Feature","properties":{"sourceId":"1159317175","regionId":"region.70a26069-397e-4d6b-8692-bb5c42654d5b","countryId":"country.jmri14"},"geometry":{"type":"Polygon","coordinates":[[[-15.8244,13.2485],[-16.1513,13.2839],[-16.258,13.3249],[-16.4197,13.2556],[-16.5458,13.2901],[-16.5955,13.3851],[-16.7044,13.3378],[-16.7629,13.405],[-16.8297,13.3385],[-16.7537,13.065],[-16.6735,13.1643],[-15.8974,13.1574],[-15.8244,13.2485]]]}},{"type":"Feature","properties":{"sourceId":"1159311545","regionId":"region.f71cb3f2-04ed-43d8-b21c-8c0446bd1115","countryId":"country.jmri14"},"geometry":{"type":"Polygon","coordinates":[[[-16.7629,13.405],[-16.7044,13.3378],[-16.5955,13.3851],[-16.6788,13.4962],[-16.7629,13.405]]]}}]}