{"type":"FeatureCollection","features":[{"type":"Feature","properties":{"sourceId":"1159311697","regionId":"region.e43d10d6-8dba-415c-84ef-00a25f43b017","countryId":"country.d772x9"},"geometry":{"type":"Polygon","coordinates":[[[-71.746,19.649],[-71.6377,19.6073],[-71.5325,19.6196],[-71.4131,19.5445],[-71.1842,19.5365],[-71.134,19.7518],[-71.2218,19.8346],[-71.3572,19.8513],[-71.5046,19.9103],[-71.6486,19.8967],[-71.7445,19.8172],[-71.7574,19.7101],[-71.746,19.649]]]}},{"type":"Feature","properties":{"sourceId":"1159311703","regionId":"region.1d59b4cc-17ca-4e6f-9ea4-439fc63b6fb7","countryId":"country.d772x9"},"geometry":{"type":"Polygon","coordinates":[[[-71.7495,19.2797],[-71.6517,19.2179],[-71.4883,19.2988],[-71.4131,19.5445],[-71.5325,19.6196],[-71.6377,19.6073],[-71.746,19.649],[-71.7039,19.4146],[-71.7495,19.2797]]]}},{"type":"Feature","properties":{"sourceId":"1159311715","regionId":"region.79bccd49-8709-4704-9e7b-da3a564085a0","countryId":"country.d772x9"},"geometry":{"type":"Polygon","coordinates":[[[-71.6517,19.2179],[-71.6437,19.1525],[-71.7837,18.9963],[-71.7188,18.7842],[-71.7849,18.6847],[-71.535,18.6508],[-71.6279,18.8142],[-71.6248,18.9378],[-71.5188,19.0181],[-71.4711,19.1284],[-71.3363,19.13],[-71.3274,19.1911],[-71.4883,19.2988],[-71.6517,19.2179]]]}},{"type":"Feature","properties":{"sourceId":"1159311713","regionId":"region.251c8a62-40f4-4975-8c75-5dadafe44003","countryId":"country.d772x9"},"geometry":{"type":"Polygon","coordinates":[[[-71.7918,18.6807],[-71.8416,18.618],[-72.0009,18.5825],[-71.9122,18.4307],[-71.7211,18.294],[-71.7217,18.293],[-71.4219,18.1359],[-71.2008,18.3384],[-71.2906,18.4042],[-71.3767,18.3927],[-71.5926,18.478],[-71.6207,18.5653],[-71.535,18.6508],[-71.7849,18.6847],[-71.7918,18.6807]]]}},{"type":"Feature","properties":{"sourceId":"1159311633","regionId":"region.533bd0d7-6c6f-4257-aa97-13c7bd894d02","countryId":"country.d772x9"},"geometry":{"type":"Polygon","coordinates":[[[-71.7762,18.0393],[-71.6588,17.9533],[-71.6309,17.8168],[-71.5149,17.7378],[-71.4172,17.6048],[-71.281,17.8531],[-71.2977,17.9295],[-71.4022,17.9639],[-71.4219,18.1359],[-71.7217,18.293],[-71.7753,18.1723],[-71.7762,18.0393]]]}},{"type":"Feature","properties":{"sourceId":"1159311683","regionId":"region.3b2d0d80-3e35-417e-a514-fdd57f82fc3e","countryId":"country.d772x9"},"geometry":{"type":"Polygon","coordinates":[[[-68.7851,18.9799],[-68.8324,18.9357],[-68.8387,18.7634],[-68.9353,18.6657],[-68.852,18.5186],[-68.9011,18.4037],[-68.8496,18.3748],[-68.743,18.2045],[-68.6584,18.2109],[-68.5745,18.3782],[-68.4443,18.4195],[-68.3341,18.5773],[-68.3562,18.6566],[-68.5808,18.8126],[-68.7851,18.9799]]]}},{"type":"Feature","properties":{"sourceId":"1159311747","regionId":"region.6cb1edb6-bd21-467b-8ff9-447af4becd48","countryId":"country.d772x9"},"geometry":{"type":"Polygon","coordinates":[[[-69.2117,19.021],[-69.3286,18.9241],[-69.2353,18.7979],[-69.2536,18.6402],[-69.0927,18.5273],[-68.9353,18.6657],[-68.8387,18.7634],[-68.8324,18.9357],[-68.7851,18.9799],[-68.9794,19.0329],[-69.0425,18.9868],[-69.1395,19.0512],[-69.2117,19.021]]]}},{"type":"Feature","properties":{"sourceId":"1159311731","regionId":"region.496a7bb9-e620-432b-9285-48197a604b4e","countryId":"country.d772x9"},"geometry":{"type":"Polygon","coordinates":[[[-69.6209,19.102],[-69.6378,19.0089],[-69.3809,18.8711],[-69.4591,18.8026],[-69.4285,18.6541],[-69.3537,18.522],[-69.2536,18.6402],[-69.2353,18.7979],[-69.3286,18.9241],[-69.2117,19.021],[-69.3561,19.0532],[-69.42,19.1112],[-69.6209,19.102]]]}},{"type":"Feature","properties":{"sourceId":"1159311739","regionId":"region.3e29b8e5-b7ae-4db7-908e-70aa458dbe35","countryId":"country.d772x9"},"geometry":{"type":"Polygon","coordinates":[[[-69.7715,19.3033],[-69.7861,19.1981],[-69.7558,19.0876],[-69.6378,19.0089],[-69.6209,19.102],[-69.6029,19.229],[-69.2537,19.1835],[-69.1584,19.2851],[-69.3356,19.2934],[-69.5394,19.3394],[-69.7715,19.3033]]]}},{"type":"Feature","properties":{"sourceId":"1159311737","regionId":"region.a9c34653-3960-4bac-b4a1-c2c50d731762","countryId":"country.d772x9"},"geometry":{"type":"Polygon","coordinates":[[[-70.094,19.6367],[-70.2151,19.4974],[-70.1457,19.4552],[-70.1187,19.3471],[-69.9913,19.2571],[-69.7861,19.1981],[-69.7715,19.3033],[-69.868,19.4253],[-69.8979,19.636],[-69.9473,19.6787],[-70.094,19.6367]]]}},{"type":"Feature","properties":{"sourceId":"1159311705","regionId":"region.075fefba-5d07-4756-8a30-62f3d8a89c8e","countryId":"country.d772x9"},"geometry":{"type":"Polygon","coordinates":[[[-70.3727,19.7142],[-70.4942,19.6507],[-70.5477,19.5178],[-70.6139,19.3688],[-70.4673,19.3188],[-70.4423,19.5003],[-70.2366,19.4992],[-70.2151,19.4974],[-70.094,19.6367],[-70.3013,19.6577],[-70.3727,19.7142]]]}},{"type":"Feature","properties":{"sourceId":"1159311701","regionId":"region.dc636d70-25f7-4279-b0b3-b48a6b7b6d2e","countryId":"country.d772x9"},"geometry":{"type":"Polygon","coordinates":[[[-71.2218,19.8346],[-71.134,19.7518],[-70.8641,19.6417],[-70.7605,19.5904],[-70.6588,19.6287],[-70.5477,19.5178],[-70.4942,19.6507],[-70.3727,19.7142],[-70.4337,19.7752],[-70.6237,19.7665],[-70.831,19.9025],[-71.0009,19.9377],[-71.2218,19.8346]]]}},{"type":"Feature","properties":{"sourceId":"1159311711","regionId":"region.bda512fb-2691-4950-8277-3dff0e9454c5","countryId":"country.d772x9"},"geometry":{"type":"Polygon","coordinates":[[[-70.9656,18.2621],[-70.9594,18.354],[-71.0427,18.3807],[-71.0148,18.502],[-71.1803,18.3971],[-71.2008,18.3384],[-71.4219,18.1359],[-71.4022,17.9639],[-71.2977,17.9295],[-71.281,17.8531],[-71.2043,17.9111],[-71.0611,18.1421],[-71.084,18.3044],[-70.9656,18.2621]]]}},{"type":"Feature","properties":{"sourceId":"1159311719","regionId":"region.980b78e4-5ee7-4acb-a732-2852eff39a56","countryId":"country.d772x9"},"geometry":{"type":"Polygon","coordinates":[[[-70.5794,18.2718],[-70.4874,18.3212],[-70.4791,18.4132],[-70.5219,18.4887],[-70.6503,18.5724],[-70.7,18.6768],[-70.6858,18.734],[-70.8274,18.8623],[-70.8912,18.9885],[-70.9753,18.8837],[-70.9825,18.7826],[-71.0558,18.6788],[-71.1613,18.6159],[-71.0148,18.502],[-71.0427,18.3807],[-70.9594,18.354],[-70.9656,18.2621],[-70.846,18.3422],[-70.7606,18.3475],[-70.7038,18.4301],[-70.6014,18.4119],[-70.5794,18.2718]]]}},{"type":"Feature","properties":{"sourceId":"1159311725","regionId":"region.4709b9e9-7c21-4051-ba98-ad2b1598c7ff","countryId":"country.d772x9"},"geometry":{"type":"Polygon","coordinates":[[[-70.1804,18.2341],[-70.2697,18.3688],[-70.237,18.433],[-70.3566,18.5036],[-70.4791,18.4132],[-70.4874,18.3212],[-70.5794,18.2718],[-70.5528,18.2042],[-70.3976,18.2376],[-70.1804,18.2341]]]}},{"type":"Feature","properties":{"sourceId":"1159311741","regionId":"region.5e2c2663-e379-48e4-a966-16064be8eb1a","countryId":"country.d772x9"},"geometry":{"type":"Polygon","coordinates":[[[-70.004,18.4175],[-70.1236,18.5312],[-70.1672,18.7317],[-70.2512,18.8017],[-70.35,18.7202],[-70.3566,18.5036],[-70.237,18.433],[-70.2697,18.3688],[-70.1804,18.2341],[-70.004,18.4175]]]}},{"type":"Feature","properties":{"sourceId":"1159310309","regionId":"region.7e5b7b7e-07f7-49cb-a0c8-d067a36e77f2","countryId":"country.d772x9"},"geometry":{"type":"Polygon","coordinates":[[[-69.9809,18.4265],[-69.9974,18.4939],[-69.8794,18.4712],[-69.6974,18.4564],[-69.5281,18.4103],[-69.6166,18.52],[-69.5753,18.6482],[-69.798,18.6001],[-69.8883,18.7013],[-70.0088,18.6622],[-70.1672,18.7317],[-70.1236,18.5312],[-70.004,18.4175],[-69.9809,18.4265]]]}},{"type":"Feature","properties":{"sourceId":"1159311743","regionId":"region.9040d571-5d3f-4b26-80f9-65675d34e88b","countryId":"country.d772x9"},"geometry":{"type":"Polygon","coordinates":[[[-69.8794,18.4712],[-69.9974,18.4939],[-69.9809,18.4265],[-69.8794,18.4712]]]}},{"type":"Feature","properties":{"sourceId":"1159310315","regionId":"region.7c9b9d3c-5a94-4fc5-af32-0e224283da16","countryId":"country.d772x9"},"geometry":{"type":"Polygon","coordinates":[[[-69.0854,18.3959],[-69.0927,18.5273],[-69.2536,18.6402],[-69.3537,18.522],[-69.4285,18.6541],[-69.4591,18.8026],[-69.5753,18.6482],[-69.6166,18.52],[-69.5281,18.4103],[-69.2363,18.4505],[-69.0854,18.3959]]]}},{"type":"Feature","properties":{"sourceId":"1159311745","regionId":"region.789eafec-f846-4c53-9d9c-f924f2309660","countryId":"country.d772x9"},"geometry":{"type":"Polygon","coordinates":[[[-68.9011,18.4037],[-68.852,18.5186],[-68.9353,18.6657],[-69.0927,18.5273],[-69.0854,18.3959],[-68.9011,18.4037]]]}},{"type":"Feature","properties":{"sourceId":"1159310305","regionId":"region.1ca1fe40-a9ac-4445-9b38-64c90f847c36","countryId":"country.d772x9"},"geometry":{"type":"Polygon","coordinates":[[[-71.134,19.7518],[-71.1842,19.5365],[-71.0752,19.4681],[-70.9044,19.4816],[-70.8641,19.6417],[-71.134,19.7518]]]}},{"type":"Feature","properties":{"sourceId":"1159310303","regionId":"region.396e820d-8d7c-4652-8092-0f56ff7dab18","countryId":"country.d772x9"},"geometry":{"type":"Polygon","coordinates":[[[-71.1842,19.5365],[-71.4131,19.5445],[-71.4883,19.2988],[-71.3274,19.1911],[-71.2308,19.1702],[-71.2409,19.329],[-71.0752,19.4681],[-71.1842,19.5365]]]}},{"type":"Feature","properties":{"sourceId":"1159311721","regionId":"region.3959614f-80c2-4ece-adb6-02d34a63bc0a","countryId":"country.d772x9"},"geometry":{"type":"Polygon","coordinates":[[[-70.6139,19.3688],[-70.7416,19.3209],[-70.6783,19.2488],[-70.9162,19.0259],[-70.8912,18.9885],[-70.8274,18.8623],[-70.6858,18.734],[-70.7,18.6768],[-70.6105,18.6774],[-70.5337,18.7879],[-70.5924,18.8532],[-70.5018,19.0742],[-70.3923,19.0723],[-70.2814,19.1464],[-70.3636,19.2249],[-70.4673,19.3188],[-70.6139,19.3688]]]}},{"type":"Feature","properties":{"sourceId":"1159311707","regionId":"region.7b5cda8e-22fb-40b5-bd1f-c2cccce9fc0e","countryId":"country.d772x9"},"geometry":{"type":"Polygon","coordinates":[[[-70.2366,19.4992],[-70.4423,19.5003],[-70.4673,19.3188],[-70.3636,19.2249],[-70.3211,19.3994],[-70.2366,19.4992]]]}},{"type":"Feature","properties":{"sourceId":"1159311729","regionId":"region.c93c3eac-9283-46f5-a2bc-990c8df7c564","countryId":"country.d772x9"},"geometry":{"type":"Polygon","coordinates":[[[-70.2151,19.4974],[-70.2366,19.4992],[-70.3211,19.3994],[-70.3636,19.2249],[-70.2814,19.1464],[-70.0891,19.1443],[-69.9078,19.0935],[-69.9203,19.0393],[-69.7558,19.0876],[-69.7861,19.1981],[-69.9913,19.2571],[-70.1187,19.3471],[-70.1457,19.4552],[-70.2151,19.4974]]]}},{"type":"Feature","properties":{"sourceId":"1159310301","regionId":"region.ddede465-644d-47db-8112-1efd776abf6c","countryId":"country.d772x9"},"geometry":{"type":"Polygon","coordinates":[[[-70.5477,19.5178],[-70.6588,19.6287],[-70.7605,19.5904],[-70.8641,19.6417],[-70.9044,19.4816],[-71.0752,19.4681],[-71.2409,19.329],[-71.2308,19.1702],[-71.0154,19.0256],[-70.9162,19.0259],[-70.6783,19.2488],[-70.7416,19.3209],[-70.6139,19.3688],[-70.5477,19.5178]]]}},{"type":"Feature","properties":{"sourceId":"1159311709","regionId":"region.160b232a-d63a-4647-a9e7-1c3bfb0ed813","countryId":"country.d772x9"},"geometry":{"type":"Polygon","coordinates":[[[-71.535,18.6508],[-71.6207,18.5653],[-71.5926,18.478],[-71.3767,18.3927],[-71.2906,18.4042],[-71.2008,18.3384],[-71.1803,18.3971],[-71.0148,18.502],[-71.1613,18.6159],[-71.3449,18.5996],[-71.535,18.6508]]]}},{"type":"Feature","properties":{"sourceId":"1159310307","regionId":"region.ef28e586-ba98-4a33-b972-952c75315a50","countryId":"country.d772x9"},"geometry":{"type":"Polygon","coordinates":[[[-71.3274,19.1911],[-71.3363,19.13],[-71.4711,19.1284],[-71.5188,19.0181],[-71.6248,18.9378],[-71.6279,18.8142],[-71.535,18.6508],[-71.3449,18.5996],[-71.1613,18.6159],[-71.0558,18.6788],[-70.9825,18.7826],[-70.9753,18.8837],[-70.8912,18.9885],[-70.9162,19.0259],[-71.0154,19.0256],[-71.2308,19.1702],[-71.3274,19.1911]]]}},{"type":"Feature","properties":{"sourceId":"1159311723","regionId":"region.6a33f60a-9300-4e4e-9986-c7251a412018","countryId":"country.d772x9"},"geometry":{"type":"Polygon","coordinates":[[[-70.3923,19.0723],[-70.5018,19.0742],[-70.5924,18.8532],[-70.5337,18.7879],[-70.35,18.7202],[-70.2512,18.8017],[-70.2238,18.8548],[-70.3671,18.9984],[-70.3923,19.0723]]]}},{"type":"Feature","properties":{"sourceId":"1159310311","regionId":"region.32531dc4-eae0-4bba-836b-a7fa7325fe39","countryId":"country.d772x9"},"geometry":{"type":"Polygon","coordinates":[[[-70.2238,18.8548],[-69.9525,18.91],[-69.9203,19.0393],[-69.9078,19.0935],[-70.0891,19.1443],[-70.2814,19.1464],[-70.3923,19.0723],[-70.3671,18.9984],[-70.2238,18.8548]]]}},{"type":"Feature","properties":{"sourceId":"1159311727","regionId":"region.7cafec77-3f96-4761-8dd9-21779a113942","countryId":"country.d772x9"},"geometry":{"type":"Polygon","coordinates":[[[-70.5337,18.7879],[-70.6105,18.6774],[-70.7,18.6768],[-70.6503,18.5724],[-70.5219,18.4887],[-70.4791,18.4132],[-70.3566,18.5036],[-70.35,18.7202],[-70.5337,18.7879]]]}},{"type":"Feature","properties":{"sourceId":"1159311733","regionId":"region.63317a5d-8c66-4c4b-85b4-b2edd0bd95d7","countryId":"country.d772x9"},"geometry":{"type":"Polygon","coordinates":[[[-70.2512,18.8017],[-70.1672,18.7317],[-70.0088,18.6622],[-69.8883,18.7013],[-69.798,18.6001],[-69.5753,18.6482],[-69.4591,18.8026],[-69.3809,18.8711],[-69.6378,19.0089],[-69.7558,19.0876],[-69.9203,19.0393],[-69.9525,18.91],[-70.2238,18.8548],[-70.2512,18.8017]]]}}]}