{"type":"FeatureCollection","features":[{"type":"Feature","properties":{"sourceId":"1159315599","regionId":"region.758c15f9-9f21-44b4-a6d6-6dcc7fcf5658","countryId":"country.ucqeq5"},"geometry":{"type":"MultiPolygon","coordinates":[[[[-51.7306,-82.0626],[-52.6431,-82.1604],[-53.2249,-82.1251],[-54.7615,-82.2997],[-55.1876,-82.4583],[-55.9272,-82.4831],[-56.338,-82.6454],[-57.6989,-82.9103],[-57.8966,-83.009],[-59.47,-83.4601],[-60.4461,-83.4687],[-61.6248,-83.3122],[-61.0401,-83.1196],[-60.9783,-82.9752],[-61.9325,-82.9723],[-62.5221,-82.7182],[-62.795,-82.5197],[-61.1202,-82.3443],[-60.5062,-82.2151],[-60.7087,-82.1607],[-62.073,-82.2875],[-62.4719,-82.2564],[-63.8418,-82.3022],[-65.0726,-82.406],[-66.0624,-82.1954],[-65.7015,-81.9689],[-65.8031,-81.8884],[-63.5772,-81.8718],[-63.4794,-81.78],[-65.6249,-81.7841],[-65.6917,-81.7105],[-63.7374,-81.6894],[-63.3787,-81.7166],[-62.2073,-81.6926],[-62.4142,-81.5576],[-65.1743,-81.5123],[-68.3717,-81.1103],[-68.0877,-81.051],[-68.6803,-80.9609],[-69.1741,-81.0297],[-69.9758,-80.976],[-70.3971,-80.8233],[-70.4337,-80.6573],[-71.2818,-80.6635],[-72.557,-80.7986],[-72.7692,-80.9692],[-74.0469,-80.8041],[-74.8383,-80.9194],[-75.7251,-80.8185],[-75.1925,-80.7713],[-75.712,-80.6381],[-75.424,-80.5416],[-75.5784,-80.4035],[-76.1153,-80.2819],[-76.2745,-80.0811],[-77.6661,-80.1817],[-78.3727,-80.1503],[-79.6454,-80.0213],[-79.6873,-79.9826],[-77.4191,-80.0138],[-76.6322,-79.9392],[-76.0976,-79.7336],[-75.9246,-79.5203],[-76.5326,-79.3129],[-80.4294,-79.2585],[-80.4923,-79.5779],[-81.1173,-79.4699],[-81.3193,-79.2985],[-81.1057,-79.2034],[-81.7428,-79.0654],[-82.5795,-78.9446],[-83.2535,-78.7727],[-83.7196,-78.5602],[-83.8861,-78.4194],[-83.6813,-78.3272],[-83.6776,-78.0115],[-82.487,-78.4658],[-80.2952,-78.8468],[-77.754,-78.7358],[-77.3612,-78.6244],[-77.4125,-78.4196],[-79.2808,-78.1718],[-81.6162,-77.8621],[-80.7623,-77.79],[-80.2272,-77.7978],[-79.4237,-77.878],[-79.1456,-77.8447],[-77.7833,-77.9484],[-77.6854,-77.9299],[-75.2176,-78.1446],[-75.108,-78.1905],[-74.2694,-78.1292],[-73.6273,-78.025],[-73.1197,-77.8564],[-72.8045,-77.699],[-72.7223,-77.5756],[-75.0804,-77.4371],[-75.5266,-77.5412],[-75.9213,-77.3366],[-76.3226,-77.2629],[-77.1869,-76.8266],[-77.5236,-76.7297],[-77.5093,-76.5561],[-76.9291,-76.6038],[-76.4993,-76.525],[-75.8943,-76.621],[-75.2103,-76.5652],[-74.082,-76.6936],[-73.9368,-76.653],[-73.0605,-76.6915],[-72.4062,-76.6894],[-71.7091,-76.7628],[-70.7748,-76.7335],[-70.3321,-76.6777],[-69.9784,-76.5346],[-70.1809,-76.4506],[-69.4748,-76.341],[-68.0181,-76.2211],[-68.1043,-76.1479],[-66.2186,-76.0108],[-63.1616,-75.4094],[-63.0845,-75.3517],[-63.7621,-75.3246],[-64.3299,-75.3664],[-64.2723,-75.2411],[-63.5096,-75.1594],[-63.0409,-75.1472],[-63.344,-75.0074],[-63.9004,-75.0353],[-63.5731,-74.8714],[-63.0622,-74.8925],[-63.293,-74.7201],[-63.119,-74.6523],[-62.6732,-74.7033],[-62.5911,-74.9511],[-62.1319,-74.9516],[-61.873,-74.8515],[-61.7821,-74.7218],[-62.3342,-74.4581],[-61.5427,-74.544],[-61.0679,-74.5196],[-60.9784,-74.4212],[-60.682,-74.3248],[-60.8581,-74.2452],[-61.2787,-74.3298],[-61.888,-74.2776],[-61.6637,-74.1905],[-61.4044,-74.2486],[-61.0554,-74.1031],[-61.3505,-74.0662],[-61.791,-73.9067],[-61.3881,-73.8818],[-61.2324,-73.9582],[-60.9108,-73.8998],[-60.7347,-73.7158],[-60.7995,-73.5779],[-61.7129,-73.4601],[-61.5685,-73.3531],[-62.0651,-73.1305],[-61.37,-73.2037],[-61.1676,-73.3198],[-60.7031,-73.391],[-60.4504,-73.3019],[-60.0936,-73.2992],[-59.9041,-72.9934],[-60.247,-73.0339],[-60.6221,-72.9423],[-60.4917,-72.7912],[-60.5204,-72.6827],[-61.0418,-72.7016],[-61.2154,-72.6381],[-61.3656,-72.466],[-60.8235,-72.4651],[-60.6426,-72.4299],[-60.6618,-72.2558],[-60.9379,-72.1584],[-60.6545,-72.0416],[-61.4274,-72.0652],[-62.1122,-72.0095],[-62.4409,-71.9196],[-61.4972,-71.8549],[-61.0918,-71.871],[-60.7716,-71.76],[-61.119,-71.5393],[-61.5572,-71.6906],[-61.7258,-71.5328],[-61.1293,-71.4148],[-60.9346,-71.1822],[-61.3339,-71.04],[-61.2617,-70.8942],[-61.5544,-70.8412],[-62.0038,-70.9213],[-62.0058,-70.7931],[-61.3542,-70.5611],[-61.4164,-70.5022],[-61.9352,-70.4994],[-62.3805,-70.414],[-62.4364,-70.3048],[-62.2594,-70.2184],[-61.8687,-70.2083],[-62.0093,-70.0759],[-62.3273,-69.9826],[-62.5297,-69.8639],[-62.3842,-69.6811],[-62.3973,-69.5152],[-62.6534,-69.3889],[-62.9625,-69.379],[-63.3208,-69.0501],[-63.8675,-69.007],[-63.2123,-68.8386],[-63.3708,-68.7741],[-63.8129,-68.7179],[-63.7418,-68.5717],[-63.4654,-68.5475],[-63.3285,-68.4151],[-63.9059,-68.4889],[-64.1278,-68.545],[-64.0774,-68.7149],[-64.3594,-68.7844],[-65.1665,-68.6286],[-65.3385,-68.5634],[-64.9757,-68.4078],[-65.3916,-68.3862],[-65.4811,-68.3084],[-65.1666,-68.215],[-64.8008,-68.1638],[-64.9891,-68.0891],[-65.7607,-68.1657],[-65.7809,-68.0948],[-65.3804,-68.0117],[-65.6728,-67.8884],[-65.5502,-67.7203],[-65.3375,-67.658],[-65.5887,-67.5544],[-65.3269,-67.3991],[-64.7491,-67.3073],[-65.0077,-67.2372],[-64.8531,-67.1696],[-64.9663,-67.0339],[-64.7738,-66.8456],[-64.3685,-66.9112],[-63.8313,-66.9179],[-63.7513,-66.7877],[-63.9362,-66.7042],[-63.912,-66.5026],[-63.7375,-66.3194],[-63.7558,-66.2146],[-63.2346,-66.2394],[-63.163,-66.353],[-62.9051,-66.4767],[-62.7882,-66.6643],[-62.5341,-66.7185],[-62.5197,-66.5939],[-62.6904,-66.5099],[-62.5511,-66.4132],[-62.7609,-66.3161],[-62.6683,-66.2275],[-62.2203,-66.1742],[-61.9556,-66.2078],[-61.8116,-66.4645],[-61.6824,-66.3166],[-61.2488,-66.1588],[-61.1676,-66.3048],[-60.9708,-66.3259],[-60.8759,-66.1876],[-61.0222,-66.1326],[-60.5775,-65.9401],[-61.2446,-65.9129],[-61.3393,-66.0877],[-61.5776,-66.0227],[-61.7121,-66.1396],[-62.0228,-66.1115],[-62.3724,-65.9157],[-62.3417,-65.7951],[-62.0661,-65.692],[-62.0799,-65.5964],[-61.9608,-65.4936],[-62.1983,-65.3045],[-61.9316,-65.1933],[-61.6276,-65.2414],[-61.5558,-65.1579],[-61.7394,-65.0878],[-61.7287,-64.9687],[-61.5414,-64.9742],[-61.3812,-65.0533],[-61.0517,-65.0109],[-60.7352,-64.811],[-60.6363,-64.6965],[-60.3555,-64.6282],[-60.2345,-64.5207],[-60.0408,-64.4817],[-59.9575,-64.3875],[-59.7542,-64.4363],[-59.7689,-64.567],[-59.5554,-64.5626],[-59.6622,-64.3915],[-59.4176,-64.3308],[-59.2753,-64.4548],[-58.993,-64.4435],[-58.7699,-64.2824],[-58.8199,-64.2187],[-58.7333,-64.0314],[-58.2925,-63.7536],[-58.0771,-63.6629],[-57.7509,-63.6563],[-57.6864,-63.5525],[-57.4822,-63.5655],[-57.4454,-63.4444],[-57.1268,-63.5035],[-57.0959,-63.6518],[-56.776,-63.5631],[-57.1059,-63.2414],[-57.2866,-63.2148],[-57.8803,-63.3147],[-58.1317,-63.4444],[-58.8985,-63.5402],[-58.9208,-63.651],[-59.3452,-63.7924],[-59.489,-63.8791],[-59.9109,-63.8479],[-59.9538,-63.9467],[-60.3065,-63.9155],[-60.8772,-64.0475],[-60.9687,-64.2957],[-61.1132,-64.3814],[-61.4234,-64.3928],[-61.5829,-64.4426],[-61.6043,-64.5607],[-61.9157,-64.5749],[-61.9709,-64.6904],[-62.1418,-64.7848],[-62.5181,-64.7319],[-62.6738,-64.7773],[-62.8979,-64.9311],[-63.2338,-64.9653],[-62.992,-65.1254],[-63.0836,-65.1661],[-63.827,-65.0302],[-64.0821,-65.1936],[-64.1099,-65.2678],[-63.6823,-65.5239],[-64.1451,-65.624],[-64.3964,-65.8093],[-64.6937,-65.8405],[-64.4958,-65.9394],[-64.6865,-66.0383],[-64.9166,-65.9269],[-65.2598,-65.9575],[-65.6405,-66.2148],[-65.6429,-66.3771],[-65.8004,-66.7158],[-66.2921,-66.5859],[-66.5121,-66.6301],[-66.5519,-66.8106],[-66.4406,-66.8456],[-66.6142,-67.038],[-66.4565,-67.1988],[-66.8875,-67.1681],[-66.9173,-66.9568],[-67.2325,-67.0418],[-67.4447,-67.0471],[-67.5404,-67.1388],[-67.5359,-67.3581],[-67.6608,-67.4828],[-67.4722,-67.549],[-66.9927,-67.4687],[-66.6321,-67.5436],[-66.8192,-67.6046],[-67.016,-67.7411],[-66.7967,-67.8005],[-66.8738,-67.9181],[-67.2687,-67.9687],[-66.9459,-68.2228],[-66.6251,-68.2467],[-66.9591,-68.3674],[-67.0162,-68.7857],[-67.3842,-68.7934],[-67.4556,-68.8658],[-67.2733,-68.9433],[-66.8782,-68.9645],[-66.7591,-69.0712],[-67.0096,-69.2625],[-67.253,-69.273],[-67.5275,-69.4337],[-67.9533,-69.3746],[-68.6538,-69.3821],[-68.8249,-69.4313],[-68.3619,-69.6834],[-68.4838,-70.0527],[-68.1907,-70.235],[-67.9494,-70.3118],[-67.8463,-70.5103],[-67.6836,-70.6262],[-67.6427,-70.8547],[-67.4111,-70.9929],[-67.4582,-71.1899],[-67.6226,-71.4334],[-67.4241,-71.6205],[-66.8002,-71.9555],[-66.748,-72.0921],[-66.9783,-72.3495],[-67.1513,-72.4289],[-67.2219,-72.5937],[-67.5338,-72.7682],[-67.5111,-72.8341],[-68.4669,-73.0157],[-68.6673,-73.0881],[-69.337,-73.1801],[-69.9189,-73.2185],[-70.293,-73.2934],[-70.8829,-73.256],[-71.423,-73.3538],[-72.2392,-73.3888],[-72.5135,-73.4609],[-73.0731,-73.4444],[-73.2071,-73.5484],[-73.4504,-73.565],[-74.1051,-73.7161],[-74.4116,-73.6716],[-74.6628,-73.7353],[-74.9076,-73.6423],[-75.2681,-73.6212],[-75.5329,-73.7081],[-75.8978,-73.7271],[-76.2772,-73.8209],[-76.7783,-73.7903],[-77.0198,-73.8707],[-77.2424,-73.8124],[-76.6987,-73.5475],[-76.8797,-73.4586],[-77.2146,-73.5092],[-77.5312,-73.4675],[-78.2012,-73.5563],[-78.8718,-73.5832],[-78.744,-73.3649],[-79.6475,-73.0387],[-80.3777,-72.95],[-80.6063,-72.9748],[-80.651,-73.0844],[-80.4368,-73.1882],[-80.3518,-73.3455],[-80.8102,-73.2631],[-81.3112,-73.273],[-81.3282,-73.4801],[-81.1155,-73.5695],[-81.234,-73.7302],[-82.0648,-73.887],[-82.9337,-73.7104],[-83.8816,-73.6667],[-83.7517,-73.5602],[-84.4669,-73.5694],[-85.1015,-73.4871],[-85.5429,-73.3718],[-85.6786,-73.1775],[-86.3677,-73.2628],[-86.4604,-73.3373],[-86.9465,-73.3836],[-87.505,-73.2011],[-87.9215,-73.2527],[-88.1523,-73.2099],[-88.4438,-73.2636],[-88.714,-73.1198],[-88.4554,-73.0383],[-88.4063,-72.9184],[-88.1088,-72.8434],[-88.2235,-72.7123],[-89.3485,-72.6345],[-89.1105,-72.7643],[-89.088,-72.9601],[-89.2838,-73.1066],[-90.2067,-73.1498],[-90.5343,-73.2802],[-91.1149,-73.3007],[-91.9538,-73.1845],[-92.8014,-73.1428],[-93.0227,-73.1931],[-93.5716,-73.1752],[-93.9359,-73.2795],[-94.3358,-73.3215],[-94.578,-73.2355],[-95.1938,-73.2091],[-95.6886,-73.2444],[-95.8427,-73.3315],[-96.475,-73.2995],[-97.4189,-73.1249],[-97.7611,-73.1941],[-97.9812,-73.1694],[-97.7174,-73.0253],[-99.6822,-73.0173],[-99.8536,-72.9955],[-100.3769,-73.0659],[-100.7659,-72.976],[-101.3102,-72.9908],[-101.9603,-73.0556],[-102.1886,-72.8945],[-102.094,-72.7717],[-102.3286,-72.7381],[-103.0414,-72.7076],[-103.4299,-72.8494],[-103.2613,-73.0066],[-103.2883,-73.1594],[-102.8736,-73.3082],[-102.6026,-73.3307],[-101.8566,-73.3045],[-99.7681,-73.3642],[-99.4853,-73.5475],[-98.8912,-73.5885],[-99.8674,-73.7331],[-100.4586,-73.7262],[-100.6321,-73.7822],[-101.1639,-73.7707],[-101.3854,-73.6672],[-102.8898,-73.5855],[-102.9869,-73.675],[-102.789,-73.7488],[-102.9233,-73.8575],[-102.7333,-73.9372],[-102.3937,-73.9318],[-101.5892,-74.0002],[-101.3066,-74.3066],[-101.3959,-74.5027],[-100.9273,-74.5506],[-100.5995,-74.4846],[-100.1307,-74.4734],[-99.8158,-74.5379],[-100.0528,-74.6017],[-100.0834,-74.8461],[-99.8844,-74.922],[-99.324,-74.9626],[-99.3797,-75.1127],[-98.8991,-75.175],[-98.642,-75.3095],[-99.0143,-75.3395],[-99.4314,-75.3034],[-100.1374,-75.3845],[-100.4357,-75.3505],[-101.1127,-75.4321],[-101.1486,-75.3718],[-101.6568,-75.3054],[-101.5642,-75.1467],[-102.5965,-75.129],[-103.296,-75.0854],[-103.8122,-75.153],[-104.1014,-75.1208],[-104.5506,-75.1607],[-104.8363,-75.1066],[-105.1418,-75.1813],[-106.4491,-75.3168],[-107.8661,-75.3235],[-108.1037,-75.2565],[-109.6929,-75.1461],[-110.1728,-75.2392],[-110.4459,-75.193],[-111.4811,-75.1957],[-111.5268,-75.108],[-111.0179,-74.989],[-110.6754,-74.8294],[-110.2944,-74.7819],[-110.3207,-74.6663],[-110.1031,-74.5486],[-110.2482,-74.3722],[-110.4486,-74.2713],[-110.7414,-74.3202],[-111.2308,-74.1967],[-111.6498,-74.1749],[-111.887,-74.2286],[-111.6971,-74.4229],[-111.9168,-74.6184],[-111.5426,-74.8015],[-112.0758,-74.8089],[-112.2458,-74.8626],[-112.9178,-74.8731],[-113.7897,-74.9775],[-113.9696,-74.8849],[-113.8263,-74.7297],[-114.3258,-74.6819],[-113.6493,-74.588],[-113.3109,-74.4807],[-113.8013,-74.4518],[-113.8832,-74.2371],[-113.422,-74.1749],[-113.6112,-74.0252],[-113.8925,-74.0227],[-113.9518,-73.9146],[-114.21,-73.8635],[-114.734,-73.9269],[-115.1249,-74.0949],[-115.068,-74.2564],[-114.8385,-74.4714],[-115.6493,-74.5309],[-116.0502,-74.4973],[-116.6935,-74.5579],[-117.3412,-74.5468],[-117.6623,-74.5034],[-118.1239,-74.3128],[-118.9755,-74.4042],[-119.135,-74.5981],[-119.8973,-74.6819],[-120.154,-74.6601],[-120.8293,-74.7398],[-122.0039,-74.7752],[-122.2,-74.7538],[-123.4661,-74.7818],[-124.0513,-74.8111],[-124.3656,-74.707],[-125.7401,-74.7048],[-126.1134,-74.7615],[-126.5946,-74.7424],[-126.9391,-74.6767],[-128.473,-74.7634],[-128.7115,-74.8225],[-129.1868,-74.8264],[-129.9751,-74.9133],[-131.0128,-74.8165],[-131.5554,-74.846],[-132.0931,-74.7633],[-132.5787,-74.8258],[-132.7912,-74.7686],[-133.8655,-74.9283],[-134.5863,-74.7363],[-134.5186,-74.6432],[-135.3424,-74.5602],[-135.7001,-74.678],[-136.2248,-74.7014],[-136.8849,-74.8283],[-136.8776,-75.0382],[-136.3744,-75.1081],[-136.346,-75.1778],[-137.0949,-75.1799],[-137.4774,-75.0881],[-139.5666,-75.148],[-140.1571,-75.3406],[-140.277,-75.4326],[-141.2384,-75.5987],[-140.8372,-75.6829],[-140.913,-75.7624],[-141.5272,-75.7675],[-141.8614,-75.5212],[-142.467,-75.4317],[-142.6794,-75.5618],[-143.3918,-75.5383],[-144.3076,-75.6423],[-144.1604,-75.804],[-144.8912,-75.8409],[-145.1803,-75.9072],[-145.9508,-75.8826],[-146.2092,-75.9155],[-146.4996,-76.087],[-145.9091,-76.2592],[-145.5386,-76.3155],[-145.3546,-76.4345],[-145.7184,-76.4649],[-146.2507,-76.4238],[-147.1645,-76.2322],[-148.1971,-76.0871],[-148.5914,-76.1169],[-148.5397,-76.2283],[-149.0333,-76.3019],[-149.4833,-76.2932],[-149.6398,-76.4299],[-148.4528,-76.506],[-148.0395,-76.4485],[-147.0817,-76.4328],[-146.6181,-76.5324],[-146.11,-76.7092],[-145.5342,-76.738],[-145.9451,-76.8303],[-145.5925,-76.9168],[-145.536,-77.0551],[-145.9369,-77.0663],[-145.275,-77.2211],[-145.9645,-77.2545],[-145.4066,-77.4793],[-146.0255,-77.5192],[-146.3966,-77.4952],[-146.8898,-77.2558],[-147.7012,-77.4094],[-147.8468,-77.2638],[-148.5131,-77.1076],[-148.8674,-77.1374],[-149.0209,-77.3378],[-147.7582,-77.4617],[-148.8015,-77.5838],[-148.6737,-77.6749],[-149.2453,-77.7575],[-149.975,-77.8162],[-151.0011,-77.5585],[-151.4209,-77.509],[-151.5146,-77.4164],[-152.4855,-77.3191],[-152.5754,-77.502],[-153.248,-77.4465],[-153.534,-77.2542],[-154.0968,-77.2138],[-154.8944,-77.1037],[-155.475,-77.1679],[-155.8655,-77.0597],[-156.3238,-77.0661],[-156.811,-77.1915],[-156.4671,-77.2607],[-157.0831,-77.3513],[-157.9254,-77.0563],[-158.3117,-77.1324],[-158.3254,-77.2961],[-158.1402,-77.4279],[-158.6371,-77.8645],[-158.3439,-77.9744],[-157.1996,-78.2527],[-156.348,-78.1999],[-155.2516,-78.205],[-154.7741,-78.2345],[-154.3962,-78.1359],[-154.1366,-78.2483],[-154.2908,-78.3889],[-154.7303,-78.4547],[-156.0528,-78.4941],[-156.4993,-78.5943],[-156.5283,-78.6637],[-155.0527,-78.9941],[-154.9698,-79.0348],[-153.0793,-79.1394],[-152.2342,-79.1109],[-151.9751,-79.1703],[-152.4142,-79.2639],[-152.0038,-79.3425],[-150.4469,-79.5592],[-149.0924,-79.6303],[-149.0013,-79.6862],[-147.9457,-79.7866],[-148.0438,-79.8902],[-148.5186,-79.8868],[-148.4551,-80.0242],[-148.8341,-80.1313],[-150.3697,-80.0746],[-150.1337,-80.1857],[-150.6091,-80.2697],[-149.9683,-80.3937],[-150.4222,-80.4296],[-150.2359,-80.528],[-149.6652,-80.527],[-149.0187,-80.5915],[-149.4617,-80.7192],[-148.4066,-80.746],[-147.6256,-80.8473],[-147.628,-80.9202],[-150.5687,-80.9964],[-152.5292,-81.0471],[-156.4501,-81.1487],[-157.0639,-81.2558],[-157.0567,-81.3513],[-154.9966,-81.4892],[-153.7904,-81.691],[-153.8298,-81.7922],[-154.3519,-81.8235],[-154.804,-81.966],[-154.1114,-82.0715],[-154.2148,-82.1257],[-152.8968,-82.3741],[-152.5429,-82.5481],[-155.0588,-82.8019],[-155.5922,-83.0461],[-158.4972,-83.1179],[-158.4635,-83.1672],[-156.9177,-83.2302],[-157.5553,-83.3902],[-158.9999,-83.4571],[-162.1691,-83.5247],[-162.8699,-83.3215],[-164.1662,-83.3961],[-164.9832,-83.3403],[-165.0863,-83.2021],[-167.3332,-83.198],[-168.0858,-83.2555],[-169.7346,-83.2444],[-170.7195,-83.197],[-171.4083,-82.9538],[-172.5124,-82.8699],[-174.0276,-82.9152],[-169.4331,-83.4094],[-168.5826,-83.5304],[-168.6343,-83.6046],[-168.0536,-83.7537],[-167.2535,-83.8111],[-166.0682,-83.818],[-165.4207,-83.7668],[-163.9939,-83.9391],[-163.7028,-84.0499],[-165.0097,-84.0567],[-165.1544,-84.138],[-164.1903,-84.2255],[-164.1567,-84.2921],[-165.4097,-84.3645],[-164.0966,-84.4806],[-163.8629,-84.5499],[-158.2496,-84.7672],[-155.6426,-84.8278],[-155.7882,-84.9046],[-157.581,-84.883],[-156.9388,-85.007],[-155.504,-85.1261],[-156.0084,-85.2219],[-158.1633,-85.1647],[-158.3515,-85.103],[-162.8489,-84.8831],[-166.9112,-84.8202],[-168.0186,-84.781],[-168.2547,-84.6482],[-172.2109,-84.5148],[-175.178,-84.4148],[-175.9987,-84.4874],[-178.2976,-84.3077],[-179.9691,-84.3554],[-180,-84.3528],[-180,-84.5152],[-180,-85.0138],[-180,-85.5125],[-180,-86.0111],[-180,-86.5097],[-180,-87.0083],[-180,-87.5069],[-180,-88.0055],[-180,-88.5042],[-180,-89.0028],[-180,-89.5014],[-180,-90],[-179.5007,-90],[-179.0014,-90],[-178.5021,-90],[-178.0028,-90],[-177.5035,-90],[-177.0042,-90],[-176.5049,-90],[-176.0055,-90],[-175.5062,-90],[-175.0069,-90],[-174.5076,-90],[-174.0083,-90],[-173.509,-90],[-173.0097,-90],[-172.5104,-90],[-172.0111,-90],[-171.5118,-90],[-171.0125,-90],[-170.5132,-90],[-170.0139,-90],[-169.5146,-90],[-169.0153,-90],[-168.5159,-90],[-168.0166,-90],[-167.5173,-90],[-167.018,-90],[-166.5187,-90],[-166.0194,-90],[-165.5201,-90],[-165.0208,-90],[-164.5215,-90],[-164.0222,-90],[-163.5229,-90],[-163.0236,-90],[-162.5243,-90],[-162.025,-90],[-161.5257,-90],[-161.0264,-90],[-160.527,-90],[-160.0277,-90],[-159.5284,-90],[-159.0291,-90],[-158.5298,-90],[-158.0305,-90],[-157.5312,-90],[-157.0319,-90],[-156.5326,-90],[-156.0333,-90],[-155.534,-90],[-155.0347,-90],[-154.5354,-90],[-154.0361,-90],[-153.5368,-90],[-153.0374,-90],[-152.5381,-90],[-152.0388,-90],[-151.5395,-90],[-151.0402,-90],[-150.5409,-90],[-150.0416,-90],[-149.5423,-90],[-149.043,-90],[-148.5437,-90],[-148.0444,-90],[-147.5451,-90],[-147.0458,-90],[-146.5465,-90],[-146.0472,-90],[-145.5478,-90],[-145.0485,-90],[-144.5492,-90],[-144.0499,-90],[-143.5506,-90],[-143.0513,-90],[-142.552,-90],[-142.0527,-90],[-141.5534,-90],[-141.0541,-90],[-140.5548,-90],[-140.0555,-90],[-139.5562,-90],[-139.0569,-90],[-138.5576,-90],[-138.0583,-90],[-137.5589,-90],[-137.0596,-90],[-136.5603,-90],[-136.061,-90],[-135.5617,-90],[-135.0624,-90],[-134.5631,-90],[-134.0638,-90],[-133.5645,-90],[-133.0652,-90],[-132.5659,-90],[-132.0666,-90],[-131.5673,-90],[-131.068,-90],[-130.5687,-90],[-130.0693,-90],[-129.57,-90],[-129.0707,-90],[-128.5714,-90],[-128.0721,-90],[-127.5728,-90],[-127.0735,-90],[-126.5742,-90],[-126.0749,-90],[-125.5756,-90],[-125.0763,-90],[-124.577,-90],[-124.0777,-90],[-123.5784,-90],[-123.0791,-90],[-122.5797,-90],[-122.0804,-90],[-121.5811,-90],[-121.0818,-90],[-120.5825,-90],[-120.0832,-90],[-119.5839,-90],[-119.0846,-90],[-118.5853,-90],[-118.086,-90],[-117.5867,-90],[-117.0874,-90],[-116.5881,-90],[-116.0888,-90],[-115.5895,-90],[-115.0902,-90],[-114.5908,-90],[-114.0915,-90],[-113.5922,-90],[-113.0929,-90],[-112.5936,-90],[-112.0943,-90],[-111.595,-90],[-111.0957,-90],[-110.5964,-90],[-110.0971,-90],[-109.5978,-90],[-109.0985,-90],[-108.5992,-90],[-108.0999,-90],[-107.6006,-90],[-107.1012,-90],[-106.6019,-90],[-106.1026,-90],[-105.6033,-90],[-105.104,-90],[-104.6047,-90],[-104.1054,-90],[-103.6061,-90],[-103.1068,-90],[-102.6075,-90],[-102.1082,-90],[-101.6089,-90],[-101.1096,-90],[-100.6103,-90],[-100.111,-90],[-99.6116,-90],[-99.1123,-90],[-98.613,-90],[-98.1137,-90],[-97.6144,-90],[-97.1151,-90],[-96.6158,-90],[-96.1165,-90],[-95.6172,-90],[-95.1179,-90],[-94.6186,-90],[-94.1193,-90],[-93.62,-90],[-93.1207,-90],[-92.6214,-90],[-92.1221,-90],[-91.6227,-90],[-91.1234,-90],[-90.6241,-90],[-90.1248,-90],[-89.6255,-90],[-89.1262,-90],[-88.6269,-90],[-88.1276,-90],[-87.6283,-90],[-87.129,-90],[-86.6297,-90],[-86.1304,-90],[-85.6311,-90],[-85.1318,-90],[-84.6325,-90],[-84.1331,-90],[-83.6338,-90],[-83.1345,-90],[-82.6352,-90],[-82.1359,-90],[-81.6366,-90],[-81.1373,-90],[-80.638,-90],[-80.1387,-90],[-79.6394,-90],[-79.1401,-90],[-78.6408,-90],[-78.1415,-90],[-77.6422,-90],[-77.1429,-90],[-76.6436,-90],[-76.1442,-90],[-75.6449,-90],[-75.1456,-90],[-74.6463,-90],[-74.147,-90],[-73.6477,-90],[-73.1484,-90],[-72.6491,-90],[-72.1498,-90],[-71.6505,-90],[-71.1512,-90],[-70.6519,-90],[-70.1526,-90],[-69.6533,-90],[-69.154,-90],[-68.6546,-90],[-68.1553,-90],[-67.656,-90],[-67.1567,-90],[-66.6574,-90],[-66.1581,-90],[-65.6588,-90],[-65.1595,-90],[-64.6602,-90],[-64.1609,-90],[-63.6616,-90],[-63.1623,-90],[-62.663,-90],[-62.1637,-90],[-61.6644,-90],[-61.165,-90],[-60.6657,-90],[-60.1664,-90],[-59.6671,-90],[-59.1678,-90],[-58.6685,-90],[-58.1692,-90],[-57.6699,-90],[-57.1706,-90],[-56.6713,-90],[-56.172,-90],[-55.6727,-90],[-55.1734,-90],[-54.6741,-90],[-54.1748,-90],[-53.6755,-90],[-53.1761,-90],[-52.6768,-90],[-52.1775,-90],[-51.6782,-90],[-51.1789,-90],[-50.6796,-90],[-50.1803,-90],[-49.681,-90],[-49.1817,-90],[-48.6824,-90],[-48.1831,-90],[-47.6838,-90],[-47.1845,-90],[-46.6852,-90],[-46.1859,-90],[-45.6865,-90],[-45.1872,-90],[-44.6879,-90],[-44.1886,-90],[-43.6893,-90],[-43.19,-90],[-42.6907,-90],[-42.1914,-90],[-41.6921,-90],[-41.1928,-90],[-40.6935,-90],[-40.1942,-90],[-39.6949,-90],[-39.1956,-90],[-38.6963,-90],[-38.1969,-90],[-37.6976,-90],[-37.1983,-90],[-36.699,-90],[-36.1997,-90],[-35.7004,-90],[-35.2011,-90],[-34.7018,-90],[-34.2025,-90],[-33.7032,-90],[-33.2039,-90],[-32.7046,-90],[-32.2053,-90],[-31.706,-90],[-31.2067,-90],[-30.7074,-90],[-30.208,-90],[-29.7087,-90],[-29.2094,-90],[-28.7101,-90],[-28.2108,-90],[-27.7115,-90],[-27.2122,-90],[-26.7129,-90],[-26.2136,-90],[-25.7143,-90],[-25.215,-90],[-24.7157,-90],[-24.2164,-90],[-23.7171,-90],[-23.2178,-90],[-22.7184,-90],[-22.2191,-90],[-21.7198,-90],[-21.2205,-90],[-20.7212,-90],[-20.2219,-90],[-19.7226,-90],[-19.2233,-90],[-18.724,-90],[-18.2247,-90],[-17.7254,-90],[-17.2261,-90],[-16.7268,-90],[-16.2275,-90],[-15.7282,-90],[-15.2288,-90],[-14.7295,-90],[-14.2302,-90],[-13.7309,-90],[-13.2316,-90],[-12.7323,-90],[-12.233,-90],[-11.7337,-90],[-11.2344,-90],[-10.7351,-90],[-10.2358,-90],[-9.7365,-90],[-9.2372,-90],[-8.7379,-90],[-8.2386,-90],[-7.7393,-90],[-7.2399,-90],[-6.7406,-90],[-6.2413,-90],[-5.742,-90],[-5.2427,-90],[-4.7434,-90],[-4.2441,-90],[-3.7448,-90],[-3.2455,-90],[-2.7462,-90],[-2.2469,-90],[-1.7476,-90],[-1.2483,-90],[-0.749,-90],[-0.2497,-90],[0.2497,-90],[0.749,-90],[1.2483,-90],[1.7476,-90],[2.2469,-90],[2.7462,-90],[3.2455,-90],[3.7448,-90],[4.2441,-90],[4.7434,-90],[5.2427,-90],[5.742,-90],[6.2413,-90],[6.7406,-90],[7.2399,-90],[7.7393,-90],[8.2386,-90],[8.7379,-90],[9.2372,-90],[9.7365,-90],[10.2358,-90],[10.7351,-90],[11.2344,-90],[11.7337,-90],[12.233,-90],[12.7323,-90],[13.2316,-90],[13.7309,-90],[14.2302,-90],[14.7295,-90],[15.2288,-90],[15.7282,-90],[16.2275,-90],[16.7268,-90],[17.2261,-90],[17.7254,-90],[18.2247,-90],[18.724,-90],[19.2233,-90],[19.7226,-90],[20.2219,-90],[20.7212,-90],[21.2205,-90],[21.7198,-90],[22.2191,-90],[22.7184,-90],[23.2178,-90],[23.7171,-90],[24.2164,-90],[24.7157,-90],[25.215,-90],[25.7143,-90],[26.2136,-90],[26.7129,-90],[27.2122,-90],[27.7115,-90],[28.2108,-90],[28.7101,-90],[29.2094,-90],[29.7087,-90],[30.208,-90],[30.7074,-90],[31.2067,-90],[31.706,-90],[32.2053,-90],[32.7046,-90],[33.2039,-90],[33.7032,-90],[34.2025,-90],[34.7018,-90],[35.2011,-90],[35.7004,-90],[36.1997,-90],[36.699,-90],[37.1983,-90],[37.6976,-90],[38.1969,-90],[38.6963,-90],[39.1956,-90],[39.6949,-90],[40.1942,-90],[40.6935,-90],[41.1928,-90],[41.6921,-90],[42.1914,-90],[42.6907,-90],[43.19,-90],[43.6893,-90],[44.1886,-90],[44.6879,-90],[45.1872,-90],[45.6865,-90],[46.1859,-90],[46.6852,-90],[47.1845,-90],[47.6838,-90],[48.1831,-90],[48.6824,-90],[49.1817,-90],[49.681,-90],[50.1803,-90],[50.6796,-90],[51.1789,-90],[51.6782,-90],[52.1775,-90],[52.6768,-90],[53.1761,-90],[53.6755,-90],[54.1748,-90],[54.6741,-90],[55.1734,-90],[55.6727,-90],[56.172,-90],[56.6713,-90],[57.1706,-90],[57.6699,-90],[58.1692,-90],[58.6685,-90],[59.1678,-90],[59.6671,-90],[60.1664,-90],[60.6657,-90],[61.165,-90],[61.6644,-90],[62.1637,-90],[62.663,-90],[63.1623,-90],[63.6616,-90],[64.1609,-90],[64.6602,-90],[65.1595,-90],[65.6588,-90],[66.1581,-90],[66.6574,-90],[67.1567,-90],[67.656,-90],[68.1553,-90],[68.6546,-90],[69.154,-90],[69.6533,-90],[70.1526,-90],[70.6519,-90],[71.1512,-90],[71.6505,-90],[72.1498,-90],[72.6491,-90],[73.1484,-90],[73.6477,-90],[74.147,-90],[74.6463,-90],[75.1456,-90],[75.6449,-90],[76.1442,-90],[76.6436,-90],[77.1429,-90],[77.6422,-90],[78.1415,-90],[78.6408,-90],[79.1401,-90],[79.6394,-90],[80.1387,-90],[80.638,-90],[81.1373,-90],[81.6366,-90],[82.1359,-90],[82.6352,-90],[83.1345,-90],[83.6338,-90],[84.1331,-90],[84.6325,-90],[85.1318,-90],[85.6311,-90],[86.1304,-90],[86.6297,-90],[87.129,-90],[87.6283,-90],[88.1276,-90],[88.6269,-90],[89.1262,-90],[89.6255,-90],[90.1248,-90],[90.6241,-90],[91.1234,-90],[91.6227,-90],[92.1221,-90],[92.6214,-90],[93.1207,-90],[93.62,-90],[94.1193,-90],[94.6186,-90],[95.1179,-90],[95.6172,-90],[96.1165,-90],[96.6158,-90],[97.1151,-90],[97.6144,-90],[98.1137,-90],[98.613,-90],[99.1123,-90],[99.6117,-90],[100.111,-90],[100.6103,-90],[101.1096,-90],[101.6089,-90],[102.1082,-90],[102.6075,-90],[103.1068,-90],[103.6061,-90],[104.1054,-90],[104.6047,-90],[105.104,-90],[105.6033,-90],[106.1026,-90],[106.6019,-90],[107.1012,-90],[107.6006,-90],[108.0999,-90],[108.5992,-90],[109.0985,-90],[109.5978,-90],[110.0971,-90],[110.5964,-90],[111.0957,-90],[111.595,-90],[112.0943,-90],[112.5936,-90],[113.0929,-90],[113.5922,-90],[114.0915,-90],[114.5908,-90],[115.0902,-90],[115.5895,-90],[116.0888,-90],[116.5881,-90],[117.0874,-90],[117.5867,-90],[118.086,-90],[118.5853,-90],[119.0846,-90],[119.5839,-90],[120.0832,-90],[120.5825,-90],[121.0818,-90],[121.5811,-90],[122.0804,-90],[122.5798,-90],[123.0791,-90],[123.5784,-90],[124.0777,-90],[124.577,-90],[125.0763,-90],[125.5756,-90],[126.0749,-90],[126.5742,-90],[127.0735,-90],[127.5728,-90],[128.0721,-90],[128.5714,-90],[129.0707,-90],[129.57,-90],[130.0693,-90],[130.5687,-90],[131.068,-90],[131.5673,-90],[132.0666,-90],[132.5659,-90],[133.0652,-90],[133.5645,-90],[134.0638,-90],[134.5631,-90],[135.0624,-90],[135.5617,-90],[136.061,-90],[136.5603,-90],[137.0596,-90],[137.5589,-90],[138.0583,-90],[138.5576,-90],[139.0569,-90],[139.5562,-90],[140.0555,-90],[140.5548,-90],[141.0541,-90],[141.5534,-90],[142.0527,-90],[142.552,-90],[143.0513,-90],[143.5506,-90],[144.0499,-90],[144.5492,-90],[145.0485,-90],[145.5479,-90],[146.0472,-90],[146.5465,-90],[147.0458,-90],[147.5451,-90],[148.0444,-90],[148.5437,-90],[149.043,-90],[149.5423,-90],[150.0416,-90],[150.5409,-90],[151.0402,-90],[151.5395,-90],[152.0388,-90],[152.5381,-90],[153.0374,-90],[153.5368,-90],[154.0361,-90],[154.5354,-90],[155.0347,-90],[155.534,-90],[156.0333,-90],[156.5326,-90],[157.0319,-90],[157.5312,-90],[158.0305,-90],[158.5298,-90],[159.0291,-90],[159.5284,-90],[160.0277,-90],[160.527,-90],[161.0264,-90],[161.5257,-90],[162.025,-90],[162.5243,-90],[163.0236,-90],[163.5229,-90],[164.0222,-90],[164.5215,-90],[165.0208,-90],[165.5201,-90],[166.0194,-90],[166.5187,-90],[167.018,-90],[167.5173,-90],[168.0166,-90],[168.516,-90],[169.0153,-90],[169.5146,-90],[170.0139,-90],[170.5132,-90],[171.0125,-90],[171.5118,-90],[172.0111,-90],[172.5104,-90],[173.0097,-90],[173.509,-90],[174.0083,-90],[174.5076,-90],[175.0069,-90],[175.5062,-90],[176.0055,-90],[176.5049,-90],[177.0042,-90],[177.5035,-90],[178.0028,-90],[178.5021,-90],[179.0014,-90],[179.5007,-90],[180,-90],[180,-89.5014],[180,-89.0028],[180,-88.5042],[180,-88.0055],[180,-87.5069],[180,-87.0083],[180,-86.5097],[180,-86.0111],[180,-85.5125],[180,-85.0138],[180,-84.5152],[180,-84.3534],[180,-84.3528],[179.355,-84.1974],[178.5674,-84.1838],[177.5352,-84.0579],[175.6777,-83.9616],[174.9739,-83.8305],[173.9622,-83.8818],[172.8206,-83.6679],[171.3312,-83.5554],[171.1931,-83.4456],[169.3835,-83.3368],[168.6609,-83.3971],[167.7488,-83.2551],[168.7639,-83.1913],[168.5928,-82.999],[168.119,-82.9611],[167.4242,-83.0261],[167.3065,-82.8171],[166.1089,-82.6529],[165.3733,-82.6061],[165.5593,-82.4934],[164.6732,-82.3388],[163.28,-82.4264],[163.3189,-82.483],[160.8577,-82.5009],[160.6397,-82.4229],[163.8387,-82.2311],[163.5973,-82.0904],[163.2073,-82.0385],[162.3901,-81.798],[162.4793,-81.6891],[161.0115,-81.5488],[161.4541,-81.4235],[160.4025,-81.3256],[160.9194,-81.2702],[160.9075,-80.9929],[160.1599,-80.7815],[161.0093,-80.7586],[161.2009,-80.6482],[160.6121,-80.5468],[160.7517,-80.3801],[158.5879,-80.477],[158.2073,-80.4059],[158.7824,-80.259],[161.3833,-79.947],[160.8509,-79.9575],[160.3289,-79.8613],[159.9743,-79.9221],[159.5237,-79.8749],[160.7615,-79.6508],[159.8755,-79.662],[160.7107,-79.4192],[160.387,-79.1681],[161.1304,-79.0494],[162.0654,-79.0686],[161.7554,-78.8395],[161.5208,-78.7953],[161.3616,-78.5784],[162.1257,-78.7599],[162.9113,-78.8818],[163.0446,-78.7438],[163.8517,-78.7371],[164.4097,-78.6039],[165.3097,-78.6052],[166.0896,-78.5668],[166.5467,-78.712],[167.0682,-78.7067],[167.2157,-78.6007],[167.0015,-78.5011],[166.5652,-78.5071],[165.7869,-78.4207],[165.6852,-78.2608],[165.0972,-78.254],[164.5317,-78.3172],[164.2079,-78.2258],[164.5337,-77.9871],[164.5007,-77.8539],[163.9065,-77.6964],[163.7158,-77.3966],[163.0695,-77.0187],[162.469,-77.0153],[162.6262,-76.8249],[162.9314,-76.7075],[162.4232,-76.6393],[162.8843,-76.4391],[162.7728,-76.2437],[162.1156,-76.1702],[162.7361,-76.0739],[162.7069,-75.9811],[162.9001,-75.8229],[162.2005,-75.6379],[162.3067,-75.5294],[162.1911,-75.3878],[161.0871,-75.3844],[160.9759,-75.2872],[161.4749,-75.2856],[161.7764,-75.1889],[162.0296,-75.2599],[162.5435,-75.2402],[162.7861,-74.99],[162.5431,-74.9537],[162.5915,-74.7502],[163.0119,-74.7014],[163.2708,-74.5418],[163.182,-74.447],[163.4699,-74.342],[163.7873,-74.6244],[164.3184,-74.5026],[164.5874,-74.5749],[165.2385,-74.5466],[165.2881,-74.4653],[164.8938,-74.1204],[164.5915,-73.9267],[164.9525,-73.8909],[164.7146,-73.7817],[164.9059,-73.6572],[164.8938,-73.4835],[164.5387,-73.4172],[164.5588,-73.3244],[165.032,-73.4109],[165.2312,-73.593],[165.2606,-73.8933],[165.6519,-73.9137],[165.6703,-73.797],[166.1444,-73.8134],[166.2942,-73.7258],[165.8737,-73.5659],[167.033,-73.5661],[167.3631,-73.3943],[167.9294,-73.3587],[166.8721,-73.2214],[166.7056,-73.1209],[166.9463,-73.0239],[167.1714,-73.153],[167.7808,-73.1529],[168.0415,-73.1174],[168.3342,-73.1655],[168.3941,-72.9719],[168.7526,-73.0769],[168.9797,-73.2639],[169.2512,-73.2485],[169.2199,-73.1325],[169.555,-73.0912],[169.5845,-72.9622],[169.9325,-72.7359],[169.4021,-72.6549],[169.3018,-72.5773],[168.8674,-72.5759],[168.3162,-72.3736],[168.7067,-72.3591],[169.1265,-72.485],[169.3921,-72.4669],[169.7273,-72.552],[170.2554,-72.603],[170.3396,-72.4389],[170.2824,-72.3263],[169.7827,-72.2433],[170.0164,-72.1708],[170.2564,-71.9508],[170.7736,-71.9509],[170.9458,-71.8608],[170.8137,-71.6998],[170.3618,-71.544],[170.0759,-71.656],[169.7915,-71.5195],[169.4646,-71.4911],[169.2692,-71.38],[168.7615,-71.2756],[168.5003,-71.1611],[167.7599,-71.228],[168.1013,-71.1085],[167.8779,-71.0143],[167.833,-70.8614],[167.4162,-70.759],[166.4707,-70.7663],[166.7245,-70.6183],[166.3695,-70.5839],[165.9258,-70.6843],[165.3123,-70.5603],[164.8765,-70.5738],[164.2404,-70.4911],[164.0431,-70.5519],[164.1999,-70.6393],[163.4221,-70.6536],[162.9202,-70.5025],[162.7075,-70.2997],[162.5952,-70.2691],[162.0944,-70.3141],[161.9961,-70.4643],[162.083,-70.6769],[162.0381,-70.8295],[162.2186,-70.8547],[162.4285,-71.0317],[162.0911,-71.0408],[161.9901,-70.9225],[161.6555,-70.8708],[161.4163,-70.9045],[161.1868,-70.412],[160.9859,-70.2413],[160.6365,-70.0488],[160.1172,-69.9692],[159.8783,-69.9904],[159.7612,-69.8852],[160.3031,-69.8616],[160.3345,-69.7961],[159.7536,-69.5019],[159.2847,-69.433],[159.0407,-69.4907],[158.7944,-69.3149],[158.4465,-69.3268],[158.2683,-69.225],[157.9922,-69.1721],[157.6255,-69.1954],[157.3735,-69.3547],[157.1398,-69.1613],[156.3501,-69.2019],[155.888,-68.9826],[155.3086,-68.8933],[155.0111,-68.8989],[154.7185,-68.5283],[153.8359,-68.2736],[153.7083,-68.3001],[153.7005,-68.5457],[153.845,-68.7604],[153.4067,-68.7691],[153.2507,-68.8782],[153.0373,-68.8759],[152.8635,-68.79],[152.4031,-68.6987],[152.1565,-68.7364],[151.9238,-68.6668],[151.6145,-68.6984],[151.5669,-68.9168],[151.2398,-68.8316],[150.9707,-68.7172],[151.0801,-68.574],[151.0942,-68.407],[150.8529,-68.3508],[150.3779,-68.4399],[149.9133,-68.4234],[149.7849,-68.4869],[149.3903,-68.3844],[148.8304,-68.4529],[148.6919,-68.403],[148.4354,-68.4733],[147.6287,-68.3561],[147.2625,-68.4089],[146.9624,-68.3166],[146.718,-68.3034],[147.0713,-68.1174],[146.5583,-68.1432],[146.8045,-68.0007],[146.3854,-67.9152],[146.1097,-67.7496],[146.2289,-67.6871],[146.0481,-67.5866],[145.7334,-67.5929],[145.5794,-67.7282],[145.4443,-67.5148],[145.2381,-67.5283],[144.9421,-67.7189],[144.4691,-67.7944],[143.8807,-67.9339],[143.9092,-67.7561],[144.1919,-67.5812],[144.0916,-67.4508],[144.3252,-67.4055],[144.6624,-67.1166],[144.5125,-67.0157],[144.3156,-67.0027],[144.1546,-67.0733],[143.8553,-67.0942],[143.8762,-66.9404],[143.4707,-66.8456],[142.822,-67.0197],[142.4771,-67.026],[141.9817,-66.8],[141.5781,-66.78],[141.2603,-66.857],[141.0037,-66.7673],[140.5174,-66.725],[140.0816,-66.7332],[139.6776,-66.6305],[139.2517,-66.5672],[138.7321,-66.5696],[138.0187,-66.4885],[137.7319,-66.3742],[136.9446,-66.3282],[136.736,-66.3487],[136.6365,-66.4565],[136.3521,-66.3681],[136.1595,-66.2454],[135.6473,-66.2781],[135.4885,-66.111],[135.343,-66.1007],[135.1785,-66.3315],[134.7393,-66.3673],[134.4207,-66.4965],[134.1094,-66.5046],[134.3462,-66.367],[134.2595,-66.2796],[133.9105,-66.184],[133.7923,-66.1054],[133.5007,-66.0833],[133.1204,-66.0968],[132.8269,-66.1904],[132.4783,-66.1506],[131.7578,-66.2433],[130.8716,-66.1833],[130.73,-66.1471],[130.3425,-66.2952],[130.1027,-66.2768],[129.7217,-66.4382],[129.5326,-66.6144],[129.5759,-66.7502],[129.3846,-66.8779],[129.4341,-66.9672],[129.2026,-67.1004],[129.0129,-67.1117],[128.7635,-67.0258],[128.5205,-67.1458],[127.8364,-67.0212],[127.4324,-67.0704],[127.3342,-66.9816],[126.9987,-66.9328],[126.9683,-66.8079],[126.7189,-66.5929],[126.8543,-66.4493],[126.1164,-66.4391],[125.8978,-66.3062],[125.7048,-66.3914],[125.4104,-66.4177],[125.1481,-66.6596],[124.6228,-66.7564],[124.4136,-66.7123],[124.2605,-66.595],[124.0151,-66.5888],[123.7303,-66.6503],[123.5161,-66.7541],[123.1499,-66.7332],[122.2444,-66.845],[121.9378,-66.9176],[121.8508,-67.0159],[121.5153,-67.0929],[120.9207,-67.1315],[120.4993,-67.2331],[119.9319,-67.2914],[119.0222,-67.4118],[118.7322,-67.2789],[120.3413,-67.0124],[120.3517,-66.9348],[119.672,-67.0471],[119.3284,-67.1276],[119.1498,-67.1164],[118.6655,-67.179],[118.2532,-67.1477],[118.3679,-67.0465],[117.5873,-67.1148],[116.8538,-67.1227],[116.7969,-66.9885],[116.5,-67.1243],[115.9655,-67.1993],[115.7997,-67.1812],[115.3379,-67.2195],[115.2122,-67.3259],[114.812,-67.367],[114.6701,-67.3434],[114.0315,-67.4784],[113.6467,-67.4643],[113.8684,-67.3622],[114.0301,-67.1907],[114.7654,-67.0717],[115.1602,-67.054],[115.5974,-66.9195],[115.7808,-66.7883],[115.599,-66.5929],[115.1135,-66.4781],[114.6747,-66.4788],[114.3206,-66.3311],[114.4067,-66.2359],[113.7756,-65.9485],[113.3062,-65.8424],[113.2036,-65.7654],[111.8474,-65.9347],[111.6156,-65.9329],[110.9271,-66.0546],[110.489,-66.3088],[110.7249,-66.4054],[110.6507,-66.5319],[110.6574,-66.728],[110.4452,-66.6583],[109.8478,-66.8544],[109.3858,-66.9327],[109.1496,-66.8853],[108.8328,-66.968],[108.5764,-66.8058],[108.2982,-66.7564],[108.1358,-66.6248],[107.8856,-66.7277],[107.7791,-66.5517],[107.4343,-66.5285],[107.117,-66.4626],[106.7678,-66.4557],[105.4985,-66.2599],[104.863,-66.143],[104.5733,-66.131],[104.416,-66.0607],[103.9082,-65.9788],[103.5599,-66.0022],[103.306,-65.9282],[102.7137,-65.8613],[102.3379,-65.9513],[101.6831,-65.9672],[101.3364,-65.944],[101.1687,-66.0295],[101.3311,-66.0839],[101.0715,-66.267],[100.8215,-66.3845],[100.4706,-66.3974],[100.1013,-66.4913],[99.9232,-66.4997],[99.6784,-66.5922],[98.905,-66.7833],[98.7165,-66.6428],[99.0073,-66.5529],[98.9137,-66.5046],[98.6233,-66.6093],[98.5276,-66.449],[98.2478,-66.4479],[97.8401,-66.5661],[97.7406,-66.6583],[97.4717,-66.6313],[97.2352,-66.508],[96.9741,-66.5084],[96.6104,-66.6148],[96.4074,-66.5838],[95.9502,-66.6575],[95.637,-66.6791],[95.3591,-66.6423],[95.3211,-66.5567],[94.9172,-66.4754],[94.5451,-66.5431],[94.426,-66.6217],[93.9971,-66.7314],[93.7538,-66.7443],[93.6235,-66.5826],[92.9722,-66.5742],[92.7603,-66.6339],[92.3698,-66.595],[92.217,-66.5203],[91.9601,-66.4982],[91.3794,-66.6003],[91.1452,-66.5738],[90.5444,-66.7441],[90.3723,-66.8207],[90.0876,-66.7702],[89.6543,-66.8404],[88.7448,-66.7849],[88.2302,-66.8539],[87.9657,-66.7703],[87.1087,-66.9333],[86.6968,-67.0639],[86.5583,-67.0281],[86.0671,-67.0409],[85.8801,-67.1378],[85.6165,-67.1882],[85.167,-67.1591],[84.9622,-67.0761],[84.4141,-67.1238],[84.2497,-67.2241],[83.7241,-67.3137],[83.4168,-67.4282],[83.4727,-67.6578],[83.2153,-67.579],[82.8773,-67.6357],[82.5862,-67.6034],[82.362,-67.7042],[82.0594,-67.6718],[80.8762,-67.8923],[80.7371,-67.8847],[79.1314,-68.1477],[78.7466,-68.2625],[78.5599,-68.3647],[78.4644,-68.5016],[78.6699,-68.6985],[78.1429,-68.759],[77.9856,-68.8201],[77.9485,-69.0012],[77.8416,-69.1301],[77.5332,-69.1799],[77.0005,-69.2117],[76.8281,-69.352],[76.2157,-69.4207],[75.8205,-69.5251],[75.7539,-69.6218],[75.8833,-69.7789],[75.4382,-69.9374],[75.2173,-69.8679],[74.4671,-69.9252],[74.2746,-69.9074],[74.2214,-69.7336],[73.884,-69.7459],[73.7048,-69.8625],[73.473,-69.7809],[73.2489,-69.8586],[73.2307,-69.9789],[72.7663,-70.069],[72.6275,-70.1946],[72.8696,-70.4334],[72.1922,-70.6529],[71.7962,-70.7164],[71.8482,-70.8447],[71.5418,-70.9601],[71.3416,-71.1821],[71.5558,-71.2159],[71.2025,-71.3351],[71.1804,-71.4923],[71.5398,-71.6103],[71.0779,-71.6272],[71.1211,-71.7306],[70.6873,-71.8316],[70.7295,-71.9461],[70.53,-72.0479],[69.9465,-72.0807],[69.5151,-72.4319],[69.0422,-72.4203],[68.7523,-72.4936],[68.4943,-72.4749],[68.0412,-72.6244],[67.9186,-72.7112],[68.1174,-72.9527],[67.9592,-73.1466],[67.342,-73.3023],[66.3854,-73.2018],[66.346,-73.129],[66.9998,-72.9035],[67.2132,-72.4394],[67.3104,-72.3417],[67.3318,-72.1291],[67.507,-71.9933],[67.4491,-71.8959],[67.8823,-71.6653],[67.8325,-71.5385],[68.0833,-71.3654],[68.3391,-71.2575],[68.6697,-71.2037],[69.0077,-70.9421],[69.2129,-70.6718],[69.2484,-70.4069],[69.1463,-70.3089],[68.7484,-70.3344],[68.5884,-70.467],[68.3869,-70.4015],[68.0767,-70.4535],[67.6579,-70.3233],[67.2292,-70.3045],[67.4675,-70.2083],[67.6055,-70.0148],[68.2708,-69.8347],[68.6063,-70.027],[68.8926,-69.9938],[69.1553,-69.8757],[69.3552,-69.6171],[69.0462,-69.5573],[68.742,-69.3893],[68.9706,-69.3093],[69.7056,-69.3273],[69.7264,-69.1697],[69.3039,-69.0473],[69.661,-68.9843],[69.8576,-68.8725],[69.3859,-68.8849],[69.2813,-68.8313],[69.6211,-68.7355],[69.6633,-68.5789],[69.8942,-68.5807],[70.1154,-68.4936],[69.6348,-68.1222],[69.6011,-68.0187],[69.683,-67.8644],[69.5552,-67.7385],[69.229,-67.7586],[69.1068,-67.8463],[68.3767,-67.8952],[68.0708,-67.8479],[67.3396,-67.8108],[67.1289,-67.759],[66.7249,-67.7919],[64.721,-67.6531],[64.4255,-67.5905],[63.6509,-67.5034],[63.1126,-67.5338],[62.6174,-67.6601],[62.1174,-67.5623],[61.6081,-67.5396],[61.2732,-67.5932],[61.167,-67.5053],[60.6189,-67.4006],[60.2344,-67.3818],[59.6786,-67.3941],[59.655,-67.5108],[59.2649,-67.4843],[58.7933,-67.3412],[59.0441,-67.2369],[58.8706,-67.1651],[58.1388,-67.152],[57.8278,-67.0334],[57.5628,-66.9942],[57.2775,-67.0849],[56.9679,-67.0462],[56.5584,-67.1098],[56.21,-67.3367],[56.1535,-67.1961],[56.2088,-67.0829],[56.6012,-66.9435],[56.62,-66.8482],[56.3921,-66.8323],[56.3587,-66.7232],[56.0125,-66.6609],[56.2083,-66.5875],[56.4966,-66.6857],[57.0147,-66.7293],[57.2424,-66.7189],[57.2077,-66.5312],[56.8078,-66.4054],[56.5168,-66.388],[56.3772,-66.4528],[55.6116,-66.0279],[55.1834,-65.9309],[54.2411,-65.8764],[54.0134,-65.8897],[53.7345,-65.8459],[52.8477,-65.9621],[52.2217,-65.9729],[51.7721,-66.0372],[51.4783,-66.1205],[51.3523,-66.2218],[50.5374,-66.3039],[50.322,-66.3938],[50.1914,-66.5865],[50.2861,-66.769],[50.6138,-66.762],[50.4277,-66.9626],[50.4798,-67.0494],[50.9269,-67.1203],[50.5859,-67.2164],[50.2017,-67.1207],[49.8931,-67.1066],[49.7933,-67.0281],[49.3115,-67.0462],[49.328,-66.8835],[49.0593,-66.8849],[48.5881,-66.9373],[48.3611,-67.0164],[48.4487,-67.1817],[48.7316,-67.2208],[49.0447,-67.152],[49.3496,-67.1824],[49.3285,-67.2888],[49.1747,-67.377],[48.6294,-67.4519],[48.5998,-67.6015],[48.7183,-67.6819],[48.614,-67.8793],[48.3827,-68.0234],[48.1712,-67.8888],[48.3914,-67.7587],[48.1682,-67.6581],[47.2649,-67.6506],[47.3272,-67.5665],[46.9196,-67.5065],[47.4411,-67.4094],[47.0243,-67.3527],[46.8924,-67.2646],[46.48,-67.2753],[46.2808,-67.3342],[46.306,-67.5593],[46.217,-67.653],[45.8486,-67.6575],[45.5853,-67.7449],[45.3904,-67.696],[44.7171,-67.7836],[44.618,-67.8604],[44.8286,-67.9659],[44.0022,-67.9685],[43.7761,-68.0465],[43.4055,-68.0346],[42.8594,-68.1038],[42.547,-68.2458],[42.5361,-68.3796],[41.9807,-68.4063],[41.544,-68.4721],[41.0148,-68.5964],[40.8888,-68.7094],[40.4706,-68.7262],[40.2629,-68.8022],[39.8579,-68.8295],[39.7074,-69.068],[39.8113,-69.1809],[39.8449,-69.3932],[39.7131,-69.5868],[39.4951,-69.6863],[39.2088,-69.7066],[39.1926,-69.8925],[38.8036,-69.9877],[38.8152,-70.0554],[39.0764,-70.1726],[38.714,-70.1887],[38.1393,-69.8814],[38.2446,-69.7957],[38.0384,-69.7175],[37.5401,-69.6847],[36.9738,-69.7906],[36.751,-69.6375],[35.7083,-69.6661],[35.244,-69.7356],[35.0794,-69.6706],[35.2041,-69.5798],[35.1047,-69.4596],[35.1999,-69.2941],[34.5873,-69.0668],[34.3615,-69.1329],[33.9216,-69.1222],[33.7713,-69.0535],[34.0912,-68.8525],[34.3713,-68.8063],[34.2142,-68.6779],[33.216,-68.6696],[32.8381,-68.7521],[32.4989,-68.9309],[32.5325,-69.1188],[32.9279,-69.3437],[33.0018,-69.5192],[32.9758,-69.6721],[32.8376,-69.7848],[32.8511,-69.9455],[32.5689,-70.0515],[31.2804,-70.2371],[30.9353,-70.2146],[30.7378,-70.2735],[30.4393,-70.2668],[29.8412,-70.3113],[29.4483,-70.3957],[29.0218,-70.572],[28.773,-70.594],[28.4517,-70.694],[27.6284,-70.7413],[27.197,-70.8971],[26.9263,-70.9239],[26.4456,-71.0324],[26.1013,-71.0427],[25.7158,-70.99],[24.968,-70.9455],[24.5552,-70.8468],[24.3193,-70.7403],[24.4554,-70.6145],[24.4089,-70.5339],[24.1089,-70.4094],[23.7525,-70.4026],[23.6436,-70.5514],[23.323,-70.8097],[22.9417,-70.8263],[22.7249,-70.7693],[22.3269,-70.7595],[22.5793,-70.5402],[21.8016,-70.2359],[21.6113,-70.2721],[21.2085,-70.5764],[21.2012,-70.8122],[20.404,-70.9234],[19.7328,-70.8927],[19.5674,-70.9461],[19.2892,-70.9143],[18.9309,-70.736],[19.0163,-70.5968],[19.2966,-70.3681],[19.1535,-70.2035],[18.783,-70.2389],[18.3162,-70.3244],[18.4982,-70.5025],[18.0938,-70.5424],[17.7512,-70.4939],[16.8711,-70.4394],[16.5982,-70.3742],[16.6533,-70.186],[16.5199,-70.1267],[15.9626,-70.1896],[15.8269,-70.3776],[15.5348,-70.3377],[14.5105,-70.2839],[13.8488,-70.3478],[13.2923,-70.2473],[12.9692,-70.0462],[12.4446,-70.0702],[12.4831,-70.1269],[12.9398,-70.165],[13.0183,-70.2418],[12.7366,-70.32],[12.322,-70.3703],[12.0877,-70.5453],[12.0817,-70.674],[11.8535,-70.7815],[11.3516,-70.7366],[10.7227,-70.6369],[9.9793,-70.4535],[9.4036,-70.1043],[9.0806,-70.0893],[8.8875,-70.2155],[9.1678,-70.308],[8.8372,-70.3539],[8.7847,-70.4176],[8.4431,-70.4824],[7.9304,-70.4723],[7.8369,-70.3399],[7.8353,-70.1637],[7.4235,-70.2044],[7.4392,-70.3375],[7.657,-70.4736],[7.5674,-70.5243],[7.1096,-70.5468],[6.7806,-70.5994],[6.5591,-70.5779],[5.5877,-70.6492],[5.0061,-70.6427],[4.224,-70.7838],[3.8083,-70.802],[3.0741,-70.8946],[2.5197,-70.9006],[1.9486,-70.9911],[1.4519,-71.1183],[0.9338,-71.1794],[0.2322,-71.3499],[-0.4693,-71.754],[-0.9521,-71.6236],[-0.8128,-71.3775],[-1.1376,-71.2553],[-1.3063,-71.4028],[-1.7362,-71.4155],[-2.1313,-71.4826],[-2.2367,-71.3873],[-2.4853,-71.3694],[-2.8871,-71.268],[-2.9912,-71.3611],[-3.3346,-71.3249],[-3.3378,-71.4252],[-3.7096,-71.3876],[-5.1938,-71.3308],[-6.1498,-71.3663],[-6.0199,-71.109],[-5.7357,-71.0388],[-5.5666,-70.8417],[-5.6753,-70.7327],[-6.0136,-70.6798],[-6.3179,-70.7079],[-6.5533,-70.815],[-6.6183,-70.924],[-7.2843,-70.7912],[-7.8558,-70.8259],[-7.8925,-70.9706],[-7.5642,-71.1506],[-7.5685,-71.3346],[-7.7652,-71.4284],[-7.5966,-71.594],[-7.8168,-71.672],[-8.2952,-71.6262],[-8.6141,-71.6999],[-8.8534,-71.4207],[-9.1268,-71.4156],[-8.9879,-71.2765],[-9.1051,-71.1853],[-9.4517,-71.0992],[-9.9395,-71.0624],[-10.0697,-70.9119],[-10.3944,-70.9611],[-10.0941,-71.0642],[-10.1011,-71.1811],[-10.5956,-71.2973],[-10.7277,-71.3891],[-10.6003,-71.527],[-10.84,-71.5849],[-11.0721,-71.549],[-11.3706,-71.4234],[-11.6095,-71.4169],[-11.8795,-71.2603],[-12.2086,-71.3027],[-12.3807,-71.3954],[-12.1752,-71.624],[-11.5274,-71.7553],[-10.9491,-71.7429],[-11.0323,-72.0489],[-11.2504,-72.1008],[-11.3566,-72.3964],[-11.5565,-72.4436],[-12.456,-72.5597],[-12.8612,-72.6535],[-13.1813,-72.8039],[-13.6531,-72.7917],[-14.2211,-72.7117],[-14.2226,-72.8283],[-13.8953,-72.9867],[-14.0975,-73.133],[-14.5093,-73.1204],[-14.8832,-73.0424],[-15.5414,-73.0768],[-15.9789,-73.1946],[-15.9762,-73.3038],[-16.4385,-73.4133],[-16.6029,-73.6336],[-16.4947,-73.7138],[-15.9297,-73.7502],[-16.1964,-73.8341],[-16.1759,-73.9392],[-15.6863,-73.9485],[-14.6971,-73.7896],[-14.3618,-73.8577],[-14.828,-74.0812],[-15.3021,-74.2214],[-15.1955,-74.3605],[-15.7531,-74.4304],[-15.9266,-74.3775],[-16.5973,-74.3074],[-17.4563,-74.3372],[-17.612,-74.4025],[-17.6232,-74.5852],[-17.9657,-74.6379],[-17.8022,-74.7765],[-18.1311,-74.9387],[-18.5359,-75.0532],[-18.5463,-75.1469],[-18.8735,-75.2494],[-18.5065,-75.4157],[-18.6536,-75.4821],[-19.2405,-75.5484],[-19.7676,-75.5495],[-20.3995,-75.4721],[-21.1739,-75.705],[-21.6805,-75.6712],[-22.074,-75.7058],[-22.3019,-75.6446],[-23.2694,-75.738],[-24.3256,-75.7799],[-25.9481,-75.933],[-26.9852,-76.1697],[-27.3376,-76.1721],[-28.8591,-76.3533],[-29.537,-76.4973],[-29.6581,-76.5769],[-30.1535,-76.6353],[-30.6921,-76.8498],[-31.6961,-76.9767],[-31.915,-77.1508],[-32.5006,-77.1262],[-33.1204,-77.2531],[-33.7211,-77.311],[-33.9755,-77.4189],[-34.3205,-77.4664],[-34.7115,-77.6295],[-34.6643,-77.8536],[-35.3129,-77.8444],[-35.581,-78.1505],[-36.0131,-78.2105],[-36.4412,-78.6113],[-36.2513,-78.8517],[-34.2585,-79.0766],[-34.2181,-79.1381],[-32.8202,-79.2439],[-30.6112,-79.075],[-29.9418,-79.1114],[-30.4495,-79.2172],[-29.5414,-79.28],[-30.6732,-79.5881],[-28.6921,-79.6527],[-24.7298,-79.782],[-23.7388,-79.83],[-22.7668,-79.9262],[-22.9056,-79.9828],[-24.0686,-80.0099],[-24.2541,-80.0759],[-26.1951,-80.0915],[-26.3329,-80.122],[-29.7608,-80.1756],[-29.9242,-80.2844],[-31.2789,-80.2971],[-30.5058,-80.4782],[-32.0305,-80.4352],[-33.4762,-80.6154],[-35.3584,-80.6153],[-35.215,-80.6954],[-35.7217,-80.7861],[-36.0332,-80.9207],[-37.6228,-80.996],[-38.7554,-80.871],[-39.8385,-81.0436],[-40.398,-81.1699],[-41.1195,-81.2262],[-41.7638,-81.4104],[-41.9862,-81.6196],[-43.1903,-81.8997],[-43.1478,-82.1142],[-44.0111,-82.3912],[-44.5372,-82.3803],[-45.5204,-82.5266],[-46.5183,-82.5034],[-46.6888,-82.4054],[-46.0888,-82.2244],[-46.0539,-82.0833],[-46.2792,-81.9098],[-47.055,-81.9933],[-47.4312,-81.9177],[-48.3804,-81.8903],[-50.5579,-81.9938],[-51.7306,-82.0626]]],[[[167.6637,-78.1274],[167.3484,-78.0588],[166.7957,-78.2116],[166.3103,-78.1124],[165.9861,-78.1096],[166.0978,-78.2678],[166.3151,-78.3103],[166.9473,-78.2223],[167.4968,-78.227],[167.6637,-78.1274]]],[[[-59.2868,-80.2096],[-59.7759,-80.0452],[-59.8206,-79.7692],[-60.4031,-79.7573],[-61.4661,-79.8816],[-61.2381,-79.985],[-61.8061,-80.0509],[-61.5159,-80.2419],[-61.7504,-80.3683],[-65.9184,-80.395],[-66.5766,-80.2273],[-66.7009,-80.4124],[-64.2848,-80.7512],[-63.7923,-80.6061],[-63.1411,-80.5925],[-62.9585,-80.7753],[-62.5221,-80.8649],[-60.6527,-80.9604],[-59.819,-80.7449],[-59.7574,-80.3357],[-59.2868,-80.2096]]],[[[-66.1491,-79.6282],[-66.9181,-79.5661],[-67.8321,-79.5794],[-66.9333,-79.7926],[-66.973,-79.9216],[-66.4193,-79.9604],[-66.2227,-80.0864],[-65.5116,-79.9645],[-65.5658,-79.8127],[-66.2718,-79.7214],[-66.1491,-79.6282]]],[[[-68.2331,-79.2859],[-68.504,-79.4054],[-68.3927,-79.4708],[-67.4679,-79.506],[-67.5111,-79.3972],[-67.0591,-79.2613],[-67.6131,-79.2115],[-68.2331,-79.2859]]],[[[-33.9165,-79.3126],[-34.0209,-79.2685],[-35.5034,-79.0901],[-35.8441,-79.1686],[-36.6596,-79.2231],[-36.7264,-79.2981],[-34.0709,-79.3615],[-33.9165,-79.3126]]],[[[-66.7344,-78.4418],[-66.6055,-78.3637],[-66.9929,-78.3067],[-69.4372,-78.6871],[-69.8334,-78.7997],[-70.5928,-78.8859],[-71.3954,-79.1017],[-71.7529,-79.3251],[-71.8157,-79.4792],[-71.4442,-79.6529],[-70.3418,-79.6969],[-69.6466,-79.6038],[-69.8009,-79.4688],[-69.296,-79.2177],[-68.9464,-79.0973],[-67.3995,-78.6642],[-67.0568,-78.4953],[-66.7344,-78.4418]]],[[[-52.5188,-80.2001],[-53.4576,-80.1609],[-54.1638,-80.53],[-54.3776,-80.5774],[-54.4078,-80.74],[-54.1616,-80.8771],[-49.798,-80.7909],[-49.7192,-80.6856],[-45.9114,-80.3868],[-43.5316,-80.2],[-43.4771,-80.0947],[-43.0157,-79.8498],[-42.9715,-79.4299],[-43.3485,-79.2392],[-43.1488,-79.1795],[-43.43,-79.0849],[-43.4599,-78.9555],[-43.739,-78.8006],[-45.219,-78.8189],[-45.1558,-78.6619],[-43.9631,-78.6033],[-43.7183,-78.3674],[-43.8188,-78.2483],[-44.5146,-78.0422],[-45.9341,-77.8171],[-47.2225,-77.7726],[-49.0723,-78.0422],[-49.2781,-78.2009],[-50.2041,-78.593],[-50.2144,-78.8329],[-50.7131,-79.2817],[-50.4601,-79.3121],[-50.2637,-79.5357],[-52.3964,-80.185],[-52.5188,-80.2001]]],[[[-20.3666,-74.4254],[-20.4256,-74.309],[-20.6929,-74.102],[-20.4958,-73.7937],[-20.5566,-73.6208],[-20.9244,-73.7044],[-21.0095,-73.8705],[-21.336,-74.0037],[-21.2995,-74.1059],[-20.9598,-74.2385],[-20.8066,-74.4752],[-20.3666,-74.4254]]],[[[-104.6871,-73.0965],[-104.9357,-72.9509],[-105.1554,-73.0053],[-105.0377,-73.1404],[-104.6871,-73.0965]]],[[[-74.8468,-72.8666],[-75.2958,-72.8195],[-75.7615,-72.8964],[-75.5011,-72.9894],[-75.8582,-73.0476],[-76.1261,-73.1588],[-75.8746,-73.3466],[-74.5931,-73.6145],[-74.3609,-73.4604],[-74.5524,-73.3874],[-74.3861,-73.1027],[-74.2186,-72.9908],[-74.504,-72.8821],[-74.8468,-72.8666]]],[[[-90.9016,-72.8198],[-90.758,-72.6974],[-91.0442,-72.5431],[-91.39,-72.5501],[-91.6865,-72.61],[-91.3334,-72.8976],[-91.4491,-72.9518],[-91.5246,-73.1926],[-91.2058,-73.1944],[-90.9177,-73.1013],[-90.7399,-72.8644],[-90.9016,-72.8198]]],[[[-94.4914,-72.5224],[-95.1978,-72.5886],[-95.2012,-72.6773],[-94.5047,-72.6327],[-94.4914,-72.5224]]],[[[-95.4992,-72.3156],[-95.7533,-72.3329],[-96.0388,-72.2575],[-95.641,-72.2066],[-95.7159,-72.1046],[-96.4413,-72.1935],[-96.7238,-72.2641],[-97,-72.2143],[-96.2003,-72.0237],[-96.0653,-71.9138],[-96.3605,-71.8351],[-97.0482,-71.8764],[-97.3057,-72.1769],[-97.5909,-72.0841],[-97.4079,-71.9866],[-97.8288,-71.9334],[-97.8525,-72.117],[-98.2286,-72.045],[-97.9824,-71.8596],[-98.5316,-71.7568],[-98.8281,-71.7605],[-99.1041,-71.9216],[-98.7855,-72.0024],[-99.0004,-72.0839],[-99.4014,-71.9433],[-99.7495,-72.0403],[-100.0236,-71.9728],[-99.9444,-71.8938],[-100.2399,-71.8258],[-100.4374,-71.8793],[-102.087,-71.9739],[-102.2736,-72.0178],[-102.2922,-72.1267],[-101.9673,-72.1933],[-101.6092,-72.1887],[-100.2053,-72.2713],[-99.7646,-72.3735],[-99.1864,-72.3754],[-99.3966,-72.4982],[-98.5355,-72.4641],[-98.5801,-72.5728],[-97.5994,-72.5572],[-97.259,-72.5071],[-96.9361,-72.5802],[-96.6043,-72.5608],[-96.0548,-72.5837],[-96.0226,-72.4365],[-95.5155,-72.402],[-95.4992,-72.3156]]],[[[-74.9127,-71.0234],[-74.4005,-70.9753],[-73.6189,-70.775],[-73.5475,-70.7162],[-73.8839,-70.5706],[-74.2484,-70.6065],[-74.8209,-70.607],[-75.1998,-70.7766],[-76.109,-70.8377],[-76.5426,-70.9656],[-76.3456,-71.123],[-76.1304,-71.1379],[-74.9127,-71.0234]]],[[[-3.4304,-70.5385],[-2.8298,-70.5237],[-2.685,-70.4723],[-2.696,-70.3432],[-2.8338,-70.2814],[-3.2605,-70.3312],[-3.4925,-70.4811],[-3.4304,-70.5385]]],[[[-75.4835,-70.1337],[-74.8732,-70.1835],[-74.6368,-70.1222],[-74.6424,-69.9919],[-74.4071,-69.9377],[-74.9628,-69.7169],[-75.7788,-69.9233],[-75.8317,-70.0164],[-75.6931,-70.1131],[-75.4835,-70.1337]]],[[[-72.8455,-69.5856],[-72.7718,-69.6498],[-72.2053,-69.7345],[-72.1404,-69.6241],[-72.3985,-69.4653],[-72.8334,-69.4256],[-72.9819,-69.5139],[-72.8455,-69.5856]]],[[[-61.7555,-69.4543],[-62.192,-69.1862],[-62.5792,-69.1891],[-62.4687,-69.3225],[-62.1988,-69.5081],[-62.1208,-69.6889],[-61.7555,-69.4543]]],[[[-71.4601,-72.6292],[-70.5238,-72.6676],[-69.2182,-72.5429],[-69.1388,-72.3754],[-68.6687,-72.2167],[-68.4141,-72.2197],[-68.3419,-72.0571],[-68.4831,-71.8969],[-68.2497,-71.8831],[-68.1612,-71.6064],[-68.2739,-71.4366],[-68.2381,-71.1689],[-68.2992,-70.8691],[-68.4663,-70.6145],[-68.7204,-70.3691],[-69.0275,-70.1598],[-69.2848,-69.9231],[-69.3171,-69.6259],[-69.4784,-69.5558],[-69.7028,-69.3161],[-70.0772,-69.2911],[-70.1056,-68.8907],[-70.4021,-68.7868],[-70.8725,-68.8141],[-71.0109,-68.8591],[-71.4038,-68.86],[-72.0127,-68.9555],[-72.1681,-69.0558],[-72.1421,-69.2324],[-71.6159,-69.4548],[-71.7421,-69.6469],[-71.9116,-69.7083],[-71.8464,-69.8484],[-71.9122,-69.9659],[-71.6975,-70.0755],[-71.3169,-70.1773],[-70.9393,-70.2164],[-70.7798,-70.1257],[-70.4736,-70.1679],[-70.2307,-70.1363],[-70.1175,-70.3298],[-70.9986,-70.4658],[-71.2665,-70.6801],[-71.1661,-70.756],[-70.7013,-70.8318],[-70.4027,-70.8191],[-69.9525,-70.8788],[-69.7967,-71.0436],[-70.012,-71.1448],[-70.2085,-70.988],[-70.4112,-70.9454],[-70.7179,-70.9985],[-71.0255,-70.9622],[-71.3099,-71.0232],[-71.6901,-71.1589],[-72.3954,-71.0651],[-72.7861,-71.0628],[-73.1246,-71.144],[-72.8959,-71.2304],[-72.3153,-71.2888],[-72.7574,-71.4046],[-73.4079,-71.3154],[-73.6693,-71.3679],[-73.3364,-71.5368],[-73.4588,-71.5953],[-74.1222,-71.383],[-74.4228,-71.4283],[-74.3902,-71.6681],[-74.8859,-71.5284],[-75.1247,-71.5453],[-75.4037,-71.6708],[-75.356,-71.9236],[-74.816,-72.0649],[-74.3968,-72.0403],[-74.0047,-72.1735],[-73.5013,-72.0125],[-73.8789,-71.8642],[-73.5046,-71.8355],[-73.0351,-71.9264],[-72.7115,-71.8609],[-72.6889,-71.7535],[-72.3389,-71.6135],[-71.8306,-71.8028],[-70.7197,-71.9057],[-70.7698,-71.9897],[-71.087,-72.0496],[-72.0116,-72.1197],[-71.5526,-72.2784],[-71.0438,-72.2576],[-70.4577,-72.1402],[-70.1833,-72.2739],[-70.7097,-72.3964],[-71.8711,-72.3488],[-72.6767,-72.2713],[-73.0916,-72.3834],[-73.1092,-72.4734],[-72.7997,-72.5942],[-72.4868,-72.5903],[-72.4083,-72.6745],[-71.4601,-72.6292]]],[[[-69.1093,-67.6262],[-68.8846,-67.7625],[-68.139,-67.5715],[-67.9652,-67.3946],[-68.251,-67.3693],[-67.6768,-67.148],[-67.9764,-67.0665],[-68.0262,-66.9406],[-67.9134,-66.8115],[-67.642,-66.6832],[-67.8605,-66.6257],[-68.3778,-66.8207],[-68.707,-67.1096],[-68.8375,-67.2668],[-69.1549,-67.4757],[-69.1093,-67.6262]]],[[[-62.9064,-64.5212],[-63.3317,-64.4451],[-63.3132,-64.255],[-63.5749,-64.2652],[-63.7209,-64.4362],[-63.9029,-64.5348],[-64.1995,-64.5921],[-64.0292,-64.7745],[-63.6507,-64.8165],[-63.4637,-64.7223],[-63.3358,-64.759],[-63.1536,-64.6438],[-62.8566,-64.5822],[-62.9064,-64.5212]]],[[[-62.6566,-64.503],[-62.3855,-64.466],[-62.0604,-64.2273],[-62.4782,-64.0146],[-62.6234,-64.1305],[-62.4693,-64.2485],[-62.6658,-64.3922],[-62.6566,-64.503]]],[[[-57.5133,-64.341],[-57.1554,-64.0851],[-57.5212,-64.0209],[-57.8296,-64.0748],[-57.8879,-63.9757],[-57.7554,-63.8961],[-57.8072,-63.8181],[-58.2577,-63.9068],[-58.4604,-64.0857],[-58.3619,-64.1391],[-58.1311,-64.1022],[-58.2782,-64.2984],[-58.1935,-64.381],[-57.8031,-64.3813],[-57.5133,-64.341]]],[[[-55.1594,-63.2039],[-55.535,-63.1791],[-55.5757,-63.1291],[-55.9745,-63.1469],[-56.3695,-63.2281],[-56.5475,-63.3464],[-56.4503,-63.4293],[-56.0949,-63.3888],[-55.9014,-63.2966],[-55.1727,-63.3576],[-55.064,-63.3193],[-55.1594,-63.2039]]],[[[-61.1604,-62.6633],[-60.8118,-62.672],[-60.3792,-62.6101],[-60.246,-62.7529],[-59.9894,-62.6301],[-60.0109,-62.5256],[-60.4911,-62.5771],[-60.6748,-62.5486],[-61.1604,-62.6633]]],[[[-58.4669,-62.1604],[-58.2428,-62.1816],[-58.14,-62.0562],[-57.9891,-62.0798],[-57.8127,-62.0138],[-58.0079,-61.9045],[-58.2244,-61.9602],[-58.4141,-61.9333],[-58.6782,-62.004],[-58.946,-62.1588],[-58.5846,-62.249],[-58.4669,-62.1604]]],[[[-55.078,-61.0932],[-55.378,-61.0705],[-55.449,-61.115],[-55.2815,-61.2569],[-55.0346,-61.1564],[-55.078,-61.0932]]],[[[-46.007,-60.6127],[-45.7893,-60.5841],[-45.7189,-60.6456],[-45.3292,-60.6324],[-45.4871,-60.5447],[-45.852,-60.5473],[-46.007,-60.6127]]],[[[-162.3398,-82.9238],[-162.4815,-82.8766],[-163.7497,-82.8336],[-163.2613,-83.081],[-162.4024,-83.1484],[-161.5758,-83.0243],[-162.3398,-82.9238]]],[[[-160.5711,-81.5989],[-160.6757,-81.4628],[-162.9839,-81.2703],[-163.8512,-81.3189],[-163.7285,-81.4816],[-160.5711,-81.5989]]],[[[-29.6183,-79.9112],[-29.9062,-79.815],[-30.6541,-79.8461],[-31.0954,-79.8107],[-31.5917,-79.6487],[-32.0244,-79.6497],[-32.0895,-79.8093],[-31.5417,-79.8985],[-29.9891,-79.9656],[-29.6183,-79.9112]]],[[[-159.8422,-79.3486],[-161.3641,-78.9968],[-161.3819,-78.9592],[-162.3532,-78.7526],[-163.265,-78.7573],[-164.1481,-78.9921],[-164.2978,-79.2301],[-163.9366,-79.4117],[-160.7129,-79.8546],[-159.0698,-79.8188],[-158.9748,-79.7223],[-159.3349,-79.5283],[-159.8422,-79.3486]]],[[[169.2734,-77.4545],[168.2196,-77.3723],[167.5681,-77.4133],[167.0658,-77.3163],[166.8272,-77.1609],[166.4001,-77.2665],[166.6545,-77.3626],[166.3706,-77.4982],[166.3887,-77.6134],[167.2577,-77.7159],[167.4081,-77.644],[168.0874,-77.6456],[168.4009,-77.6962],[169.3182,-77.5372],[169.2734,-77.4545]]],[[[-127.1285,-74.4694],[-127.758,-74.3427],[-128.1892,-74.3161],[-127.9056,-74.553],[-127.5517,-74.6436],[-127.2159,-74.5881],[-127.1285,-74.4694]]],[[[-119.821,-74.1208],[-119.5001,-74.1066],[-119.0038,-73.9836],[-118.8708,-73.8857],[-118.9744,-73.8049],[-119.4949,-73.7726],[-119.8116,-73.888],[-119.6361,-74.0012],[-119.821,-74.1208]]],[[[-120.2612,-73.9278],[-120.6474,-73.8967],[-120.6864,-73.7673],[-122.0558,-73.7158],[-122.2724,-73.6822],[-123.0656,-73.6754],[-123.2891,-73.7745],[-122.9341,-73.8793],[-122.3498,-73.925],[-122.7311,-73.9977],[-123.0282,-74.2483],[-122.9038,-74.337],[-122.2435,-74.4133],[-121.099,-74.3481],[-121.004,-74.1484],[-120.2755,-74.0032],[-120.2612,-73.9278]]],[[[-127.4732,-73.5496],[-127.166,-73.6026],[-127.2689,-73.7179],[-127.0052,-73.7404],[-126.8354,-73.6462],[-126.5465,-73.6703],[-126.4755,-73.8422],[-125.8127,-73.9666],[-125.7189,-74.0403],[-125.1093,-74.1228],[-124.7842,-74.226],[-124.245,-74.2148],[-124.0074,-74.2634],[-123.783,-74.1096],[-124.2088,-73.9343],[-124.1122,-73.8327],[-124.6295,-73.7307],[-124.9488,-73.8144],[-125.5894,-73.8239],[-125.7308,-73.7164],[-125.27,-73.6988],[-125.5993,-73.4294],[-126.1041,-73.2962],[-126.5272,-73.2683],[-127.3032,-73.3181],[-127.4949,-73.4401],[-127.4732,-73.5496]]],[[[26.7656,-70.2243],[26.5897,-70.0748],[26.3274,-70.0666],[25.9873,-70.195],[25.9123,-70.2849],[26.0573,-70.391],[26.4578,-70.4501],[26.8399,-70.412],[26.7656,-70.2243]]],[[[1.411,-70.0402],[1.0425,-70.046],[0.9568,-70.1917],[1.2757,-70.2739],[1.465,-70.1505],[1.411,-70.0402]]],[[[100.5659,-65.403],[100.3851,-65.4786],[100.298,-65.6586],[100.5579,-65.704],[100.9671,-65.6829],[101.2307,-65.574],[101.1267,-65.4119],[100.9346,-65.3787],[100.5659,-65.403]]]]}},{"type":"Feature","properties":{"sourceId":"1159315601","regionId":"region.bacfbad7-e78f-4aa5-aa96-4b126f89eb16","countryId":"country.ucqeq5"},"geometry":{"type":"MultiPolygon","coordinates":[[[[164.8403,-67.3393],[164.6328,-67.4887],[164.875,-67.5151],[164.8403,-67.3393]]],[[[-73.8868,-73.1201],[-74.1456,-73.3235],[-73.8917,-73.3655],[-73.5225,-73.1301],[-73.8868,-73.1201]]],[[[-89.8924,-72.8846],[-90.1325,-73.0944],[-89.5851,-73.0704],[-89.3307,-72.928],[-89.5715,-72.863],[-89.8924,-72.8846]]],[[[-60.5307,-71.051],[-60.587,-70.9251],[-60.9143,-70.9416],[-60.8895,-71.0188],[-60.5307,-71.051]]],[[[-60.4353,-70.5968],[-60.57,-70.5073],[-60.9557,-70.5378],[-60.8575,-70.7092],[-60.5435,-70.6712],[-60.4353,-70.5968]]],[[[-71.711,-70.4298],[-71.4056,-70.378],[-71.3186,-70.2988],[-71.8165,-70.2958],[-71.711,-70.4298]]],[[[-67.2882,-67.7301],[-67.1837,-67.5998],[-67.4957,-67.589],[-67.7663,-67.6677],[-67.6471,-67.777],[-67.2882,-67.7301]]],[[[-67.3812,-66.9024],[-67.2407,-66.8308],[-67.4066,-66.7365],[-67.5638,-66.8665],[-67.3812,-66.9024]]],[[[-66.1902,-65.8237],[-66.0515,-65.881],[-65.8135,-65.8399],[-65.8599,-65.6902],[-65.6655,-65.6601],[-65.6348,-65.5387],[-65.96,-65.5533],[-66.038,-65.7389],[-66.1902,-65.8237]]],[[[-57.3146,-64.4365],[-57.4564,-64.5183],[-57.2191,-64.5654],[-56.9679,-64.4555],[-56.944,-64.3288],[-57.3146,-64.4365]]],[[[-60.8866,-63.8586],[-60.74,-63.9039],[-60.5911,-63.69],[-60.7245,-63.6877],[-60.8866,-63.8586]]],[[[-55.7196,-63.4754],[-55.8064,-63.4074],[-56.2067,-63.4362],[-56.2338,-63.4846],[-55.9649,-63.5815],[-55.7196,-63.4754]]],[[[-61.9517,-63.3118],[-62.2643,-63.2731],[-62.2775,-63.3523],[-61.9517,-63.3118]]],[[[-56.546,-63.0993],[-56.2735,-63.1785],[-56.0683,-63.0868],[-56.0477,-63.017],[-56.4687,-62.9763],[-56.546,-63.0993]]],[[[-169.0303,-83.1542],[-170.8905,-82.9345],[-169.8631,-83.1474],[-169.0303,-83.1542]]],[[[-150.4838,-77.3432],[-150.9852,-77.2223],[-151.4952,-77.2937],[-150.4838,-77.3432]]],[[[-148.5336,-76.9496],[-149.2159,-76.8976],[-149.239,-76.9964],[-148.9399,-77.028],[-148.5336,-76.9496]]],[[[-149.7287,-77.1295],[-149.4429,-77.025],[-149.9626,-76.8707],[-150.7825,-76.9708],[-150.4216,-77.0898],[-149.7287,-77.1295]]],[[[-146.1648,-76.9313],[-146.2497,-76.881],[-147.0721,-76.8239],[-146.9648,-77.0071],[-146.1648,-76.9313]]],[[[-148.5295,-76.7966],[-148.4094,-76.7387],[-149.3098,-76.714],[-149.4907,-76.7669],[-148.9271,-76.8498],[-148.5295,-76.7966]]],[[[-150.2326,-76.7775],[-150.206,-76.6868],[-150.8276,-76.7104],[-150.6018,-76.7966],[-150.2326,-76.7775]]],[[[-146.8103,-76.596],[-147.2406,-76.5055],[-147.2737,-76.6609],[-146.8103,-76.596]]],[[[-147.4605,-76.0978],[-147.0736,-76.2096],[-146.9083,-76.107],[-147.4605,-76.0978]]],[[[-145.4404,-75.58],[-145.9697,-75.5095],[-146.0157,-75.6209],[-145.383,-75.718],[-145.4404,-75.58]]],[[[-130.9205,-74.4443],[-131.8063,-74.322],[-132.1813,-74.4238],[-131.7287,-74.5373],[-131.2059,-74.6071],[-130.9205,-74.4443]]],[[[-116.1407,-73.9025],[-116.4034,-73.8673],[-117.3711,-74.0798],[-117.1964,-74.2003],[-116.5994,-74.1418],[-116.4903,-74.0338],[-116.1407,-73.9025]]],[[[169.9617,-73.5144],[169.6775,-73.4218],[169.4588,-73.5549],[169.8381,-73.6122],[169.9617,-73.5144]]],[[[68.7787,-72.1165],[68.45,-72.2497],[68.742,-72.2646],[68.7787,-72.1165]]],[[[-3.2281,-71.0528],[-3.415,-71.13],[-3.3042,-71.2086],[-2.9864,-71.1843],[-3.2281,-71.0528]]],[[[-2.7177,-70.8201],[-2.6181,-70.6977],[-3.1808,-70.6681],[-3.571,-70.6928],[-3.1877,-70.8246],[-2.8436,-71.0556],[-2.5643,-71.1326],[-2.3039,-71.0164],[-2.0807,-70.8256],[-2.2985,-70.7927],[-2.7177,-70.8201]]],[[[-5.9398,-70.4226],[-6.4162,-70.4716],[-6.1193,-70.6129],[-5.8849,-70.5494],[-5.9398,-70.4226]]],[[[3.2199,-70.3923],[3.0498,-70.3854],[2.5808,-70.5243],[2.6316,-70.6027],[2.9579,-70.6135],[3.2526,-70.4867],[3.2199,-70.3923]]],[[[72.2004,-70.607],[72.1862,-70.5377],[71.886,-70.4123],[71.6736,-70.5172],[71.8269,-70.6249],[72.2004,-70.607]]],[[[4.0488,-70.303],[4.2048,-70.4695],[4.4668,-70.5012],[4.6047,-70.4206],[4.5744,-70.2761],[4.1327,-70.256],[4.0488,-70.303]]],[[[16.2468,-69.706],[15.7219,-69.7639],[15.5891,-69.9321],[16.1716,-70.0729],[16.3304,-69.8289],[16.2468,-69.706]]],[[[85.6593,-66.7437],[85.3454,-66.7192],[85.3748,-66.8772],[85.7874,-66.9689],[85.9412,-66.8899],[85.6593,-66.7437]]],[[[48.7737,-66.7205],[48.3753,-66.6992],[48.3122,-66.8095],[48.7737,-66.7205]]],[[[96.9172,-66.0544],[96.418,-66.0671],[96.2966,-66.1835],[96.4074,-66.2276],[96.9085,-66.2114],[97.0159,-66.1056],[96.9172,-66.0544]]],[[[103.2913,-65.392],[103.1888,-65.2297],[102.9107,-65.1318],[102.827,-65.2506],[103.0379,-65.2804],[103.2913,-65.392]]]]}}]}