{"type":"FeatureCollection","features":[{"type":"Feature","properties":{"sourceId":"1159315481","regionId":"region.c9ad3218-80b2-4648-899f-1ec611378194","countryId":"country.4449fa36-e713-4df2-9651-ae5850828346"},"geometry":{"type":"Polygon","coordinates":[[[-9.9264,-40.3488],[-9.9628,-40.3019],[-10.0394,-40.3386],[-9.9252,-40.3979],[-9.9264,-40.3488]]]}},{"type":"Feature","properties":{"sourceId":"1159315957","regionId":"region.d54c4c7a-0f74-46c2-9760-b32a5d2e441b","countryId":"country.4449fa36-e713-4df2-9651-ae5850828346"},"geometry":{"type":"Polygon","coordinates":[[[-5.7218,-15.9089],[-5.7701,-15.9452],[-5.7637,-16.0157],[-5.6627,-15.9796],[-5.7218,-15.9089]]]}},{"type":"Feature","properties":{"sourceId":"1159315959","regionId":"region.197105af-85ec-48d0-b06f-674e54ca6bc5","countryId":"country.4449fa36-e713-4df2-9651-ae5850828346"},"geometry":{"type":"Polygon","coordinates":[[[-14.3563,-7.8847],[-14.4064,-7.9739],[-14.2948,-7.9455],[-14.3563,-7.8847]]]}}]}