{"type":"FeatureCollection","features":[{"type":"Feature","properties":{"sourceId":"1159309955","regionId":"region.5bb5a4d1-2c07-47c3-879f-bcf1c32bec22","countryId":"country.8cy639"},"geometry":{"type":"Polygon","coordinates":[[[-69.5101,-17.5066],[-69.5226,-17.3691],[-69.6644,-17.2886],[-69.741,-17.2911],[-69.9121,-17.2101],[-70.0392,-17.1079],[-70.178,-16.8701],[-70.2693,-16.93],[-70.3555,-16.82],[-70.433,-16.8356],[-70.4924,-16.9725],[-70.4768,-17.0602],[-70.5969,-17.2035],[-70.7005,-17.2493],[-70.8144,-17.4586],[-70.9318,-17.6234],[-71.1261,-17.7208],[-71.1758,-17.7933],[-71.0866,-17.8691],[-70.9146,-17.9465],[-70.6833,-18.1617],[-70.3947,-18.3377],[-70.1342,-18.3189],[-69.9703,-18.2506],[-69.8653,-18.1446],[-69.7831,-17.9816],[-69.8576,-17.7342],[-69.8181,-17.6591],[-69.6839,-17.656],[-69.5101,-17.5066]]]}},{"type":"Feature","properties":{"sourceId":"1159309947","regionId":"region.a5bc42cd-f098-4504-b934-5e62b129ec88","countryId":"country.8cy639"},"geometry":{"type":"Polygon","coordinates":[[[-69.5776,-10.9523],[-69.7202,-10.9649],[-69.9561,-10.9193],[-70.1987,-11.0412],[-70.2894,-11.0647],[-70.4373,-11.0367],[-70.5341,-10.9381],[-70.6413,-11.0108],[-70.6387,-9.9559],[-70.8182,-10.1016],[-70.8674,-10.3736],[-70.9942,-10.5334],[-71.2064,-10.6915],[-71.3513,-10.7491],[-71.7953,-10.976],[-71.9679,-10.9896],[-72.1172,-10.9333],[-72.0865,-11.0845],[-72.1805,-11.3132],[-72.2019,-11.4266],[-72.3319,-11.6669],[-72.3836,-11.9022],[-72.3389,-12.0226],[-72.1723,-12.1173],[-72.1252,-12.2587],[-71.9874,-12.3302],[-71.8907,-12.5575],[-71.913,-12.6675],[-71.8548,-12.7765],[-71.6111,-12.8685],[-71.499,-12.8658],[-71.1749,-12.9823],[-71.0342,-13.0694],[-70.6784,-13.1252],[-70.5535,-13.1177],[-70.5525,-13.0077],[-70.3558,-13.0246],[-70.3213,-13.0145],[-69.6484,-13.3415],[-69.6052,-13.3427],[-68.9739,-13.0318],[-68.981,-12.8679],[-68.8562,-12.7414],[-68.7737,-12.7194],[-68.7934,-12.6202],[-68.6895,-12.4934],[-69.1316,-11.726],[-69.5776,-10.9523]]]}},{"type":"Feature","properties":{"sourceId":"1159307961","regionId":"region.546ea198-496b-41c1-ad8a-4248b1bc03c7","countryId":"country.8cy639"},"geometry":{"type":"Polygon","coordinates":[[[-74.4147,-0.5638],[-74.6423,-0.3398],[-74.6866,-0.3534],[-74.8247,-0.1705],[-74.9335,-0.2094],[-75.1417,-0.0435],[-75.2221,-0.0324],[-75.2835,-0.107],[-75.4553,-0.1612],[-75.4848,-0.2477],[-75.4342,-0.403],[-75.272,-0.5257],[-75.2666,-0.6427],[-75.297,-0.747],[-75.2273,-0.9698],[-75.3487,-0.975],[-75.4126,-0.9239],[-75.56,-1.5026],[-75.5807,-1.5466],[-75.6515,-1.6167],[-76.0912,-2.1289],[-76.6697,-2.5646],[-77.8104,-2.9671],[-77.7587,-3.2868],[-77.6696,-3.4801],[-77.6251,-3.7885],[-77.5597,-3.9019],[-77.5785,-4.4387],[-77.6649,-4.6114],[-77.7409,-4.7031],[-77.7768,-4.8498],[-77.7107,-5.2281],[-77.64,-5.3846],[-77.5485,-5.4582],[-77.3669,-5.5369],[-77.1757,-5.6799],[-76.9682,-5.6899],[-76.8339,-5.7656],[-76.7341,-5.9765],[-76.6733,-6.03],[-76.5298,-6.0283],[-76.3835,-5.9257],[-76.3157,-5.9213],[-76.1591,-6.0821],[-76.0849,-6.1189],[-75.8455,-6.1079],[-75.6682,-6.1473],[-75.5066,-6.2588],[-75.4663,-6.3566],[-75.5246,-6.7972],[-75.5959,-6.9134],[-75.6825,-6.9245],[-75.7691,-6.8162],[-75.9078,-6.7527],[-76.0112,-6.7849],[-76.1098,-7.0092],[-76.0845,-7.1089],[-76.0985,-7.3284],[-76.0579,-7.5008],[-75.8151,-8.0136],[-75.7986,-8.219],[-75.8938,-8.3333],[-75.9527,-8.5682],[-75.9741,-8.6452],[-75.8732,-8.5984],[-75.5877,-8.3873],[-75.4876,-8.4655],[-75.4233,-8.4296],[-75.5094,-8.2919],[-75.4012,-8.2004],[-75.3618,-8.1165],[-75.1843,-8.1162],[-74.9185,-8.0021],[-74.6913,-7.9639],[-74.5527,-7.8511],[-74.5624,-7.5732],[-74.6077,-7.3815],[-74.5191,-7.3263],[-74.4233,-7.3846],[-74.2306,-7.4171],[-73.9845,-7.5294],[-73.9794,-7.3745],[-73.7608,-7.3374],[-73.7345,-7.2251],[-73.8068,-7.1179],[-73.7655,-6.9042],[-73.6851,-6.8119],[-73.3707,-6.5839],[-73.199,-6.5456],[-73.1318,-6.4353],[-73.1777,-6.2024],[-73.2348,-6.0776],[-73.14,-5.8785],[-73.0014,-5.7088],[-72.9605,-5.5592],[-72.9735,-5.4661],[-72.8967,-5.2716],[-72.9179,-5.1321],[-72.6273,-5.0224],[-72.4041,-4.8602],[-72.3968,-4.8056],[-72.2511,-4.7588],[-72.0711,-4.6051],[-71.7743,-4.4815],[-71.6652,-4.5076],[-71.5061,-4.4486],[-70.9687,-4.3853],[-70.8428,-4.2381],[-70.8322,-4.1794],[-70.5853,-4.1945],[-70.4299,-4.1342],[-70.3111,-4.1709],[-70.307,-4.2603],[-70.2313,-4.3037],[-70.0966,-4.2657],[-69.9894,-4.3146],[-69.9649,-4.2365],[-70.0605,-4.1072],[-70.1884,-4.029],[-70.217,-3.925],[-70.3111,-3.8293],[-70.5443,-3.8652],[-70.7341,-3.782],[-70.0506,-2.7151],[-70.2361,-2.6251],[-70.3575,-2.4869],[-70.457,-2.4927],[-70.5786,-2.4055],[-70.6476,-2.4508],[-70.7066,-2.3283],[-70.8742,-2.2296],[-70.9927,-2.1974],[-71.1428,-2.2629],[-71.2199,-2.3415],[-71.387,-2.3689],[-71.4565,-2.2551],[-71.7679,-2.1422],[-71.9663,-2.3285],[-72.0894,-2.331],[-72.1615,-2.4057],[-72.3966,-2.4465],[-72.6443,-2.3341],[-72.7183,-2.4199],[-72.8047,-2.3778],[-72.9433,-2.419],[-73.0564,-2.2999],[-73.1589,-2.293],[-73.1953,-2.1872],[-73.1111,-2.0734],[-73.1687,-1.9593],[-73.1863,-1.7996],[-73.3403,-1.7922],[-73.531,-1.6737],[-73.4845,-1.5725],[-73.4972,-1.478],[-73.6366,-1.2552],[-73.8808,-1.191],[-73.9199,-1.1138],[-74.2891,-0.943],[-74.3106,-0.8014],[-74.4147,-0.5638]]]}},{"type":"Feature","properties":{"sourceId":"1159307959","regionId":"region.c716a9d3-1606-4434-b695-0099e4a26534","countryId":"country.8cy639"},"geometry":{"type":"Polygon","coordinates":[[[-77.8104,-2.9671],[-77.9415,-3.0545],[-78.1964,-3.3637],[-78.334,-3.3845],[-78.3759,-3.5293],[-78.5018,-3.9537],[-78.5669,-3.9962],[-78.5766,-4.1001],[-78.6824,-4.3269],[-78.6372,-4.4351],[-78.7089,-4.5851],[-78.5848,-4.8942],[-78.587,-4.9983],[-78.65,-5.1473],[-78.6067,-5.3706],[-78.6073,-5.5021],[-78.722,-5.672],[-78.7731,-5.8328],[-78.6194,-6.0595],[-78.4497,-6.1504],[-78.3492,-6.3505],[-78.1753,-6.4589],[-78.0245,-6.7401],[-78.0213,-6.938],[-77.9916,-7.0132],[-77.7424,-6.994],[-77.7775,-6.8901],[-77.7385,-6.6481],[-77.6712,-6.5746],[-77.566,-6.6183],[-77.3436,-6.5742],[-77.3093,-6.4843],[-77.1646,-6.3079],[-77.2547,-6.1211],[-77.5259,-6.0243],[-77.594,-5.9608],[-77.715,-5.7234],[-77.7067,-5.4577],[-77.64,-5.3846],[-77.7107,-5.2281],[-77.7768,-4.8498],[-77.7409,-4.7031],[-77.6649,-4.6114],[-77.5785,-4.4387],[-77.5597,-3.9019],[-77.6251,-3.7885],[-77.6696,-3.4801],[-77.7587,-3.2868],[-77.8104,-2.9671]]]}},{"type":"Feature","properties":{"sourceId":"1159309959","regionId":"region.ae2718fc-f661-4551-945f-ce30a4be2f02","countryId":"country.8cy639"},"geometry":{"type":"Polygon","coordinates":[[[-78.7089,-4.5851],[-78.8531,-4.6523],[-78.9286,-4.7475],[-78.9002,-4.8437],[-78.9803,-4.874],[-79.0093,-4.9601],[-79.2337,-4.9656],[-79.3806,-5.1555],[-79.3295,-5.3424],[-79.325,-5.5009],[-79.3918,-5.4993],[-79.4202,-5.727],[-79.3553,-5.9068],[-79.4511,-5.989],[-79.2209,-6.028],[-79.2875,-6.1305],[-79.294,-6.2788],[-79.4411,-6.3331],[-79.4463,-6.52],[-79.335,-6.6548],[-79.1829,-6.7037],[-79.1661,-6.7651],[-79.3203,-6.8968],[-79.3477,-7.0105],[-79.3517,-7.3581],[-79.1975,-7.4027],[-79.0953,-7.4929],[-79.0618,-7.6602],[-78.772,-7.5541],[-78.5862,-7.5742],[-78.4916,-7.6406],[-78.405,-7.6429],[-78.2393,-7.7569],[-78.1407,-7.6729],[-77.9347,-7.6624],[-77.9183,-7.5089],[-77.7706,-7.433],[-77.8395,-7.3775],[-77.8705,-7.2337],[-77.9357,-7.1584],[-77.9916,-7.0132],[-78.0213,-6.938],[-78.0245,-6.7401],[-78.1753,-6.4589],[-78.3492,-6.3505],[-78.4497,-6.1504],[-78.6194,-6.0595],[-78.7731,-5.8328],[-78.722,-5.672],[-78.6073,-5.5021],[-78.6067,-5.3706],[-78.65,-5.1473],[-78.587,-4.9983],[-78.5848,-4.8942],[-78.7089,-4.5851]]]}},{"type":"Feature","properties":{"sourceId":"1159309939","regionId":"region.a20d3fac-d309-4fa1-a5de-fce2227c0563","countryId":"country.8cy639"},"geometry":{"type":"Polygon","coordinates":[[[-80.1651,-3.8807],[-80.2216,-3.7694],[-80.2164,-3.6316],[-80.3407,-3.3935],[-80.3682,-3.4655],[-80.5362,-3.5053],[-80.6131,-3.6157],[-80.7717,-3.7101],[-80.8678,-3.8727],[-80.9929,-3.9721],[-81.0625,-4.0857],[-80.928,-4.1693],[-80.8191,-4.1653],[-80.69,-4.2104],[-80.5123,-4.065],[-80.4811,-3.9988],[-80.3046,-4.0052],[-80.1651,-3.8807]]]}},{"type":"Feature","properties":{"sourceId":"1159307897","regionId":"region.f165819f-c61c-45cc-8253-20e02d4bb8a8","countryId":"country.8cy639"},"geometry":{"type":"Polygon","coordinates":[[[-80.5123,-4.065],[-80.69,-4.2104],[-80.8191,-4.1653],[-80.928,-4.1693],[-81.0625,-4.0857],[-81.2528,-4.2387],[-81.2795,-4.3964],[-81.3289,-4.4767],[-81.3053,-4.6436],[-81.3376,-4.6783],[-81.0634,-5.022],[-81.1714,-5.0873],[-81.1985,-5.2081],[-80.9318,-5.4638],[-80.8562,-5.6505],[-80.864,-5.7439],[-80.9399,-5.8508],[-81.0383,-5.8181],[-81.1502,-5.8831],[-81.1015,-6.0721],[-80.7905,-6.2997],[-80.6307,-6.3777],[-80.4893,-6.1912],[-80.4498,-6.0996],[-80.304,-5.9426],[-79.9942,-5.8537],[-79.9501,-5.822],[-79.9448,-5.5483],[-79.8146,-5.6521],[-79.75,-5.7454],[-79.7564,-5.848],[-79.6462,-5.9263],[-79.5292,-5.9328],[-79.4511,-5.989],[-79.3553,-5.9068],[-79.4202,-5.727],[-79.3918,-5.4993],[-79.325,-5.5009],[-79.3295,-5.3424],[-79.3806,-5.1555],[-79.2337,-4.9656],[-79.3032,-4.9612],[-79.4608,-4.7705],[-79.5279,-4.6181],[-79.5072,-4.5316],[-79.658,-4.4387],[-79.7957,-4.4847],[-79.9041,-4.3986],[-80.0797,-4.309],[-80.205,-4.2982],[-80.2397,-4.3698],[-80.4085,-4.4775],[-80.4885,-4.396],[-80.3563,-4.2206],[-80.4696,-4.2132],[-80.5123,-4.065]]]}},{"type":"Feature","properties":{"sourceId":"1159307957","regionId":"region.00f89ab8-160c-475e-8b2e-16b52515c86a","countryId":"country.8cy639"},"geometry":{"type":"Polygon","coordinates":[[[-73.9845,-7.5294],[-74.2306,-7.4171],[-74.4233,-7.3846],[-74.5191,-7.3263],[-74.6077,-7.3815],[-74.5624,-7.5732],[-74.5527,-7.8511],[-74.6913,-7.9639],[-74.9185,-8.0021],[-75.1843,-8.1162],[-75.3618,-8.1165],[-75.4012,-8.2004],[-75.5094,-8.2919],[-75.4233,-8.4296],[-75.4876,-8.4655],[-75.5877,-8.3873],[-75.8732,-8.5984],[-75.9741,-8.6452],[-75.8997,-8.8141],[-75.8847,-8.9889],[-75.7989,-9.092],[-75.7754,-9.2453],[-75.6487,-9.4054],[-75.5567,-9.3838],[-75.4361,-9.2845],[-75.2959,-9.2305],[-75.0391,-8.8379],[-74.8023,-8.6587],[-74.6786,-8.619],[-74.5643,-8.6323],[-74.5183,-8.7582],[-74.6165,-8.8341],[-74.6288,-8.9663],[-74.6791,-9.069],[-74.7016,-9.415],[-74.5383,-9.6498],[-74.4405,-9.8472],[-74.4378,-9.9543],[-74.36,-10.1383],[-74.3693,-10.3152],[-74.28,-10.5127],[-74.1739,-10.6034],[-74.2918,-10.6611],[-74.5085,-10.8482],[-74.4745,-10.9914],[-74.3849,-11.0503],[-73.8864,-10.9401],[-73.7593,-10.7572],[-73.634,-10.7944],[-73.4961,-10.998],[-73.5161,-11.1735],[-73.4352,-11.3241],[-73.1335,-11.295],[-72.9754,-11.2158],[-72.9351,-11.3089],[-72.8225,-11.3704],[-72.7098,-11.3556],[-72.5431,-11.4244],[-72.4092,-11.3317],[-72.2868,-11.295],[-72.1805,-11.3132],[-72.0865,-11.0845],[-72.1172,-10.9333],[-71.9679,-10.9896],[-71.7953,-10.976],[-71.3513,-10.7491],[-71.2064,-10.6915],[-70.9942,-10.5334],[-70.8674,-10.3736],[-70.8182,-10.1016],[-70.6387,-9.9559],[-70.629,-9.8116],[-70.5434,-9.7269],[-70.6244,-9.5658],[-70.6808,-9.5277],[-70.8755,-9.6605],[-71.0154,-9.8175],[-71.1611,-9.8756],[-71.1965,-9.9399],[-71.3914,-10.0068],[-72.1957,-10.0056],[-72.1604,-9.8877],[-72.2652,-9.7622],[-72.2617,-9.6674],[-72.3445,-9.5329],[-72.4302,-9.4822],[-72.8133,-9.4109],[-73.215,-9.409],[-72.9594,-9.0856],[-72.9761,-8.9854],[-73.0686,-8.8937],[-73.1746,-8.7207],[-73.3506,-8.5983],[-73.3564,-8.4798],[-73.5265,-8.3724],[-73.668,-8.0138],[-73.7788,-7.9541],[-73.7122,-7.7882],[-73.8388,-7.7206],[-73.9845,-7.5294]]]}},{"type":"Feature","properties":{"sourceId":"1159309949","regionId":"region.a15261fa-c895-4dd7-97b6-0883e07e1931","countryId":"country.8cy639"},"geometry":{"type":"Polygon","coordinates":[[[-68.9739,-13.0318],[-69.6052,-13.3427],[-69.6484,-13.3415],[-70.3213,-13.0145],[-70.3558,-13.0246],[-70.3772,-13.2813],[-70.5704,-13.5394],[-70.6644,-13.7602],[-70.8175,-13.8263],[-70.8499,-14.0118],[-70.809,-14.0947],[-70.8894,-14.4102],[-70.9789,-14.4434],[-70.9952,-14.5807],[-71.1231,-14.6825],[-70.9999,-14.768],[-70.9845,-14.9356],[-71.0118,-15.0995],[-70.9764,-15.2097],[-71.0294,-15.3341],[-71.0101,-15.5677],[-70.9054,-15.68],[-70.9373,-15.7863],[-70.8423,-15.9077],[-70.85,-15.9882],[-70.6868,-16.0571],[-70.5676,-16.011],[-70.4307,-16.0499],[-70.331,-16.2499],[-70.3508,-16.3348],[-70.2916,-16.4786],[-70.0281,-16.707],[-70.1685,-16.7894],[-70.178,-16.8701],[-70.0392,-17.1079],[-69.9121,-17.2101],[-69.741,-17.2911],[-69.6644,-17.2886],[-69.6228,-17.1856],[-69.4274,-17.0869],[-69.4072,-17.0157],[-69.2245,-16.8182],[-69.1917,-16.743],[-69.0371,-16.6702],[-69.0389,-16.4919],[-69.0017,-16.4228],[-68.8558,-16.3632],[-68.8436,-16.302],[-68.982,-16.21],[-69.1447,-16.2235],[-69.2196,-16.1528],[-69.4243,-15.6563],[-69.4212,-15.5964],[-69.2929,-15.4099],[-69.2912,-15.3508],[-69.1481,-15.2333],[-69.2886,-15.102],[-69.3907,-14.9644],[-69.3614,-14.788],[-69.2676,-14.7507],[-69.2475,-14.5937],[-69.1643,-14.503],[-68.9903,-14.379],[-69.0101,-14.2459],[-68.8837,-14.2115],[-68.9162,-14.0249],[-68.983,-13.9722],[-69.016,-13.7531],[-69.081,-13.6954],[-68.9857,-13.5502],[-68.9628,-13.2836],[-68.9739,-13.0318]]]}},{"type":"Feature","properties":{"sourceId":"1159309951","regionId":"region.a8fa5b3c-b2d3-42a7-ac89-46db472f5648","countryId":"country.8cy639"},"geometry":{"type":"Polygon","coordinates":[[[-71.1758,-17.7933],[-71.1261,-17.7208],[-70.9318,-17.6234],[-70.8144,-17.4586],[-70.7005,-17.2493],[-70.5969,-17.2035],[-70.4768,-17.0602],[-70.4924,-16.9725],[-70.433,-16.8356],[-70.3555,-16.82],[-70.2693,-16.93],[-70.178,-16.8701],[-70.1685,-16.7894],[-70.0281,-16.707],[-70.2916,-16.4786],[-70.3508,-16.3348],[-70.331,-16.2499],[-70.4307,-16.0499],[-70.5676,-16.011],[-70.6868,-16.0571],[-70.85,-15.9882],[-70.8754,-16.2635],[-70.9451,-16.3357],[-70.9677,-16.4702],[-71.143,-16.4696],[-71.2218,-16.5147],[-71.3093,-16.6366],[-71.3065,-16.7352],[-71.4287,-16.815],[-71.4085,-16.9795],[-71.347,-17.0242],[-71.3692,-17.1588],[-71.4885,-17.318],[-71.4003,-17.4003],[-71.3596,-17.6331],[-71.1758,-17.7933]]]}},{"type":"Feature","properties":{"sourceId":"1159309943","regionId":"region.8f3bae81-b308-4d45-96d9-cd64c73816e2","countryId":"country.8cy639"},"geometry":{"type":"Polygon","coordinates":[[[-71.4885,-17.318],[-71.3692,-17.1588],[-71.347,-17.0242],[-71.4085,-16.9795],[-71.4287,-16.815],[-71.3065,-16.7352],[-71.3093,-16.6366],[-71.2218,-16.5147],[-71.143,-16.4696],[-70.9677,-16.4702],[-70.9451,-16.3357],[-70.8754,-16.2635],[-70.85,-15.9882],[-70.8423,-15.9077],[-70.9373,-15.7863],[-70.9054,-15.68],[-71.0101,-15.5677],[-71.0294,-15.3341],[-71.1806,-15.2087],[-71.2351,-15.0715],[-71.3356,-15.1076],[-71.3933,-15.0568],[-71.667,-15.1136],[-71.8627,-15.0432],[-71.8778,-14.8423],[-71.9905,-14.6786],[-72.0691,-14.8791],[-72.13,-14.8123],[-72.335,-14.8434],[-72.4223,-14.8146],[-72.4861,-14.674],[-72.5698,-14.6957],[-72.7627,-14.6592],[-72.848,-14.7316],[-72.8371,-14.7964],[-72.9977,-14.8253],[-73.0337,-15.1295],[-73.1708,-15.2983],[-73.2611,-15.2813],[-73.2828,-15.3949],[-73.4572,-15.3649],[-73.5744,-15.4165],[-73.9109,-15.4601],[-73.9803,-15.5678],[-74.0566,-15.6066],[-74.1049,-15.4566],[-74.2287,-15.4943],[-74.4018,-15.3609],[-74.4685,-15.1955],[-74.7118,-15.1269],[-74.7266,-15.0879],[-74.9621,-15.2381],[-75.0757,-15.4377],[-74.8476,-15.5663],[-74.4631,-15.7267],[-74.4417,-15.798],[-74.0466,-15.9601],[-74.0328,-16.0123],[-73.7003,-16.2207],[-73.4203,-16.2931],[-73.2801,-16.3884],[-72.8883,-16.5546],[-72.6924,-16.6607],[-72.5878,-16.6594],[-72.3622,-16.7613],[-72.2934,-16.8806],[-72.1973,-16.9164],[-71.9486,-17.0735],[-71.8076,-17.1913],[-71.6415,-17.2316],[-71.4885,-17.318]]]}},{"type":"Feature","properties":{"sourceId":"1159314969","regionId":"region.3283e0c5-bfb1-4b82-8f86-60793d459e66","countryId":"country.8cy639"},"geometry":{"type":"Polygon","coordinates":[[[-75.0757,-15.4377],[-74.9621,-15.2381],[-74.7266,-15.0879],[-74.6934,-14.9158],[-74.772,-14.73],[-74.9003,-14.5555],[-75.0536,-14.6075],[-75.0731,-14.4451],[-75.1319,-14.3982],[-75.0615,-14.2592],[-75.0669,-14.1429],[-75.2091,-14.0758],[-75.3494,-13.963],[-75.5214,-13.8993],[-75.5602,-13.749],[-75.5142,-13.6732],[-75.5479,-13.5842],[-75.4831,-13.4661],[-75.8009,-13.3888],[-75.7045,-13.2166],[-75.7134,-13.1096],[-75.6347,-12.982],[-75.8649,-13.0312],[-75.9451,-12.9992],[-76.1404,-13.1853],[-76.2492,-13.3204],[-76.1813,-13.5395],[-76.2618,-13.8614],[-76.362,-13.8016],[-76.394,-13.908],[-76.2774,-13.9451],[-76.2821,-14.1409],[-76.1492,-14.2239],[-76.0922,-14.3731],[-75.9806,-14.4611],[-75.9307,-14.6493],[-75.8394,-14.7263],[-75.5506,-14.8849],[-75.3618,-15.1448],[-75.2411,-15.2053],[-75.1608,-15.3933],[-75.0757,-15.4377]]]}},{"type":"Feature","properties":{"sourceId":"1159307971","regionId":"region.08466c37-ff16-4078-aad3-576cb9f10e8b","countryId":"country.8cy639"},"geometry":{"type":"Polygon","coordinates":[[[-76.2492,-13.3204],[-76.1404,-13.1853],[-75.9451,-12.9992],[-75.8649,-13.0312],[-75.6347,-12.982],[-75.594,-12.8549],[-75.5164,-12.7959],[-75.4672,-12.6866],[-75.5687,-12.6206],[-75.5376,-12.4169],[-75.6888,-12.0787],[-75.8898,-11.9883],[-76.0124,-12.0147],[-76.2098,-11.7365],[-76.2219,-11.5947],[-76.3777,-11.5037],[-76.4758,-11.3121],[-76.4883,-11.0977],[-76.5702,-10.9717],[-76.5726,-10.8295],[-76.75,-10.4438],[-76.9316,-10.2868],[-77.1501,-10.3848],[-77.1974,-10.5182],[-77.5092,-10.7483],[-77.5935,-10.7369],[-77.596,-10.5936],[-77.7458,-10.5285],[-77.6722,-10.4069],[-77.7858,-10.3752],[-77.8021,-10.5177],[-77.8906,-10.6025],[-77.7637,-10.7615],[-77.6705,-10.9275],[-77.5947,-11.1651],[-77.6473,-11.2923],[-77.3205,-11.4937],[-77.1976,-11.6808],[-77.0809,-11.555],[-76.966,-11.736],[-76.9383,-11.9393],[-76.8566,-11.9357],[-76.7672,-11.8599],[-76.6968,-11.95],[-76.752,-12.026],[-76.6446,-12.242],[-76.6946,-12.3896],[-76.7991,-12.5093],[-76.6815,-12.6193],[-76.63,-12.7507],[-76.5162,-12.8699],[-76.4833,-13.0363],[-76.2492,-13.3204]]]}},{"type":"Feature","properties":{"sourceId":"1159307965","regionId":"region.da9fbe33-612d-4eab-8e56-a46a7a7d649d","countryId":"country.8cy639"},"geometry":{"type":"Polygon","coordinates":[[[-76.7991,-12.5093],[-76.6946,-12.3896],[-76.6446,-12.242],[-76.752,-12.026],[-76.6968,-11.95],[-76.7672,-11.8599],[-76.8566,-11.9357],[-76.9383,-11.9393],[-76.966,-11.736],[-77.0809,-11.555],[-77.1976,-11.6808],[-77.1407,-11.999],[-77.1144,-12.0813],[-77.0383,-12.2044],[-76.8536,-12.3026],[-76.7909,-12.381],[-76.7991,-12.5093]]]}},{"type":"Feature","properties":{"sourceId":"1159314971","regionId":"region.82540b16-ad70-4e49-bce4-3fb338f7313c","countryId":"country.8cy639"},"geometry":{"type":"Polygon","coordinates":[[[-77.1144,-12.0813],[-77.1407,-11.999],[-77.1749,-12.0719],[-77.1144,-12.0813]]]}},{"type":"Feature","properties":{"sourceId":"1159309957","regionId":"region.31bb860f-2234-43a5-a7d4-d1007cafade9","countryId":"country.8cy639"},"geometry":{"type":"Polygon","coordinates":[[[-77.8906,-10.6025],[-77.8021,-10.5177],[-77.7858,-10.3752],[-77.6722,-10.4069],[-77.7458,-10.5285],[-77.596,-10.5936],[-77.5935,-10.7369],[-77.5092,-10.7483],[-77.1974,-10.5182],[-77.1501,-10.3848],[-76.9316,-10.2868],[-76.9048,-10.1254],[-76.9818,-10.0699],[-77.0002,-9.9475],[-77.0725,-9.7904],[-76.9744,-9.6418],[-76.9601,-9.5574],[-76.8589,-9.3263],[-76.7413,-9.2046],[-76.7804,-9.1357],[-76.9973,-9.013],[-77.1361,-8.8989],[-77.2902,-8.6846],[-77.3225,-8.5341],[-77.3495,-8.4353],[-77.4837,-8.2493],[-77.6054,-8.1521],[-77.6524,-8.0291],[-77.8091,-8.0763],[-77.8977,-8.0642],[-77.9571,-8.1712],[-78.1113,-8.3007],[-78.2361,-8.5418],[-78.2544,-8.6584],[-78.5372,-8.7553],[-78.649,-8.9637],[-78.6417,-9.0564],[-78.4974,-9.1895],[-78.484,-9.3303],[-78.4271,-9.4197],[-78.3699,-9.6154],[-78.2294,-9.7938],[-78.2346,-9.9525],[-78.1666,-10.1414],[-78.1049,-10.2011],[-78.0558,-10.3475],[-77.8906,-10.6025]]]}},{"type":"Feature","properties":{"sourceId":"1159307949","regionId":"region.5e84ef42-123f-4f14-9429-fff1a1672392","countryId":"country.8cy639"},"geometry":{"type":"Polygon","coordinates":[[[-78.649,-8.9637],[-78.5372,-8.7553],[-78.2544,-8.6584],[-78.2361,-8.5418],[-78.1113,-8.3007],[-77.9571,-8.1712],[-77.8977,-8.0642],[-77.8091,-8.0763],[-77.6524,-8.0291],[-77.6054,-8.1521],[-77.4837,-8.2493],[-77.3495,-8.4353],[-77.3225,-8.5341],[-77.0361,-8.4991],[-76.9946,-8.6023],[-76.8563,-8.5557],[-76.911,-8.2471],[-77.0276,-8.138],[-77.232,-8.0702],[-77.3591,-8.0674],[-77.3998,-7.899],[-77.4707,-7.7627],[-77.4502,-7.5724],[-77.5933,-7.4015],[-77.6195,-7.1693],[-77.7424,-6.994],[-77.9916,-7.0132],[-77.9357,-7.1584],[-77.8705,-7.2337],[-77.8395,-7.3775],[-77.7706,-7.433],[-77.9183,-7.5089],[-77.9347,-7.6624],[-78.1407,-7.6729],[-78.2393,-7.7569],[-78.405,-7.6429],[-78.4916,-7.6406],[-78.5862,-7.5742],[-78.772,-7.5541],[-79.0618,-7.6602],[-79.0953,-7.4929],[-79.1975,-7.4027],[-79.3517,-7.3581],[-79.3477,-7.0105],[-79.4989,-6.9683],[-79.6921,-7.1614],[-79.6128,-7.2664],[-79.5825,-7.4636],[-79.4353,-7.6744],[-79.4659,-7.7159],[-79.2997,-7.9387],[-79.1247,-8.0651],[-78.9857,-8.2174],[-78.9021,-8.3768],[-78.9403,-8.4355],[-78.7593,-8.6083],[-78.7643,-8.7751],[-78.649,-8.9637]]]}},{"type":"Feature","properties":{"sourceId":"1159309937","regionId":"region.8c5b422b-43f2-489a-920c-5f4092e5163e","countryId":"country.8cy639"},"geometry":{"type":"Polygon","coordinates":[[[-79.6921,-7.1614],[-79.4989,-6.9683],[-79.3477,-7.0105],[-79.3203,-6.8968],[-79.1661,-6.7651],[-79.1829,-6.7037],[-79.335,-6.6548],[-79.4463,-6.52],[-79.4411,-6.3331],[-79.294,-6.2788],[-79.2875,-6.1305],[-79.2209,-6.028],[-79.4511,-5.989],[-79.5292,-5.9328],[-79.6462,-5.9263],[-79.7564,-5.848],[-79.75,-5.7454],[-79.8146,-5.6521],[-79.9448,-5.5483],[-79.9501,-5.822],[-79.9942,-5.8537],[-80.304,-5.9426],[-80.4498,-6.0996],[-80.4893,-6.1912],[-80.6307,-6.3777],[-80.2981,-6.5444],[-80.1189,-6.6506],[-79.9647,-6.7874],[-79.9315,-6.8835],[-79.7082,-7.1068],[-79.6921,-7.1614]]]}},{"type":"Feature","properties":{"sourceId":"1159309945","regionId":"region.d7b5aca0-c443-44e2-9b5b-7138ae453aae","countryId":"country.8cy639"},"geometry":{"type":"Polygon","coordinates":[[[-73.9615,-12.2772],[-73.8623,-12.4404],[-73.8585,-12.5045],[-73.7626,-12.6281],[-73.6769,-12.6779],[-73.5494,-13.0637],[-73.3029,-13.3579],[-73.221,-13.4218],[-73.0966,-13.4581],[-72.964,-13.3976],[-72.8033,-13.4348],[-72.605,-13.5619],[-72.4302,-13.5977],[-72.3755,-13.6746],[-72.2719,-13.6955],[-72.1652,-13.7842],[-72.0826,-13.9372],[-72.112,-14.2171],[-72.2786,-14.4169],[-72.3763,-14.4463],[-72.5033,-14.5675],[-72.4861,-14.674],[-72.4223,-14.8146],[-72.335,-14.8434],[-72.13,-14.8123],[-72.0691,-14.8791],[-71.9905,-14.6786],[-71.8778,-14.8423],[-71.8627,-15.0432],[-71.667,-15.1136],[-71.3933,-15.0568],[-71.3356,-15.1076],[-71.2351,-15.0715],[-71.1806,-15.2087],[-71.0294,-15.3341],[-70.9764,-15.2097],[-71.0118,-15.0995],[-70.9845,-14.9356],[-70.9999,-14.768],[-71.1231,-14.6825],[-70.9952,-14.5807],[-70.9789,-14.4434],[-70.8894,-14.4102],[-70.809,-14.0947],[-70.8499,-14.0118],[-70.8175,-13.8263],[-70.6644,-13.7602],[-70.5704,-13.5394],[-70.3772,-13.2813],[-70.3558,-13.0246],[-70.5525,-13.0077],[-70.5535,-13.1177],[-70.6784,-13.1252],[-71.0342,-13.0694],[-71.1749,-12.9823],[-71.499,-12.8658],[-71.6111,-12.8685],[-71.8548,-12.7765],[-71.913,-12.6675],[-71.8907,-12.5575],[-71.9874,-12.3302],[-72.1252,-12.2587],[-72.1723,-12.1173],[-72.3389,-12.0226],[-72.3836,-11.9022],[-72.3319,-11.6669],[-72.2019,-11.4266],[-72.1805,-11.3132],[-72.2868,-11.295],[-72.4092,-11.3317],[-72.5431,-11.4244],[-72.7098,-11.3556],[-72.8225,-11.3704],[-72.9351,-11.3089],[-72.9754,-11.2158],[-73.1335,-11.295],[-73.4352,-11.3241],[-73.5457,-11.5326],[-73.673,-11.6281],[-73.4995,-11.7237],[-73.5047,-11.8682],[-73.6014,-12.0097],[-73.6574,-12.2157],[-73.8243,-12.2709],[-73.9615,-12.2772]]]}},{"type":"Feature","properties":{"sourceId":"1159307963","regionId":"region.0064e058-c75b-438f-81a9-9624d2cb3768","countryId":"country.8cy639"},"geometry":{"type":"Polygon","coordinates":[[[-73.9615,-12.2772],[-74.0775,-12.2621],[-74.1749,-12.3137],[-74.3462,-12.2168],[-74.3875,-12.1471],[-74.5036,-12.2524],[-74.554,-12.392],[-74.4306,-12.4673],[-74.3444,-12.5963],[-74.2991,-12.7599],[-74.3392,-12.908],[-74.2858,-13.0023],[-74.4137,-13.0408],[-74.4004,-13.1454],[-74.5523,-13.1995],[-74.6852,-13.2892],[-74.8997,-13.3509],[-74.9279,-13.445],[-74.7939,-13.5954],[-74.7916,-13.703],[-74.7318,-13.85],[-74.735,-14.0198],[-74.9915,-14.0896],[-75.0669,-14.1429],[-75.0615,-14.2592],[-75.1319,-14.3982],[-75.0731,-14.4451],[-75.0536,-14.6075],[-74.9003,-14.5555],[-74.772,-14.73],[-74.6934,-14.9158],[-74.7266,-15.0879],[-74.7118,-15.1269],[-74.4685,-15.1955],[-74.4018,-15.3609],[-74.2287,-15.4943],[-74.1049,-15.4566],[-74.0566,-15.6066],[-73.9803,-15.5678],[-73.9109,-15.4601],[-73.5744,-15.4165],[-73.4572,-15.3649],[-73.2828,-15.3949],[-73.2611,-15.2813],[-73.1708,-15.2983],[-73.0337,-15.1295],[-72.9977,-14.8253],[-72.8371,-14.7964],[-72.848,-14.7316],[-73.0313,-14.6274],[-73.0545,-14.6607],[-73.2748,-14.7178],[-73.3639,-14.7055],[-73.4332,-14.804],[-73.5194,-14.8203],[-73.5728,-14.7001],[-73.5,-14.5725],[-73.5402,-14.5014],[-73.5397,-14.2268],[-73.632,-14.0013],[-73.7448,-13.7918],[-73.6905,-13.7333],[-73.817,-13.5838],[-73.8501,-13.3779],[-73.8077,-13.2166],[-73.464,-13.4407],[-73.2509,-13.477],[-73.221,-13.4218],[-73.3029,-13.3579],[-73.5494,-13.0637],[-73.6769,-12.6779],[-73.7626,-12.6281],[-73.8585,-12.5045],[-73.8623,-12.4404],[-73.9615,-12.2772]]]}},{"type":"Feature","properties":{"sourceId":"1159309941","regionId":"region.7f0fca59-a0cf-466b-baaf-1ce0a136a25c","countryId":"country.8cy639"},"geometry":{"type":"Polygon","coordinates":[[[-72.4861,-14.674],[-72.5033,-14.5675],[-72.3763,-14.4463],[-72.2786,-14.4169],[-72.112,-14.2171],[-72.0826,-13.9372],[-72.1652,-13.7842],[-72.2719,-13.6955],[-72.3755,-13.6746],[-72.4302,-13.5977],[-72.605,-13.5619],[-72.8033,-13.4348],[-72.964,-13.3976],[-73.0966,-13.4581],[-73.221,-13.4218],[-73.2509,-13.477],[-73.464,-13.4407],[-73.8077,-13.2166],[-73.8501,-13.3779],[-73.817,-13.5838],[-73.6905,-13.7333],[-73.7448,-13.7918],[-73.632,-14.0013],[-73.5397,-14.2268],[-73.5402,-14.5014],[-73.5,-14.5725],[-73.5728,-14.7001],[-73.5194,-14.8203],[-73.4332,-14.804],[-73.3639,-14.7055],[-73.2748,-14.7178],[-73.0545,-14.6607],[-73.0313,-14.6274],[-72.848,-14.7316],[-72.7627,-14.6592],[-72.5698,-14.6957],[-72.4861,-14.674]]]}},{"type":"Feature","properties":{"sourceId":"1159307967","regionId":"region.866ea6d7-5f9d-473f-b68f-7576b2429d84","countryId":"country.8cy639"},"geometry":{"type":"Polygon","coordinates":[[[-74.3875,-12.1471],[-74.5137,-12.0386],[-74.6791,-11.9826],[-74.7843,-12.0402],[-74.9704,-12.0443],[-75.068,-11.9823],[-75.1208,-12.062],[-75.0619,-12.1889],[-75.1241,-12.3749],[-75.211,-12.4023],[-75.3832,-12.5531],[-75.4672,-12.6866],[-75.5164,-12.7959],[-75.594,-12.8549],[-75.6347,-12.982],[-75.7134,-13.1096],[-75.7045,-13.2166],[-75.8009,-13.3888],[-75.4831,-13.4661],[-75.5479,-13.5842],[-75.5142,-13.6732],[-75.5602,-13.749],[-75.5214,-13.8993],[-75.3494,-13.963],[-75.2091,-14.0758],[-75.0669,-14.1429],[-74.9915,-14.0896],[-74.735,-14.0198],[-74.7318,-13.85],[-74.7916,-13.703],[-74.7939,-13.5954],[-74.9279,-13.445],[-74.8997,-13.3509],[-74.6852,-13.2892],[-74.5523,-13.1995],[-74.4004,-13.1454],[-74.4137,-13.0408],[-74.2858,-13.0023],[-74.3392,-12.908],[-74.2991,-12.7599],[-74.3444,-12.5963],[-74.4306,-12.4673],[-74.554,-12.392],[-74.5036,-12.2524],[-74.3875,-12.1471]]]}},{"type":"Feature","properties":{"sourceId":"1159307953","regionId":"region.cc7de5e9-0d6f-4ce4-a3d9-5619b6e927c4","countryId":"country.8cy639"},"geometry":{"type":"Polygon","coordinates":[[[-77.64,-5.3846],[-77.7067,-5.4577],[-77.715,-5.7234],[-77.594,-5.9608],[-77.5259,-6.0243],[-77.2547,-6.1211],[-77.1646,-6.3079],[-77.3093,-6.4843],[-77.3436,-6.5742],[-77.566,-6.6183],[-77.6712,-6.5746],[-77.7385,-6.6481],[-77.7775,-6.8901],[-77.7424,-6.994],[-77.6195,-7.1693],[-77.5933,-7.4015],[-77.4502,-7.5724],[-77.4707,-7.7627],[-77.3998,-7.899],[-77.3591,-8.0674],[-77.232,-8.0702],[-77.0276,-8.138],[-76.911,-8.2471],[-76.8563,-8.5557],[-76.7716,-8.538],[-76.4575,-8.6004],[-76.3644,-8.5503],[-76.3262,-8.3799],[-76.2045,-8.5747],[-76.1737,-8.697],[-76.0795,-8.7147],[-75.9527,-8.5682],[-75.8938,-8.3333],[-75.7986,-8.219],[-75.8151,-8.0136],[-76.0579,-7.5008],[-76.0985,-7.3284],[-76.0845,-7.1089],[-76.1098,-7.0092],[-76.0112,-6.7849],[-75.9078,-6.7527],[-75.7691,-6.8162],[-75.6825,-6.9245],[-75.5959,-6.9134],[-75.5246,-6.7972],[-75.4663,-6.3566],[-75.5066,-6.2588],[-75.6682,-6.1473],[-75.8455,-6.1079],[-76.0849,-6.1189],[-76.1591,-6.0821],[-76.3157,-5.9213],[-76.3835,-5.9257],[-76.5298,-6.0283],[-76.6733,-6.03],[-76.7341,-5.9765],[-76.8339,-5.7656],[-76.9682,-5.6899],[-77.1757,-5.6799],[-77.3669,-5.5369],[-77.5485,-5.4582],[-77.64,-5.3846]]]}},{"type":"Feature","properties":{"sourceId":"1159307947","regionId":"region.e903e02b-8912-4ec6-8511-fc0dd20e8e9e","countryId":"country.8cy639"},"geometry":{"type":"Polygon","coordinates":[[[-74.5383,-9.6498],[-74.7016,-9.415],[-74.6791,-9.069],[-74.6288,-8.9663],[-74.6165,-8.8341],[-74.5183,-8.7582],[-74.5643,-8.6323],[-74.6786,-8.619],[-74.8023,-8.6587],[-75.0391,-8.8379],[-75.2959,-9.2305],[-75.4361,-9.2845],[-75.5567,-9.3838],[-75.6487,-9.4054],[-75.7754,-9.2453],[-75.7989,-9.092],[-75.8847,-8.9889],[-75.8997,-8.8141],[-75.9741,-8.6452],[-75.9527,-8.5682],[-76.0795,-8.7147],[-76.1737,-8.697],[-76.2045,-8.5747],[-76.3262,-8.3799],[-76.3644,-8.5503],[-76.4575,-8.6004],[-76.7716,-8.538],[-76.8563,-8.5557],[-76.9946,-8.6023],[-77.0361,-8.4991],[-77.3225,-8.5341],[-77.2902,-8.6846],[-77.1361,-8.8989],[-76.9973,-9.013],[-76.7804,-9.1357],[-76.7413,-9.2046],[-76.8589,-9.3263],[-76.9601,-9.5574],[-76.9744,-9.6418],[-77.0725,-9.7904],[-77.0002,-9.9475],[-76.9818,-10.0699],[-76.9048,-10.1254],[-76.9316,-10.2868],[-76.75,-10.4438],[-76.5916,-10.2895],[-76.5127,-10.261],[-76.3105,-10.2853],[-76.2286,-10.364],[-76.0347,-10.3777],[-75.9458,-10.426],[-75.8064,-10.3644],[-75.792,-10.2773],[-75.8284,-10.0971],[-75.8002,-9.9604],[-75.7321,-9.9132],[-75.3239,-9.8663],[-75.1327,-9.776],[-74.9833,-9.7919],[-74.7631,-9.7542],[-74.5383,-9.6498]]]}},{"type":"Feature","properties":{"sourceId":"1159307951","regionId":"region.b8fa963a-b2c3-4094-97a8-aa4609fb3c97","countryId":"country.8cy639"},"geometry":{"type":"Polygon","coordinates":[[[-74.5383,-9.6498],[-74.7631,-9.7542],[-74.9833,-9.7919],[-75.1327,-9.776],[-75.3239,-9.8663],[-75.7321,-9.9132],[-75.8002,-9.9604],[-75.8284,-10.0971],[-75.792,-10.2773],[-75.8064,-10.3644],[-75.9458,-10.426],[-76.0347,-10.3777],[-76.2286,-10.364],[-76.3105,-10.2853],[-76.5127,-10.261],[-76.5916,-10.2895],[-76.75,-10.4438],[-76.5726,-10.8295],[-76.5702,-10.9717],[-76.4883,-11.0977],[-76.2785,-11.0825],[-76.2807,-10.9392],[-75.9932,-10.8898],[-75.7539,-10.8852],[-75.4457,-10.7934],[-75.3478,-10.792],[-75.1235,-10.7322],[-75.0251,-10.6813],[-74.7805,-10.8242],[-74.5085,-10.8482],[-74.2918,-10.6611],[-74.1739,-10.6034],[-74.28,-10.5127],[-74.3693,-10.3152],[-74.36,-10.1383],[-74.4378,-9.9543],[-74.4405,-9.8472],[-74.5383,-9.6498]]]}},{"type":"Feature","properties":{"sourceId":"1159307969","regionId":"region.f8344a20-2bd0-4344-8a72-ff41eea230ab","countryId":"country.8cy639"},"geometry":{"type":"Polygon","coordinates":[[[-73.4352,-11.3241],[-73.5161,-11.1735],[-73.4961,-10.998],[-73.634,-10.7944],[-73.7593,-10.7572],[-73.8864,-10.9401],[-74.3849,-11.0503],[-74.4745,-10.9914],[-74.5085,-10.8482],[-74.7805,-10.8242],[-75.0251,-10.6813],[-75.1235,-10.7322],[-75.3478,-10.792],[-75.4457,-10.7934],[-75.7539,-10.8852],[-75.9932,-10.8898],[-76.2807,-10.9392],[-76.2785,-11.0825],[-76.4883,-11.0977],[-76.4758,-11.3121],[-76.3777,-11.5037],[-76.2219,-11.5947],[-76.2098,-11.7365],[-76.0124,-12.0147],[-75.8898,-11.9883],[-75.6888,-12.0787],[-75.5376,-12.4169],[-75.5687,-12.6206],[-75.4672,-12.6866],[-75.3832,-12.5531],[-75.211,-12.4023],[-75.1241,-12.3749],[-75.0619,-12.1889],[-75.1208,-12.062],[-75.068,-11.9823],[-74.9704,-12.0443],[-74.7843,-12.0402],[-74.6791,-11.9826],[-74.5137,-12.0386],[-74.3875,-12.1471],[-74.3462,-12.2168],[-74.1749,-12.3137],[-74.0775,-12.2621],[-73.9615,-12.2772],[-73.8243,-12.2709],[-73.6574,-12.2157],[-73.6014,-12.0097],[-73.5047,-11.8682],[-73.4995,-11.7237],[-73.673,-11.6281],[-73.5457,-11.5326],[-73.4352,-11.3241]]]}}]}