{"type":"FeatureCollection","features":[{"type":"Feature","properties":{"sourceId":"1159315619","regionId":"region.5db1f83d-770c-4d5a-a3f2-c1a37b0a1247","countryId":"country.04352166-79c8-4cee-8bd8-4a7eb810c8ba"},"geometry":{"type":"Polygon","coordinates":[[[-178.1266,-14.3131],[-178.1308,-14.2555],[-178.1857,-14.2482],[-178.1566,-14.3051],[-178.1266,-14.3131]]]}},{"type":"Feature","properties":{"sourceId":"1159316211","regionId":"region.96665e07-44dd-426c-93fb-e44a963c3180","countryId":"country.04352166-79c8-4cee-8bd8-4a7eb810c8ba"},"geometry":{"type":"Polygon","coordinates":[[[-178.1308,-14.2555],[-178.1266,-14.3131],[-178.1081,-14.279],[-178.1308,-14.2555]]]}},{"type":"Feature","properties":{"sourceId":"1159316209","regionId":"region.eaad949a-3778-407e-8e7f-08405b0a981f","countryId":"country.04352166-79c8-4cee-8bd8-4a7eb810c8ba"},"geometry":{"type":"Polygon","coordinates":[[[-176.1555,-13.2089],[-176.1996,-13.2906],[-176.1828,-13.3393],[-176.1256,-13.2641],[-176.1555,-13.2089]]]}}]}