{"type":"FeatureCollection","features":[{"type":"Feature","properties":{"sourceId":"1159310611","regionId":"region.e40d1f55-837b-433c-ade8-eb42932dbd28","countryId":"country.1cf3s0n"},"geometry":{"type":"Polygon","coordinates":[[[18.4964,42.4163],[18.6541,42.4518],[18.5068,42.5985],[18.4374,42.5592],[18.4964,42.4163]]]}},{"type":"Feature","properties":{"sourceId":"1159310607","regionId":"region.08391924-b2e4-42bb-bf55-17a61ccd0350","countryId":"country.1cf3s0n"},"geometry":{"type":"Polygon","coordinates":[[[20.3454,42.8274],[20.3371,42.907],[20.1295,42.9736],[20.0556,42.7639],[20.1834,42.7425],[20.3192,42.8241],[20.3454,42.8274]]]}},{"type":"Feature","properties":{"sourceId":"1159310617","regionId":"region.54927040-b969-4f65-bc38-3c479496679a","countryId":"country.1cf3s0n"},"geometry":{"type":"Polygon","coordinates":[[[20.0556,42.7639],[20.1295,42.9736],[20.0563,43.0208],[19.8943,42.94],[19.6988,42.9075],[19.679,42.8816],[19.6757,42.8253],[19.8776,42.7633],[19.9094,42.6893],[20.037,42.7074],[20.0556,42.7639]]]}},{"type":"Feature","properties":{"sourceId":"1159310609","regionId":"region.32d0ce7c-8768-4ffa-8ef9-ee5ec3da5df0","countryId":"country.1cf3s0n"},"geometry":{"type":"Polygon","coordinates":[[[20.037,42.7074],[19.9094,42.6893],[19.7469,42.5889],[19.8291,42.4687],[20.065,42.5468],[20.1039,42.6531],[20.037,42.7074]]]}},{"type":"Feature","properties":{"sourceId":"1159310633","regionId":"region.7e765cc0-e05b-477a-bb72-3c49e98ed06d","countryId":"country.1cf3s0n"},"geometry":{"type":"Polygon","coordinates":[[[19.1953,43.5328],[18.911,43.5073],[19.0099,43.411],[19.0225,43.2965],[19.072,43.1977],[19.1875,43.1888],[19.4111,43.0452],[19.4595,43.0496],[19.5478,43.2188],[19.3556,43.3931],[19.2184,43.4382],[19.1953,43.5328]]]}},{"type":"Feature","properties":{"sourceId":"1159310621","regionId":"region.b0d5e3aa-2e4a-4239-a8c1-afcf46e82ea4","countryId":"country.1cf3s0n"},"geometry":{"type":"Polygon","coordinates":[[[19.5478,43.2188],[19.4595,43.0496],[19.6216,43.0137],[19.6988,42.9075],[19.8943,42.94],[20.0563,43.0208],[20.0544,43.0222],[19.9292,43.1139],[19.8051,43.09],[19.7136,43.1656],[19.5478,43.2188]]]}},{"type":"Feature","properties":{"sourceId":"1159309495","regionId":"region.6ac03847-9a44-430c-adce-d46129be2a77","countryId":"country.1cf3s0n"},"geometry":{"type":"Polygon","coordinates":[[[19.0225,43.2965],[18.9895,43.272],[19.0247,43.0942],[19.3317,42.9901],[19.4111,43.0452],[19.1875,43.1888],[19.072,43.1977],[19.0225,43.2965]]]}},{"type":"Feature","properties":{"sourceId":"1159310631","regionId":"region.8156b46f-4f92-4790-a6f3-1b1855106d17","countryId":"country.1cf3s0n"},"geometry":{"type":"Polygon","coordinates":[[[18.9895,43.272],[18.8991,43.3519],[18.6643,43.2332],[18.6211,43.1246],[18.7374,43.0951],[18.8501,42.9552],[18.9781,42.9334],[18.9309,43.0301],[19.0247,43.0942],[18.9895,43.272]]]}},{"type":"Feature","properties":{"sourceId":"1159310629","regionId":"region.f483146f-38d9-4717-acb1-2d28e8b7c23d","countryId":"country.1cf3s0n"},"geometry":{"type":"Polygon","coordinates":[[[18.6211,43.1246],[18.639,43.0202],[18.4528,42.9934],[18.4674,42.7692],[18.5428,42.6264],[18.6483,42.6293],[18.7274,42.7181],[18.9372,42.6202],[19.2107,42.7595],[19.2086,42.8589],[18.9781,42.9334],[18.8501,42.9552],[18.7374,43.0951],[18.6211,43.1246]]]}},{"type":"Feature","properties":{"sourceId":"1159310613","regionId":"region.831f36af-b7b0-4342-9cf4-075b22ab75e1","countryId":"country.1cf3s0n"},"geometry":{"type":"Polygon","coordinates":[[[18.5068,42.5985],[18.6541,42.4518],[18.6857,42.4767],[18.6936,42.3576],[18.7887,42.276],[18.7936,42.3542],[18.7605,42.5074],[18.6483,42.6293],[18.5428,42.6264],[18.5068,42.5985]]]}},{"type":"Feature","properties":{"sourceId":"1159310615","regionId":"region.c679a4e8-46fc-4551-958c-dca02923f907","countryId":"country.1cf3s0n"},"geometry":{"type":"Polygon","coordinates":[[[19.7469,42.5889],[19.9094,42.6893],[19.8776,42.7633],[19.6757,42.8253],[19.6281,42.6651],[19.658,42.6346],[19.7469,42.5889]]]}},{"type":"Feature","properties":{"sourceId":"1159309489","regionId":"region.22e27cdf-533a-444a-bf69-539208a2590f","countryId":"country.1cf3s0n"},"geometry":{"type":"Polygon","coordinates":[[[19.658,42.6346],[19.6281,42.6651],[19.5726,42.736],[19.4469,42.6751],[19.301,42.6769],[19.1988,42.4874],[18.9853,42.5063],[19.1426,42.3709],[19.1095,42.3003],[19.2834,42.198],[19.658,42.6346]]]}},{"type":"Feature","properties":{"sourceId":"1159312435","regionId":"region.968913d9-9443-4d98-8e80-5edd21fc013d","countryId":"country.1cf3s0n"},"geometry":{"type":"Polygon","coordinates":[[[19.2834,42.198],[19.1095,42.3003],[18.9225,42.3021],[18.9714,42.1833],[19.1412,42.0198],[19.2145,42.1016],[19.37,42.1065],[19.2834,42.198]]]}},{"type":"Feature","properties":{"sourceId":"1159310599","regionId":"region.9bb6781c-f7a7-4ecf-8ab6-982508857d13","countryId":"country.1cf3s0n"},"geometry":{"type":"Polygon","coordinates":[[[19.37,42.1065],[19.2145,42.1016],[19.1412,42.0198],[19.1703,41.938],[19.3651,41.8524],[19.37,42.1065]]]}},{"type":"Feature","properties":{"sourceId":"1159310603","regionId":"region.7494f55d-09f4-4acc-9192-94472c8a5a0d","countryId":"country.1cf3s0n"},"geometry":{"type":"Polygon","coordinates":[[[18.9714,42.1833],[18.9225,42.3021],[18.7936,42.3542],[18.7887,42.276],[18.8716,42.2905],[18.9714,42.1833]]]}},{"type":"Feature","properties":{"sourceId":"1159309491","regionId":"region.725aeaed-e2c8-412f-993d-da5837fbe333","countryId":"country.1cf3s0n"},"geometry":{"type":"Polygon","coordinates":[[[18.6936,42.3576],[18.6857,42.4767],[18.6449,42.4184],[18.6585,42.3866],[18.6936,42.3576]]]}},{"type":"Feature","properties":{"sourceId":"1159310627","regionId":"region.940f5fd1-a13b-45b7-a147-1040168de3b8","countryId":"country.1cf3s0n"},"geometry":{"type":"Polygon","coordinates":[[[19.3317,42.9901],[19.3723,42.9345],[19.679,42.8816],[19.6988,42.9075],[19.6216,43.0137],[19.4595,43.0496],[19.4111,43.0452],[19.3317,42.9901]]]}},{"type":"Feature","properties":{"sourceId":"1159310605","regionId":"region.d89b8836-dd9a-4faf-b9c2-0972fca646a7","countryId":"country.1cf3s0n"},"geometry":{"type":"Polygon","coordinates":[[[18.9372,42.6202],[18.7274,42.7181],[18.6483,42.6293],[18.7605,42.5074],[18.7936,42.3542],[18.9225,42.3021],[19.1095,42.3003],[19.1426,42.3709],[18.9853,42.5063],[18.9372,42.6202]]]}},{"type":"Feature","properties":{"sourceId":"1159309493","regionId":"region.c67b024f-1a09-4d18-96a8-f1ce212fcc86","countryId":"country.1cf3s0n"},"geometry":{"type":"Polygon","coordinates":[[[19.0247,43.0942],[18.9309,43.0301],[18.9781,42.9334],[19.2086,42.8589],[19.3723,42.9345],[19.3317,42.9901],[19.0247,43.0942]]]}},{"type":"Feature","properties":{"sourceId":"1159310625","regionId":"region.3330a51b-ab78-4c7f-8186-83178b025281","countryId":"country.1cf3s0n"},"geometry":{"type":"Polygon","coordinates":[[[19.2107,42.7595],[19.301,42.6769],[19.4469,42.6751],[19.5726,42.736],[19.6281,42.6651],[19.6757,42.8253],[19.679,42.8816],[19.3723,42.9345],[19.2086,42.8589],[19.2107,42.7595]]]}},{"type":"Feature","properties":{"sourceId":"1159310623","regionId":"region.50e3f41b-db65-4dd2-bfd8-1c27132584af","countryId":"country.1cf3s0n"},"geometry":{"type":"Polygon","coordinates":[[[19.2107,42.7595],[18.9372,42.6202],[18.9853,42.5063],[19.1988,42.4874],[19.301,42.6769],[19.2107,42.7595]]]}}]}