{"type":"FeatureCollection","features":[{"type":"Feature","properties":{"sourceId":"1159310427","regionId":"region.e300cc07-fdda-4fb5-acfd-8a6a919ee50a","countryId":"country.1pvjhz6"},"geometry":{"type":"Polygon","coordinates":[[[50.8079,24.7466],[50.881,24.6364],[50.9789,24.5677],[51.0955,24.5602],[51.2153,24.6259],[51.221,24.6442],[51.221,25.0096],[51.333,25.0096],[51.4616,25.1571],[51.4936,25.18],[51.5433,25.2182],[51.4451,25.3597],[51.3043,25.3844],[51.2874,25.5658],[51.2136,25.7324],[51.1047,25.7752],[50.9496,25.7753],[50.8762,25.6318],[50.778,25.527],[50.751,25.4196],[50.7757,25.0919],[50.8511,24.8908],[50.8079,24.7466]]]}},{"type":"Feature","properties":{"sourceId":"1159310429","regionId":"region.9ecdf077-e46b-4403-a524-e046cbcad73a","countryId":"country.1pvjhz6"},"geometry":{"type":"Polygon","coordinates":[[[51.6111,25.2375],[51.5433,25.2182],[51.4936,25.18],[51.4616,25.1571],[51.333,25.0096],[51.221,25.0096],[51.221,24.6442],[51.3815,24.6351],[51.4436,24.6798],[51.5003,24.8554],[51.5869,24.9534],[51.6111,25.2375]]]}},{"type":"Feature","properties":{"sourceId":"1159310425","regionId":"region.c88a20c2-4b3c-4919-841a-1a483c7ff7a6","countryId":"country.1pvjhz6"},"geometry":{"type":"Polygon","coordinates":[[[51.5157,25.3828],[51.4451,25.3597],[51.5433,25.2182],[51.6111,25.2375],[51.5132,25.3083],[51.5157,25.3828]]]}},{"type":"Feature","properties":{"sourceId":"1159317119","regionId":"region.df404f4b-aeb4-4a97-8c19-772fc3b74cd8","countryId":"country.1pvjhz6"},"geometry":{"type":"Polygon","coordinates":[[[51.5359,25.6224],[51.4527,25.6577],[51.4006,25.5509],[51.4451,25.3597],[51.5157,25.3828],[51.4719,25.5214],[51.5359,25.6224]]]}},{"type":"Feature","properties":{"sourceId":"1159310431","regionId":"region.a88e6100-5673-426d-a8c5-b92a104c32fb","countryId":"country.1pvjhz6"},"geometry":{"type":"Polygon","coordinates":[[[51.4165,25.9521],[51.4168,25.8297],[51.2445,25.9283],[51.1039,25.9283],[51.1039,25.8242],[50.9724,25.8251],[50.9496,25.7753],[51.1047,25.7752],[51.2136,25.7324],[51.2874,25.5658],[51.4006,25.5509],[51.4527,25.6577],[51.5359,25.6224],[51.5775,25.8808],[51.4165,25.9521]]]}},{"type":"Feature","properties":{"sourceId":"1159310433","regionId":"region.7dffbf73-a9e2-4d61-9356-98c993b613cf","countryId":"country.1pvjhz6"},"geometry":{"type":"Polygon","coordinates":[[[50.9724,25.8251],[51.1039,25.8242],[51.1039,25.9283],[51.2445,25.9283],[51.4168,25.8297],[51.4165,25.9521],[51.3469,26.1049],[51.2512,26.1601],[51.0474,26.053],[50.9512,25.8593],[50.9724,25.8251]]]}},{"type":"Feature","properties":{"sourceId":"1159310435","regionId":"region.496c15aa-926c-477e-8eeb-df7fd680bcba","countryId":"country.1pvjhz6"},"geometry":{"type":"Polygon","coordinates":[[[51.2874,25.5658],[51.3043,25.3844],[51.4451,25.3597],[51.4006,25.5509],[51.2874,25.5658]]]}}]}