{"type":"FeatureCollection","features":[{"type":"Feature","properties":{"sourceId":"1159307815","regionId":"region.e67511f7-690a-4471-98da-a62574e9dce5","countryId":"country.qw8j9b"},"geometry":{"type":"Polygon","coordinates":[[[-62.3414,-22.4723],[-62.2872,-22.4839],[-62.1708,-22.7173],[-62.0358,-22.8849],[-61.9564,-23.0344],[-61.845,-23.0972],[-61.7443,-23.2348],[-61.6051,-23.2893],[-61.4918,-23.4132],[-61.297,-23.4814],[-61.1099,-23.607],[-61.1188,-23.6664],[-61.0063,-23.8055],[-60.7878,-23.8734],[-60.7651,-23.6638],[-60.554,-23.586],[-60.2302,-23.5694],[-60.0636,-23.4999],[-60.0327,-23.3358],[-59.9734,-23.2052],[-59.961,-22.9136],[-59.9344,-22.7958],[-59.741,-22.529],[-59.7391,-22.4506],[-59.6165,-22.412],[-59.5945,-22.2956],[-59.4641,-22.2302],[-59.3042,-22.1956],[-59.3423,-22.083],[-59.4204,-22.0465],[-59.7816,-22.0335],[-59.9292,-22.0438],[-59.9582,-21.9077],[-59.8518,-21.4696],[-59.6958,-21.3254],[-59.7369,-21.0687],[-59.8297,-20.9183],[-59.8758,-20.776],[-59.8555,-20.6982],[-59.951,-20.6516],[-61.8187,-20.1319],[-61.9247,-20.0651],[-62.2106,-20.4713],[-62.2773,-20.5798],[-62.2719,-21.0004],[-62.2757,-21.0666],[-62.6504,-22.2345],[-62.6327,-22.296],[-62.3414,-22.4723]]]}},{"type":"Feature","properties":{"sourceId":"1159307783","regionId":"region.ae97890c-96ff-4eba-8344-9120a25b0fa4","countryId":"country.qw8j9b"},"geometry":{"type":"Polygon","coordinates":[[[-60.7878,-23.8734],[-60.5936,-23.9122],[-60.4849,-23.9773],[-60.328,-24.018],[-60.0337,-24.007],[-59.4597,-24.3585],[-59.341,-24.4876],[-59.0009,-24.6442],[-58.8092,-24.7768],[-58.4734,-24.8513],[-58.312,-24.9936],[-58.2241,-24.9412],[-57.9698,-25.0785],[-57.8905,-25.0787],[-57.7541,-25.1809],[-57.672,-25.2898],[-57.5835,-25.2344],[-57.5238,-25.1092],[-57.455,-25.1125],[-57.2134,-24.989],[-57.1819,-24.7695],[-57.0907,-24.6775],[-57.1709,-24.298],[-57.2197,-24.1979],[-57.163,-24.1174],[-57.278,-24.0051],[-57.2803,-23.7234],[-57.4504,-23.5738],[-57.4462,-23.4745],[-57.5014,-23.3367],[-57.4803,-23.279],[-57.6246,-23.1653],[-57.6321,-23.1111],[-57.7894,-23.0214],[-57.7894,-22.878],[-57.9402,-22.7163],[-57.7847,-22.6653],[-57.849,-22.423],[-58.1941,-22.2809],[-58.2632,-22.198],[-58.9984,-22.1568],[-59.1526,-22.1622],[-59.3423,-22.083],[-59.3042,-22.1956],[-59.4641,-22.2302],[-59.5945,-22.2956],[-59.6165,-22.412],[-59.7391,-22.4506],[-59.741,-22.529],[-59.9344,-22.7958],[-59.961,-22.9136],[-59.9734,-23.2052],[-60.0327,-23.3358],[-60.0636,-23.4999],[-60.2302,-23.5694],[-60.554,-23.586],[-60.7651,-23.6638],[-60.7878,-23.8734]]]}},{"type":"Feature","properties":{"sourceId":"1159315901","regionId":"region.13e459f1-f086-43ba-b7f0-66a90002e783","countryId":"country.qw8j9b"},"geometry":{"type":"Polygon","coordinates":[[[-57.5975,-25.4034],[-57.5569,-25.4598],[-57.6231,-25.6154],[-57.7537,-25.6727],[-57.8197,-25.8498],[-57.7038,-25.8097],[-57.5596,-25.9131],[-57.5036,-26.0111],[-57.405,-25.8584],[-57.426,-25.7381],[-57.2383,-25.4797],[-57.1618,-25.4253],[-57.2331,-25.3974],[-57.3182,-25.2559],[-57.455,-25.1125],[-57.5238,-25.1092],[-57.5835,-25.2344],[-57.5491,-25.3585],[-57.5975,-25.4034]]]}},{"type":"Feature","properties":{"sourceId":"1159307787","regionId":"region.70b13b1a-24ce-431f-88f1-461c301f79c2","countryId":"country.qw8j9b"},"geometry":{"type":"Polygon","coordinates":[[[-57.5975,-25.4034],[-57.5491,-25.3585],[-57.5835,-25.2344],[-57.672,-25.2898],[-57.5975,-25.4034]]]}},{"type":"Feature","properties":{"sourceId":"1159307801","regionId":"region.aabd9e6c-34c6-4309-8642-3c69fa370706","countryId":"country.qw8j9b"},"geometry":{"type":"Polygon","coordinates":[[[-54.6002,-25.5749],[-54.6098,-25.4328],[-54.4297,-25.1306],[-54.4623,-25.0372],[-54.4073,-24.8212],[-54.3584,-24.7314],[-54.6265,-24.6892],[-54.6684,-24.6388],[-54.8854,-24.6202],[-54.9923,-24.5396],[-55.2275,-24.5022],[-55.2916,-24.5837],[-55.3285,-24.7686],[-55.3275,-24.9659],[-55.015,-25.1845],[-55.0242,-25.3399],[-55.2268,-25.2313],[-55.4892,-25.5556],[-55.3995,-25.6089],[-55.5263,-25.8607],[-55.5131,-25.9628],[-55.429,-26.0103],[-55.3053,-25.9907],[-55.2915,-26.0833],[-55.2575,-26.1803],[-55.0673,-26.2168],[-54.9071,-26.1489],[-54.665,-26.2389],[-54.5879,-25.8108],[-54.6431,-25.6879],[-54.6002,-25.5749]]]}},{"type":"Feature","properties":{"sourceId":"1159307809","regionId":"region.8e642e92-4e04-4cd5-90cc-8e2a22034793","countryId":"country.qw8j9b"},"geometry":{"type":"Polygon","coordinates":[[[-54.665,-26.2389],[-54.9071,-26.1489],[-55.0673,-26.2168],[-55.2575,-26.1803],[-55.2915,-26.0833],[-55.3232,-26.1652],[-55.4657,-26.2874],[-55.7399,-26.3569],[-55.8646,-26.472],[-55.9841,-26.498],[-56.1184,-26.6713],[-56.4117,-26.7756],[-56.5723,-26.7224],[-56.532,-27.0864],[-56.655,-27.1892],[-56.6885,-27.294],[-56.638,-27.4529],[-56.5464,-27.4551],[-56.4615,-27.5539],[-56.3675,-27.5806],[-56.2798,-27.3896],[-56.1246,-27.2989],[-55.9661,-27.3317],[-55.7547,-27.4437],[-55.5913,-27.3284],[-55.599,-27.1826],[-55.4619,-27.098],[-55.414,-26.9799],[-55.2806,-26.9343],[-55.1384,-26.9537],[-55.1258,-26.8636],[-54.9753,-26.7878],[-54.9033,-26.6599],[-54.7931,-26.645],[-54.7898,-26.5285],[-54.7065,-26.4418],[-54.665,-26.2389]]]}},{"type":"Feature","properties":{"sourceId":"1159307795","regionId":"region.8deb0771-597c-45c0-ab62-3de30862fbcd","countryId":"country.qw8j9b"},"geometry":{"type":"Polygon","coordinates":[[[-57.8197,-25.8498],[-57.8754,-25.8761],[-57.8727,-26.0103],[-58.0865,-26.1272],[-58.17,-26.2703],[-58.2062,-26.4027],[-58.2479,-26.7582],[-58.3513,-26.8858],[-58.4598,-26.9282],[-58.5115,-27.0602],[-58.6533,-27.1563],[-58.6042,-27.3163],[-58.5108,-27.2784],[-58.022,-27.2598],[-57.6978,-27.3335],[-57.5357,-27.4072],[-57.3101,-27.4292],[-57.2021,-27.1338],[-57.2322,-27.0727],[-57.4217,-27.0443],[-57.6348,-26.7808],[-57.7055,-26.4125],[-57.4812,-26.1743],[-57.5036,-26.0111],[-57.5596,-25.9131],[-57.7038,-25.8097],[-57.8197,-25.8498]]]}},{"type":"Feature","properties":{"sourceId":"1159307791","regionId":"region.f35da3f6-5f5a-4439-a0e9-202fb4c88d89","countryId":"country.qw8j9b"},"geometry":{"type":"Polygon","coordinates":[[[-57.3101,-27.4292],[-57.1801,-27.4873],[-57.0762,-27.484],[-56.9044,-27.4187],[-56.7712,-27.5067],[-56.638,-27.4529],[-56.6885,-27.294],[-56.655,-27.1892],[-56.532,-27.0864],[-56.5723,-26.7224],[-56.7834,-26.5408],[-56.8193,-26.4898],[-57.0393,-26.404],[-57.2008,-26.5894],[-57.3406,-26.6232],[-57.5488,-26.5506],[-57.7055,-26.4125],[-57.6348,-26.7808],[-57.4217,-27.0443],[-57.2322,-27.0727],[-57.2021,-27.1338],[-57.3101,-27.4292]]]}},{"type":"Feature","properties":{"sourceId":"1159307813","regionId":"region.d2174c9c-7e71-4871-a8b9-c4b076a37c8f","countryId":"country.qw8j9b"},"geometry":{"type":"Polygon","coordinates":[[[-58.1588,-20.1651],[-58.1452,-19.9696],[-58.1753,-19.8214],[-59.0895,-19.2867],[-60.0064,-19.2981],[-60.8339,-19.4679],[-61.7612,-19.6578],[-61.9247,-20.0651],[-61.8187,-20.1319],[-59.951,-20.6516],[-59.8555,-20.6982],[-59.8758,-20.776],[-59.8297,-20.9183],[-59.7369,-21.0687],[-59.6958,-21.3254],[-59.8518,-21.4696],[-59.9582,-21.9077],[-59.9292,-22.0438],[-59.7816,-22.0335],[-59.4204,-22.0465],[-59.3423,-22.083],[-59.1526,-22.1622],[-58.9984,-22.1568],[-58.2632,-22.198],[-58.1941,-22.2809],[-57.849,-22.423],[-57.8967,-22.2793],[-57.9657,-22.2568],[-57.9731,-22.081],[-57.9254,-21.905],[-57.9559,-21.8511],[-57.8956,-21.6884],[-57.939,-21.6237],[-57.9299,-21.4531],[-57.8556,-21.3307],[-57.8254,-20.9986],[-57.9087,-20.8816],[-57.8602,-20.7303],[-57.991,-20.6206],[-57.9894,-20.4331],[-58.083,-20.3762],[-58.1588,-20.1651]]]}},{"type":"Feature","properties":{"sourceId":"1159307779","regionId":"region.26989869-2970-4052-8a5d-a7a1c3d7e1c3","countryId":"country.qw8j9b"},"geometry":{"type":"Polygon","coordinates":[[[-57.9731,-22.081],[-57.9657,-22.2568],[-57.8967,-22.2793],[-57.849,-22.423],[-57.7847,-22.6653],[-57.9402,-22.7163],[-57.7894,-22.878],[-57.7894,-23.0214],[-57.6321,-23.1111],[-57.6246,-23.1653],[-57.4803,-23.279],[-57.5014,-23.3367],[-57.4462,-23.4745],[-57.3505,-23.5048],[-56.8385,-23.4217],[-56.6054,-23.4523],[-56.4049,-23.4114],[-56.301,-23.3397],[-56.1905,-23.2089],[-56.1281,-23.0525],[-56.2716,-22.7071],[-56.5008,-22.7982],[-56.5954,-22.8867],[-56.7216,-22.6438],[-56.7093,-22.4796],[-56.6226,-22.3472],[-56.8429,-22.289],[-57.2138,-22.1882],[-57.385,-22.2133],[-57.6141,-22.177],[-57.6545,-22.1045],[-57.8439,-22.1437],[-57.9731,-22.081]]]}},{"type":"Feature","properties":{"sourceId":"1159307799","regionId":"region.79db0a1b-d1e1-458d-990f-d1a8c80312f4","countryId":"country.qw8j9b"},"geometry":{"type":"Polygon","coordinates":[[[-55.5338,-23.5304],[-55.5139,-23.3794],[-55.5352,-23.2291],[-55.6378,-23.0007],[-55.659,-22.8183],[-55.6312,-22.6268],[-55.7413,-22.5372],[-55.7516,-22.4163],[-55.8929,-22.3068],[-56.1968,-22.2793],[-56.3168,-22.2077],[-56.4218,-22.0745],[-56.5113,-22.0914],[-56.6547,-22.2373],[-56.8429,-22.289],[-56.6226,-22.3472],[-56.7093,-22.4796],[-56.7216,-22.6438],[-56.5954,-22.8867],[-56.5008,-22.7982],[-56.2716,-22.7071],[-56.1281,-23.0525],[-56.1905,-23.2089],[-56.301,-23.3397],[-56.0843,-23.3242],[-56.043,-23.4234],[-56.1442,-23.5148],[-56.1141,-23.5946],[-55.9362,-23.5302],[-55.9815,-23.7682],[-56.0591,-23.8485],[-55.9066,-23.8374],[-55.7206,-23.7011],[-55.5799,-23.6356],[-55.5338,-23.5304]]]}},{"type":"Feature","properties":{"sourceId":"1159307807","regionId":"region.a5a278a5-e7ff-4bff-9429-c911ead9cc40","countryId":"country.qw8j9b"},"geometry":{"type":"Polygon","coordinates":[[[-55.5338,-23.5304],[-55.5799,-23.6356],[-55.7206,-23.7011],[-55.9066,-23.8374],[-56.0591,-23.8485],[-55.9924,-24.0227],[-56.1535,-24.1608],[-56.1566,-24.2616],[-56.0443,-24.4087],[-55.9024,-24.649],[-55.7508,-24.7827],[-55.5228,-24.5557],[-55.2275,-24.5022],[-54.9923,-24.5396],[-54.8854,-24.6202],[-54.6684,-24.6388],[-54.6265,-24.6892],[-54.3584,-24.7314],[-54.3348,-24.5273],[-54.261,-24.3295],[-54.3346,-24.1489],[-54.2457,-24.0504],[-54.4229,-23.9138],[-54.6126,-23.8112],[-54.8274,-23.887],[-54.9436,-23.9692],[-55.2009,-24.0195],[-55.398,-23.9768],[-55.4453,-23.7354],[-55.5305,-23.6035],[-55.5338,-23.5304]]]}},{"type":"Feature","properties":{"sourceId":"1159307785","regionId":"region.4cd66a61-5fa0-4539-b592-8498565bc89d","countryId":"country.qw8j9b"},"geometry":{"type":"Polygon","coordinates":[[[-55.7508,-24.7827],[-55.9024,-24.649],[-56.0443,-24.4087],[-56.1566,-24.2616],[-56.1535,-24.1608],[-55.9924,-24.0227],[-56.0591,-23.8485],[-55.9815,-23.7682],[-55.9362,-23.5302],[-56.1141,-23.5946],[-56.1442,-23.5148],[-56.043,-23.4234],[-56.0843,-23.3242],[-56.301,-23.3397],[-56.4049,-23.4114],[-56.6054,-23.4523],[-56.8385,-23.4217],[-57.3505,-23.5048],[-57.4462,-23.4745],[-57.4504,-23.5738],[-57.2803,-23.7234],[-57.278,-24.0051],[-57.163,-24.1174],[-57.2197,-24.1979],[-57.1709,-24.298],[-57.0907,-24.6775],[-57.1819,-24.7695],[-57.2134,-24.989],[-57.0587,-25.0376],[-56.9848,-24.9637],[-56.6893,-24.917],[-56.4945,-25.0217],[-56.2471,-24.7887],[-56.2108,-24.8557],[-56.0544,-24.9679],[-55.9494,-24.8419],[-55.7508,-24.7827]]]}},{"type":"Feature","properties":{"sourceId":"1159307803","regionId":"region.68ab3883-5e13-4deb-8cf7-8fd8fd640b80","countryId":"country.qw8j9b"},"geometry":{"type":"Polygon","coordinates":[[[-55.7508,-24.7827],[-55.9494,-24.8419],[-56.0544,-24.9679],[-56.2108,-24.8557],[-56.2471,-24.7887],[-56.4945,-25.0217],[-56.5638,-25.3493],[-56.8093,-25.5061],[-56.7463,-25.6535],[-56.6468,-25.7104],[-56.5125,-25.6281],[-56.3591,-25.5778],[-55.9388,-25.6071],[-55.8282,-25.6768],[-55.6246,-25.6503],[-55.4892,-25.5556],[-55.2268,-25.2313],[-55.0242,-25.3399],[-55.015,-25.1845],[-55.3275,-24.9659],[-55.3285,-24.7686],[-55.2916,-24.5837],[-55.2275,-24.5022],[-55.5228,-24.5557],[-55.7508,-24.7827]]]}},{"type":"Feature","properties":{"sourceId":"1159307781","regionId":"region.baf3d91d-4e82-4b6a-9faa-5ce452367263","countryId":"country.qw8j9b"},"geometry":{"type":"Polygon","coordinates":[[[-56.4945,-25.0217],[-56.6893,-24.917],[-56.9848,-24.9637],[-57.0587,-25.0376],[-57.2134,-24.989],[-57.455,-25.1125],[-57.3182,-25.2559],[-57.2331,-25.3974],[-57.1618,-25.4253],[-57.0882,-25.5261],[-56.9026,-25.5394],[-56.8471,-25.6602],[-56.7463,-25.6535],[-56.8093,-25.5061],[-56.5638,-25.3493],[-56.4945,-25.0217]]]}},{"type":"Feature","properties":{"sourceId":"1159307805","regionId":"region.e92b0f6a-43cb-41b8-a458-7c0eb876f1d4","countryId":"country.qw8j9b"},"geometry":{"type":"Polygon","coordinates":[[[-55.4892,-25.5556],[-55.6246,-25.6503],[-55.6694,-25.7301],[-56.0335,-25.894],[-56.0741,-26.0034],[-56.1552,-26.044],[-56.2538,-25.9919],[-56.4826,-26.0878],[-56.5865,-26.1759],[-56.7282,-26.4855],[-56.7834,-26.5408],[-56.5723,-26.7224],[-56.4117,-26.7756],[-56.1184,-26.6713],[-55.9841,-26.498],[-55.8646,-26.472],[-55.7399,-26.3569],[-55.4657,-26.2874],[-55.3232,-26.1652],[-55.2915,-26.0833],[-55.3053,-25.9907],[-55.429,-26.0103],[-55.5131,-25.9628],[-55.5263,-25.8607],[-55.3995,-25.6089],[-55.4892,-25.5556]]]}},{"type":"Feature","properties":{"sourceId":"1159307797","regionId":"region.cc27f2cd-d30f-4237-bd01-45464c117904","countryId":"country.qw8j9b"},"geometry":{"type":"Polygon","coordinates":[[[-56.7463,-25.6535],[-56.8471,-25.6602],[-56.9026,-25.5394],[-57.0882,-25.5261],[-57.1618,-25.4253],[-57.2383,-25.4797],[-57.426,-25.7381],[-57.405,-25.8584],[-57.5036,-26.0111],[-57.4812,-26.1743],[-57.7055,-26.4125],[-57.5488,-26.5506],[-57.3406,-26.6232],[-57.2008,-26.5894],[-57.0393,-26.404],[-56.8193,-26.4898],[-56.7834,-26.5408],[-56.7282,-26.4855],[-56.5865,-26.1759],[-56.67,-25.9915],[-56.6039,-25.9608],[-56.6552,-25.8383],[-56.6468,-25.7104],[-56.7463,-25.6535]]]}},{"type":"Feature","properties":{"sourceId":"1159307789","regionId":"region.4ca911bd-0f10-43a5-b8a8-941ef89adb97","countryId":"country.qw8j9b"},"geometry":{"type":"Polygon","coordinates":[[[-55.6246,-25.6503],[-55.8282,-25.6768],[-55.9388,-25.6071],[-56.3591,-25.5778],[-56.5125,-25.6281],[-56.6468,-25.7104],[-56.6552,-25.8383],[-56.6039,-25.9608],[-56.67,-25.9915],[-56.5865,-26.1759],[-56.4826,-26.0878],[-56.2538,-25.9919],[-56.1552,-26.044],[-56.0741,-26.0034],[-56.0335,-25.894],[-55.6694,-25.7301],[-55.6246,-25.6503]]]}}]}