{"type":"FeatureCollection","features":[{"type":"Feature","properties":{"sourceId":"1159316547","regionId":"region.0fcb8074-ac20-4e57-b056-11906c496e6b","countryId":"country.ad423c13-233a-4e60-9502-1e34755b8c13"},"geometry":{"type":"Polygon","coordinates":[[[114.2298,22.5558],[114.0824,22.5294],[114.0853,22.5229],[114.1396,22.4681],[114.3328,22.5119],[114.2298,22.5558]]]}},{"type":"Feature","properties":{"sourceId":"1159316551","regionId":"region.d3a41553-dc7b-47d6-aed3-5c355c4dea48","countryId":"country.ad423c13-233a-4e60-9502-1e34755b8c13"},"geometry":{"type":"Polygon","coordinates":[[[113.9956,22.3158],[113.8925,22.2927],[113.9284,22.2108],[114.0305,22.3162],[113.9956,22.3158]]]}},{"type":"Feature","properties":{"sourceId":"1159316519","regionId":"region.8d4b4769-8315-4ebf-b52c-bac4d8cefd3c","countryId":"country.ad423c13-233a-4e60-9502-1e34755b8c13"},"geometry":{"type":"Polygon","coordinates":[[[114.2515,22.2489],[114.1888,22.2594],[114.1625,22.2582],[114.1126,22.2715],[114.2066,22.2124],[114.2515,22.2489]]]}},{"type":"Feature","properties":{"sourceId":"1159315655","regionId":"region.ae3445bc-e942-48f7-90f8-7799fdd087fb","countryId":"country.ad423c13-233a-4e60-9502-1e34755b8c13"},"geometry":{"type":"Polygon","coordinates":[[[114.1126,22.2715],[114.1625,22.2582],[114.1657,22.2794],[114.1126,22.2715]]]}},{"type":"Feature","properties":{"sourceId":"1159316515","regionId":"region.1c4fcbc1-f618-429b-9cf9-81cf6eead447","countryId":"country.ad423c13-233a-4e60-9502-1e34755b8c13"},"geometry":{"type":"Polygon","coordinates":[[[114.1657,22.2794],[114.1625,22.2582],[114.1888,22.2594],[114.1789,22.2794],[114.1657,22.2794]]]}},{"type":"Feature","properties":{"sourceId":"1159316517","regionId":"region.6025e263-66cb-4865-8045-36ee802f329b","countryId":"country.ad423c13-233a-4e60-9502-1e34755b8c13"},"geometry":{"type":"Polygon","coordinates":[[[114.1789,22.2794],[114.1888,22.2594],[114.2515,22.2489],[114.1789,22.2794]]]}},{"type":"Feature","properties":{"sourceId":"1159316539","regionId":"region.1507c626-8670-475b-871b-b56b949e5b36","countryId":"country.ad423c13-233a-4e60-9502-1e34755b8c13"},"geometry":{"type":"Polygon","coordinates":[[[114.1125,22.3577],[114.1505,22.3666],[114.1708,22.4178],[114.1373,22.4119],[114.0358,22.3822],[114.0205,22.3504],[114.1125,22.3577]]]}},{"type":"Feature","properties":{"sourceId":"1159316549","regionId":"region.15ec84eb-21b8-4448-af74-fd49783d44af","countryId":"country.ad423c13-233a-4e60-9502-1e34755b8c13"},"geometry":{"type":"MultiPolygon","coordinates":[[[[114.3328,22.5119],[114.1396,22.4681],[114.1373,22.4119],[114.1708,22.4178],[114.2053,22.4249],[114.3328,22.5119]]],[[[114.2515,22.4307],[114.2512,22.3955],[114.3674,22.4463],[114.2515,22.4307]]]]}},{"type":"Feature","properties":{"sourceId":"1159316535","regionId":"region.6c734f11-74c4-4d92-9959-fc8da03957cb","countryId":"country.ad423c13-233a-4e60-9502-1e34755b8c13"},"geometry":{"type":"Polygon","coordinates":[[[114.2053,22.4249],[114.1708,22.4178],[114.1505,22.3666],[114.1595,22.3419],[114.17,22.3448],[114.1856,22.348],[114.2231,22.3557],[114.2512,22.3955],[114.2515,22.4307],[114.2053,22.4249]]]}},{"type":"Feature","properties":{"sourceId":"1159316533","regionId":"region.ea0bc2e0-c97a-4d4a-b589-e2e92c75fa24","countryId":"country.ad423c13-233a-4e60-9502-1e34755b8c13"},"geometry":{"type":"Polygon","coordinates":[[[114.3674,22.4463],[114.2512,22.3955],[114.2231,22.3557],[114.234,22.3331],[114.2434,22.2862],[114.278,22.391],[114.3674,22.4463]]]}},{"type":"Feature","properties":{"sourceId":"1159316531","regionId":"region.9b972e4c-308b-4a58-ad1d-94647620189e","countryId":"country.ad423c13-233a-4e60-9502-1e34755b8c13"},"geometry":{"type":"Polygon","coordinates":[[[114.2434,22.2862],[114.234,22.3331],[114.2052,22.3345],[114.2118,22.3106],[114.2434,22.2862]]]}},{"type":"Feature","properties":{"sourceId":"1159316525","regionId":"region.26b8c2c6-efc7-4682-972b-a67db0360c33","countryId":"country.ad423c13-233a-4e60-9502-1e34755b8c13"},"geometry":{"type":"Polygon","coordinates":[[[114.2118,22.3106],[114.2052,22.3345],[114.1856,22.348],[114.17,22.3448],[114.1753,22.3231],[114.1765,22.2911],[114.2118,22.3106]]]}},{"type":"Feature","properties":{"sourceId":"1159316521","regionId":"region.8d41553f-2eef-44f7-b6d6-9244a5c2cde7","countryId":"country.ad423c13-233a-4e60-9502-1e34755b8c13"},"geometry":{"type":"Polygon","coordinates":[[[114.1765,22.2911],[114.1753,22.3231],[114.1595,22.3223],[114.1765,22.2911]]]}},{"type":"Feature","properties":{"sourceId":"1159316527","regionId":"region.20300fff-e767-43e4-bc46-121ca9baadcc","countryId":"country.ad423c13-233a-4e60-9502-1e34755b8c13"},"geometry":{"type":"Polygon","coordinates":[[[114.1595,22.3223],[114.1753,22.3231],[114.17,22.3448],[114.1595,22.3419],[114.1457,22.332],[114.1595,22.3223]]]}},{"type":"Feature","properties":{"sourceId":"1159316537","regionId":"region.d1be3a61-ede2-4af0-8e60-0f1d17f6b2ec","countryId":"country.ad423c13-233a-4e60-9502-1e34755b8c13"},"geometry":{"type":"Polygon","coordinates":[[[114.1457,22.332],[114.1595,22.3419],[114.1505,22.3666],[114.1125,22.3577],[114.1457,22.332]]]}},{"type":"Feature","properties":{"sourceId":"1159316543","regionId":"region.ea8f62b3-4e1e-41e6-a5b3-84c575823697","countryId":"country.ad423c13-233a-4e60-9502-1e34755b8c13"},"geometry":{"type":"Polygon","coordinates":[[[114.0205,22.3504],[114.0358,22.3822],[113.941,22.4268],[114.0205,22.3504]]]}},{"type":"Feature","properties":{"sourceId":"1159316545","regionId":"region.281f29e3-2f4f-41d0-a3b3-7523ccbf85ea","countryId":"country.ad423c13-233a-4e60-9502-1e34755b8c13"},"geometry":{"type":"Polygon","coordinates":[[[113.941,22.4268],[114.0358,22.3822],[114.1373,22.4119],[114.1396,22.4681],[114.0853,22.5229],[113.941,22.4268]]]}},{"type":"Feature","properties":{"sourceId":"1159316529","regionId":"region.e9a359f4-a4e6-4252-82e3-8607d8cf8f58","countryId":"country.ad423c13-233a-4e60-9502-1e34755b8c13"},"geometry":{"type":"Polygon","coordinates":[[[114.1856,22.348],[114.2052,22.3345],[114.234,22.3331],[114.2231,22.3557],[114.1856,22.348]]]}}]}