{"type":"FeatureCollection","features":[{"type":"Feature","properties":{"sourceId":"1159315855","regionId":"region.1eac4e1d-8509-43fb-9048-7bfeeae98074","countryId":"country.15febdb5-6025-49d0-9318-d737d6bf6ee1"},"geometry":{"type":"Polygon","coordinates":[[[20.2776,60.1422],[20.2224,60.1496],[20.2019,60.0876],[20.2689,60.086],[20.2776,60.1422]]]}},{"type":"Feature","properties":{"sourceId":"1159315841","regionId":"region.1724d891-fd22-40a2-b1fb-59d5b08cfd70","countryId":"country.15febdb5-6025-49d0-9318-d737d6bf6ee1"},"geometry":{"type":"Polygon","coordinates":[[[19.6395,60.2209],[19.5132,60.1838],[19.5446,60.1348],[19.6711,60.1581],[19.6395,60.2209]]]}},{"type":"Feature","properties":{"sourceId":"1159315859","regionId":"region.b229b5a2-9363-4740-bea0-cbd781551bc0","countryId":"country.15febdb5-6025-49d0-9318-d737d6bf6ee1"},"geometry":{"type":"Polygon","coordinates":[[[20.4279,60.2657],[20.3796,60.2697],[20.3929,60.1968],[20.4414,60.2452],[20.4279,60.2657]]]}},{"type":"Feature","properties":{"sourceId":"1159315863","regionId":"region.9fd75abb-ede5-49e5-91e4-322b0dac99f8","countryId":"country.15febdb5-6025-49d0-9318-d737d6bf6ee1"},"geometry":{"type":"Polygon","coordinates":[[[20.8189,60.2322],[20.853,60.2657],[20.7811,60.2637],[20.8189,60.2322]]]}},{"type":"Feature","properties":{"sourceId":"1159315737","regionId":"region.1accc83d-424e-467f-af95-7ba133375910","countryId":"country.15febdb5-6025-49d0-9318-d737d6bf6ee1"},"geometry":{"type":"Polygon","coordinates":[[[19.9103,60.1011],[19.9371,60.1108],[19.966,60.0911],[20.033,60.1444],[19.9436,60.1862],[19.8102,60.149],[19.9103,60.1011]]]}},{"type":"Feature","properties":{"sourceId":"1159315851","regionId":"region.e1f49d37-dc18-4d4b-bfc5-b8fe965a974b","countryId":"country.15febdb5-6025-49d0-9318-d737d6bf6ee1"},"geometry":{"type":"Polygon","coordinates":[[[19.966,60.0911],[19.9371,60.1108],[19.9103,60.1011],[19.966,60.0911]]]}},{"type":"Feature","properties":{"sourceId":"1159315867","regionId":"region.cab6d752-6b7f-4e98-a8ca-3edf54a98abc","countryId":"country.15febdb5-6025-49d0-9318-d737d6bf6ee1"},"geometry":{"type":"Polygon","coordinates":[[[20.9836,59.9428],[20.9347,59.958],[20.9321,59.9359],[20.9836,59.9428]]]}},{"type":"Feature","properties":{"sourceId":"1159315845","regionId":"region.9177e3cc-67fb-4177-b9ff-ba86146c7a27","countryId":"country.15febdb5-6025-49d0-9318-d737d6bf6ee1"},"geometry":{"type":"Polygon","coordinates":[[[20.2813,59.9766],[20.3986,59.9813],[20.3394,60.0201],[20.2813,59.9766]]]}},{"type":"Feature","properties":{"sourceId":"1159315861","regionId":"region.4705fe8b-27dc-4b05-b898-ca82ab475c00","countryId":"country.15febdb5-6025-49d0-9318-d737d6bf6ee1"},"geometry":{"type":"Polygon","coordinates":[[[20.6834,60.1305],[20.6536,60.1514],[20.6387,60.1313],[20.6834,60.1305]]]}},{"type":"Feature","properties":{"sourceId":"1159315853","regionId":"region.c2f7cb01-9b2b-4c3c-8022-e429470d32e6","countryId":"country.15febdb5-6025-49d0-9318-d737d6bf6ee1"},"geometry":{"type":"Polygon","coordinates":[[[20.0337,60.0636],[20.1232,59.9889],[20.1932,60.0656],[20.0337,60.0636]]]}},{"type":"Feature","properties":{"sourceId":"1159315865","regionId":"region.7c9f0254-4086-4552-8a86-9c274284cf60","countryId":"country.15febdb5-6025-49d0-9318-d737d6bf6ee1"},"geometry":{"type":"Polygon","coordinates":[[[21.0886,60.4801],[21.0593,60.4667],[21.065,60.4548],[21.0967,60.4634],[21.0886,60.4801]]]}}]}