{"type":"FeatureCollection","features":[{"type":"Feature","properties":{"sourceId":"1159311295","regionId":"region.69235bd4-d4a0-4262-ae31-636b74f6e9bb","countryId":"country.1jpkbk"},"geometry":{"type":"Polygon","coordinates":[[[13.2946,2.1611],[13.2429,2.2715],[13.0835,2.2495],[12.8082,2.264],[12.7499,2.2367],[12.334,2.3096],[12.2026,2.2796],[11.7528,2.2819],[11.6712,2.321],[11.3516,2.3006],[11.3221,2.1658],[11.332,1.7326],[11.3363,0.9992],[10.9638,1.0004],[10.415,1.0022],[10.4096,0.8602],[10.3655,0.7177],[10.4267,0.6406],[10.9484,0.8207],[10.9505,0.6132],[10.875,0.4684],[10.807,0.2318],[11.5828,0.2301],[11.4854,0.3602],[12.2048,0.8482],[12.2188,0.9839],[12.3548,1.2347],[13.1849,1.2226],[13.2336,1.3088],[13.2395,1.428],[13.1296,1.5925],[13.1925,1.8447],[13.2069,1.9936],[13.2811,2.045],[13.2946,2.1611]]]}},{"type":"Feature","properties":{"sourceId":"1159311293","regionId":"region.2a74c3dd-3490-49b8-ace8-5ad7cb9aef10","countryId":"country.1jpkbk"},"geometry":{"type":"Polygon","coordinates":[[[13.1849,1.2226],[12.3548,1.2347],[12.2188,0.9839],[12.2048,0.8482],[11.4854,0.3602],[11.5828,0.2301],[11.5703,0.1598],[11.3561,0.0434],[11.2803,-0.0804],[11.3375,-0.1528],[11.3383,-0.2501],[11.4004,-0.3575],[11.4262,-0.4888],[11.5132,-0.5997],[11.5625,-0.7535],[12.3004,-0.4821],[12.4576,-0.4024],[12.6089,0.2734],[12.731,0.2814],[12.9043,0.2191],[12.9447,0.2516],[13.0874,0.1934],[13.1237,0.088],[13.2814,0.0407],[13.523,0.0338],[13.7229,-0.0095],[13.8881,-0.0921],[13.8712,0.1964],[13.9452,0.3504],[14.0404,0.4138],[14.076,0.5395],[14.2318,0.5426],[14.3288,0.6212],[14.3384,0.6939],[14.4476,0.8162],[14.4681,0.9132],[14.4008,0.9703],[14.2747,1.1556],[14.2199,1.355],[14.1244,1.3936],[13.7947,1.4344],[13.7582,1.3765],[13.6422,1.3574],[13.5434,1.2835],[13.4139,1.2955],[13.1849,1.2226]]]}},{"type":"Feature","properties":{"sourceId":"1159313343","regionId":"region.8eab9e09-ace8-41b8-8857-cb5d123f2645","countryId":"country.1jpkbk"},"geometry":{"type":"Polygon","coordinates":[[[13.8881,-0.0921],[13.7229,-0.0095],[13.523,0.0338],[13.2814,0.0407],[13.2227,-0.1062],[13.3031,-0.2396],[13.5523,-0.7293],[13.5574,-0.7696],[13.433,-0.9537],[13.2708,-1.151],[13.1666,-1.109],[13.1593,-1.2711],[12.9007,-1.4844],[12.7763,-1.7499],[12.741,-1.8907],[12.8046,-1.9191],[12.9071,-2.1954],[12.9824,-2.233],[12.994,-2.3601],[13.1867,-2.3641],[13.361,-2.4288],[13.4454,-2.4271],[13.5934,-2.3268],[13.7707,-2.1191],[13.8639,-2.3215],[13.885,-2.4885],[14.1006,-2.4781],[14.227,-2.3231],[14.1512,-2.259],[14.2384,-2.1202],[14.2522,-1.9676],[14.3686,-1.9221],[14.403,-1.6709],[14.3738,-1.6041],[14.4821,-1.3886],[14.4323,-1.3501],[14.4394,-1.1857],[14.3918,-1.0233],[14.4571,-0.8561],[14.4516,-0.7512],[14.499,-0.6309],[14.4665,-0.5527],[14.2927,-0.4364],[14.1597,-0.4551],[14.1214,-0.3022],[14.0588,-0.2588],[13.8312,-0.2054],[13.8881,-0.0921]]]}},{"type":"Feature","properties":{"sourceId":"1159313345","regionId":"region.f489f7eb-eb0e-4486-809a-c4a148987014","countryId":"country.1jpkbk"},"geometry":{"type":"Polygon","coordinates":[[[12.741,-1.8907],[12.7763,-1.7499],[12.9007,-1.4844],[13.1593,-1.2711],[13.1666,-1.109],[13.2708,-1.151],[13.433,-0.9537],[13.5574,-0.7696],[13.5523,-0.7293],[13.3031,-0.2396],[13.2227,-0.1062],[13.2814,0.0407],[13.1237,0.088],[13.0874,0.1934],[12.9447,0.2516],[12.9043,0.2191],[12.731,0.2814],[12.6089,0.2734],[12.4576,-0.4024],[12.3004,-0.4821],[11.5625,-0.7535],[11.5043,-0.8391],[11.5047,-0.9477],[11.5563,-1.1218],[11.7576,-1.0721],[11.824,-1.2258],[12.0262,-1.3976],[12.0158,-1.5894],[12.2191,-1.8203],[12.45,-1.8993],[12.6324,-1.8252],[12.741,-1.8907]]]}},{"type":"Feature","properties":{"sourceId":"1159313339","regionId":"region.57eb5e1a-ee83-4be5-84df-8569661881f2","countryId":"country.1jpkbk"},"geometry":{"type":"Polygon","coordinates":[[[12.45,-1.8993],[12.2191,-1.8203],[12.0158,-1.5894],[12.0262,-1.3976],[11.824,-1.2258],[11.7576,-1.0721],[11.5563,-1.1218],[11.5047,-0.9477],[11.5043,-0.8391],[11.5625,-0.7535],[11.3262,-0.6969],[11.1726,-0.5785],[10.9277,-0.595],[10.782,-0.6488],[10.7123,-0.6152],[10.5438,-0.7903],[10.5153,-0.8978],[10.3911,-1.1146],[10.1523,-1.1671],[10.0665,-1.2555],[9.9674,-1.4141],[9.9565,-1.6011],[9.8724,-1.6744],[9.9861,-1.8286],[10.2169,-1.9119],[10.3659,-1.9102],[10.4592,-1.9642],[10.4499,-2.0532],[10.6071,-2.3099],[11.0399,-2.2538],[11.1928,-2.3885],[11.2246,-2.477],[11.4651,-2.7144],[11.5356,-2.805],[11.6103,-2.6789],[11.5582,-2.3494],[11.6697,-2.3527],[11.7561,-2.4151],[11.9384,-2.3291],[12.0623,-2.415],[12.4593,-2.3299],[12.4702,-2.1563],[12.4315,-2.0054],[12.45,-1.8993]]]}},{"type":"Feature","properties":{"sourceId":"1159313341","regionId":"region.cc77711e-01ba-40d2-9cc1-6ab691b68e26","countryId":"country.1jpkbk"},"geometry":{"type":"Polygon","coordinates":[[[11.5356,-2.805],[11.4651,-2.7144],[11.2246,-2.477],[11.1928,-2.3885],[11.0399,-2.2538],[10.6071,-2.3099],[10.4643,-2.3808],[10.3257,-2.6448],[9.9617,-2.7454],[10.4526,-3.1333],[10.6354,-3.3137],[10.6464,-3.4519],[10.9846,-3.7146],[11.0213,-3.8578],[11.114,-3.9369],[11.2125,-3.6973],[11.414,-3.5876],[11.4826,-3.5093],[11.5698,-3.5449],[11.6492,-3.6733],[11.8408,-3.71],[11.8985,-3.6224],[11.8278,-3.5481],[11.9444,-3.3032],[11.6875,-3.171],[11.7064,-3.0499],[11.7637,-2.9826],[11.6368,-2.8333],[11.5356,-2.805]]]}},{"type":"Feature","properties":{"sourceId":"1159311297","regionId":"region.1d33b0a6-04aa-4c30-b6b8-e4b076bf4677","countryId":"country.1jpkbk"},"geometry":{"type":"Polygon","coordinates":[[[10.415,1.0022],[10.0004,0.9997],[9.9086,0.9351],[9.8044,0.9984],[9.6688,1.0582],[9.5615,0.9628],[9.6182,0.8068],[9.625,0.6393],[9.52,0.6835],[9.3088,0.614],[9.3057,0.5443],[9.4114,0.4699],[9.4981,0.291],[9.5721,0.2983],[9.6797,0.2222],[9.7124,0.1348],[9.4243,0.2082],[9.3787,0.3076],[9.3071,0.319],[9.3553,0.0162],[9.3061,-0.2716],[9.4027,-0.4576],[9.5701,-0.578],[9.5619,-0.4251],[9.9028,-0.3023],[9.9961,-0.4089],[10.2311,-0.2997],[10.5482,-0.0491],[10.6394,0.0789],[10.6663,0.2068],[10.807,0.2318],[10.875,0.4684],[10.9505,0.6132],[10.9484,0.8207],[10.4267,0.6406],[10.3655,0.7177],[10.4096,0.8602],[10.415,1.0022]]]}},{"type":"Feature","properties":{"sourceId":"1159313333","regionId":"region.e86d164e-2c34-4e4d-aef5-a76a172306b2","countryId":"country.1jpkbk"},"geometry":{"type":"Polygon","coordinates":[[[9.9617,-2.7454],[10.3257,-2.6448],[10.4643,-2.3808],[10.6071,-2.3099],[10.4499,-2.0532],[10.4592,-1.9642],[10.3659,-1.9102],[10.2169,-1.9119],[9.9861,-1.8286],[9.8724,-1.6744],[9.9565,-1.6011],[9.9674,-1.4141],[10.0665,-1.2555],[9.9807,-1.2292],[9.9114,-1.1432],[9.9444,-1.074],[9.9235,-0.9392],[9.7484,-0.8974],[9.6356,-0.7867],[9.5701,-0.578],[9.4027,-0.4576],[9.3061,-0.2716],[9.2674,-0.4124],[9.1008,-0.5997],[9.0872,-0.6896],[9.0046,-0.8051],[8.929,-0.6873],[8.8003,-0.7337],[8.8775,-0.9737],[9.0158,-1.1699],[9.03,-1.2991],[9.158,-1.3952],[9.2853,-1.4158],[9.2998,-1.5774],[9.2443,-1.7858],[9.3597,-1.9147],[9.368,-1.9952],[9.5658,-2.1926],[9.597,-2.3522],[9.9089,-2.4704],[10.1375,-2.5274],[10.0396,-2.6132],[9.8425,-2.5006],[9.7251,-2.4814],[9.9617,-2.7454]]]}},{"type":"Feature","properties":{"sourceId":"1159313335","regionId":"region.89f53953-2841-48d9-a360-a929e2eb2e0a","countryId":"country.1jpkbk"},"geometry":{"type":"Polygon","coordinates":[[[11.5828,0.2301],[10.807,0.2318],[10.6663,0.2068],[10.6394,0.0789],[10.5482,-0.0491],[10.2311,-0.2997],[9.9961,-0.4089],[9.9028,-0.3023],[9.5619,-0.4251],[9.5701,-0.578],[9.6356,-0.7867],[9.7484,-0.8974],[9.9235,-0.9392],[9.9444,-1.074],[9.9114,-1.1432],[9.9807,-1.2292],[10.0665,-1.2555],[10.1523,-1.1671],[10.3911,-1.1146],[10.5153,-0.8978],[10.5438,-0.7903],[10.7123,-0.6152],[10.782,-0.6488],[10.9277,-0.595],[11.1726,-0.5785],[11.3262,-0.6969],[11.5625,-0.7535],[11.5132,-0.5997],[11.4262,-0.4888],[11.4004,-0.3575],[11.3383,-0.2501],[11.3375,-0.1528],[11.2803,-0.0804],[11.3561,0.0434],[11.5703,0.1598],[11.5828,0.2301]]]}}]}