{"type":"FeatureCollection","features":[{"type":"Feature","properties":{"sourceId":"1159315003","regionId":"region.f7907fcf-7dd6-48c0-b070-b2494f85c305","countryId":"country.10umxsb"},"geometry":{"type":"Polygon","coordinates":[[[34.0785,-9.5102],[33.8959,-9.2635],[33.7959,-9.0063],[33.8533,-8.9136],[33.949,-8.8663],[34.0228,-8.8915],[34.1116,-8.8332],[34.3275,-8.8129],[34.475,-8.8255],[34.5826,-8.7179],[34.7074,-8.6703],[34.7325,-8.6052],[34.6906,-8.434],[34.7399,-8.3492],[34.8541,-8.2742],[34.9164,-8.148],[35.0635,-8.0356],[34.9096,-7.9351],[34.6388,-7.8922],[34.3599,-7.8136],[33.8946,-7.8369],[33.8688,-7.7251],[33.9804,-7.5346],[33.9385,-7.499],[33.8154,-7.4347],[33.7778,-7.3017],[33.584,-7.1477],[33.4849,-6.9428],[33.2677,-6.9556],[33.0362,-6.8669],[32.7923,-6.9469],[32.6905,-7.0938],[32.5528,-7.1036],[32.2738,-7.2101],[32.2732,-7.3159],[32.197,-7.4955],[32.0943,-7.5344],[32.0201,-7.6683],[32.0102,-7.7891],[32.2788,-7.9287],[32.5113,-8.0987],[32.7423,-8.4048],[32.6321,-8.4649],[32.5488,-8.36],[32.5018,-8.2146],[32.2781,-8.3451],[32.2874,-8.5691],[32.2124,-8.6635],[32.0302,-8.7426],[32.009,-8.7826],[32.1495,-8.9499],[32.1456,-9.0703],[32.2314,-9.1338],[32.383,-9.1339],[32.518,-9.2582],[32.7132,-9.2858],[32.7596,-9.34],[32.9209,-9.4079],[32.9923,-9.3914],[33.1729,-9.511],[33.3003,-9.4922],[33.4042,-9.6049],[33.6501,-9.6109],[33.7346,-9.5841],[33.8653,-9.6696],[33.9513,-9.6736],[33.9459,-9.55],[34.0785,-9.5102]]]}},{"type":"Feature","properties":{"sourceId":"1159317327","regionId":"region.85a1d4f0-1751-49f0-b074-d8e09c17f0dd","countryId":"country.10umxsb"},"geometry":{"type":"Polygon","coordinates":[[[34.5801,-10.5318],[34.6916,-10.5227],[34.8243,-10.4036],[34.9838,-10.3022],[34.989,-10.2365],[35.1192,-10.1913],[35.216,-10.042],[35.1238,-9.7599],[35.2297,-9.7125],[35.5469,-9.4399],[35.697,-9.3399],[35.6802,-9.2469],[35.3654,-9.0086],[35.1976,-9.0271],[35.1027,-8.9602],[35.1139,-8.7817],[34.8741,-8.698],[34.7325,-8.6052],[34.7074,-8.6703],[34.5826,-8.7179],[34.475,-8.8255],[34.3275,-8.8129],[34.1116,-8.8332],[34.0228,-8.8915],[33.949,-8.8663],[33.8533,-8.9136],[33.7959,-9.0063],[33.8959,-9.2635],[34.0785,-9.5102],[34.1908,-9.6068],[34.4833,-9.9462],[34.5853,-10.3007],[34.5801,-10.5318]]]}},{"type":"Feature","properties":{"sourceId":"1159315033","regionId":"region.27327c94-2f95-4668-8afd-82f8ba1826a6","countryId":"country.10umxsb"},"geometry":{"type":"Polygon","coordinates":[[[34.5801,-10.5318],[34.6209,-10.5824],[34.6724,-10.7395],[34.6178,-10.9657],[34.6211,-11.1197],[34.7141,-11.2027],[34.7591,-11.3375],[34.8866,-11.3754],[34.9646,-11.5736],[35.6548,-11.5783],[35.6956,-11.4946],[35.8264,-11.4135],[35.9397,-11.4341],[36.1681,-11.5787],[36.1997,-11.7015],[36.4949,-11.6809],[36.563,-11.7313],[36.747,-11.6665],[36.8201,-11.5736],[37.0444,-11.5957],[37.2266,-11.6938],[37.3314,-11.6816],[37.4278,-11.7226],[37.6478,-11.636],[37.7837,-11.5589],[37.8752,-11.3191],[38.0934,-11.2563],[38.0243,-11.0202],[37.993,-10.817],[37.8217,-10.4985],[37.7175,-10.4269],[37.1623,-10.2929],[36.9206,-10.2012],[36.8712,-10.1595],[36.8773,-9.9539],[37.1056,-9.6791],[37.1431,-9.5612],[37.0687,-9.5829],[36.8686,-9.7125],[36.6642,-9.9089],[36.5716,-9.9592],[36.4784,-9.9136],[36.5642,-9.7622],[36.4928,-9.6132],[36.3644,-9.7273],[36.1334,-9.751],[36.0437,-9.7215],[35.9726,-9.8086],[35.7619,-9.8108],[35.7249,-9.7169],[35.8607,-9.5754],[35.9335,-9.3841],[35.8998,-9.1887],[35.7766,-9.3154],[35.697,-9.3399],[35.5469,-9.4399],[35.2297,-9.7125],[35.1238,-9.7599],[35.216,-10.042],[35.1192,-10.1913],[34.989,-10.2365],[34.9838,-10.3022],[34.8243,-10.4036],[34.6916,-10.5227],[34.5801,-10.5318]]]}},{"type":"Feature","properties":{"sourceId":"1159315017","regionId":"region.2b44ead6-13b6-40f1-beca-22f599394cb4","countryId":"country.10umxsb"},"geometry":{"type":"Polygon","coordinates":[[[29.3428,-5],[29.4556,-5.23],[29.4964,-5.3917],[29.5935,-5.6203],[29.603,-5.7817],[29.4761,-6.0021],[29.5255,-6.2731],[29.7386,-6.6524],[29.9691,-6.803],[30.2428,-6.5807],[30.2984,-6.4582],[30.3932,-6.3936],[30.3825,-6.2453],[30.304,-6.181],[30.1842,-5.9011],[30.1188,-5.5203],[30.0074,-5.3347],[30.2702,-5.3208],[30.4087,-5.1902],[30.7299,-5.1914],[30.9226,-5.2614],[31.0379,-5.4177],[31.0622,-5.4986],[31.2117,-5.4618],[31.2017,-5.153],[31.2503,-5.0181],[31.2276,-4.9592],[31.3977,-4.8321],[31.3868,-4.7273],[31.4909,-4.6205],[31.4166,-4.3563],[31.3471,-4.2195],[31.3376,-4.1078],[31.3762,-3.9669],[31.2983,-3.7525],[31.2179,-3.6364],[31.2054,-3.4644],[31.1103,-3.2201],[31.0054,-3.1444],[31.0689,-2.9386],[30.9821,-2.8387],[30.8188,-2.9905],[30.7832,-3.0621],[30.8322,-3.1728],[30.7998,-3.2746],[30.6103,-3.3764],[30.6129,-3.4449],[30.4689,-3.513],[30.3731,-3.7043],[30.2088,-3.9305],[30.1759,-4.04],[30.003,-4.2719],[29.9005,-4.3456],[29.8003,-4.3639],[29.7283,-4.4616],[29.4042,-4.4498],[29.4013,-4.5869],[29.321,-4.8363],[29.3428,-5]]]}},{"type":"Feature","properties":{"sourceId":"1159317325","regionId":"region.7dc76e34-fa29-4bd9-b2c9-257e25677300","countryId":"country.10umxsb"},"geometry":{"type":"Polygon","coordinates":[[[30.2945,-7.1494],[30.5778,-6.9457],[30.6867,-6.913],[30.9046,-6.9021],[30.9917,-6.9348],[31.0789,-7.218],[31.3839,-7.2398],[31.4383,-7.3052],[31.4928,-7.7082],[32.0102,-7.7891],[32.0201,-7.6683],[32.0943,-7.5344],[32.197,-7.4955],[32.2732,-7.3159],[32.2738,-7.2101],[32.5528,-7.1036],[32.5869,-6.9011],[32.5854,-6.693],[32.6145,-6.6007],[32.7371,-6.4472],[32.6986,-6.389],[32.5123,-6.3609],[32.4304,-6.257],[32.1783,-6.0768],[32.0531,-5.7709],[31.7978,-5.7186],[31.6182,-5.8268],[31.2752,-5.8015],[31.1623,-5.7601],[31.1343,-5.6356],[31.0401,-5.579],[31.0622,-5.4986],[31.0379,-5.4177],[30.9226,-5.2614],[30.7299,-5.1914],[30.4087,-5.1902],[30.2702,-5.3208],[30.0074,-5.3347],[30.1188,-5.5203],[30.1842,-5.9011],[30.304,-6.181],[30.3825,-6.2453],[30.3932,-6.3936],[30.2984,-6.4582],[30.2428,-6.5807],[29.9691,-6.803],[30.0909,-6.89],[30.2945,-7.1494]]]}},{"type":"Feature","properties":{"sourceId":"1159315005","regionId":"region.b1b12928-edde-42b9-859a-eca7b03cac3d","countryId":"country.10umxsb"},"geometry":{"type":"Polygon","coordinates":[[[30.7521,-8.1941],[30.8283,-8.3881],[30.9595,-8.5505],[31.1198,-8.6166],[31.2609,-8.624],[31.3533,-8.5872],[31.539,-8.7035],[31.5534,-8.8091],[31.6727,-8.913],[31.7876,-8.8922],[31.9366,-8.9326],[31.9177,-9.0225],[32.1456,-9.0703],[32.1495,-8.9499],[32.009,-8.7826],[32.0302,-8.7426],[32.2124,-8.6635],[32.2874,-8.5691],[32.2781,-8.3451],[32.5018,-8.2146],[32.5488,-8.36],[32.6321,-8.4649],[32.7423,-8.4048],[32.5113,-8.0987],[32.2788,-7.9287],[32.0102,-7.7891],[31.4928,-7.7082],[31.4383,-7.3052],[31.3839,-7.2398],[31.0789,-7.218],[30.9917,-6.9348],[30.9046,-6.9021],[30.6867,-6.913],[30.5778,-6.9457],[30.2945,-7.1494],[30.3696,-7.3102],[30.4416,-7.5963],[30.655,-7.9274],[30.7521,-8.1941]]]}},{"type":"Feature","properties":{"sourceId":"1159315015","regionId":"region.f9a0e20a-d5d1-47b7-9dd1-c8c0ae9b832d","countryId":"country.10umxsb"},"geometry":{"type":"Polygon","coordinates":[[[30.4718,-1.0668],[30.5553,-1.3184],[30.7375,-1.4067],[30.7329,-1.4764],[30.831,-1.5942],[30.8299,-1.9606],[30.8878,-2.0825],[30.8344,-2.3453],[30.6748,-2.3517],[30.5546,-2.4006],[30.416,-2.6456],[30.4505,-2.7418],[30.4158,-2.8517],[30.4883,-2.9432],[30.547,-2.9003],[30.7189,-2.9895],[30.8188,-2.9905],[30.9821,-2.8387],[30.8749,-2.6842],[30.9101,-2.5857],[31.0191,-2.5329],[31.1669,-2.2796],[31.3639,-2.2656],[31.5644,-2.3535],[31.7278,-2.2833],[31.7465,-2.1804],[31.8772,-2.148],[32.7039,-1.4688],[32.7223,-1.0026],[31.9862,-1.0026],[31.2805,-1.0026],[30.8284,-1.0026],[30.7771,-0.9858],[30.6386,-1.0734],[30.4718,-1.0668]]]}},{"type":"Feature","properties":{"sourceId":"1159315031","regionId":"region.5b193019-fa5a-4c5d-b01b-23b6a7e1b123","countryId":"country.10umxsb"},"geometry":{"type":"Polygon","coordinates":[[[40.4369,-10.4748],[40.4494,-10.3454],[40.3387,-10.3488],[40.2321,-10.2005],[40.0344,-10.1371],[39.9764,-10.1783],[39.6804,-10.3634],[39.591,-10.5735],[39.4984,-10.3832],[39.4217,-10.3349],[39.1659,-10.3895],[38.8029,-10.548],[38.7351,-10.5171],[38.58,-10.5379],[38.3142,-10.6463],[38.1679,-10.8047],[37.993,-10.817],[38.0243,-11.0202],[38.0934,-11.2563],[38.2566,-11.2771],[38.3477,-11.3588],[38.4923,-11.4135],[38.6542,-11.2758],[38.7597,-11.2632],[38.8963,-11.1677],[39.1262,-11.1397],[39.2866,-11.1541],[39.4827,-10.9992],[39.7605,-10.9431],[40.0081,-10.8111],[40.4369,-10.4748]]]}},{"type":"Feature","properties":{"sourceId":"1159315043","regionId":"region.556fa2f4-7c33-4236-bec7-0be86015d8a2","countryId":"country.10umxsb"},"geometry":{"type":"Polygon","coordinates":[[[34.7189,-1.4124],[34.0525,-1.0404],[33.9042,-1.0026],[33.6318,-1.0026],[33.4264,-1.0026],[32.8472,-1.0026],[32.7223,-1.0026],[32.7039,-1.4688],[32.7208,-1.4835],[33.3344,-1.4736],[33.4561,-1.5213],[33.4644,-1.6826],[33.3431,-1.7386],[33.3007,-1.8343],[33.3177,-2.0459],[33.3581,-2.1679],[33.5094,-2.1531],[33.6056,-2.1831],[33.7494,-2.086],[33.8311,-2.1721],[34.1696,-2.196],[34.2983,-2.2569],[34.4785,-2.4249],[34.6578,-2.4913],[35.2076,-2.487],[35.3012,-2.3496],[35.3274,-2.1874],[35.2249,-2.1012],[35.2464,-1.7068],[34.7189,-1.4124]]]}},{"type":"Feature","properties":{"sourceId":"1159315037","regionId":"region.f8563d30-435c-427a-86a0-dbdebd8090c9","countryId":"country.10umxsb"},"geometry":{"type":"Polygon","coordinates":[[[35.2464,-1.7068],[35.2249,-2.1012],[35.3274,-2.1874],[35.3012,-2.3496],[35.2076,-2.487],[35.2162,-2.5837],[35.1501,-2.8686],[35.0356,-2.9675],[34.9012,-2.8831],[34.8925,-3.5969],[34.7533,-3.7231],[34.7605,-3.8018],[34.8922,-3.9095],[35.0579,-3.8386],[35.1796,-3.7385],[35.313,-3.6912],[35.3794,-3.6243],[35.5319,-3.666],[35.7337,-3.6871],[35.7484,-3.8287],[35.8825,-3.6643],[35.9402,-3.6448],[36.2466,-4.1086],[36.5307,-4.0821],[36.501,-3.7842],[36.5771,-3.6654],[36.7424,-3.5913],[36.8284,-3.635],[37.0624,-3.491],[37.0603,-3.3096],[37.023,-3.2411],[36.8969,-3.1577],[36.9092,-2.9972],[37.0093,-2.9632],[37.1406,-2.8573],[37.2644,-2.8594],[37.4242,-2.9228],[36.7035,-2.5204],[36.0595,-2.161],[35.2464,-1.7068]]]}},{"type":"Feature","properties":{"sourceId":"1159315041","regionId":"region.f2de229f-528a-4551-92fd-679a693b8501","countryId":"country.10umxsb"},"geometry":{"type":"Polygon","coordinates":[[[37.4242,-2.9228],[37.2644,-2.8594],[37.1406,-2.8573],[37.0093,-2.9632],[36.9092,-2.9972],[36.8969,-3.1577],[37.023,-3.2411],[37.0603,-3.3096],[37.0624,-3.491],[37.2059,-3.4507],[37.288,-3.4946],[37.4674,-3.817],[37.4639,-3.9281],[37.5069,-4.075],[37.4968,-4.3835],[37.5299,-4.4401],[37.761,-4.5869],[37.9274,-4.568],[38.0299,-4.6386],[38.075,-4.6073],[38.4162,-4.12],[37.771,-3.6554],[37.7223,-3.54],[37.5991,-3.5134],[37.5903,-3.4041],[37.7001,-3.3144],[37.68,-3.1921],[37.6449,-3.046],[37.4242,-2.9228]]]}},{"type":"Feature","properties":{"sourceId":"1159315045","regionId":"region.21298e7c-fd6c-4981-8299-32a5fcf9ea84","countryId":"country.10umxsb"},"geometry":{"type":"Polygon","coordinates":[[[38.4162,-4.12],[38.075,-4.6073],[38.0299,-4.6386],[37.9715,-4.8056],[38.0404,-4.961],[37.7496,-5.0086],[37.5917,-4.9782],[37.3893,-5.2055],[37.3436,-5.4464],[37.2517,-5.5647],[37.1796,-5.7871],[37.0607,-5.8679],[37.0758,-5.9735],[37.215,-6.044],[37.3575,-5.9308],[37.3908,-5.7894],[37.5273,-5.8394],[37.6279,-5.9802],[37.8015,-5.8946],[37.9531,-5.8541],[38.147,-5.8581],[38.3438,-5.9814],[38.5555,-6.0182],[38.7167,-5.9493],[38.8003,-5.9631],[38.8325,-5.8156],[38.9988,-5.4653],[39.0742,-5.1863],[39.1387,-5.1032],[39.1304,-4.9181],[39.207,-4.8723],[39.1906,-4.6775],[38.4162,-4.12]]]}},{"type":"Feature","properties":{"sourceId":"1159315027","regionId":"region.7ae0bf85-ec66-414d-9ae9-68885999468e","countryId":"country.10umxsb"},"geometry":{"type":"Polygon","coordinates":[[[39.2847,-8.3186],[39.1833,-8.2857],[38.8022,-8.3826],[38.687,-8.3718],[38.6398,-8.4688],[38.5364,-8.495],[38.5038,-8.3597],[38.2892,-8.1759],[37.9917,-8.0799],[37.8012,-7.9434],[37.717,-8.028],[37.6284,-8.1875],[37.3686,-8.4994],[37.3819,-8.5721],[37.3056,-8.8092],[37.3595,-9.1423],[37.2578,-9.1978],[37.1431,-9.5612],[37.1056,-9.6791],[36.8773,-9.9539],[36.8712,-10.1595],[36.9206,-10.2012],[37.1623,-10.2929],[37.7175,-10.4269],[37.8217,-10.4985],[37.993,-10.817],[38.1679,-10.8047],[38.3142,-10.6463],[38.58,-10.5379],[38.7351,-10.5171],[38.8029,-10.548],[39.1659,-10.3895],[39.4217,-10.3349],[39.4984,-10.3832],[39.591,-10.5735],[39.6804,-10.3634],[39.9764,-10.1783],[39.9143,-10.0339],[39.7795,-9.9301],[39.794,-9.8124],[39.7523,-9.7486],[39.6507,-9.4448],[39.6438,-9.1891],[39.5837,-9.1062],[39.4933,-9.0795],[39.4919,-8.9384],[39.4089,-8.8702],[39.4391,-8.7555],[39.36,-8.6944],[39.3031,-8.5055],[39.2847,-8.3186]]]}},{"type":"Feature","properties":{"sourceId":"1159314979","regionId":"region.efe9dfc4-cd4b-4089-8dd5-bd46f58a3a76","countryId":"country.10umxsb"},"geometry":{"type":"MultiPolygon","coordinates":[[[[39.4347,-7.1817],[39.4077,-7.0278],[39.3578,-6.9602],[39.2462,-6.9535],[39.0789,-7.056],[39.1048,-6.9124],[39.0483,-6.7371],[39.1292,-6.5619],[39.0409,-6.4701],[38.9647,-6.4732],[38.8522,-6.3487],[38.8568,-6.1637],[38.778,-6.0307],[38.8003,-5.9631],[38.7167,-5.9493],[38.5555,-6.0182],[38.3438,-5.9814],[38.147,-5.8581],[37.9531,-5.8541],[37.8015,-5.8946],[37.9843,-6.194],[38.057,-6.2519],[38.0232,-6.6407],[38.1997,-6.705],[38.3037,-6.6919],[38.286,-6.8854],[38.3249,-6.9409],[38.4967,-6.9831],[38.5156,-7.043],[38.4323,-7.181],[38.3554,-7.2081],[38.3027,-7.3191],[38.3604,-7.5219],[38.1004,-7.5756],[38.0289,-7.5629],[37.8717,-7.6197],[37.8553,-7.8177],[37.8012,-7.9434],[37.9917,-8.0799],[38.2892,-8.1759],[38.5038,-8.3597],[38.5364,-8.495],[38.6398,-8.4688],[38.687,-8.3718],[38.8022,-8.3826],[39.1833,-8.2857],[39.2847,-8.3186],[39.4544,-8.0104],[39.4435,-7.8326],[39.2962,-7.6884],[39.2748,-7.5964],[39.304,-7.4485],[39.4347,-7.1817]]],[[[39.8957,-7.6376],[39.7972,-7.7919],[39.7153,-7.8116],[39.6219,-7.9392],[39.6499,-7.9939],[39.8233,-7.914],[39.8934,-7.7541],[39.8957,-7.6376]]]]}},{"type":"Feature","properties":{"sourceId":"1159315019","regionId":"region.35949be3-d4e0-4887-a8c2-756a835f19c3","countryId":"country.10umxsb"},"geometry":{"type":"Polygon","coordinates":[[[39.1292,-6.5619],[39.0483,-6.7371],[39.1048,-6.9124],[39.0789,-7.056],[39.2462,-6.9535],[39.3578,-6.9602],[39.4077,-7.0278],[39.4347,-7.1817],[39.5475,-7.1183],[39.5505,-6.9938],[39.4645,-6.8577],[39.2937,-6.8152],[39.2127,-6.6418],[39.1292,-6.5619]]]}},{"type":"Feature","properties":{"sourceId":"1159314983","regionId":"region.1ae98085-6dca-4199-8b12-3c5c5d56fe31","countryId":"country.10umxsb"},"geometry":{"type":"Polygon","coordinates":[[[39.3907,-6.0004],[39.2741,-6.0339],[39.3081,-6.2457],[39.3757,-6.3634],[39.5085,-6.4628],[39.5695,-6.4208],[39.5249,-6.1751],[39.4583,-6.1972],[39.3907,-6.0004]]]}},{"type":"Feature","properties":{"sourceId":"1159315505","regionId":"region.14593153-8359-4b59-b50f-fd509a7e549c","countryId":"country.10umxsb"},"geometry":{"type":"Polygon","coordinates":[[[39.1979,-6.0336],[39.2741,-6.0339],[39.3907,-6.0004],[39.3557,-5.8038],[39.1904,-5.9142],[39.1979,-6.0336]]]}},{"type":"Feature","properties":{"sourceId":"1159314985","regionId":"region.0bc788bd-a2b9-4447-bad8-56c7bf1b52fc","countryId":"country.10umxsb"},"geometry":{"type":"Polygon","coordinates":[[[39.3081,-6.2457],[39.2741,-6.0339],[39.1979,-6.0336],[39.177,-6.1579],[39.3081,-6.2457]]]}},{"type":"Feature","properties":{"sourceId":"1159314881","regionId":"region.1fd38f54-fe5a-4c00-b894-cdedcfb3e276","countryId":"country.10umxsb"},"geometry":{"type":"Polygon","coordinates":[[[39.8559,-5.1823],[39.7425,-5.1618],[39.6431,-5.414],[39.7961,-5.4068],[39.8559,-5.1823]]]}},{"type":"Feature","properties":{"sourceId":"1159314879","regionId":"region.94c6fb20-f592-4db0-b54b-9a58e33fd002","countryId":"country.10umxsb"},"geometry":{"type":"Polygon","coordinates":[[[39.7425,-5.1618],[39.8559,-5.1823],[39.8059,-4.9609],[39.6773,-4.9451],[39.7425,-5.1618]]]}},{"type":"Feature","properties":{"sourceId":"1159315021","regionId":"region.93feca4c-9da2-4a6d-853f-e968b69d8650","countryId":"country.10umxsb"},"geometry":{"type":"Polygon","coordinates":[[[37.8012,-7.9434],[37.8553,-7.8177],[37.8717,-7.6197],[38.0289,-7.5629],[38.1004,-7.5756],[38.3604,-7.5219],[38.3027,-7.3191],[38.3554,-7.2081],[38.4323,-7.181],[38.5156,-7.043],[38.4967,-6.9831],[38.3249,-6.9409],[38.286,-6.8854],[38.3037,-6.6919],[38.1997,-6.705],[38.0232,-6.6407],[38.057,-6.2519],[37.9843,-6.194],[37.8015,-5.8946],[37.6279,-5.9802],[37.5273,-5.8394],[37.3908,-5.7894],[37.3575,-5.9308],[37.215,-6.044],[37.0758,-5.9735],[37.0607,-5.8679],[36.8617,-6.0021],[36.8303,-6.1078],[36.8575,-6.3435],[36.7621,-6.4451],[36.6408,-6.779],[36.6409,-7.0035],[36.5588,-7.0541],[36.5035,-7.1883],[36.5222,-7.2855],[36.4778,-7.3704],[36.5173,-7.5008],[36.777,-7.5779],[36.8175,-7.652],[36.9683,-7.6538],[36.8474,-7.7838],[36.7658,-7.9563],[36.6901,-7.978],[36.5078,-7.9428],[36.3155,-8.0604],[36.3093,-8.1803],[36.182,-8.1894],[36.0945,-8.2424],[35.9482,-8.3992],[35.9107,-8.5029],[35.7174,-8.6369],[35.6273,-8.7308],[35.3412,-8.6881],[35.3654,-9.0086],[35.6802,-9.2469],[35.697,-9.3399],[35.7766,-9.3154],[35.8998,-9.1887],[35.9335,-9.3841],[35.8607,-9.5754],[35.7249,-9.7169],[35.7619,-9.8108],[35.9726,-9.8086],[36.0437,-9.7215],[36.1334,-9.751],[36.3644,-9.7273],[36.4928,-9.6132],[36.5642,-9.7622],[36.4784,-9.9136],[36.5716,-9.9592],[36.6642,-9.9089],[36.8686,-9.7125],[37.0687,-9.5829],[37.1431,-9.5612],[37.2578,-9.1978],[37.3595,-9.1423],[37.3056,-8.8092],[37.3819,-8.5721],[37.3686,-8.4994],[37.6284,-8.1875],[37.717,-8.028],[37.8012,-7.9434]]]}},{"type":"Feature","properties":{"sourceId":"1159315023","regionId":"region.937df0c8-cba3-4a0f-aa14-61f884034c22","countryId":"country.10umxsb"},"geometry":{"type":"Polygon","coordinates":[[[36.8617,-6.0021],[36.7251,-5.9558],[36.5701,-5.7488],[36.4449,-5.6813],[36.2442,-5.4578],[36.2372,-5.2927],[36.3121,-5.1197],[36.3607,-4.6759],[36.3062,-4.4814],[36.2992,-4.1848],[36.0491,-4.2553],[35.9529,-4.3515],[35.8204,-4.3624],[35.6362,-4.5002],[35.6613,-4.5684],[35.5103,-4.8616],[35.3409,-4.8545],[35.3194,-4.9489],[35.0755,-5.1158],[35.1397,-5.4047],[35.3385,-5.7003],[35.2869,-5.7525],[35.2109,-5.9519],[35.1855,-6.1579],[35.223,-6.3555],[35.196,-6.4773],[35.2137,-6.6485],[35.186,-6.7152],[35.06,-6.721],[35.0809,-6.9205],[35.1779,-6.9789],[35.443,-6.9332],[35.5391,-7.0056],[35.9828,-7.1306],[36.1099,-7.1257],[36.243,-7.1723],[36.3386,-7.327],[36.4778,-7.3704],[36.5222,-7.2855],[36.5035,-7.1883],[36.5588,-7.0541],[36.6409,-7.0035],[36.6408,-6.779],[36.7621,-6.4451],[36.8575,-6.3435],[36.8303,-6.1078],[36.8617,-6.0021]]]}},{"type":"Feature","properties":{"sourceId":"1159315039","regionId":"region.15c3109b-3728-48fb-910c-4fc1a0f3a4b8","countryId":"country.10umxsb"},"geometry":{"type":"Polygon","coordinates":[[[37.0607,-5.8679],[37.1796,-5.7871],[37.2517,-5.5647],[37.3436,-5.4464],[37.3893,-5.2055],[37.5917,-4.9782],[37.7496,-5.0086],[38.0404,-4.961],[37.9715,-4.8056],[38.0299,-4.6386],[37.9274,-4.568],[37.761,-4.5869],[37.5299,-4.4401],[37.4968,-4.3835],[37.5069,-4.075],[37.4639,-3.9281],[37.4674,-3.817],[37.288,-3.4946],[37.2059,-3.4507],[37.0624,-3.491],[36.8284,-3.635],[36.7424,-3.5913],[36.5771,-3.6654],[36.501,-3.7842],[36.5307,-4.0821],[36.2466,-4.1086],[35.9402,-3.6448],[35.8825,-3.6643],[35.7484,-3.8287],[35.7337,-3.6871],[35.5319,-3.666],[35.3794,-3.6243],[35.313,-3.6912],[35.1796,-3.7385],[35.0579,-3.8386],[34.8922,-3.9095],[35.017,-4.1076],[34.8692,-4.3811],[34.9825,-4.4715],[35.1448,-4.7235],[35.2436,-4.7614],[35.3409,-4.8545],[35.5103,-4.8616],[35.6613,-4.5684],[35.6362,-4.5002],[35.8204,-4.3624],[35.9529,-4.3515],[36.0491,-4.2553],[36.2992,-4.1848],[36.3062,-4.4814],[36.3607,-4.6759],[36.3121,-5.1197],[36.2372,-5.2927],[36.2442,-5.4578],[36.4449,-5.6813],[36.5701,-5.7488],[36.7251,-5.9558],[36.8617,-6.0021],[37.0607,-5.8679]]]}},{"type":"Feature","properties":{"sourceId":"1159315035","regionId":"region.29b46df3-fb64-4f36-8fb9-a73a81406d30","countryId":"country.10umxsb"},"geometry":{"type":"Polygon","coordinates":[[[35.3409,-4.8545],[35.2436,-4.7614],[35.1448,-4.7235],[34.9825,-4.4715],[34.8692,-4.3811],[35.017,-4.1076],[34.8922,-3.9095],[34.7605,-3.8018],[34.685,-3.8517],[34.4129,-3.9609],[34.2888,-4.0365],[34.2603,-4.146],[34.1736,-4.1579],[34.0789,-4.3392],[33.9601,-4.4925],[33.9518,-4.7541],[33.9159,-4.8506],[33.9418,-4.9878],[33.9294,-5.1505],[34.1208,-5.2735],[34.2313,-5.39],[34.0569,-5.5935],[34.112,-5.6867],[34.0645,-5.7496],[34.0029,-6.0689],[34.0153,-6.2189],[33.5186,-6.6206],[33.5283,-6.8546],[33.4849,-6.9428],[33.584,-7.1477],[33.7778,-7.3017],[33.8154,-7.4347],[33.9385,-7.499],[34.1089,-7.3944],[34.174,-7.3138],[34.358,-7.3258],[34.4265,-7.2181],[34.7207,-7.1571],[34.7695,-6.9901],[34.9195,-6.8897],[35.0809,-6.9205],[35.06,-6.721],[35.186,-6.7152],[35.2137,-6.6485],[35.196,-6.4773],[35.223,-6.3555],[35.1855,-6.1579],[35.2109,-5.9519],[35.2869,-5.7525],[35.3385,-5.7003],[35.1397,-5.4047],[35.0755,-5.1158],[35.3194,-4.9489],[35.3409,-4.8545]]]}},{"type":"Feature","properties":{"sourceId":"1159315013","regionId":"region.e91ea7ea-60fe-42e0-bde4-09a9bde8f19c","countryId":"country.10umxsb"},"geometry":{"type":"Polygon","coordinates":[[[34.2888,-4.0365],[34.224,-4.069],[33.984,-4.0221],[33.9099,-3.9588],[33.6758,-3.9333],[33.5955,-3.8796],[33.3864,-3.8896],[33.182,-3.9593],[33.0689,-3.9568],[32.983,-3.9053],[32.8637,-3.9106],[32.713,-3.9797],[32.7092,-4.0917],[32.6496,-4.1463],[32.7134,-4.2527],[32.6163,-4.2812],[32.5623,-4.1983],[32.4676,-4.2087],[32.4482,-4.3331],[32.3711,-4.3849],[32.2114,-4.317],[32.1283,-4.3331],[31.9717,-4.4302],[31.9592,-4.144],[31.8964,-4.0921],[31.6906,-4.0379],[31.6128,-4.2464],[31.4755,-4.2471],[31.4166,-4.3563],[31.4909,-4.6205],[31.3868,-4.7273],[31.3977,-4.8321],[31.2276,-4.9592],[31.2503,-5.0181],[31.2017,-5.153],[31.2117,-5.4618],[31.0622,-5.4986],[31.0401,-5.579],[31.1343,-5.6356],[31.1623,-5.7601],[31.2752,-5.8015],[31.6182,-5.8268],[31.7978,-5.7186],[32.0531,-5.7709],[32.1783,-6.0768],[32.4304,-6.257],[32.5123,-6.3609],[32.6986,-6.389],[32.7371,-6.4472],[32.6145,-6.6007],[32.5854,-6.693],[32.5869,-6.9011],[32.5528,-7.1036],[32.6905,-7.0938],[32.7923,-6.9469],[33.0362,-6.8669],[33.2677,-6.9556],[33.4849,-6.9428],[33.5283,-6.8546],[33.5186,-6.6206],[34.0153,-6.2189],[34.0029,-6.0689],[34.0645,-5.7496],[34.112,-5.6867],[34.0569,-5.5935],[34.2313,-5.39],[34.1208,-5.2735],[33.9294,-5.1505],[33.9418,-4.9878],[33.9159,-4.8506],[33.9518,-4.7541],[33.9601,-4.4925],[34.0789,-4.3392],[34.1736,-4.1579],[34.2603,-4.146],[34.2888,-4.0365]]]}},{"type":"Feature","properties":{"sourceId":"1159315025","regionId":"region.a841384b-7370-483f-846b-00fe20205768","countryId":"country.10umxsb"},"geometry":{"type":"Polygon","coordinates":[[[36.4778,-7.3704],[36.3386,-7.327],[36.243,-7.1723],[36.1099,-7.1257],[35.9828,-7.1306],[35.5391,-7.0056],[35.443,-6.9332],[35.1779,-6.9789],[35.0809,-6.9205],[34.9195,-6.8897],[34.7695,-6.9901],[34.7207,-7.1571],[34.4265,-7.2181],[34.358,-7.3258],[34.174,-7.3138],[34.1089,-7.3944],[33.9385,-7.499],[33.9804,-7.5346],[33.8688,-7.7251],[33.8946,-7.8369],[34.3599,-7.8136],[34.6388,-7.8922],[34.9096,-7.9351],[35.0635,-8.0356],[34.9164,-8.148],[34.8541,-8.2742],[34.7399,-8.3492],[34.6906,-8.434],[34.7325,-8.6052],[34.8741,-8.698],[35.1139,-8.7817],[35.1027,-8.9602],[35.1976,-9.0271],[35.3654,-9.0086],[35.3412,-8.6881],[35.6273,-8.7308],[35.7174,-8.6369],[35.9107,-8.5029],[35.9482,-8.3992],[36.0945,-8.2424],[36.182,-8.1894],[36.3093,-8.1803],[36.3155,-8.0604],[36.5078,-7.9428],[36.6901,-7.978],[36.7658,-7.9563],[36.8474,-7.7838],[36.9683,-7.6538],[36.8175,-7.652],[36.777,-7.5779],[36.5173,-7.5008],[36.4778,-7.3704]]]}},{"type":"Feature","properties":{"sourceId":"1159315007","regionId":"region.c69c384c-95db-4a1c-b86c-daff2fdbd614","countryId":"country.10umxsb"},"geometry":{"type":"Polygon","coordinates":[[[32.7039,-1.4688],[31.8772,-2.148],[31.9073,-2.2912],[31.9805,-2.4116],[32.245,-2.5804],[32.4138,-2.6085],[32.3604,-2.7098],[32.5348,-2.8111],[32.5095,-2.8871],[32.5967,-2.9603],[32.5104,-3.1978],[32.5338,-3.3711],[32.6493,-3.4466],[32.6808,-3.3197],[32.8621,-3.255],[32.964,-3.3629],[33.1099,-3.4326],[33.2139,-3.3275],[33.4229,-3.274],[33.5295,-2.9728],[33.4986,-2.8608],[33.6199,-2.7715],[33.7646,-2.7554],[33.7632,-2.6617],[33.6721,-2.6129],[33.4855,-2.4092],[33.3581,-2.1679],[33.3177,-2.0459],[33.3007,-1.8343],[33.3431,-1.7386],[33.4644,-1.6826],[33.4561,-1.5213],[33.3344,-1.4736],[32.7208,-1.4835],[32.7039,-1.4688]]]}},{"type":"Feature","properties":{"sourceId":"1159317329","regionId":"region.72c0e641-dc9d-4a36-a012-2dbf6a179b43","countryId":"country.10umxsb"},"geometry":{"type":"Polygon","coordinates":[[[35.2076,-2.487],[34.6578,-2.4913],[34.4785,-2.4249],[34.2983,-2.2569],[34.1696,-2.196],[33.8311,-2.1721],[33.7494,-2.086],[33.6056,-2.1831],[33.5094,-2.1531],[33.3581,-2.1679],[33.4855,-2.4092],[33.6721,-2.6129],[33.7632,-2.6617],[33.7646,-2.7554],[33.6199,-2.7715],[33.4986,-2.8608],[33.5295,-2.9728],[33.4229,-3.274],[33.594,-3.3886],[33.7318,-3.4442],[33.8033,-3.4177],[33.9093,-3.5157],[34.1583,-3.5502],[34.2669,-3.8151],[34.4129,-3.9609],[34.685,-3.8517],[34.7605,-3.8018],[34.7533,-3.7231],[34.8925,-3.5969],[34.9012,-2.8831],[35.0356,-2.9675],[35.1501,-2.8686],[35.2162,-2.5837],[35.2076,-2.487]]]}},{"type":"Feature","properties":{"sourceId":"1159317331","regionId":"region.de8c502e-71cc-49ec-8016-180cf864496f","countryId":"country.10umxsb"},"geometry":{"type":"Polygon","coordinates":[[[31.4166,-4.3563],[31.4755,-4.2471],[31.6128,-4.2464],[31.6906,-4.0379],[31.691,-3.9047],[31.8352,-3.7429],[31.9407,-3.6937],[32.1342,-3.6726],[32.1483,-3.5952],[32.1166,-3.3947],[32.1809,-3.2722],[32.2502,-3.2364],[32.3464,-3.3191],[32.4157,-3.2344],[32.5104,-3.1978],[32.5967,-2.9603],[32.5095,-2.8871],[32.5348,-2.8111],[32.3604,-2.7098],[32.4138,-2.6085],[32.245,-2.5804],[31.9805,-2.4116],[31.9073,-2.2912],[31.8772,-2.148],[31.7465,-2.1804],[31.7278,-2.2833],[31.5644,-2.3535],[31.3639,-2.2656],[31.1669,-2.2796],[31.0191,-2.5329],[30.9101,-2.5857],[30.8749,-2.6842],[30.9821,-2.8387],[31.0689,-2.9386],[31.0054,-3.1444],[31.1103,-3.2201],[31.2054,-3.4644],[31.2179,-3.6364],[31.2983,-3.7525],[31.3762,-3.9669],[31.3376,-4.1078],[31.3471,-4.2195],[31.4166,-4.3563]]]}},{"type":"Feature","properties":{"sourceId":"1159315009","regionId":"region.02aa042e-3e38-437c-8618-1dd327e7d473","countryId":"country.10umxsb"},"geometry":{"type":"Polygon","coordinates":[[[31.6906,-4.0379],[31.8964,-4.0921],[31.9592,-4.144],[31.9717,-4.4302],[32.1283,-4.3331],[32.2114,-4.317],[32.3711,-4.3849],[32.4482,-4.3331],[32.4676,-4.2087],[32.5623,-4.1983],[32.6163,-4.2812],[32.7134,-4.2527],[32.6496,-4.1463],[32.7092,-4.0917],[32.713,-3.9797],[32.8637,-3.9106],[32.983,-3.9053],[33.0689,-3.9568],[33.182,-3.9593],[33.3864,-3.8896],[33.5955,-3.8796],[33.6758,-3.9333],[33.9099,-3.9588],[33.984,-4.0221],[34.224,-4.069],[34.2888,-4.0365],[34.4129,-3.9609],[34.2669,-3.8151],[34.1583,-3.5502],[33.9093,-3.5157],[33.8033,-3.4177],[33.7318,-3.4442],[33.594,-3.3886],[33.4229,-3.274],[33.2139,-3.3275],[33.1099,-3.4326],[32.964,-3.3629],[32.8621,-3.255],[32.6808,-3.3197],[32.6493,-3.4466],[32.5338,-3.3711],[32.5104,-3.1978],[32.4157,-3.2344],[32.3464,-3.3191],[32.2502,-3.2364],[32.1809,-3.2722],[32.1166,-3.3947],[32.1483,-3.5952],[32.1342,-3.6726],[31.9407,-3.6937],[31.8352,-3.7429],[31.691,-3.9047],[31.6906,-4.0379]]]}}]}