{"type":"FeatureCollection","features":[{"type":"Feature","properties":{"sourceId":"1159310877","regionId":"region.8758847a-dd89-4e73-9c0b-564b7fa8c720","countryId":"country.1yl9unk"},"geometry":{"type":"Polygon","coordinates":[[[13.5895,45.4888],[13.66,45.46],[13.6628,45.507],[13.6109,45.538],[13.5895,45.4888]]]}},{"type":"Feature","properties":{"sourceId":"1159310895","regionId":"region.d0bda764-dbee-4ffd-90d8-174f4138ac61","countryId":"country.1yl9unk"},"geometry":{"type":"Polygon","coordinates":[[[16.2995,46.7795],[16.2577,46.78],[16.2106,46.745],[16.1787,46.6976],[16.2408,46.6536],[16.2979,46.6479],[16.3144,46.6451],[16.3562,46.6847],[16.3654,46.6967],[16.2995,46.7795]]]}},{"type":"Feature","properties":{"sourceId":"1159308539","regionId":"region.38209085-c1de-4ab6-a0ff-a2088bc0fc55","countryId":"country.1yl9unk"},"geometry":{"type":"Polygon","coordinates":[[[16.3111,46.7975],[16.2974,46.847],[16.1795,46.8585],[16.2577,46.78],[16.2995,46.7795],[16.3111,46.7975]]]}},{"type":"Feature","properties":{"sourceId":"1159308551","regionId":"region.dcdc5e88-271a-45ec-b9c4-c415d5ff3c2a","countryId":"country.1yl9unk"},"geometry":{"type":"Polygon","coordinates":[[[16.2974,46.847],[16.3111,46.7975],[16.3298,46.8344],[16.2974,46.847]]]}},{"type":"Feature","properties":{"sourceId":"1159309561","regionId":"region.b96aefb4-b1aa-49b6-96da-97a624d572cc","countryId":"country.1yl9unk"},"geometry":{"type":"Polygon","coordinates":[[[16.1795,46.8585],[16.1302,46.8567],[16.1252,46.833],[16.1364,46.8294],[16.2106,46.745],[16.2577,46.78],[16.1795,46.8585]]]}},{"type":"Feature","properties":{"sourceId":"1159308541","regionId":"region.2e59ecd8-dd2f-411d-858a-1fa5e4629193","countryId":"country.1yl9unk"},"geometry":{"type":"Polygon","coordinates":[[[16.094,46.8628],[16.0529,46.8461],[16.056,46.8161],[16.1252,46.833],[16.1302,46.8567],[16.094,46.8628]]]}},{"type":"Feature","properties":{"sourceId":"1159308687","regionId":"region.a42ffd51-7014-4ac6-8f9e-249c3b78e9b8","countryId":"country.1yl9unk"},"geometry":{"type":"Polygon","coordinates":[[[16.3722,46.6363],[16.3479,46.6153],[16.3785,46.5998],[16.3345,46.5565],[16.3403,46.5438],[16.5153,46.5017],[16.3722,46.6363]]]}},{"type":"Feature","properties":{"sourceId":"1159309551","regionId":"region.5a77daa5-99ba-4557-b103-6ec7f96759bf","countryId":"country.1yl9unk"},"geometry":{"type":"Polygon","coordinates":[[[16.4026,46.6631],[16.3562,46.6847],[16.3144,46.6451],[16.3479,46.6153],[16.3722,46.6363],[16.4026,46.6631]]]}},{"type":"Feature","properties":{"sourceId":"1159310893","regionId":"region.3bac8ee7-a9ae-417d-8020-4c5120c2cbb3","countryId":"country.1yl9unk"},"geometry":{"type":"Polygon","coordinates":[[[16.3662,46.6965],[16.3654,46.6967],[16.3562,46.6847],[16.4026,46.6631],[16.3662,46.6965]]]}},{"type":"Feature","properties":{"sourceId":"1159310833","regionId":"region.f3b0aff2-29cb-4988-9d2c-67e4cb24175c","countryId":"country.1yl9unk"},"geometry":{"type":"Polygon","coordinates":[[[13.6859,46.464],[13.8417,46.3822],[13.8479,46.3812],[13.9924,46.4448],[14.0149,46.4825],[13.701,46.5197],[13.6859,46.464]]]}},{"type":"Feature","properties":{"sourceId":"1159310855","regionId":"region.419623c4-0c5d-47d2-969c-348f4a1b5f1e","countryId":"country.1yl9unk"},"geometry":{"type":"Polygon","coordinates":[[[13.6859,46.464],[13.3956,46.3067],[13.7274,46.3017],[13.8417,46.3822],[13.6859,46.464]]]}},{"type":"Feature","properties":{"sourceId":"1159310867","regionId":"region.0601d377-5795-4712-ae6d-615355c4679f","countryId":"country.1yl9unk"},"geometry":{"type":"Polygon","coordinates":[[[13.3956,46.3067],[13.4101,46.208],[13.6274,46.1817],[13.7367,46.2861],[13.7274,46.3017],[13.3956,46.3067]]]}},{"type":"Feature","properties":{"sourceId":"1159310843","regionId":"region.be442918-3827-4fa0-9e0a-307d6655cb14","countryId":"country.1yl9unk"},"geometry":{"type":"Polygon","coordinates":[[[13.6411,46.1714],[13.7689,46.1016],[13.8659,46.007],[13.8949,46.0677],[13.9893,46.1946],[13.997,46.2393],[13.7367,46.2861],[13.6274,46.1817],[13.6411,46.1714]]]}},{"type":"Feature","properties":{"sourceId":"1159310865","regionId":"region.4bf31c60-c8e5-45ae-b26e-b724ad1a88df","countryId":"country.1yl9unk"},"geometry":{"type":"Polygon","coordinates":[[[13.5226,46.0753],[13.604,46.0129],[13.7689,46.1016],[13.6411,46.1714],[13.5226,46.0753]]]}},{"type":"Feature","properties":{"sourceId":"1159310857","regionId":"region.ec2253c6-75eb-4e11-8f65-ee041d8ec723","countryId":"country.1yl9unk"},"geometry":{"type":"Polygon","coordinates":[[[13.4618,46.0064],[13.6007,45.9846],[13.604,46.0129],[13.5226,46.0753],[13.4618,46.0064]]]}},{"type":"Feature","properties":{"sourceId":"1159308681","regionId":"region.4c09e39f-bc3f-45b4-b5de-bd46a60694d4","countryId":"country.1yl9unk"},"geometry":{"type":"Polygon","coordinates":[[[13.6153,45.9459],[13.647,45.8972],[13.7092,45.865],[13.834,45.8355],[13.7328,45.9059],[13.8523,46.002],[13.8659,46.007],[13.7689,46.1016],[13.604,46.0129],[13.6007,45.9846],[13.6153,45.9459]]]}},{"type":"Feature","properties":{"sourceId":"1159308683","regionId":"region.c60385f1-71fc-46ed-a308-cdca74d29dce","countryId":"country.1yl9unk"},"geometry":{"type":"Polygon","coordinates":[[[13.5993,45.9123],[13.647,45.8972],[13.6153,45.9459],[13.5993,45.9123]]]}},{"type":"Feature","properties":{"sourceId":"1159310875","regionId":"region.667f65b7-469f-465d-a15b-72ab138f5317","countryId":"country.1yl9unk"},"geometry":{"type":"Polygon","coordinates":[[[13.5742,45.819],[13.7092,45.865],[13.647,45.8972],[13.5993,45.9123],[13.5742,45.819]]]}},{"type":"Feature","properties":{"sourceId":"1159310869","regionId":"region.a6c37c0a-9408-46ca-91c9-cd31884ead7b","countryId":"country.1yl9unk"},"geometry":{"type":"Polygon","coordinates":[[[13.5885,45.8065],[13.6999,45.7705],[13.9025,45.8102],[13.8859,45.8287],[13.834,45.8355],[13.7092,45.865],[13.5742,45.819],[13.5885,45.8065]]]}},{"type":"Feature","properties":{"sourceId":"1159310879","regionId":"region.6a30d893-fb9a-4f49-aceb-881b5eb631c6","countryId":"country.1yl9unk"},"geometry":{"type":"Polygon","coordinates":[[[13.8936,45.6338],[13.9384,45.6426],[13.9899,45.765],[13.9025,45.8102],[13.6999,45.7705],[13.8936,45.6338]]]}},{"type":"Feature","properties":{"sourceId":"1159310861","regionId":"region.a526523c-0df8-4620-9923-ae79991bd10d","countryId":"country.1yl9unk"},"geometry":{"type":"Polygon","coordinates":[[[13.8679,45.6022],[13.9875,45.5119],[14.1167,45.473],[14.0898,45.6141],[13.9384,45.6426],[13.8936,45.6338],[13.8679,45.6022]]]}},{"type":"Feature","properties":{"sourceId":"1159310873","regionId":"region.d960ed97-09e2-4203-a843-e5acf969fa43","countryId":"country.1yl9unk"},"geometry":{"type":"Polygon","coordinates":[[[13.8679,45.6022],[13.7118,45.5932],[13.6751,45.5447],[13.6628,45.507],[13.66,45.46],[13.889,45.4236],[13.9875,45.5119],[13.8679,45.6022]]]}},{"type":"Feature","properties":{"sourceId":"1159310661","regionId":"region.84a721b1-a564-4f74-ad81-262852c632da","countryId":"country.1yl9unk"},"geometry":{"type":"Polygon","coordinates":[[[16.0284,46.8369],[15.971,46.7751],[16.0555,46.756],[16.0636,46.7642],[16.056,46.8161],[16.0529,46.8461],[16.0284,46.8369]]]}},{"type":"Feature","properties":{"sourceId":"1159309555","regionId":"region.a58bdf10-da30-4318-9d10-459aafa0607a","countryId":"country.1yl9unk"},"geometry":{"type":"Polygon","coordinates":[[[16.0167,46.6707],[16.0417,46.6627],[16.1103,46.6239],[16.1083,46.6904],[16.0555,46.756],[15.971,46.7751],[16.0167,46.6707]]]}},{"type":"Feature","properties":{"sourceId":"1159309559","regionId":"region.6a2fc129-75e6-4870-abcc-36b0354bd536","countryId":"country.1yl9unk"},"geometry":{"type":"Polygon","coordinates":[[[15.9676,46.6946],[15.8886,46.6628],[15.8881,46.6459],[15.9333,46.5964],[15.9559,46.5882],[15.9783,46.586],[16.0136,46.5937],[16.0417,46.6627],[16.0167,46.6707],[15.9676,46.6946]]]}},{"type":"Feature","properties":{"sourceId":"1159317883","regionId":"region.1dc84fe3-e395-4c2d-a39f-c0e531087248","countryId":"country.1yl9unk"},"geometry":{"type":"Polygon","coordinates":[[[15.9676,46.6946],[15.7846,46.7122],[15.8043,46.6998],[15.8886,46.6628],[15.9676,46.6946]]]}},{"type":"Feature","properties":{"sourceId":"1159310773","regionId":"region.050c22c7-12ec-4af1-be24-c3c3dca313fe","countryId":"country.1yl9unk"},"geometry":{"type":"Polygon","coordinates":[[[15.7846,46.7122],[15.6217,46.6782],[15.6457,46.6428],[15.7706,46.6343],[15.8002,46.6469],[15.8043,46.6998],[15.7846,46.7122]]]}},{"type":"Feature","properties":{"sourceId":"1159310713","regionId":"region.26010655-26de-42cd-bdf6-23e450fa4960","countryId":"country.1yl9unk"},"geometry":{"type":"Polygon","coordinates":[[[15.6217,46.6782],[15.5203,46.6477],[15.6471,46.5941],[15.6457,46.6428],[15.6217,46.6782]]]}},{"type":"Feature","properties":{"sourceId":"1159308671","regionId":"region.553faba2-57d2-4e52-879d-96b7cf4163c8","countryId":"country.1yl9unk"},"geometry":{"type":"Polygon","coordinates":[[[15.5139,46.6325],[15.5604,46.5621],[15.5638,46.5099],[15.6965,46.5121],[15.7317,46.5048],[15.7537,46.547],[15.7547,46.5733],[15.6471,46.5941],[15.5203,46.6477],[15.5139,46.6325]]]}},{"type":"Feature","properties":{"sourceId":"1159308625","regionId":"region.093cfedc-e74a-443c-9f7b-0610d648f61d","countryId":"country.1yl9unk"},"geometry":{"type":"Polygon","coordinates":[[[15.5139,46.6325],[15.4354,46.6272],[15.4434,46.5847],[15.4597,46.55],[15.5604,46.5621],[15.5139,46.6325]]]}},{"type":"Feature","properties":{"sourceId":"1159310761","regionId":"region.b43b8e2e-0101-4260-8273-5044dfcc328e","countryId":"country.1yl9unk"},"geometry":{"type":"Polygon","coordinates":[[[15.1726,46.6414],[15.1835,46.6195],[15.1993,46.5292],[15.2704,46.5726],[15.3328,46.6436],[15.1726,46.6414]]]}},{"type":"Feature","properties":{"sourceId":"1159310747","regionId":"region.83fd3be8-f5bb-4c2e-b5f5-0e94e9bc9582","countryId":"country.1yl9unk"},"geometry":{"type":"Polygon","coordinates":[[[15.1056,46.6463],[15.0857,46.6478],[15.1258,46.6012],[15.1835,46.6195],[15.1726,46.6414],[15.1056,46.6463]]]}},{"type":"Feature","properties":{"sourceId":"1159310685","regionId":"region.c660e83c-1868-4183-9dd0-550fbbed1c66","countryId":"country.1yl9unk"},"geometry":{"type":"Polygon","coordinates":[[[15.0857,46.6478],[14.9195,46.615],[15.0105,46.5504],[15.1034,46.57],[15.1258,46.6012],[15.0857,46.6478]]]}},{"type":"Feature","properties":{"sourceId":"1159308579","regionId":"region.753a5055-9e38-487a-acb0-acc28dba21d8","countryId":"country.1yl9unk"},"geometry":{"type":"Polygon","coordinates":[[[15.4354,46.6272],[15.3328,46.6436],[15.2704,46.5726],[15.3228,46.5107],[15.4434,46.5847],[15.4354,46.6272]]]}},{"type":"Feature","properties":{"sourceId":"1159308587","regionId":"region.57c53335-37d8-439a-aaa1-015384c8a005","countryId":"country.1yl9unk"},"geometry":{"type":"Polygon","coordinates":[[[14.8941,46.6052],[14.924,46.5048],[14.9656,46.4895],[15.0105,46.5504],[14.9195,46.615],[14.8941,46.6052]]]}},{"type":"Feature","properties":{"sourceId":"1159308623","regionId":"region.e769919c-e74f-4d06-b985-8ac36b5454fc","countryId":"country.1yl9unk"},"geometry":{"type":"Polygon","coordinates":[[[14.8941,46.6052],[14.8145,46.5513],[14.8995,46.5044],[14.924,46.5048],[14.8941,46.6052]]]}},{"type":"Feature","properties":{"sourceId":"1159310737","regionId":"region.8b1ecbbf-977b-4bba-a63c-a9b25ff3c2cb","countryId":"country.1yl9unk"},"geometry":{"type":"Polygon","coordinates":[[[14.7967,46.5194],[14.8995,46.5044],[14.8145,46.5513],[14.7967,46.5194]]]}},{"type":"Feature","properties":{"sourceId":"1159310679","regionId":"region.e3d2fca6-36ab-4989-8712-c347da62841b","countryId":"country.1yl9unk"},"geometry":{"type":"Polygon","coordinates":[[[14.7967,46.5194],[14.6725,46.4598],[14.7546,46.4215],[14.8041,46.4251],[14.8917,46.4235],[14.9563,46.4599],[14.9656,46.4895],[14.924,46.5048],[14.8995,46.5044],[14.7967,46.5194]]]}},{"type":"Feature","properties":{"sourceId":"1159310845","regionId":"region.2fe620f4-ff43-4cd6-9602-b07ee8f534cf","countryId":"country.1yl9unk"},"geometry":{"type":"Polygon","coordinates":[[[14.2423,46.4382],[14.2382,46.4253],[14.2672,46.3261],[14.3263,46.3214],[14.4055,46.3516],[14.4371,46.4189],[14.2423,46.4382]]]}},{"type":"Feature","properties":{"sourceId":"1159308679","regionId":"region.716beb13-856d-46c1-8888-ded2141142d5","countryId":"country.1yl9unk"},"geometry":{"type":"Polygon","coordinates":[[[14.1479,46.4404],[14.1279,46.4068],[14.1375,46.3722],[14.2382,46.4253],[14.2423,46.4382],[14.1479,46.4404]]]}},{"type":"Feature","properties":{"sourceId":"1159308677","regionId":"region.762d4fd4-544a-4ee2-9193-4ae31a47b58d","countryId":"country.1yl9unk"},"geometry":{"type":"Polygon","coordinates":[[[14.1479,46.4404],[14.0149,46.4825],[13.9924,46.4448],[14.1279,46.4068],[14.1479,46.4404]]]}},{"type":"Feature","properties":{"sourceId":"1159308661","regionId":"region.7e3fd083-744e-4934-9d94-f37b26be55c7","countryId":"country.1yl9unk"},"geometry":{"type":"Polygon","coordinates":[[[14.6725,46.4598],[14.5621,46.3917],[14.5687,46.3688],[14.6399,46.3664],[14.7546,46.4215],[14.6725,46.4598]]]}},{"type":"Feature","properties":{"sourceId":"1159308631","regionId":"region.8f7cf29e-9d3b-4ae4-a68f-8de01e9ca5d4","countryId":"country.1yl9unk"},"geometry":{"type":"Polygon","coordinates":[[[14.5621,46.3917],[14.4371,46.4189],[14.4055,46.3516],[14.5359,46.3603],[14.5687,46.3688],[14.5621,46.3917]]]}},{"type":"Feature","properties":{"sourceId":"1159308685","regionId":"region.27c30298-4be8-4a83-ac45-15f8fa7ecbb5","countryId":"country.1yl9unk"},"geometry":{"type":"Polygon","coordinates":[[[16.3403,46.5438],[16.3345,46.5565],[16.3285,46.5838],[16.3005,46.5973],[16.266,46.5691],[16.2475,46.5539],[16.3107,46.531],[16.3403,46.5438]]]}},{"type":"Feature","properties":{"sourceId":"1159308689","regionId":"region.cef3e8c4-04fd-4146-82a4-113f4828373a","countryId":"country.1yl9unk"},"geometry":{"type":"Polygon","coordinates":[[[16.3107,46.531],[16.2475,46.5539],[16.2168,46.5841],[16.1767,46.5601],[16.0778,46.5419],[16.0203,46.5113],[16.2342,46.4849],[16.2609,46.5136],[16.2776,46.5339],[16.3015,46.5271],[16.3107,46.531]]]}},{"type":"Feature","properties":{"sourceId":"1159308699","regionId":"region.c5a12498-5888-4d9f-bfde-22208e70f15e","countryId":"country.1yl9unk"},"geometry":{"type":"Polygon","coordinates":[[[16.3015,46.5271],[16.2776,46.5339],[16.2609,46.5136],[16.3015,46.5271]]]}},{"type":"Feature","properties":{"sourceId":"1159310901","regionId":"region.bb7c2ebe-7f17-481c-82b6-4902dbbfeda1","countryId":"country.1yl9unk"},"geometry":{"type":"Polygon","coordinates":[[[16.2342,46.4849],[16.0203,46.5113],[16.021,46.4907],[16.0261,46.4323],[16.0757,46.3845],[16.0887,46.3731],[16.2799,46.3787],[16.2342,46.4849]]]}},{"type":"Feature","properties":{"sourceId":"1159310909","regionId":"region.fdad941a-09c3-4a14-a5f2-b89af5c54202","countryId":"country.1yl9unk"},"geometry":{"type":"Polygon","coordinates":[[[16.0887,46.3731],[16.0757,46.3845],[16.0499,46.3167],[16.0887,46.3731]]]}},{"type":"Feature","properties":{"sourceId":"1159310887","regionId":"region.414439d2-f977-4052-9183-0388e2455725","countryId":"country.1yl9unk"},"geometry":{"type":"Polygon","coordinates":[[[16.0499,46.3167],[16.0757,46.3845],[16.0261,46.4323],[15.9831,46.4166],[15.9693,46.3619],[15.9937,46.2906],[16.0499,46.3167]]]}},{"type":"Feature","properties":{"sourceId":"1159308597","regionId":"region.9935ec84-abe1-42d6-8818-e3b1b59d2a04","countryId":"country.1yl9unk"},"geometry":{"type":"Polygon","coordinates":[[[15.9937,46.2906],[15.9693,46.3619],[15.9041,46.3936],[15.8695,46.384],[15.8315,46.3948],[15.8025,46.3549],[15.8011,46.3206],[15.8251,46.3085],[15.9189,46.2728],[15.9937,46.2906]]]}},{"type":"Feature","properties":{"sourceId":"1159308619","regionId":"region.85b24913-1a39-4267-b5d3-4206b925f5bc","countryId":"country.1yl9unk"},"geometry":{"type":"Polygon","coordinates":[[[15.9189,46.2728],[15.8251,46.3085],[15.8809,46.2593],[15.9189,46.2728]]]}},{"type":"Feature","properties":{"sourceId":"1159308617","regionId":"region.b36a0f74-1867-476f-bd4d-575068a0dcac","countryId":"country.1yl9unk"},"geometry":{"type":"Polygon","coordinates":[[[15.8809,46.2593],[15.8251,46.3085],[15.8011,46.3206],[15.7579,46.262],[15.7995,46.2486],[15.8793,46.2593],[15.8809,46.2593]]]}},{"type":"Feature","properties":{"sourceId":"1159310767","regionId":"region.fabc258e-8179-4950-8b3e-f8fcb0602da1","countryId":"country.1yl9unk"},"geometry":{"type":"Polygon","coordinates":[[[15.7995,46.2486],[15.7579,46.262],[15.7413,46.2661],[15.678,46.2145],[15.7995,46.2486]]]}},{"type":"Feature","properties":{"sourceId":"1159310765","regionId":"region.dfb608ae-76a5-4352-b276-ece9a9be1138","countryId":"country.1yl9unk"},"geometry":{"type":"Polygon","coordinates":[[[15.678,46.2145],[15.7413,46.2661],[15.6849,46.2741],[15.5658,46.2737],[15.6133,46.2043],[15.6266,46.1952],[15.678,46.2145]]]}},{"type":"Feature","properties":{"sourceId":"1159308577","regionId":"region.73f6aebd-d55c-4118-9d52-8902895c45c6","countryId":"country.1yl9unk"},"geometry":{"type":"Polygon","coordinates":[[[15.6266,46.1952],[15.6133,46.2043],[15.5455,46.1552],[15.536,46.1304],[15.6076,46.0659],[15.6236,46.0764],[15.6266,46.1952]]]}},{"type":"Feature","properties":{"sourceId":"1159308669","regionId":"region.422ac602-1571-4762-a014-3d1802956745","countryId":"country.1yl9unk"},"geometry":{"type":"Polygon","coordinates":[[[15.6236,46.0764],[15.6076,46.0659],[15.6678,46.0264],[15.6929,46.0416],[15.6236,46.0764]]]}},{"type":"Feature","properties":{"sourceId":"1159310665","regionId":"region.dc1631fe-8e6c-440b-882d-86504fd20e19","countryId":"country.1yl9unk"},"geometry":{"type":"Polygon","coordinates":[[[15.6929,46.0416],[15.6678,46.0264],[15.5837,45.994],[15.5497,45.8237],[15.6661,45.8317],[15.6754,45.9725],[15.6929,46.0416]]]}},{"type":"Feature","properties":{"sourceId":"1159310711","regionId":"region.b1d62d91-d8ee-45fa-9306-cf4eba67bbe7","countryId":"country.1yl9unk"},"geometry":{"type":"Polygon","coordinates":[[[15.5497,45.8237],[15.5837,45.994],[15.5594,46.0171],[15.4926,46.0677],[15.4184,46.0633],[15.363,45.9348],[15.361,45.8837],[15.4298,45.7757],[15.5497,45.8237]]]}},{"type":"Feature","properties":{"sourceId":"1159310775","regionId":"region.fadb53bc-b8fb-490a-9b28-96dabc318cae","countryId":"country.1yl9unk"},"geometry":{"type":"Polygon","coordinates":[[[15.4298,45.7757],[15.361,45.8837],[15.3037,45.8645],[15.331,45.7525],[15.4298,45.7757]]]}},{"type":"Feature","properties":{"sourceId":"1159308575","regionId":"region.ae970177-9c44-44ed-9385-09d31cccc913","countryId":"country.1yl9unk"},"geometry":{"type":"Polygon","coordinates":[[[15.331,45.7525],[15.3037,45.8645],[15.2386,45.9244],[15.1448,45.8733],[15.086,45.8061],[15.0581,45.7811],[15.1028,45.6844],[15.2281,45.7027],[15.2499,45.7137],[15.331,45.7525]]]}},{"type":"Feature","properties":{"sourceId":"1159310735","regionId":"region.3afbca5c-26cc-4f87-942b-9b052f4296ea","countryId":"country.1yl9unk"},"geometry":{"type":"Polygon","coordinates":[[[15.2499,45.7137],[15.2281,45.7027],[15.225,45.6083],[15.2822,45.5715],[15.35,45.6696],[15.2499,45.7137]]]}},{"type":"Feature","properties":{"sourceId":"1159310681","regionId":"region.7929984d-6ef2-4461-b68c-de8c3fa16086","countryId":"country.1yl9unk"},"geometry":{"type":"Polygon","coordinates":[[[15.2822,45.5715],[15.225,45.6083],[15.0736,45.6019],[15.0661,45.4739],[15.2258,45.4365],[15.2822,45.5715]]]}},{"type":"Feature","properties":{"sourceId":"1159308563","regionId":"region.1943d1b4-8de0-4db5-bd01-ae9ddc177508","countryId":"country.1yl9unk"},"geometry":{"type":"Polygon","coordinates":[[[15.0661,45.4739],[15.0736,45.6019],[15.0376,45.6313],[14.9821,45.7663],[14.8137,45.7577],[14.7959,45.7431],[14.7318,45.647],[14.7237,45.597],[14.8171,45.5013],[14.9773,45.4917],[15.0661,45.4739]]]}},{"type":"Feature","properties":{"sourceId":"1159308649","regionId":"region.7e6e2680-2d90-4413-aac4-da21d77c49e8","countryId":"country.1yl9unk"},"geometry":{"type":"Polygon","coordinates":[[[14.9773,45.4917],[14.8171,45.5013],[14.7237,45.597],[14.6637,45.5702],[14.8816,45.4698],[14.9773,45.4917]]]}},{"type":"Feature","properties":{"sourceId":"1159310725","regionId":"region.333c2fa0-c651-47d6-9831-3e82213719f4","countryId":"country.1yl9unk"},"geometry":{"type":"Polygon","coordinates":[[[14.6637,45.5702],[14.7237,45.597],[14.7318,45.647],[14.6463,45.7075],[14.5761,45.7353],[14.5375,45.7344],[14.5691,45.6643],[14.6637,45.5702]]]}},{"type":"Feature","properties":{"sourceId":"1159308569","regionId":"region.21e01417-fd61-41a2-a02d-bf58b7dcb3a1","countryId":"country.1yl9unk"},"geometry":{"type":"Polygon","coordinates":[[[14.5691,45.6643],[14.5375,45.7344],[14.4784,45.7479],[14.3862,45.7075],[14.4262,45.644],[14.4915,45.5792],[14.5691,45.6643]]]}},{"type":"Feature","properties":{"sourceId":"1159310701","regionId":"region.ae6a121f-30cd-4e48-bda0-47b907d5726f","countryId":"country.1yl9unk"},"geometry":{"type":"Polygon","coordinates":[[[14.4915,45.5792],[14.4262,45.644],[14.3473,45.6722],[14.0906,45.6242],[14.0898,45.6141],[14.1167,45.473],[14.1173,45.473],[14.3728,45.4778],[14.4915,45.5792]]]}},{"type":"Feature","properties":{"sourceId":"1159310863","regionId":"region.a90b8e4c-0c13-4859-a522-141bb23f7b45","countryId":"country.1yl9unk"},"geometry":{"type":"Polygon","coordinates":[[[13.6109,45.538],[13.6628,45.507],[13.6751,45.5447],[13.6109,45.538]]]}},{"type":"Feature","properties":{"sourceId":"1159310751","regionId":"region.1fd99f3e-b9a5-49ee-898f-a0d05cd2daf4","countryId":"country.1yl9unk"},"geometry":{"type":"Polygon","coordinates":[[[15.6471,46.5941],[15.7547,46.5733],[15.7706,46.6343],[15.6457,46.6428],[15.6471,46.5941]]]}},{"type":"Feature","properties":{"sourceId":"1159310687","regionId":"region.ed1998a8-3800-44be-b5fb-631f0f792dc3","countryId":"country.1yl9unk"},"geometry":{"type":"Polygon","coordinates":[[[15.7317,46.5048],[15.7331,46.5032],[15.7815,46.4677],[15.8163,46.4973],[15.7537,46.547],[15.7317,46.5048]]]}},{"type":"Feature","properties":{"sourceId":"1159308611","regionId":"region.a4e74f8f-7437-4f4f-880a-29efbbdf72db","countryId":"country.1yl9unk"},"geometry":{"type":"Polygon","coordinates":[[[15.6965,46.5121],[15.7095,46.465],[15.717,46.46],[15.7331,46.5032],[15.7317,46.5048],[15.6965,46.5121]]]}},{"type":"Feature","properties":{"sourceId":"1159308613","regionId":"region.28ec23f8-836a-49ce-901c-9d6b7a277962","countryId":"country.1yl9unk"},"geometry":{"type":"Polygon","coordinates":[[[15.6965,46.5121],[15.5638,46.5099],[15.5394,46.4974],[15.5458,46.4832],[15.7095,46.465],[15.6965,46.5121]]]}},{"type":"Feature","properties":{"sourceId":"1159308565","regionId":"region.c7e6be0f-dd4c-413f-8785-74d21c28a0fe","countryId":"country.1yl9unk"},"geometry":{"type":"Polygon","coordinates":[[[15.8002,46.6469],[15.7706,46.6343],[15.7547,46.5733],[15.7537,46.547],[15.8163,46.4973],[15.8234,46.4949],[15.8545,46.5063],[15.9241,46.5344],[15.9285,46.5419],[15.9559,46.5882],[15.9333,46.5964],[15.8628,46.611],[15.8002,46.6469]]]}},{"type":"Feature","properties":{"sourceId":"1159308547","regionId":"region.ef89014c-4420-4bdf-8f0a-63c2459d90cb","countryId":"country.1yl9unk"},"geometry":{"type":"Polygon","coordinates":[[[15.8002,46.6469],[15.8628,46.611],[15.8881,46.6459],[15.8886,46.6628],[15.8043,46.6998],[15.8002,46.6469]]]}},{"type":"Feature","properties":{"sourceId":"1159308627","regionId":"region.028b4af8-b4eb-4670-905b-e0902bbf1be7","countryId":"country.1yl9unk"},"geometry":{"type":"Polygon","coordinates":[[[15.4434,46.5847],[15.3228,46.5107],[15.3121,46.4925],[15.3157,46.4822],[15.3351,46.4774],[15.4082,46.4777],[15.4597,46.55],[15.4434,46.5847]]]}},{"type":"Feature","properties":{"sourceId":"1159308673","regionId":"region.579080be-7c91-43be-a941-ab4e6a5e123f","countryId":"country.1yl9unk"},"geometry":{"type":"Polygon","coordinates":[[[15.2704,46.5726],[15.1993,46.5292],[15.1888,46.5172],[15.1957,46.5109],[15.3121,46.4925],[15.3228,46.5107],[15.2704,46.5726]]]}},{"type":"Feature","properties":{"sourceId":"1159310785","regionId":"region.0b0ecaf8-dfd1-4525-bfd5-cfd1cb19f31a","countryId":"country.1yl9unk"},"geometry":{"type":"Polygon","coordinates":[[[14.9656,46.4895],[14.9563,46.4599],[15.0893,46.4265],[15.1236,46.422],[15.1957,46.5109],[15.1888,46.5172],[15.1034,46.57],[15.0105,46.5504],[14.9656,46.4895]]]}},{"type":"Feature","properties":{"sourceId":"1159310813","regionId":"region.5ff8b525-dc19-447f-807e-66a97732537c","countryId":"country.1yl9unk"},"geometry":{"type":"Polygon","coordinates":[[[15.1835,46.6195],[15.1258,46.6012],[15.1034,46.57],[15.1888,46.5172],[15.1993,46.5292],[15.1835,46.6195]]]}},{"type":"Feature","properties":{"sourceId":"1159308581","regionId":"region.887d0f25-4b40-4b13-b7c6-1f51e9b1358e","countryId":"country.1yl9unk"},"geometry":{"type":"Polygon","coordinates":[[[14.4672,46.2916],[14.544,46.312],[14.5359,46.3603],[14.4055,46.3516],[14.4172,46.2889],[14.4672,46.2916]]]}},{"type":"Feature","properties":{"sourceId":"1159310771","regionId":"region.fc7e85bc-79e3-46a6-9e1e-a9b543f12dfc","countryId":"country.1yl9unk"},"geometry":{"type":"Polygon","coordinates":[[[14.4172,46.2889],[14.4065,46.1918],[14.4587,46.1933],[14.4629,46.2061],[14.4672,46.2916],[14.4172,46.2889]]]}},{"type":"Feature","properties":{"sourceId":"1159310675","regionId":"region.838f4787-5edc-4c55-8b12-2643dfad2d91","countryId":"country.1yl9unk"},"geometry":{"type":"Polygon","coordinates":[[[14.4672,46.2916],[14.4629,46.2061],[14.5007,46.2029],[14.5525,46.2432],[14.544,46.312],[14.4672,46.2916]]]}},{"type":"Feature","properties":{"sourceId":"1159308561","regionId":"region.8dd9db21-f68e-447f-a3d1-b53348880052","countryId":"country.1yl9unk"},"geometry":{"type":"Polygon","coordinates":[[[14.544,46.312],[14.5525,46.2432],[14.5827,46.1981],[14.5901,46.1891],[14.6831,46.1992],[14.8989,46.2087],[14.9101,46.2105],[14.8849,46.2405],[14.8548,46.2529],[14.7057,46.2869],[14.6399,46.3664],[14.5687,46.3688],[14.5359,46.3603],[14.544,46.312]]]}},{"type":"Feature","properties":{"sourceId":"1159310731","regionId":"region.b0ef803e-312d-4199-a863-0845daa424b8","countryId":"country.1yl9unk"},"geometry":{"type":"Polygon","coordinates":[[[14.3938,46.1603],[14.325,46.0983],[14.4086,46.0829],[14.4692,46.1435],[14.4587,46.1933],[14.4065,46.1918],[14.3938,46.1603]]]}},{"type":"Feature","properties":{"sourceId":"1159310831","regionId":"region.fb2fe1ef-c28d-4c89-ba4a-41f6211b8dcf","countryId":"country.1yl9unk"},"geometry":{"type":"Polygon","coordinates":[[[14.4065,46.1918],[14.4172,46.2889],[14.4055,46.3516],[14.3263,46.3214],[14.2746,46.2749],[14.1791,46.2842],[14.1665,46.2813],[14.2486,46.243],[14.3938,46.1603],[14.4065,46.1918]]]}},{"type":"Feature","properties":{"sourceId":"1159310841","regionId":"region.dea7eaf0-e8f9-47c2-981d-c78d1ffb3689","countryId":"country.1yl9unk"},"geometry":{"type":"Polygon","coordinates":[[[14.2486,46.243],[14.162,46.1794],[14.2112,46.0881],[14.325,46.0983],[14.3938,46.1603],[14.2486,46.243]]]}},{"type":"Feature","properties":{"sourceId":"1159310847","regionId":"region.c47727a6-af48-4926-9755-b3f4e026f6fa","countryId":"country.1yl9unk"},"geometry":{"type":"Polygon","coordinates":[[[14.1665,46.2813],[13.997,46.2393],[13.9893,46.1946],[14.0737,46.1581],[14.162,46.1794],[14.2486,46.243],[14.1665,46.2813]]]}},{"type":"Feature","properties":{"sourceId":"1159310823","regionId":"region.fedfd637-b34e-4beb-afa2-a8aeb3c60909","countryId":"country.1yl9unk"},"geometry":{"type":"Polygon","coordinates":[[[14.1791,46.2842],[14.1111,46.3067],[13.8479,46.3812],[13.8417,46.3822],[13.7274,46.3017],[13.7367,46.2861],[13.997,46.2393],[14.1665,46.2813],[14.1791,46.2842]]]}},{"type":"Feature","properties":{"sourceId":"1159310837","regionId":"region.8014ef65-a23b-4a37-abf1-a6a18a74e836","countryId":"country.1yl9unk"},"geometry":{"type":"Polygon","coordinates":[[[14.3263,46.3214],[14.2672,46.3261],[14.2746,46.2749],[14.3263,46.3214]]]}},{"type":"Feature","properties":{"sourceId":"1159310839","regionId":"region.8f4a73a6-e7be-45f8-8708-7e84d9f3d0a5","countryId":"country.1yl9unk"},"geometry":{"type":"Polygon","coordinates":[[[14.1791,46.2842],[14.2746,46.2749],[14.2672,46.3261],[14.2382,46.4253],[14.1375,46.3722],[14.1111,46.3067],[14.1791,46.2842]]]}},{"type":"Feature","properties":{"sourceId":"1159310793","regionId":"region.5a68c4e9-36b5-4a2f-9bf4-7d61ace12166","countryId":"country.1yl9unk"},"geometry":{"type":"Polygon","coordinates":[[[14.9563,46.4599],[14.8917,46.4235],[14.9022,46.3939],[14.9999,46.3772],[15.0666,46.3517],[15.0893,46.4265],[14.9563,46.4599]]]}},{"type":"Feature","properties":{"sourceId":"1159310721","regionId":"region.ab9ce01f-0c56-4f44-94b2-842720493643","countryId":"country.1yl9unk"},"geometry":{"type":"Polygon","coordinates":[[[14.8917,46.4235],[14.8041,46.4251],[14.7808,46.3385],[14.8669,46.3155],[14.9022,46.3939],[14.8917,46.4235]]]}},{"type":"Feature","properties":{"sourceId":"1159308571","regionId":"region.b430c487-e05d-463a-b2f8-004ddd0bb250","countryId":"country.1yl9unk"},"geometry":{"type":"Polygon","coordinates":[[[14.8041,46.4251],[14.7546,46.4215],[14.6399,46.3664],[14.7057,46.2869],[14.7808,46.3385],[14.8041,46.4251]]]}},{"type":"Feature","properties":{"sourceId":"1159310729","regionId":"region.08c6ffc5-8b2e-4bdb-87a8-eaf13c5fab59","countryId":"country.1yl9unk"},"geometry":{"type":"Polygon","coordinates":[[[14.8989,46.2087],[14.6831,46.1992],[14.6838,46.144],[14.8284,46.1603],[14.8989,46.2087]]]}},{"type":"Feature","properties":{"sourceId":"1159308545","regionId":"region.526721d8-cf87-4e95-bbaa-2be18c9fefea","countryId":"country.1yl9unk"},"geometry":{"type":"Polygon","coordinates":[[[15.8628,46.611],[15.9333,46.5964],[15.8881,46.6459],[15.8628,46.611]]]}},{"type":"Feature","properties":{"sourceId":"1159310715","regionId":"region.6972d829-7533-4b24-afe2-6b24f83b7f66","countryId":"country.1yl9unk"},"geometry":{"type":"Polygon","coordinates":[[[15.3709,46.1357],[15.3633,46.1813],[15.3014,46.1889],[15.2164,46.1982],[15.1133,46.1834],[15.1634,46.0925],[15.2019,46.0608],[15.3684,46.0721],[15.3827,46.1082],[15.3709,46.1357]]]}},{"type":"Feature","properties":{"sourceId":"1159308663","regionId":"region.2a9ae5d8-22dd-4da8-b95e-98c327289836","countryId":"country.1yl9unk"},"geometry":{"type":"Polygon","coordinates":[[[15.3827,46.1082],[15.4201,46.1257],[15.4118,46.1521],[15.3709,46.1357],[15.3827,46.1082]]]}},{"type":"Feature","properties":{"sourceId":"1159308591","regionId":"region.1c62c5b3-d922-4bd5-b942-ba7ec2f8e601","countryId":"country.1yl9unk"},"geometry":{"type":"Polygon","coordinates":[[[15.5638,46.5099],[15.5604,46.5621],[15.4597,46.55],[15.4082,46.4777],[15.5394,46.4974],[15.5638,46.5099]]]}},{"type":"Feature","properties":{"sourceId":"1159310809","regionId":"region.6bd932a0-d910-4264-99c6-7dd90bcf1dde","countryId":"country.1yl9unk"},"geometry":{"type":"Polygon","coordinates":[[[14.4692,46.1435],[14.5139,46.1456],[14.5378,46.1742],[14.5007,46.2029],[14.4629,46.2061],[14.4587,46.1933],[14.4692,46.1435]]]}},{"type":"Feature","properties":{"sourceId":"1159308605","regionId":"region.3ec52daa-aaae-41ee-a65c-b7f2acc882f7","countryId":"country.1yl9unk"},"geometry":{"type":"Polygon","coordinates":[[[14.5378,46.1742],[14.5827,46.1981],[14.5525,46.2432],[14.5007,46.2029],[14.5378,46.1742]]]}},{"type":"Feature","properties":{"sourceId":"1159310733","regionId":"region.28fb9717-566d-44c6-a1b2-b7fd50bb539c","countryId":"country.1yl9unk"},"geometry":{"type":"Polygon","coordinates":[[[14.5139,46.1456],[14.5206,46.1324],[14.5898,46.1477],[14.5901,46.1891],[14.5827,46.1981],[14.5378,46.1742],[14.5139,46.1456]]]}},{"type":"Feature","properties":{"sourceId":"1159310811","regionId":"region.3bc4bc45-0f59-4cda-8fa3-adb2168626af","countryId":"country.1yl9unk"},"geometry":{"type":"Polygon","coordinates":[[[14.2441,46.0202],[14.1904,46.0247],[14.2992,45.8857],[14.3763,45.8715],[14.3656,45.9655],[14.3853,46.0322],[14.342,46.014],[14.2441,46.0202]]]}},{"type":"Feature","properties":{"sourceId":"1159308659","regionId":"region.14eb1310-c322-473d-8da9-a4d52779b592","countryId":"country.1yl9unk"},"geometry":{"type":"Polygon","coordinates":[[[14.2441,46.0202],[14.342,46.014],[14.3232,46.0427],[14.2441,46.0202]]]}},{"type":"Feature","properties":{"sourceId":"1159308543","regionId":"region.eb3fdc27-fd44-48cc-84ba-b39d637770e9","countryId":"country.1yl9unk"},"geometry":{"type":"Polygon","coordinates":[[[15.9285,46.5419],[15.9867,46.5467],[15.9783,46.586],[15.9559,46.5882],[15.9285,46.5419]]]}},{"type":"Feature","properties":{"sourceId":"1159308629","regionId":"region.187d4f9d-55de-41c5-9408-346b96c8869c","countryId":"country.1yl9unk"},"geometry":{"type":"Polygon","coordinates":[[[14.5206,46.1324],[14.5693,46.1078],[14.5898,46.1477],[14.5206,46.1324]]]}},{"type":"Feature","properties":{"sourceId":"1159310657","regionId":"region.ee43d68d-de58-4b59-831c-99382adbd314","countryId":"country.1yl9unk"},"geometry":{"type":"Polygon","coordinates":[[[16.1364,46.8294],[16.0636,46.7642],[16.0555,46.756],[16.1083,46.6904],[16.1787,46.6976],[16.2106,46.745],[16.1364,46.8294]]]}},{"type":"Feature","properties":{"sourceId":"1159308553","regionId":"region.b322b137-98ee-4cae-9abe-fbe05e93828a","countryId":"country.1yl9unk"},"geometry":{"type":"Polygon","coordinates":[[[16.1364,46.8294],[16.1252,46.833],[16.056,46.8161],[16.0636,46.7642],[16.1364,46.8294]]]}},{"type":"Feature","properties":{"sourceId":"1159310897","regionId":"region.21398bcc-49ab-48fd-a754-ea3c8eecdf0c","countryId":"country.1yl9unk"},"geometry":{"type":"Polygon","coordinates":[[[16.1787,46.6976],[16.1083,46.6904],[16.1103,46.6239],[16.1608,46.6059],[16.2408,46.6536],[16.1787,46.6976]]]}},{"type":"Feature","properties":{"sourceId":"1159308697","regionId":"region.baa39512-024e-4e22-bd1a-d17e17780aab","countryId":"country.1yl9unk"},"geometry":{"type":"Polygon","coordinates":[[[15.9241,46.5344],[15.9286,46.5041],[15.9472,46.4872],[16.0074,46.5244],[15.9867,46.5467],[15.9285,46.5419],[15.9241,46.5344]]]}},{"type":"Feature","properties":{"sourceId":"1159310669","regionId":"region.70df7eee-c3db-4513-924b-2e6f63432e0e","countryId":"country.1yl9unk"},"geometry":{"type":"Polygon","coordinates":[[[14.4289,46.029],[14.3853,46.0322],[14.3656,45.9655],[14.4175,45.8709],[14.4902,45.8809],[14.4451,45.9741],[14.4289,46.029]]]}},{"type":"Feature","properties":{"sourceId":"1159308557","regionId":"region.f87c1680-fffc-4340-b55a-a73d0e44e27d","countryId":"country.1yl9unk"},"geometry":{"type":"Polygon","coordinates":[[[14.4289,46.029],[14.4086,46.0829],[14.325,46.0983],[14.2112,46.0881],[14.1868,46.0379],[14.1904,46.0247],[14.2441,46.0202],[14.3232,46.0427],[14.342,46.014],[14.3853,46.0322],[14.4289,46.029]]]}},{"type":"Feature","properties":{"sourceId":"1159310827","regionId":"region.924e603b-7cc5-4536-a4bd-6420dcd0ee28","countryId":"country.1yl9unk"},"geometry":{"type":"Polygon","coordinates":[[[14.2112,46.0881],[14.162,46.1794],[14.0737,46.1581],[14.0301,46.0732],[14.1868,46.0379],[14.2112,46.0881]]]}},{"type":"Feature","properties":{"sourceId":"1159310723","regionId":"region.f12fabed-fa50-41df-9830-165acd0b483a","countryId":"country.1yl9unk"},"geometry":{"type":"Polygon","coordinates":[[[14.1868,46.0379],[14.1387,46.0058],[14.1209,45.8787],[14.126,45.8688],[14.2765,45.8461],[14.2992,45.8857],[14.1904,46.0247],[14.1868,46.0379]]]}},{"type":"Feature","properties":{"sourceId":"1159308615","regionId":"region.157ca3f2-79c7-4b65-b953-da0e692d5466","countryId":"country.1yl9unk"},"geometry":{"type":"Polygon","coordinates":[[[15.9241,46.5344],[15.8545,46.5063],[15.9286,46.5041],[15.9241,46.5344]]]}},{"type":"Feature","properties":{"sourceId":"1159308555","regionId":"region.aeab54c9-a7cd-4b40-879f-399732c988b9","countryId":"country.1yl9unk"},"geometry":{"type":"Polygon","coordinates":[[[15.8234,46.4949],[15.9443,46.4805],[15.9472,46.4872],[15.9286,46.5041],[15.8545,46.5063],[15.8234,46.4949]]]}},{"type":"Feature","properties":{"sourceId":"1159310757","regionId":"region.35ba2009-52af-4860-89f9-903cc05fbbdf","countryId":"country.1yl9unk"},"geometry":{"type":"Polygon","coordinates":[[[15.7095,46.465],[15.5458,46.4832],[15.6875,46.4086],[15.7345,46.4283],[15.717,46.46],[15.7095,46.465]]]}},{"type":"Feature","properties":{"sourceId":"1159310795","regionId":"region.45c9f1ef-de95-4863-8d48-efdf25e2b4ce","countryId":"country.1yl9unk"},"geometry":{"type":"Polygon","coordinates":[[[15.7331,46.5032],[15.717,46.46],[15.7345,46.4283],[15.8005,46.4316],[15.8186,46.4548],[15.7815,46.4677],[15.7331,46.5032]]]}},{"type":"Feature","properties":{"sourceId":"1159308641","regionId":"region.74128883-f3ba-4c01-b70a-b9f13e1772dc","countryId":"country.1yl9unk"},"geometry":{"type":"Polygon","coordinates":[[[14.9101,46.2105],[14.9707,46.1978],[15.01,46.258],[14.9703,46.2838],[14.8849,46.2405],[14.9101,46.2105]]]}},{"type":"Feature","properties":{"sourceId":"1159310805","regionId":"region.e6fa2b99-882f-4b86-b4c5-48e13e175ce7","countryId":"country.1yl9unk"},"geometry":{"type":"Polygon","coordinates":[[[15.1236,46.422],[15.0893,46.4265],[15.0666,46.3517],[15.1228,46.317],[15.1965,46.3277],[15.1903,46.3884],[15.1236,46.422]]]}},{"type":"Feature","properties":{"sourceId":"1159308647","regionId":"region.e8fcb9f6-0d6f-46ab-bcf8-4ae80e10d81d","countryId":"country.1yl9unk"},"geometry":{"type":"Polygon","coordinates":[[[15.0666,46.3517],[15.0513,46.3073],[15.095,46.2577],[15.104,46.255],[15.1228,46.317],[15.0666,46.3517]]]}},{"type":"Feature","properties":{"sourceId":"1159310791","regionId":"region.fe846e76-5f02-4e04-ba4b-c3aa4bab7337","countryId":"country.1yl9unk"},"geometry":{"type":"Polygon","coordinates":[[[14.9999,46.3772],[15.0084,46.3372],[15.0513,46.3073],[15.0666,46.3517],[14.9999,46.3772]]]}},{"type":"Feature","properties":{"sourceId":"1159310743","regionId":"region.e676d1c8-e1b6-4187-8bf0-6e56118de47f","countryId":"country.1yl9unk"},"geometry":{"type":"Polygon","coordinates":[[[14.8669,46.3155],[14.877,46.301],[14.9706,46.3029],[15.0084,46.3372],[14.9999,46.3772],[14.9022,46.3939],[14.8669,46.3155]]]}},{"type":"Feature","properties":{"sourceId":"1159310807","regionId":"region.f5c72ba7-c179-4505-81e4-abe378b68584","countryId":"country.1yl9unk"},"geometry":{"type":"Polygon","coordinates":[[[15.3312,46.3652],[15.3248,46.4512],[15.2325,46.3925],[15.2677,46.365],[15.3312,46.3652]]]}},{"type":"Feature","properties":{"sourceId":"1159308599","regionId":"region.0bc7ea20-c647-48f6-a6db-b7810487a3ec","countryId":"country.1yl9unk"},"geometry":{"type":"Polygon","coordinates":[[[15.2677,46.365],[15.2401,46.3205],[15.3585,46.2605],[15.3765,46.3113],[15.3688,46.334],[15.3312,46.3652],[15.2677,46.365]]]}},{"type":"Feature","properties":{"sourceId":"1159310819","regionId":"region.c15da1f4-634d-4afb-bfc1-28f9300fb263","countryId":"country.1yl9unk"},"geometry":{"type":"Polygon","coordinates":[[[15.3312,46.3652],[15.3688,46.334],[15.4252,46.3713],[15.4228,46.4246],[15.3351,46.4774],[15.3157,46.4822],[15.3248,46.4512],[15.3312,46.3652]]]}},{"type":"Feature","properties":{"sourceId":"1159310739","regionId":"region.faf19ec8-0806-4414-a9a6-391f71d73149","countryId":"country.1yl9unk"},"geometry":{"type":"Polygon","coordinates":[[[15.3121,46.4925],[15.1957,46.5109],[15.1236,46.422],[15.1903,46.3884],[15.2325,46.3925],[15.3248,46.4512],[15.3157,46.4822],[15.3121,46.4925]]]}},{"type":"Feature","properties":{"sourceId":"1159310815","regionId":"region.98fcd992-3642-4ff3-9f17-69ef579b9796","countryId":"country.1yl9unk"},"geometry":{"type":"Polygon","coordinates":[[[14.8348,46.137],[14.9999,46.1191],[14.9999,46.199],[14.9707,46.1978],[14.9101,46.2105],[14.8989,46.2087],[14.8284,46.1603],[14.8348,46.137]]]}},{"type":"Feature","properties":{"sourceId":"1159317881","regionId":"region.0e88cd24-f59d-4d58-bf3b-2e551f7b8649","countryId":"country.1yl9unk"},"geometry":{"type":"Polygon","coordinates":[[[14.8348,46.137],[14.754,46.1002],[14.7124,46.0793],[14.7361,46.0656],[14.8657,46.07],[14.9545,45.9751],[15.1161,46.0042],[15.0941,46.0403],[15.0715,46.0647],[14.9999,46.1191],[14.8348,46.137]]]}},{"type":"Feature","properties":{"sourceId":"1159310689","regionId":"region.a929b93e-39ed-4616-b6e8-06acc38efc1c","countryId":"country.1yl9unk"},"geometry":{"type":"Polygon","coordinates":[[[14.8669,46.3155],[14.7808,46.3385],[14.7057,46.2869],[14.8548,46.2529],[14.877,46.301],[14.8669,46.3155]]]}},{"type":"Feature","properties":{"sourceId":"1159310677","regionId":"region.e5fbb670-563b-4a69-a9d5-9774fdb0415a","countryId":"country.1yl9unk"},"geometry":{"type":"Polygon","coordinates":[[[14.4902,45.8809],[14.4175,45.8709],[14.3763,45.8715],[14.2992,45.8857],[14.2765,45.8461],[14.3232,45.7541],[14.3862,45.7075],[14.4784,45.7479],[14.5051,45.8408],[14.4902,45.8809]]]}},{"type":"Feature","properties":{"sourceId":"1159310803","regionId":"region.fc8f52ce-70a8-45e2-adba-c12496005d0e","countryId":"country.1yl9unk"},"geometry":{"type":"Polygon","coordinates":[[[14.5051,45.8408],[14.5642,45.7901],[14.587,45.7934],[14.6877,45.818],[14.6402,45.8748],[14.6009,45.9089],[14.5853,45.8963],[14.4902,45.8809],[14.5051,45.8408]]]}},{"type":"Feature","properties":{"sourceId":"1159310663","regionId":"region.f2503c93-abd7-4ae3-9477-bca2a8a8be85","countryId":"country.1yl9unk"},"geometry":{"type":"Polygon","coordinates":[[[14.3763,45.8715],[14.4175,45.8709],[14.3656,45.9655],[14.3763,45.8715]]]}},{"type":"Feature","properties":{"sourceId":"1159310755","regionId":"region.6246c329-9b66-40d6-8719-ea542fe27d0e","countryId":"country.1yl9unk"},"geometry":{"type":"Polygon","coordinates":[[[14.2765,45.8461],[14.126,45.8688],[14.046,45.8369],[14.0372,45.761],[14.0934,45.7143],[14.3232,45.7541],[14.2765,45.8461]]]}},{"type":"Feature","properties":{"sourceId":"1159310753","regionId":"region.f445f169-34f0-45f0-81bf-beafc545e8d1","countryId":"country.1yl9unk"},"geometry":{"type":"Polygon","coordinates":[[[14.3232,45.7541],[14.0934,45.7143],[14.0906,45.6242],[14.3473,45.6722],[14.4262,45.644],[14.3862,45.7075],[14.3232,45.7541]]]}},{"type":"Feature","properties":{"sourceId":"1159308635","regionId":"region.7cae6aad-5cbf-4078-ac6e-12af120c33f9","countryId":"country.1yl9unk"},"geometry":{"type":"Polygon","coordinates":[[[15.2677,46.365],[15.2325,46.3925],[15.1903,46.3884],[15.1965,46.3277],[15.2261,46.3174],[15.2401,46.3205],[15.2677,46.365]]]}},{"type":"Feature","properties":{"sourceId":"1159310671","regionId":"region.d4ff7aaa-dd4a-484e-adc2-858f2dcb3877","countryId":"country.1yl9unk"},"geometry":{"type":"Polygon","coordinates":[[[15.2261,46.3174],[15.2164,46.1982],[15.3014,46.1889],[15.3394,46.229],[15.3585,46.2605],[15.2401,46.3205],[15.2261,46.3174]]]}},{"type":"Feature","properties":{"sourceId":"1159310749","regionId":"region.3946c7cc-b881-4940-ad8e-3052cbb86e23","countryId":"country.1yl9unk"},"geometry":{"type":"Polygon","coordinates":[[[14.8849,46.2405],[14.9703,46.2838],[14.9706,46.3029],[14.877,46.301],[14.8548,46.2529],[14.8849,46.2405]]]}},{"type":"Feature","properties":{"sourceId":"1159308559","regionId":"region.ae2406e1-e28b-4311-acd4-60430e0f5264","countryId":"country.1yl9unk"},"geometry":{"type":"Polygon","coordinates":[[[14.5898,46.1477],[14.5693,46.1078],[14.5943,46.0966],[14.6872,46.1173],[14.6838,46.144],[14.6831,46.1992],[14.5901,46.1891],[14.5898,46.1477]]]}},{"type":"Feature","properties":{"sourceId":"1159310703","regionId":"region.9b12d9e8-8542-4ed4-ab97-bb9692f3d1d2","countryId":"country.1yl9unk"},"geometry":{"type":"Polygon","coordinates":[[[14.7402,45.9981],[14.7518,45.8833],[14.8046,45.7975],[14.8772,45.8696],[14.9273,45.963],[14.7496,46.003],[14.7402,45.9981]]]}},{"type":"Feature","properties":{"sourceId":"1159310719","regionId":"region.999ab035-5263-471a-b807-262273695899","countryId":"country.1yl9unk"},"geometry":{"type":"Polygon","coordinates":[[[14.7496,46.003],[14.7361,46.0656],[14.7124,46.0793],[14.5943,46.0966],[14.5693,46.1078],[14.5206,46.1324],[14.5139,46.1456],[14.4692,46.1435],[14.4086,46.0829],[14.4289,46.029],[14.4451,45.9741],[14.5333,45.9902],[14.6162,45.9967],[14.7402,45.9981],[14.7496,46.003]]]}},{"type":"Feature","properties":{"sourceId":"1159310717","regionId":"region.f50d2ef6-3d85-41a1-834a-ac58ecae4aba","countryId":"country.1yl9unk"},"geometry":{"type":"Polygon","coordinates":[[[14.7496,46.003],[14.9273,45.963],[14.9545,45.9751],[14.8657,46.07],[14.7361,46.0656],[14.7496,46.003]]]}},{"type":"Feature","properties":{"sourceId":"1159310699","regionId":"region.c2d5b4c7-46da-460e-b881-4b7b43cf8619","countryId":"country.1yl9unk"},"geometry":{"type":"Polygon","coordinates":[[[14.5333,45.9902],[14.4451,45.9741],[14.4902,45.8809],[14.5853,45.8963],[14.5333,45.9902]]]}},{"type":"Feature","properties":{"sourceId":"1159310683","regionId":"region.0f11600b-6e8d-4566-9067-fde1aaba3ab4","countryId":"country.1yl9unk"},"geometry":{"type":"Polygon","coordinates":[[[14.754,46.1002],[14.6872,46.1173],[14.5943,46.0966],[14.7124,46.0793],[14.754,46.1002]]]}},{"type":"Feature","properties":{"sourceId":"1159308645","regionId":"region.2e3418ab-797f-4596-966b-96d965e5604c","countryId":"country.1yl9unk"},"geometry":{"type":"Polygon","coordinates":[[[15.095,46.2577],[15.0511,46.2261],[15.0451,46.1933],[15.111,46.1873],[15.104,46.255],[15.095,46.2577]]]}},{"type":"Feature","properties":{"sourceId":"1159310741","regionId":"region.55743e4a-92af-41dd-b966-25920f67f452","countryId":"country.1yl9unk"},"geometry":{"type":"Polygon","coordinates":[[[14.8348,46.137],[14.8284,46.1603],[14.6838,46.144],[14.6872,46.1173],[14.754,46.1002],[14.8348,46.137]]]}},{"type":"Feature","properties":{"sourceId":"1159308665","regionId":"region.baeb2fd6-4f86-4763-aa55-2217a26c975b","countryId":"country.1yl9unk"},"geometry":{"type":"Polygon","coordinates":[[[14.7518,45.8833],[14.6402,45.8748],[14.6877,45.818],[14.7959,45.7431],[14.8137,45.7577],[14.8046,45.7975],[14.7518,45.8833]]]}},{"type":"Feature","properties":{"sourceId":"1159310759","regionId":"region.fee5c79d-daf0-4fc4-b7a2-fffab3fd0dd2","countryId":"country.1yl9unk"},"geometry":{"type":"Polygon","coordinates":[[[15.0941,46.0403],[15.2019,46.0608],[15.1634,46.0925],[15.1063,46.0935],[15.0715,46.0647],[15.0941,46.0403]]]}},{"type":"Feature","properties":{"sourceId":"1159310797","regionId":"region.7880c253-0a9a-493a-abea-2cda073b4f14","countryId":"country.1yl9unk"},"geometry":{"type":"Polygon","coordinates":[[[15.3394,46.229],[15.3014,46.1889],[15.3633,46.1813],[15.3394,46.229]]]}},{"type":"Feature","properties":{"sourceId":"1159310787","regionId":"region.0e14eb9c-226f-4908-b777-ee20d8555337","countryId":"country.1yl9unk"},"geometry":{"type":"Polygon","coordinates":[[[15.3765,46.3113],[15.53,46.2766],[15.5525,46.2777],[15.503,46.3595],[15.4252,46.3713],[15.3688,46.334],[15.3765,46.3113]]]}},{"type":"Feature","properties":{"sourceId":"1159310849","regionId":"region.326d0949-eeed-4949-9b64-e31fd97359d2","countryId":"country.1yl9unk"},"geometry":{"type":"Polygon","coordinates":[[[14.1868,46.0379],[14.0301,46.0732],[14.1387,46.0058],[14.1868,46.0379]]]}},{"type":"Feature","properties":{"sourceId":"1159308607","regionId":"region.7cab61e0-18ed-41ac-b0b3-5c5e746dc945","countryId":"country.1yl9unk"},"geometry":{"type":"Polygon","coordinates":[[[15.4252,46.3713],[15.503,46.3595],[15.4228,46.4246],[15.4252,46.3713]]]}},{"type":"Feature","properties":{"sourceId":"1159310825","regionId":"region.e65ecc15-65eb-4d48-8202-db0663b70f42","countryId":"country.1yl9unk"},"geometry":{"type":"Polygon","coordinates":[[[14.0737,46.1581],[13.9893,46.1946],[13.8949,46.0677],[14.0301,46.0732],[14.0737,46.1581]]]}},{"type":"Feature","properties":{"sourceId":"1159310821","regionId":"region.b3f4d3a2-0023-474e-ba90-9bd734e51e7f","countryId":"country.1yl9unk"},"geometry":{"type":"Polygon","coordinates":[[[13.8479,46.3812],[14.1111,46.3067],[14.1375,46.3722],[14.1279,46.4068],[13.9924,46.4448],[13.8479,46.3812]]]}},{"type":"Feature","properties":{"sourceId":"1159310851","regionId":"region.4df42e0b-6c61-4545-bf5b-7a76235fe685","countryId":"country.1yl9unk"},"geometry":{"type":"Polygon","coordinates":[[[14.1209,45.8787],[13.8523,46.002],[13.7328,45.9059],[13.834,45.8355],[13.8859,45.8287],[14.046,45.8369],[14.126,45.8688],[14.1209,45.8787]]]}},{"type":"Feature","properties":{"sourceId":"1159310859","regionId":"region.48899cbf-6eba-44f6-9615-306bd116b16e","countryId":"country.1yl9unk"},"geometry":{"type":"Polygon","coordinates":[[[14.0372,45.761],[13.9899,45.765],[13.9384,45.6426],[14.0898,45.6141],[14.0906,45.6242],[14.0934,45.7143],[14.0372,45.761]]]}},{"type":"Feature","properties":{"sourceId":"1159310829","regionId":"region.3aa02656-7140-4afc-8fcd-9990a6d0bdd1","countryId":"country.1yl9unk"},"geometry":{"type":"Polygon","coordinates":[[[14.1387,46.0058],[14.0301,46.0732],[13.8949,46.0677],[13.8659,46.007],[13.8523,46.002],[14.1209,45.8787],[14.1387,46.0058]]]}},{"type":"Feature","properties":{"sourceId":"1159310881","regionId":"region.22ec1e2a-0cb7-4c77-9ec1-bc1ebe00c8b4","countryId":"country.1yl9unk"},"geometry":{"type":"Polygon","coordinates":[[[14.046,45.8369],[13.8859,45.8287],[13.9025,45.8102],[13.9899,45.765],[14.0372,45.761],[14.046,45.8369]]]}},{"type":"Feature","properties":{"sourceId":"1159308667","regionId":"region.612f9086-febf-4d1a-915b-cad01b240c12","countryId":"country.1yl9unk"},"geometry":{"type":"Polygon","coordinates":[[[14.5051,45.8408],[14.4784,45.7479],[14.5375,45.7344],[14.5761,45.7353],[14.5642,45.7901],[14.5051,45.8408]]]}},{"type":"Feature","properties":{"sourceId":"1159308593","regionId":"region.f8098d22-ecfd-475f-a53d-110bed054670","countryId":"country.1yl9unk"},"geometry":{"type":"Polygon","coordinates":[[[15.3633,46.1813],[15.3709,46.1357],[15.4118,46.1521],[15.4201,46.1257],[15.3827,46.1082],[15.3684,46.0721],[15.4184,46.0633],[15.4926,46.0677],[15.536,46.1304],[15.5455,46.1552],[15.53,46.2766],[15.3765,46.3113],[15.3585,46.2605],[15.3394,46.229],[15.3633,46.1813]]]}},{"type":"Feature","properties":{"sourceId":"1159310707","regionId":"region.8066391c-8da5-4006-8db8-f3060498a240","countryId":"country.1yl9unk"},"geometry":{"type":"Polygon","coordinates":[[[15.536,46.1304],[15.4926,46.0677],[15.5594,46.0171],[15.5993,46.0223],[15.5837,45.994],[15.6678,46.0264],[15.6076,46.0659],[15.536,46.1304]]]}},{"type":"Feature","properties":{"sourceId":"1159310789","regionId":"region.a8395eff-17d0-41fc-9d2a-fa0fe8c6606c","countryId":"country.1yl9unk"},"geometry":{"type":"Polygon","coordinates":[[[15.53,46.2766],[15.5455,46.1552],[15.6133,46.2043],[15.5658,46.2737],[15.5525,46.2777],[15.53,46.2766]]]}},{"type":"Feature","properties":{"sourceId":"1159310777","regionId":"region.b2da9004-2cec-4e65-9045-425191c68895","countryId":"country.1yl9unk"},"geometry":{"type":"Polygon","coordinates":[[[15.3684,46.0721],[15.2019,46.0608],[15.0941,46.0403],[15.1161,46.0042],[15.2386,45.9244],[15.363,45.9348],[15.4184,46.0633],[15.3684,46.0721]]]}},{"type":"Feature","properties":{"sourceId":"1159308643","regionId":"region.918b716f-5635-40f6-bab0-9c8d1c1a9124","countryId":"country.1yl9unk"},"geometry":{"type":"Polygon","coordinates":[[[15.1448,45.8733],[15.0373,45.8409],[15.086,45.8061],[15.1448,45.8733]]]}},{"type":"Feature","properties":{"sourceId":"1159310801","regionId":"region.ec919f99-3568-4a14-9cb9-d004cfda3364","countryId":"country.1yl9unk"},"geometry":{"type":"Polygon","coordinates":[[[15.1448,45.8733],[15.2386,45.9244],[15.1161,46.0042],[14.9545,45.9751],[14.9273,45.963],[14.8772,45.8696],[15.0373,45.8409],[15.1448,45.8733]]]}},{"type":"Feature","properties":{"sourceId":"1159308633","regionId":"region.4aa55518-69c4-4f36-84ad-5ab2f08cd074","countryId":"country.1yl9unk"},"geometry":{"type":"Polygon","coordinates":[[[15.0373,45.8409],[14.8772,45.8696],[14.8046,45.7975],[14.8137,45.7577],[14.9821,45.7663],[15.0581,45.7811],[15.086,45.8061],[15.0373,45.8409]]]}},{"type":"Feature","properties":{"sourceId":"1159310905","regionId":"region.215d6952-9864-47b3-baf2-bd36fa7b4b4e","countryId":"country.1yl9unk"},"geometry":{"type":"Polygon","coordinates":[[[16.3479,46.6153],[16.3144,46.6451],[16.2979,46.6479],[16.3005,46.5973],[16.3285,46.5838],[16.3785,46.5998],[16.3479,46.6153]]]}},{"type":"Feature","properties":{"sourceId":"1159310659","regionId":"region.22763bb6-17a5-4a85-a3a7-2a9c09b95a22","countryId":"country.1yl9unk"},"geometry":{"type":"Polygon","coordinates":[[[16.0136,46.5937],[16.0793,46.5932],[16.1103,46.6239],[16.0417,46.6627],[16.0136,46.5937]]]}},{"type":"Feature","properties":{"sourceId":"1159310903","regionId":"region.bb181d81-91a0-4fd4-8cbf-9c93b607cecd","countryId":"country.1yl9unk"},"geometry":{"type":"Polygon","coordinates":[[[15.9783,46.586],[15.9867,46.5467],[16.0074,46.5244],[16.0203,46.5113],[16.0778,46.5419],[16.0793,46.5932],[16.0136,46.5937],[15.9783,46.586]]]}},{"type":"Feature","properties":{"sourceId":"1159308701","regionId":"region.fbf122fc-d752-4229-9488-10ceb7613f97","countryId":"country.1yl9unk"},"geometry":{"type":"Polygon","coordinates":[[[16.3785,46.5998],[16.3285,46.5838],[16.3345,46.5565],[16.3785,46.5998]]]}},{"type":"Feature","properties":{"sourceId":"1159310883","regionId":"region.601d2dc1-75df-4abd-8493-3439f747e6c6","countryId":"country.1yl9unk"},"geometry":{"type":"Polygon","coordinates":[[[16.1608,46.6059],[16.2168,46.5841],[16.2475,46.5539],[16.266,46.5691],[16.274,46.5984],[16.3005,46.5973],[16.2979,46.6479],[16.2408,46.6536],[16.1608,46.6059]]]}},{"type":"Feature","properties":{"sourceId":"1159308695","regionId":"region.8efc2b35-8622-421b-a924-59ceed0c31d5","countryId":"country.1yl9unk"},"geometry":{"type":"Polygon","coordinates":[[[16.1608,46.6059],[16.1767,46.5601],[16.2168,46.5841],[16.1608,46.6059]]]}},{"type":"Feature","properties":{"sourceId":"1159310899","regionId":"region.de6fcc22-e30d-4c04-a2fa-f2cba831faca","countryId":"country.1yl9unk"},"geometry":{"type":"Polygon","coordinates":[[[16.3005,46.5973],[16.274,46.5984],[16.266,46.5691],[16.3005,46.5973]]]}},{"type":"Feature","properties":{"sourceId":"1159310693","regionId":"region.3fba5aaa-f30a-4681-a856-f33d8369e4c5","countryId":"country.1yl9unk"},"geometry":{"type":"Polygon","coordinates":[[[14.7402,45.9981],[14.6162,45.9967],[14.6009,45.9089],[14.6402,45.8748],[14.7518,45.8833],[14.7402,45.9981]]]}},{"type":"Feature","properties":{"sourceId":"1159310783","regionId":"region.877e708f-c32f-4698-93cf-aa36ea3665f2","countryId":"country.1yl9unk"},"geometry":{"type":"Polygon","coordinates":[[[14.6009,45.9089],[14.6162,45.9967],[14.5333,45.9902],[14.5853,45.8963],[14.6009,45.9089]]]}},{"type":"Feature","properties":{"sourceId":"1159310695","regionId":"region.4e03aa2e-dd15-48d0-87b1-60e70d3d2ba2","countryId":"country.1yl9unk"},"geometry":{"type":"Polygon","coordinates":[[[15.1063,46.0935],[15.1634,46.0925],[15.1133,46.1834],[15.1063,46.0935]]]}},{"type":"Feature","properties":{"sourceId":"1159308601","regionId":"region.3e342aea-2dad-4630-a110-047f44756319","countryId":"country.1yl9unk"},"geometry":{"type":"Polygon","coordinates":[[[15.2261,46.3174],[15.1965,46.3277],[15.1228,46.317],[15.104,46.255],[15.111,46.1873],[15.1133,46.1834],[15.2164,46.1982],[15.2261,46.3174]]]}},{"type":"Feature","properties":{"sourceId":"1159310697","regionId":"region.93180efb-8cf6-4522-af40-6104bc5e72cc","countryId":"country.1yl9unk"},"geometry":{"type":"Polygon","coordinates":[[[15.1063,46.0935],[15.1133,46.1834],[15.111,46.1873],[15.0451,46.1933],[14.9999,46.199],[14.9999,46.1191],[15.0715,46.0647],[15.1063,46.0935]]]}},{"type":"Feature","properties":{"sourceId":"1159308651","regionId":"region.8a1332f0-911e-4c3c-b891-209471086ff3","countryId":"country.1yl9unk"},"geometry":{"type":"Polygon","coordinates":[[[15.01,46.258],[15.0511,46.2261],[15.095,46.2577],[15.0513,46.3073],[15.0084,46.3372],[14.9706,46.3029],[14.9703,46.2838],[15.01,46.258]]]}},{"type":"Feature","properties":{"sourceId":"1159308637","regionId":"region.c4fb7b03-7e52-4730-a588-f377669bfcca","countryId":"country.1yl9unk"},"geometry":{"type":"Polygon","coordinates":[[[14.9707,46.1978],[14.9999,46.199],[15.0451,46.1933],[15.0511,46.2261],[15.01,46.258],[14.9707,46.1978]]]}},{"type":"Feature","properties":{"sourceId":"1159310667","regionId":"region.b1d62d91-d8ee-45fa-9306-cf4eba67bbe7","countryId":"country.1yl9unk"},"geometry":{"type":"Polygon","coordinates":[[[15.5837,45.994],[15.5993,46.0223],[15.5594,46.0171],[15.5837,45.994]]]}},{"type":"Feature","properties":{"sourceId":"1159308609","regionId":"region.198045d4-ce3a-4c7b-87d6-a08600b57972","countryId":"country.1yl9unk"},"geometry":{"type":"Polygon","coordinates":[[[15.8005,46.4316],[15.8315,46.3948],[15.8695,46.384],[15.8186,46.4548],[15.8005,46.4316]]]}},{"type":"Feature","properties":{"sourceId":"1159308583","regionId":"region.8c56e07f-79ca-457a-85f7-4f7ff02ee1e2","countryId":"country.1yl9unk"},"geometry":{"type":"Polygon","coordinates":[[[15.8163,46.4973],[15.7815,46.4677],[15.8186,46.4548],[15.8695,46.384],[15.9041,46.3936],[15.943,46.4205],[15.9531,46.451],[15.9443,46.4805],[15.8234,46.4949],[15.8163,46.4973]]]}},{"type":"Feature","properties":{"sourceId":"1159308573","regionId":"region.1e3f7266-efaf-4685-a750-4083823a802f","countryId":"country.1yl9unk"},"geometry":{"type":"Polygon","coordinates":[[[15.7579,46.262],[15.8011,46.3206],[15.8025,46.3549],[15.6808,46.3677],[15.6849,46.2741],[15.7413,46.2661],[15.7579,46.262]]]}},{"type":"Feature","properties":{"sourceId":"1159308595","regionId":"region.d5c2cfeb-e0d4-4e84-81b3-c6ba9ad9f296","countryId":"country.1yl9unk"},"geometry":{"type":"Polygon","coordinates":[[[15.5525,46.2777],[15.5658,46.2737],[15.6849,46.2741],[15.6808,46.3677],[15.6875,46.4086],[15.5458,46.4832],[15.5394,46.4974],[15.4082,46.4777],[15.3351,46.4774],[15.4228,46.4246],[15.503,46.3595],[15.5525,46.2777]]]}},{"type":"Feature","properties":{"sourceId":"1159309553","regionId":"region.177b52fe-01c7-46ef-b051-db3a28791209","countryId":"country.1yl9unk"},"geometry":{"type":"Polygon","coordinates":[[[15.9693,46.3619],[15.9831,46.4166],[15.943,46.4205],[15.9041,46.3936],[15.9693,46.3619]]]}},{"type":"Feature","properties":{"sourceId":"1159310705","regionId":"region.352a9e8c-4f79-4cde-bfe6-dc4e7274dd48","countryId":"country.1yl9unk"},"geometry":{"type":"Polygon","coordinates":[[[15.6875,46.4086],[15.6808,46.3677],[15.8025,46.3549],[15.8315,46.3948],[15.8005,46.4316],[15.7345,46.4283],[15.6875,46.4086]]]}},{"type":"Feature","properties":{"sourceId":"1159310885","regionId":"region.01d9a38a-f8f0-4779-802c-59ed11f1474f","countryId":"country.1yl9unk"},"geometry":{"type":"Polygon","coordinates":[[[16.0261,46.4323],[16.021,46.4907],[15.9531,46.451],[15.943,46.4205],[15.9831,46.4166],[16.0261,46.4323]]]}},{"type":"Feature","properties":{"sourceId":"1159308691","regionId":"region.0a22d0aa-eb0d-4ffb-a31e-8f40a1938432","countryId":"country.1yl9unk"},"geometry":{"type":"Polygon","coordinates":[[[16.1103,46.6239],[16.0793,46.5932],[16.0778,46.5419],[16.1767,46.5601],[16.1608,46.6059],[16.1103,46.6239]]]}},{"type":"Feature","properties":{"sourceId":"1159310891","regionId":"region.9b050077-8506-404e-9be1-4d68bbfa547d","countryId":"country.1yl9unk"},"geometry":{"type":"Polygon","coordinates":[[[15.9472,46.4872],[15.9443,46.4805],[15.9531,46.451],[16.021,46.4907],[16.0203,46.5113],[16.0074,46.5244],[15.9472,46.4872]]]}},{"type":"Feature","properties":{"sourceId":"1159310769","regionId":"region.9c641171-5add-441a-9bd6-92d0810ce5de","countryId":"country.1yl9unk"},"geometry":{"type":"Polygon","coordinates":[[[15.2281,45.7027],[15.1028,45.6844],[15.0376,45.6313],[15.0736,45.6019],[15.225,45.6083],[15.2281,45.7027]]]}},{"type":"Feature","properties":{"sourceId":"1159308655","regionId":"region.84873119-a380-4d41-9e1a-c1efa9c4ef1f","countryId":"country.1yl9unk"},"geometry":{"type":"Polygon","coordinates":[[[15.0581,45.7811],[14.9821,45.7663],[15.0376,45.6313],[15.1028,45.6844],[15.0581,45.7811]]]}},{"type":"Feature","properties":{"sourceId":"1159308653","regionId":"region.014cccf8-d52c-4bba-ac6f-7e55f6ca1ab6","countryId":"country.1yl9unk"},"geometry":{"type":"Polygon","coordinates":[[[14.5642,45.7901],[14.5761,45.7353],[14.6463,45.7075],[14.587,45.7934],[14.5642,45.7901]]]}},{"type":"Feature","properties":{"sourceId":"1159308589","regionId":"region.5af483de-6d6d-4f4a-b010-594c1c3d78eb","countryId":"country.1yl9unk"},"geometry":{"type":"Polygon","coordinates":[[[14.587,45.7934],[14.6463,45.7075],[14.7318,45.647],[14.7959,45.7431],[14.6877,45.818],[14.587,45.7934]]]}},{"type":"Feature","properties":{"sourceId":"1159310779","regionId":"region.47768a1c-c7dc-42e8-a8cf-c4004627b3b9","countryId":"country.1yl9unk"},"geometry":{"type":"Polygon","coordinates":[[[15.3037,45.8645],[15.361,45.8837],[15.363,45.9348],[15.2386,45.9244],[15.3037,45.8645]]]}}]}