{"type":"FeatureCollection","features":[{"type":"Feature","properties":{"sourceId":"1159309721","regionId":"region.1106a728-f8c9-4c13-acb6-7111fbbd0430","countryId":"country.1mkrhod"},"geometry":{"type":"Polygon","coordinates":[[[28.859,-28.773],[28.8279,-28.7595],[28.7913,-28.8892],[28.7525,-29.0712],[28.5775,-29.1976],[28.5621,-29.2589],[28.804,-29.3528],[28.7896,-29.4909],[29.0206,-29.4912],[29.149,-29.5742],[29.2752,-29.5283],[29.3882,-29.4378],[29.4359,-29.3424],[29.3118,-29.0898],[29.2084,-29.0689],[28.9808,-28.909],[28.859,-28.773]]]}},{"type":"Feature","properties":{"sourceId":"1159309715","regionId":"region.4edbb4c9-c4f3-4323-ba0a-c7d3893d7c0f","countryId":"country.1mkrhod"},"geometry":{"type":"Polygon","coordinates":[[[28.8279,-28.7595],[28.6995,-28.6885],[28.6666,-28.5972],[28.4034,-28.6189],[28.3172,-28.7001],[28.2181,-28.7007],[28.2662,-28.8014],[28.4889,-28.8812],[28.4828,-29.0247],[28.6212,-29.0514],[28.7913,-28.8892],[28.8279,-28.7595]]]}},{"type":"Feature","properties":{"sourceId":"1159309717","regionId":"region.b95e88a4-ea37-4109-98bc-4a911b2119b6","countryId":"country.1mkrhod"},"geometry":{"type":"Polygon","coordinates":[[[28.2181,-28.7007],[28.155,-28.7023],[28.0187,-28.8568],[27.8613,-28.9154],[27.7474,-28.9086],[27.6345,-29.091],[27.8251,-29.0314],[27.8933,-29.0521],[28.0002,-28.9374],[28.2645,-29.1192],[28.3405,-29.1453],[28.4175,-29.2959],[28.5621,-29.2589],[28.5775,-29.1976],[28.7525,-29.0712],[28.7913,-28.8892],[28.6212,-29.0514],[28.4828,-29.0247],[28.4889,-28.8812],[28.2662,-28.8014],[28.2181,-28.7007]]]}},{"type":"Feature","properties":{"sourceId":"1159309723","regionId":"region.8f1e02d9-8de9-4403-9d1a-a805aeeed182","countryId":"country.1mkrhod"},"geometry":{"type":"Polygon","coordinates":[[[29.0158,-29.9786],[29.1442,-29.9197],[29.1136,-29.7529],[29.0233,-29.7388],[28.9735,-29.8499],[28.8374,-29.8178],[28.7405,-29.8505],[28.5399,-29.7762],[28.548,-29.9189],[28.375,-30.0276],[28.2647,-30.0013],[28.2269,-30.139],[28.3556,-30.1732],[28.5243,-30.1167],[28.6397,-30.1315],[28.86,-30.0664],[29.0158,-29.9786]]]}},{"type":"Feature","properties":{"sourceId":"1159309725","regionId":"region.3106f897-3767-4045-9f3f-d3b6a0602333","countryId":"country.1mkrhod"},"geometry":{"type":"Polygon","coordinates":[[[29.2752,-29.5283],[29.149,-29.5742],[29.0206,-29.4912],[28.7896,-29.4909],[28.804,-29.3528],[28.5621,-29.2589],[28.4175,-29.2959],[28.3405,-29.1453],[28.2645,-29.1192],[28.2856,-29.2343],[28.2034,-29.3322],[28.1189,-29.3864],[28.1841,-29.7095],[28.2819,-29.8944],[28.5399,-29.7762],[28.7405,-29.8505],[28.8374,-29.8178],[28.9735,-29.8499],[29.0233,-29.7388],[29.1136,-29.7529],[29.1613,-29.6669],[29.2786,-29.6136],[29.2752,-29.5283]]]}},{"type":"Feature","properties":{"sourceId":"1159309707","regionId":"region.a0a807fa-3275-426c-a060-33cfb8b57dfc","countryId":"country.1mkrhod"},"geometry":{"type":"Polygon","coordinates":[[[27.5107,-29.2708],[27.7133,-29.33],[27.7721,-29.2939],[28.0418,-29.3734],[28.2034,-29.3322],[28.2856,-29.2343],[28.2645,-29.1192],[28.0002,-28.9374],[27.8933,-29.0521],[27.8251,-29.0314],[27.6345,-29.091],[27.5107,-29.2708]]]}},{"type":"Feature","properties":{"sourceId":"1159309709","regionId":"region.85679a0b-f09e-4876-ba7c-476850f894a9","countryId":"country.1mkrhod"},"geometry":{"type":"Polygon","coordinates":[[[27.5107,-29.2708],[27.3003,-29.5201],[27.3582,-29.5307],[27.4365,-29.6674],[27.6269,-29.702],[27.7501,-29.8155],[27.9397,-29.8439],[28.0781,-29.9048],[28.1289,-29.9042],[28.0898,-29.7022],[28.1841,-29.7095],[28.1189,-29.3864],[28.2034,-29.3322],[28.0418,-29.3734],[27.7721,-29.2939],[27.7133,-29.33],[27.5107,-29.2708]]]}},{"type":"Feature","properties":{"sourceId":"1159314937","regionId":"region.70d12cba-8ef8-4df2-8813-c6fb187ceb84","countryId":"country.1mkrhod"},"geometry":{"type":"MultiPolygon","coordinates":[[[[27.3003,-29.5201],[27.0149,-29.6256],[27.1714,-29.9215],[27.3901,-29.8634],[27.385,-30.0022],[27.4642,-30.0337],[27.5498,-29.9452],[27.6807,-29.9753],[27.9383,-29.9139],[28.0781,-29.9048],[27.9397,-29.8439],[27.7501,-29.8155],[27.6269,-29.702],[27.4365,-29.6674],[27.3582,-29.5307],[27.3003,-29.5201]]],[[[28.1841,-29.7095],[28.0898,-29.7022],[28.1289,-29.9042],[28.2819,-29.8944],[28.1841,-29.7095]]]]}},{"type":"Feature","properties":{"sourceId":"1159309711","regionId":"region.608b1e3a-145a-4496-8f1f-dd111febfd5f","countryId":"country.1mkrhod"},"geometry":{"type":"Polygon","coordinates":[[[27.1714,-29.9215],[27.2659,-30.0333],[27.3777,-30.3123],[27.5334,-30.3934],[27.6899,-30.3677],[27.9026,-30.1827],[27.9442,-30.0664],[28.0572,-30.0725],[28.2647,-30.0013],[28.375,-30.0276],[28.548,-29.9189],[28.5399,-29.7762],[28.2819,-29.8944],[28.1289,-29.9042],[28.0781,-29.9048],[27.9383,-29.9139],[27.6807,-29.9753],[27.5498,-29.9452],[27.4642,-30.0337],[27.385,-30.0022],[27.3901,-29.8634],[27.1714,-29.9215]]]}},{"type":"Feature","properties":{"sourceId":"1159309713","regionId":"region.9de857b9-a658-499d-91e8-d45d22b9faa4","countryId":"country.1mkrhod"},"geometry":{"type":"Polygon","coordinates":[[[28.3556,-30.1732],[28.2269,-30.139],[28.2647,-30.0013],[28.0572,-30.0725],[27.9442,-30.0664],[27.9026,-30.1827],[27.6899,-30.3677],[27.5334,-30.3934],[27.5986,-30.4903],[27.7436,-30.6003],[28.0547,-30.6497],[28.2182,-30.3874],[28.216,-30.2674],[28.3556,-30.1732]]]}}]}