{"type":"FeatureCollection","features":[{"type":"Feature","properties":{"sourceId":"1159314601","regionId":"region.8a553f61-69d0-4eef-9ead-681ccfa2c246","countryId":"country.1bqmiqj"},"geometry":{"type":"Polygon","coordinates":[[[40.69,43.5231],[40.4798,43.5087],[40.2331,43.5758],[40.0592,43.5352],[39.986,43.389],[40.2191,43.319],[40.3351,43.1409],[40.3983,43.1623],[40.5799,43.0888],[40.856,43.0631],[41.0231,42.99],[41.1502,42.7956],[41.3835,42.7573],[41.5002,42.6406],[41.5512,42.4065],[41.8037,42.5222],[41.9384,42.618],[41.8923,42.8308],[41.908,42.9872],[42.0573,43.0169],[42.1543,43.2175],[42.0113,43.1819],[41.5506,43.2263],[41.3807,43.3348],[41.0118,43.3754],[40.69,43.5231]]]}},{"type":"Feature","properties":{"sourceId":"1159314583","regionId":"region.70512c94-6ce2-4dcf-a898-3c00dc9cf8f6","countryId":"country.1bqmiqj"},"geometry":{"type":"Polygon","coordinates":[[[42.3626,43.2352],[42.1543,43.2175],[42.0573,43.0169],[41.908,42.9872],[41.8923,42.8308],[41.9384,42.618],[41.8037,42.5222],[41.5512,42.4065],[41.7152,42.0593],[41.7551,42.1325],[42.0062,42.1586],[42.229,42.0972],[42.298,42.2259],[42.5267,42.5171],[42.6144,42.5241],[42.5649,42.6779],[42.3526,42.7938],[42.4919,42.8872],[42.6837,42.8526],[42.7943,42.8722],[43.0656,42.8221],[43.1752,42.9345],[42.9898,43.0527],[43.0001,43.0987],[42.7515,43.177],[42.5959,43.14],[42.3626,43.2352]]]}},{"type":"Feature","properties":{"sourceId":"1159314577","regionId":"region.47e2da19-a7ea-4a41-a1a3-eef2270d131e","countryId":"country.1bqmiqj"},"geometry":{"type":"Polygon","coordinates":[[[43.9082,42.5662],[43.808,42.4515],[43.5874,42.3947],[43.7501,42.394],[43.7602,42.309],[43.6159,42.2578],[43.6082,42.1702],[43.4889,42.0574],[43.4262,41.9166],[43.5544,41.8938],[43.6722,41.7914],[43.8862,41.7342],[44.2272,41.7201],[44.4792,41.748],[44.5732,41.8789],[44.493,42.0063],[44.2619,42.034],[44.2844,42.1708],[44.3626,42.2396],[44.2869,42.4294],[44.3344,42.4947],[44.1858,42.6265],[43.9082,42.5662]]]}},{"type":"Feature","properties":{"sourceId":"1159314591","regionId":"region.88318f00-6821-4a0b-8b4f-2cae140faafd","countryId":"country.1bqmiqj"},"geometry":{"type":"Polygon","coordinates":[[[43.3862,42.8869],[43.1752,42.9345],[43.0656,42.8221],[42.7943,42.8722],[42.6837,42.8526],[42.4919,42.8872],[42.3526,42.7938],[42.5649,42.6779],[42.6144,42.5241],[42.6321,42.4354],[42.8374,42.4698],[43.05,42.3396],[43.2939,42.4204],[43.5874,42.3947],[43.808,42.4515],[43.9082,42.5662],[43.7511,42.5987],[43.8006,42.7465],[43.3862,42.8869]]]}},{"type":"Feature","properties":{"sourceId":"1159314589","regionId":"region.bb300742-9cdf-46bc-b3e5-fb80aea6e664","countryId":"country.1bqmiqj"},"geometry":{"type":"Polygon","coordinates":[[[45.076,42.6914],[44.8594,42.7595],[44.7364,42.6776],[44.6388,42.7401],[44.4792,42.7443],[44.272,42.7024],[44.1858,42.6265],[44.3344,42.4947],[44.2869,42.4294],[44.3626,42.2396],[44.2844,42.1708],[44.2619,42.034],[44.493,42.0063],[44.5732,41.8789],[44.4792,41.748],[44.6807,41.7055],[44.8053,41.7953],[44.8922,41.7698],[45.0662,41.8375],[45.0878,42.0061],[45.055,42.1045],[45.3016,42.5598],[45.1842,42.6748],[45.076,42.6914]]]}},{"type":"Feature","properties":{"sourceId":"1159314587","regionId":"region.22a1f719-e0f7-4df6-8e32-970c92758f32","countryId":"country.1bqmiqj"},"geometry":{"type":"Polygon","coordinates":[[[45.3016,42.5598],[45.055,42.1045],[45.0878,42.0061],[45.0662,41.8375],[45.1855,41.767],[45.2299,41.6545],[45.2083,41.5486],[45.3331,41.4444],[45.7207,41.3424],[45.7703,41.2321],[45.9692,41.1683],[46.0876,41.1837],[46.2286,41.1954],[46.4968,41.0448],[46.6155,41.1087],[46.6885,41.2844],[46.6298,41.3461],[46.2967,41.5104],[46.2799,41.5712],[46.1928,41.6102],[46.2083,41.7555],[46.2978,41.7508],[46.4309,41.8904],[46.2243,41.9935],[45.9476,42.0229],[45.6214,42.2245],[45.7395,42.4706],[45.6207,42.5304],[45.356,42.52],[45.3016,42.5598]]]}},{"type":"Feature","properties":{"sourceId":"1159314599","regionId":"region.fcbe272f-4bf3-4b8a-bedb-d06cfb4408a3","countryId":"country.1bqmiqj"},"geometry":{"type":"Polygon","coordinates":[[[42.5866,41.5791],[42.8009,41.5792],[42.7665,41.5043],[42.9577,41.437],[43.1239,41.3129],[43.2306,41.1726],[43.3226,41.1921],[43.4404,41.1066],[43.7297,41.1067],[43.9778,41.1645],[43.9782,41.1646],[43.9515,41.3354],[43.8474,41.5219],[43.6727,41.5185],[43.7331,41.6987],[43.8862,41.7342],[43.6722,41.7914],[43.5544,41.8938],[43.4262,41.9166],[43.1274,41.8254],[42.9481,41.8118],[42.6496,41.8334],[42.4817,41.7987],[42.4812,41.701],[42.5866,41.5791]]]}},{"type":"Feature","properties":{"sourceId":"1159314341","regionId":"region.edf24386-8be6-4155-9184-cc9d7a9a2378","countryId":"country.1bqmiqj"},"geometry":{"type":"Polygon","coordinates":[[[42.451,41.4314],[42.5866,41.5791],[42.4812,41.701],[42.4817,41.7987],[42.4055,41.8349],[42.2298,41.7986],[42.063,41.8114],[41.9047,41.8978],[41.7739,41.9026],[41.7739,41.8216],[41.676,41.6622],[41.5208,41.5142],[41.695,41.4891],[41.8008,41.4257],[41.948,41.5056],[42.1584,41.4999],[42.451,41.4314]]]}},{"type":"Feature","properties":{"sourceId":"1159314595","regionId":"region.bf15a5a9-3358-43c3-9e01-d6ee9117b900","countryId":"country.1bqmiqj"},"geometry":{"type":"Polygon","coordinates":[[[45.0024,41.2905],[45.0978,41.3499],[45.2496,41.4445],[45.3331,41.4444],[45.2083,41.5486],[45.2299,41.6545],[45.1855,41.767],[45.0662,41.8375],[44.8922,41.7698],[44.9049,41.6268],[44.6807,41.7055],[44.4792,41.748],[44.2272,41.7201],[43.8862,41.7342],[43.7331,41.6987],[43.6727,41.5185],[43.8474,41.5219],[43.9515,41.3354],[43.9782,41.1646],[44.191,41.23],[44.5515,41.177],[44.6129,41.2231],[44.8538,41.2235],[45.0024,41.2905]]]}},{"type":"Feature","properties":{"sourceId":"1159314581","regionId":"region.f05af21c-8c5e-441d-9d9f-0229b3bab479","countryId":"country.1bqmiqj"},"geometry":{"type":"Polygon","coordinates":[[[42.4817,41.7987],[42.6496,41.8334],[42.6323,41.9274],[42.4135,41.9931],[42.229,42.0972],[42.0062,42.1586],[41.7551,42.1325],[41.7152,42.0593],[41.7739,41.9026],[41.9047,41.8978],[42.063,41.8114],[42.2298,41.7986],[42.4055,41.8349],[42.4817,41.7987]]]}},{"type":"Feature","properties":{"sourceId":"1159314593","regionId":"region.608f5fe3-554b-4890-9434-55b87842b356","countryId":"country.1bqmiqj"},"geometry":{"type":"Polygon","coordinates":[[[44.8922,41.7698],[44.8053,41.7953],[44.6807,41.7055],[44.9049,41.6268],[44.8922,41.7698]]]}},{"type":"Feature","properties":{"sourceId":"1159314585","regionId":"region.98e0c766-c46c-4f5e-88a9-dca8d6ccbe85","countryId":"country.1bqmiqj"},"geometry":{"type":"Polygon","coordinates":[[[43.4262,41.9166],[43.4889,42.0574],[43.6082,42.1702],[43.6159,42.2578],[43.7602,42.309],[43.7501,42.394],[43.5874,42.3947],[43.2939,42.4204],[43.05,42.3396],[42.8374,42.4698],[42.6321,42.4354],[42.6144,42.5241],[42.5267,42.5171],[42.298,42.2259],[42.229,42.0972],[42.4135,41.9931],[42.6323,41.9274],[42.6496,41.8334],[42.9481,41.8118],[43.1274,41.8254],[43.4262,41.9166]]]}}]}