{"type":"FeatureCollection","features":[{"type":"Feature","properties":{"sourceId":"1159309547","regionId":"region.68426c00-4fa8-4c53-bd5d-53f25fd116cf","countryId":"country.u6myyj"},"geometry":{"type":"MultiPolygon","coordinates":[[[[-122.753,48.9925],[-122.7725,48.8865],[-122.6496,48.7637],[-122.5299,48.7686],[-122.4403,48.5807],[-122.5338,48.3747],[-122.3918,48.3098],[-122.3623,48.1225],[-122.2073,48.0144],[-122.3204,47.9421],[-122.4061,47.7779],[-122.4135,47.6417],[-122.3236,47.3725],[-122.7225,47.0893],[-122.7987,47.205],[-122.5859,47.3364],[-122.5079,47.5203],[-122.6284,47.6929],[-122.4684,47.7565],[-122.5883,47.9044],[-122.6781,47.9357],[-122.792,48.0829],[-122.9991,48.0917],[-123.1118,48.149],[-123.2469,48.1153],[-123.5846,48.1354],[-123.7003,48.1649],[-124.0502,48.1773],[-124.2277,48.2585],[-124.5749,48.3704],[-124.6615,48.3195],[-124.7346,48.1704],[-124.6381,47.9079],[-124.4228,47.7419],[-124.3178,47.3574],[-124.2117,47.2266],[-124.1719,47.0419],[-124.0129,46.9837],[-124.0934,46.7432],[-123.913,46.7278],[-123.8981,46.4416],[-124.0638,46.3563],[-123.9252,46.2515],[-123.693,46.3052],[-123.4789,46.2759],[-123.2979,46.1515],[-123.1801,46.1791],[-122.9102,46.1079],[-122.8065,45.9781],[-122.7389,45.6628],[-122.2611,45.5663],[-121.9711,45.6423],[-121.7926,45.7214],[-121.2718,45.7088],[-121.1329,45.6242],[-120.9001,45.6418],[-120.621,45.7309],[-120.4702,45.7101],[-120.2299,45.7371],[-119.9342,45.838],[-119.6625,45.8718],[-119.5917,45.9211],[-119.0933,45.9488],[-119.0024,45.9995],[-117.9166,46.0005],[-116.8788,46.0015],[-116.9606,46.1048],[-116.9091,46.1834],[-117.0368,46.3633],[-117.0415,47.4203],[-117.0349,48.3589],[-117.0382,48.9925],[-118.2571,48.9925],[-119.5759,48.9925],[-120.675,48.9925],[-121.5542,48.9925],[-122.753,48.9925]]],[[[-122.3594,47.9766],[-122.5466,48.017],[-122.594,48.3079],[-122.7441,48.2059],[-122.6002,48.1301],[-122.5303,47.9674],[-122.3594,47.9766]]]]}},{"type":"Feature","properties":{"sourceId":"1159315339","regionId":"region.ec83abd5-ef2c-46d2-bce7-b2fe596f6c59","countryId":"country.u6myyj"},"geometry":{"type":"Polygon","coordinates":[[[-117.0382,48.9925],[-117.0349,48.3589],[-117.0415,47.4203],[-117.0368,46.3633],[-116.9091,46.1834],[-116.9606,46.1048],[-116.8788,46.0015],[-116.7594,45.838],[-116.5301,45.7516],[-116.463,45.5819],[-116.649,45.3475],[-116.7174,45.1514],[-116.8235,45.0358],[-116.8328,44.9199],[-117.0106,44.75],[-117.2038,44.4825],[-117.1951,44.2977],[-116.986,44.2719],[-116.8969,44.1859],[-117.0202,43.7851],[-117.0185,42.928],[-117.0166,41.9995],[-115.7155,41.9998],[-114.972,41.9999],[-114.0425,42.0001],[-113.4815,42],[-112.3594,41.9999],[-111.0502,41.9998],[-111.0506,42.7805],[-111.0509,43.405],[-111.0514,44.4979],[-111.2102,44.5943],[-111.308,44.7324],[-111.4517,44.7218],[-111.5028,44.5476],[-111.682,44.5658],[-112.0816,44.5387],[-112.2335,44.5687],[-112.3599,44.4714],[-112.6803,44.5055],[-112.8275,44.4255],[-112.9955,44.4652],[-113.0451,44.6521],[-113.1833,44.8044],[-113.3241,44.7921],[-113.4814,44.9335],[-113.4301,45.001],[-113.5131,45.1243],[-113.7114,45.3048],[-113.7893,45.584],[-113.9573,45.6926],[-114.1143,45.5705],[-114.3296,45.4833],[-114.5449,45.5765],[-114.4937,45.7051],[-114.5499,45.7835],[-114.3891,45.8959],[-114.4829,46.0558],[-114.4544,46.27],[-114.3405,46.5308],[-114.3598,46.678],[-114.567,46.6443],[-114.6227,46.7201],[-114.9054,46.8419],[-114.9171,46.9177],[-115.2741,47.1919],[-115.3417,47.2685],[-115.5101,47.3127],[-115.6431,47.4858],[-115.7189,47.6998],[-116.0489,48.0037],[-116.0482,48.9925],[-117.0382,48.9925]]]}},{"type":"Feature","properties":{"sourceId":"1159315333","regionId":"region.5e717bc4-e807-42de-b608-2b16ff96051e","countryId":"country.u6myyj"},"geometry":{"type":"Polygon","coordinates":[[[-116.0482,48.9925],[-116.0489,48.0037],[-115.7189,47.6998],[-115.6431,47.4858],[-115.5101,47.3127],[-115.3417,47.2685],[-115.2741,47.1919],[-114.9171,46.9177],[-114.9054,46.8419],[-114.6227,46.7201],[-114.567,46.6443],[-114.3598,46.678],[-114.3405,46.5308],[-114.4544,46.27],[-114.4829,46.0558],[-114.3891,45.8959],[-114.5499,45.7835],[-114.4937,45.7051],[-114.5449,45.5765],[-114.3296,45.4833],[-114.1143,45.5705],[-113.9573,45.6926],[-113.7893,45.584],[-113.7114,45.3048],[-113.5131,45.1243],[-113.4301,45.001],[-113.4814,44.9335],[-113.3241,44.7921],[-113.1833,44.8044],[-113.0451,44.6521],[-112.9955,44.4652],[-112.8275,44.4255],[-112.6803,44.5055],[-112.3599,44.4714],[-112.2335,44.5687],[-112.0816,44.5387],[-111.682,44.5658],[-111.5028,44.5476],[-111.4517,44.7218],[-111.308,44.7324],[-111.2102,44.5943],[-111.0514,44.4979],[-111.0508,45],[-109.9122,45],[-108.7154,45],[-107.1923,45.0001],[-105.7779,45.0001],[-104.7987,45.0001],[-104.0567,45.0001],[-104.0393,44.9999],[-104.0449,45.942],[-104.0463,47.1338],[-104.0463,47.968],[-104.0476,48.9926],[-105.5082,48.9926],[-106.6072,48.9926],[-108.1458,48.9926],[-109.025,48.9926],[-109.9993,48.9926],[-111.4429,48.9926],[-112.9816,48.9925],[-114.0638,48.9925],[-115.1797,48.9925],[-116.0482,48.9925]]]}},{"type":"Feature","properties":{"sourceId":"1159315337","regionId":"region.28b9b98f-5a7c-4865-8ddd-841d0a66b62e","countryId":"country.u6myyj"},"geometry":{"type":"Polygon","coordinates":[[[-104.0476,48.9926],[-104.0463,47.968],[-104.0463,47.1338],[-104.0449,45.942],[-102.6133,45.942],[-101.2155,45.9419],[-99.8178,45.9419],[-99.1189,45.9419],[-97.4882,45.9418],[-96.5563,45.9418],[-96.6016,46.3239],[-96.7087,46.4337],[-96.7947,46.6423],[-96.7872,46.8719],[-96.8282,47.0023],[-96.8529,47.4883],[-96.8944,47.6791],[-96.9918,47.8152],[-97.1297,48.1706],[-97.1228,48.4286],[-97.1572,48.5341],[-97.101,48.6505],[-97.2261,48.9927],[-98.694,48.9927],[-99.7931,48.9927],[-101.3643,48.9927],[-102.8704,48.9926],[-104.0476,48.9926]]]}},{"type":"Feature","properties":{"sourceId":"1159315297","regionId":"region.d94b556b-018f-49a1-9088-deab454ecd72","countryId":"country.u6myyj"},"geometry":{"type":"Polygon","coordinates":[[[-97.2261,48.9927],[-97.101,48.6505],[-97.1572,48.5341],[-97.1228,48.4286],[-97.1297,48.1706],[-96.9918,47.8152],[-96.8944,47.6791],[-96.8529,47.4883],[-96.8282,47.0023],[-96.7872,46.8719],[-96.7947,46.6423],[-96.7087,46.4337],[-96.6016,46.3239],[-96.5563,45.9418],[-96.6379,45.7635],[-96.8631,45.6008],[-96.6882,45.409],[-96.5665,45.3935],[-96.4536,45.2966],[-96.4536,44.3788],[-96.4536,43.5001],[-94.8275,43.5003],[-93.8519,43.5005],[-92.8762,43.5006],[-91.2501,43.501],[-91.2492,43.7689],[-91.295,43.919],[-91.426,44.0225],[-91.6626,44.0733],[-91.8369,44.1818],[-91.9501,44.3357],[-92.1026,44.4369],[-92.2726,44.4658],[-92.3938,44.5796],[-92.5847,44.608],[-92.8198,44.7578],[-92.7583,44.9257],[-92.8024,45.078],[-92.7509,45.2997],[-92.6677,45.4454],[-92.7509,45.5592],[-92.8832,45.5761],[-92.882,45.7159],[-92.7041,45.9131],[-92.3633,46.0273],[-92.2926,46.0833],[-92.2916,46.6597],[-92.11,46.7687],[-91.9649,46.7287],[-91.4683,46.9241],[-90.654,47.3081],[-89.9576,47.2861],[-89.499,47.9951],[-89.9803,48.0101],[-90.1786,48.1164],[-90.5316,48.0846],[-90.7865,48.1005],[-90.9232,48.2271],[-91.2764,48.0648],[-91.4279,48.0364],[-91.6925,48.0979],[-91.765,48.1873],[-91.9573,48.2283],[-92.0434,48.3346],[-92.3031,48.3109],[-92.3846,48.2324],[-92.5269,48.4456],[-92.6486,48.5363],[-92.9797,48.6177],[-93.2577,48.6303],[-93.4515,48.5974],[-93.4918,48.5423],[-93.7568,48.5165],[-93.8749,48.6362],[-94.2321,48.652],[-94.3116,48.7139],[-94.5929,48.7264],[-94.7109,48.8075],[-94.7112,48.9146],[-94.8112,49.1666],[-94.8273,49.2929],[-94.9825,49.3562],[-95.1606,49.3695],[-95.1771,48.9927],[-95.8365,48.9927],[-97.2261,48.9927]]]}},{"type":"Feature","properties":{"sourceId":"1159314665","regionId":"region.f793fd06-0a58-4112-adcd-3790917d3c72","countryId":"country.u6myyj"},"geometry":{"type":"Polygon","coordinates":[[[-89.499,47.9951],[-89.9576,47.2861],[-90.4125,46.5842],[-90.2303,46.5087],[-90.1185,46.3406],[-89.1192,46.1482],[-88.8373,46.0356],[-88.5373,46.0261],[-88.1152,45.9246],[-88.0725,45.7875],[-87.9096,45.7605],[-87.8026,45.687],[-87.8119,45.4847],[-87.8822,45.3774],[-87.6548,45.3614],[-87.7267,45.2438],[-87.6536,45.1208],[-87.436,45.079],[-87.4033,45.205],[-87.1988,45.3228],[-87.0924,45.4438],[-86.7636,45.4438],[-86.2506,45.2361],[-86.4486,45.115],[-86.7146,44.8452],[-86.8519,44.5628],[-86.9999,44.1677],[-87.1144,43.7652],[-87.1472,43.3799],[-87.0188,42.4962],[-87.2077,41.7597],[-85.8825,41.7592],[-84.8061,41.7583],[-84.8061,41.6968],[-84.3032,41.7073],[-83.4138,41.7353],[-83.1309,41.938],[-83.1595,42.0463],[-83.1285,42.24],[-83.0404,42.3319],[-82.8001,42.418],[-82.5113,42.6467],[-82.4111,43.0513],[-82.1536,43.5496],[-82.1476,43.6113],[-82.2918,44.2422],[-82.5321,45.2935],[-82.5888,45.3718],[-83.484,45.7719],[-83.6369,45.7739],[-83.4659,45.9931],[-83.6139,46.1156],[-83.8393,46.1192],[-83.9473,46.0606],[-84.0868,46.2012],[-84.1588,46.4333],[-84.1104,46.5265],[-84.4232,46.5116],[-84.5894,46.4751],[-84.7733,46.6334],[-84.8787,46.8979],[-85.5086,47.1632],[-86.6371,47.6241],[-87.4093,47.93],[-88.3473,48.2987],[-88.6427,48.2566],[-89.3404,47.9842],[-89.499,47.9951]]]}},{"type":"Feature","properties":{"sourceId":"1159315315","regionId":"region.09758a75-394b-4fdd-8699-652b2542e5e8","countryId":"country.u6myyj"},"geometry":{"type":"Polygon","coordinates":[[[-83.1309,41.938],[-83.4138,41.7353],[-84.3032,41.7073],[-84.8061,41.6968],[-84.8004,41.2937],[-84.8141,39.9922],[-84.8235,39.0974],[-84.7211,39.1428],[-84.6372,39.0773],[-84.4442,39.1018],[-84.3219,39.0295],[-84.1956,38.8106],[-83.8659,38.7622],[-83.7143,38.6385],[-83.5343,38.7074],[-83.3051,38.6014],[-83.1336,38.6279],[-83.031,38.7159],[-82.8863,38.7448],[-82.8266,38.5865],[-82.6982,38.5355],[-82.5894,38.4193],[-82.3317,38.4436],[-82.2631,38.5975],[-82.1927,38.5953],[-82.2087,38.786],[-82.0584,39.0032],[-82.003,39.0217],[-81.8485,38.9134],[-81.7836,38.9327],[-81.7461,39.1934],[-81.6824,39.271],[-81.5694,39.2877],[-81.4789,39.4006],[-81.3884,39.3622],[-81.2269,39.3985],[-81.0553,39.53],[-80.8752,39.6288],[-80.8411,39.7905],[-80.7587,39.9294],[-80.7391,40.0608],[-80.6006,40.3233],[-80.6015,40.4714],[-80.6768,40.5888],[-80.5202,40.6468],[-80.5202,41.6952],[-80.5202,42.3238],[-81.2767,42.2087],[-82.4249,41.6768],[-82.7111,41.6802],[-83.0684,41.8477],[-83.1309,41.938]]]}},{"type":"Feature","properties":{"sourceId":"1159315331","regionId":"region.0de0f42f-4bf9-4e76-abb3-b9f937761d86","countryId":"country.u6myyj"},"geometry":{"type":"Polygon","coordinates":[[[-80.5202,42.3238],[-80.5202,41.6952],[-80.5202,40.6468],[-80.5194,39.7215],[-79.4774,39.7218],[-78.4388,39.7216],[-77.1695,39.7215],[-75.7886,39.7213],[-75.6013,39.8378],[-75.4245,39.8066],[-75.1478,39.9026],[-75.0236,40.0163],[-74.7394,40.1849],[-75.0644,40.454],[-75.0888,40.5583],[-75.1822,40.5704],[-75.1887,40.7585],[-75.0612,40.8915],[-75.1395,40.9822],[-74.8863,41.1808],[-74.8447,41.273],[-74.699,41.3563],[-74.7491,41.4347],[-74.8863,41.4483],[-74.9979,41.5138],[-75.0639,41.6157],[-75.0789,41.8281],[-75.339,41.9974],[-76.5977,41.9981],[-78.0941,41.999],[-78.9103,41.9994],[-79.7629,41.9999],[-79.763,42.5377],[-80.2466,42.3655],[-80.5202,42.3238]]]}},{"type":"Feature","properties":{"sourceId":"1159312155","regionId":"region.0bed35b8-41ed-48cb-b7c3-83628740b61a","countryId":"country.u6myyj"},"geometry":{"type":"MultiPolygon","coordinates":[[[[-79.763,42.5377],[-79.7629,41.9999],[-78.9103,41.9994],[-78.0941,41.999],[-76.5977,41.9981],[-75.339,41.9974],[-75.0789,41.8281],[-75.0639,41.6157],[-74.9979,41.5138],[-74.8863,41.4483],[-74.7491,41.4347],[-74.699,41.3563],[-73.9071,40.9908],[-73.9268,40.8048],[-73.8199,40.8391],[-73.6429,41.0011],[-73.723,41.1035],[-73.4841,41.2179],[-73.5447,41.2949],[-73.4805,42.0545],[-73.5072,42.079],[-73.2655,42.7456],[-73.247,43.552],[-73.4207,43.6485],[-73.3683,43.7477],[-73.4385,44.0528],[-73.2947,44.4697],[-73.3667,44.574],[-73.3378,44.8012],[-73.3513,45.0046],[-74.713,44.9993],[-74.8685,45.0101],[-75.2702,44.8638],[-75.6997,44.5817],[-75.8703,44.4086],[-76.0673,44.348],[-76.2066,44.2174],[-76.4546,44.0842],[-76.7972,43.6453],[-76.8415,43.6255],[-77.534,43.6279],[-78.6881,43.6318],[-79.1743,43.4645],[-79.0538,43.2604],[-79.032,43.0134],[-78.9153,42.9476],[-79.0194,42.8027],[-79.763,42.5377]]],[[[-71.9189,41.0649],[-72.109,41.0014],[-72.1554,41.055],[-72.3672,40.9946],[-72.4571,40.9103],[-72.6061,40.9899],[-72.7811,40.9651],[-73.1131,40.9735],[-73.2246,40.9083],[-73.4857,40.9456],[-73.9086,40.7887],[-74.0358,40.6389],[-73.9881,40.5694],[-73.8296,40.6488],[-73.7073,40.5828],[-73.5611,40.638],[-73.2333,40.7145],[-72.9468,40.7419],[-72.727,40.8078],[-72.6053,40.8013],[-71.9295,41.0378],[-71.9189,41.0649]]]]}},{"type":"Feature","properties":{"sourceId":"1159315305","regionId":"region.a178c98f-d16f-4e40-b2c4-a20fb1d411bd","countryId":"country.u6myyj"},"geometry":{"type":"Polygon","coordinates":[[[-73.3513,45.0046],[-73.3378,44.8012],[-73.3667,44.574],[-73.2947,44.4697],[-73.4385,44.0528],[-73.3683,43.7477],[-73.4207,43.6485],[-73.247,43.552],[-73.2655,42.7456],[-72.4668,42.7293],[-72.5555,42.878],[-72.4805,42.9892],[-72.4037,43.3002],[-72.3979,43.5314],[-72.3063,43.7201],[-72.2135,43.7846],[-72.0492,44.1429],[-72.0423,44.2817],[-71.678,44.4461],[-71.55,44.5964],[-71.635,44.7403],[-71.5146,44.895],[-71.5058,45.0137],[-72.302,45.0098],[-73.3513,45.0046]]]}},{"type":"Feature","properties":{"sourceId":"1159315303","regionId":"region.f23fa648-48f4-43e2-ab6d-163f27531f15","countryId":"country.u6myyj"},"geometry":{"type":"Polygon","coordinates":[[[-71.5058,45.0137],[-71.5146,44.895],[-71.635,44.7403],[-71.55,44.5964],[-71.678,44.4461],[-72.0423,44.2817],[-72.0492,44.1429],[-72.2135,43.7846],[-72.3063,43.7201],[-72.3979,43.5314],[-72.4037,43.3002],[-72.4805,42.9892],[-72.5555,42.878],[-72.4668,42.7293],[-71.3063,42.7009],[-70.9256,42.8865],[-70.8143,42.8773],[-70.7284,43.0113],[-70.7441,43.0838],[-70.8171,43.2399],[-70.9726,43.3831],[-70.9578,43.5622],[-70.999,44.1273],[-71.085,45.3043],[-71.1417,45.2523],[-71.2934,45.2923],[-71.3949,45.2415],[-71.5058,45.0137]]]}},{"type":"Feature","properties":{"sourceId":"1159308501","regionId":"region.48cfa977-7483-4227-9ae0-f1d1ad3cff07","countryId":"country.u6myyj"},"geometry":{"type":"MultiPolygon","coordinates":[[[[-71.085,45.3043],[-70.999,44.1273],[-70.9578,43.5622],[-70.9726,43.3831],[-70.8171,43.2399],[-70.7441,43.0838],[-70.6601,43.0941],[-70.5195,43.3395],[-70.3824,43.3937],[-70.3564,43.527],[-70.2049,43.5611],[-70.2391,43.7001],[-69.9858,43.8628],[-69.7873,43.7375],[-69.6494,43.8976],[-69.4788,43.8803],[-69.3701,44.0215],[-69.2634,43.9299],[-69.1188,44.0409],[-68.999,44.2948],[-68.9866,44.4212],[-68.8276,44.4791],[-68.7562,44.3345],[-68.526,44.2948],[-68.563,44.4006],[-68.2698,44.4861],[-68.1115,44.4801],[-68.0975,44.3857],[-67.8996,44.4221],[-67.8066,44.5754],[-67.575,44.5535],[-67.5391,44.6462],[-67.4045,44.6057],[-67.2244,44.6442],[-66.9773,44.8155],[-67.0627,44.9314],[-67.176,45.1787],[-67.3563,45.1659],[-67.475,45.2824],[-67.4288,45.3871],[-67.4932,45.4931],[-67.45,45.6108],[-67.6603,45.6374],[-67.8001,45.6998],[-67.7728,45.8281],[-67.7897,46.229],[-67.8052,47.0356],[-67.9624,47.1977],[-68.197,47.3414],[-68.5397,47.2999],[-68.6442,47.2453],[-68.9062,47.1902],[-69.0636,47.2908],[-69.054,47.4184],[-69.2676,47.4398],[-70.0078,46.7041],[-70.0743,46.4195],[-70.1884,46.3584],[-70.2809,46.2119],[-70.3114,46.0719],[-70.2625,45.923],[-70.4172,45.7938],[-70.4074,45.7315],[-70.6868,45.5727],[-70.7228,45.4709],[-70.9516,45.332],[-71.085,45.3043]]],[[[-68.2448,44.4245],[-68.355,44.4233],[-68.4141,44.2586],[-68.1765,44.3283],[-68.2448,44.4245]]]]}},{"type":"Feature","properties":{"sourceId":"1159315341","regionId":"region.f854420e-8ad0-4948-8337-6e91833dc5a0","countryId":"country.u6myyj"},"geometry":{"type":"Polygon","coordinates":[[[-114.8194,32.4994],[-113.9617,32.2341],[-113.1432,31.981],[-112.3247,31.728],[-111.0671,31.3336],[-111.0063,31.3272],[-109.9663,31.3272],[-109.0474,31.3274],[-109.0473,32.3952],[-109.0471,33.4578],[-109.0469,34.5204],[-109.0469,35.2288],[-109.0467,36.2914],[-109.0466,36.9998],[-109.8268,37.0003],[-110.7632,37.0009],[-112.0116,37.0018],[-113.416,37.0027],[-114.0402,37.0031],[-114.042,36.2198],[-114.1239,36.0459],[-114.2336,36.0244],[-114.3475,36.1398],[-114.5548,36.1605],[-114.7212,36.0927],[-114.7396,35.9858],[-114.6668,35.8739],[-114.6867,35.7194],[-114.6451,35.6306],[-114.6676,35.517],[-114.5909,35.3529],[-114.5726,35.1912],[-114.6355,35.1372],[-114.6282,35.0036],[-114.617,34.8793],[-114.4943,34.7536],[-114.3672,34.5301],[-114.3638,34.467],[-114.1251,34.3278],[-114.1274,34.2797],[-114.3821,34.1237],[-114.5222,33.9414],[-114.5032,33.7543],[-114.5359,33.5619],[-114.6258,33.4371],[-114.7174,33.4166],[-114.673,33.205],[-114.6967,33.0894],[-114.4737,32.9853],[-114.458,32.8767],[-114.5359,32.7382],[-114.7243,32.7128],[-114.8194,32.4994]]]}},{"type":"Feature","properties":{"sourceId":"1159308415","regionId":"region.330c7d70-8a75-47be-8f7c-57829f6d059a","countryId":"country.u6myyj"},"geometry":{"type":"MultiPolygon","coordinates":[[[[-114.7243,32.7128],[-114.5359,32.7382],[-114.458,32.8767],[-114.4737,32.9853],[-114.6967,33.0894],[-114.673,33.205],[-114.7174,33.4166],[-114.6258,33.4371],[-114.5359,33.5619],[-114.5032,33.7543],[-114.5222,33.9414],[-114.3821,34.1237],[-114.1274,34.2797],[-114.1251,34.3278],[-114.3638,34.467],[-114.3672,34.5301],[-114.4943,34.7536],[-114.617,34.8793],[-114.6282,35.0036],[-115.1938,35.4378],[-116.1776,36.2104],[-116.6595,36.5889],[-117.3929,37.1401],[-118.1262,37.6913],[-118.8289,38.1818],[-119.2973,38.5088],[-120,38.9992],[-120.0002,39.6182],[-120.0004,40.3509],[-120.0006,41.45],[-120.0008,41.9995],[-120.7854,41.9995],[-121.8317,41.9995],[-123.4011,41.9995],[-124.2145,41.9995],[-124.2188,41.85],[-124.1595,41.7367],[-124.0622,41.4359],[-124.1243,41.1818],[-124.1104,41.0153],[-124.2138,40.7014],[-124.2739,40.7],[-124.4092,40.4438],[-124.3635,40.2615],[-124.1158,40.1071],[-123.854,39.8335],[-123.7698,39.5446],[-123.8249,39.3473],[-123.6891,39.0279],[-123.7252,38.9604],[-123.6483,38.8495],[-123.4336,38.6868],[-123.2527,38.5107],[-123.1287,38.4493],[-122.9745,38.2662],[-122.9211,38.0349],[-122.8214,37.9977],[-122.5284,37.8164],[-122.4874,38.1048],[-122.3965,38.1532],[-122.227,38.0584],[-122.395,37.9703],[-122.1463,37.579],[-122.3585,37.5928],[-122.4188,37.8111],[-122.5152,37.7811],[-122.5205,37.5314],[-122.4003,37.3597],[-122.4045,37.1945],[-122.1536,36.9771],[-121.9372,36.9783],[-121.7898,36.8062],[-121.8143,36.6832],[-121.9463,36.4919],[-121.8956,36.3139],[-121.6302,36.1131],[-121.49,35.9822],[-121.4632,35.8867],[-121.3372,35.7865],[-121.2691,35.6642],[-121.1694,35.6369],[-121.0054,35.4607],[-120.8711,35.4053],[-120.8977,35.2498],[-120.6449,35.1394],[-120.6728,34.9075],[-120.6156,34.858],[-120.6031,34.7048],[-120.6478,34.5857],[-120.51,34.5214],[-120.4727,34.4503],[-120.1334,34.4727],[-119.8786,34.4066],[-119.6172,34.4205],[-119.453,34.3684],[-119.2693,34.255],[-119.2171,34.1455],[-118.9368,34.0432],[-118.7834,34.0218],[-118.5441,34.0389],[-118.4447,33.9494],[-118.3914,33.8359],[-118.412,33.7417],[-118.2546,33.7654],[-118.0905,33.731],[-117.9785,33.636],[-117.7765,33.5294],[-117.5088,33.3352],[-117.3222,33.1085],[-117.2536,32.8851],[-117.2575,32.7017],[-117.1664,32.6695],[-117.1251,32.5317],[-115.7941,32.632],[-114.7243,32.7128]]],[[[-120.0441,34.0373],[-120.2176,34.0105],[-120.1099,33.8931],[-119.9996,33.9415],[-120.0441,34.0373]]],[[[-119.5294,34.0252],[-119.6332,34.0136],[-119.8564,34.0706],[-119.8508,33.9674],[-119.7195,33.9591],[-119.5294,34.0252]]]]}},{"type":"Feature","properties":{"sourceId":"1159315347","regionId":"region.14ed93a1-0043-416a-bac7-047b11b1827b","countryId":"country.u6myyj"},"geometry":{"type":"Polygon","coordinates":[[[-108.9683,31.3274],[-108.2148,31.3274],[-108.2151,31.7778],[-107.2835,31.7755],[-106.5061,31.7703],[-106.5915,31.8272],[-106.6622,32.0003],[-105.9534,32.0006],[-104.8427,32.001],[-103.9541,32.0013],[-103.0656,32.0017],[-103.0604,32.9748],[-103.0551,33.948],[-103.0507,34.7821],[-103.0477,35.3381],[-103.0421,36.4996],[-103.0002,36.5002],[-103.0008,36.9998],[-104.5122,36.9998],[-105.8347,36.9998],[-107.1573,36.9998],[-107.9131,36.9998],[-109.0466,36.9998],[-109.0467,36.2914],[-109.0469,35.2288],[-109.0469,34.5204],[-109.0471,33.4578],[-109.0473,32.3952],[-109.0474,31.3274],[-108.9683,31.3274]]]}},{"type":"Feature","properties":{"sourceId":"1159315211","regionId":"region.a8135a22-4b5d-4e2b-a2be-c912a7e0c9bd","countryId":"country.u6myyj"},"geometry":{"type":"Polygon","coordinates":[[[-106.5061,31.7703],[-106.3585,31.7175],[-106.2863,31.5801],[-106.1643,31.4478],[-106.0047,31.3969],[-105.7682,31.18],[-105.5909,31.0714],[-105.556,31.0026],[-105.3638,30.8504],[-105.2293,30.8102],[-105.0085,30.677],[-104.8866,30.5519],[-104.8524,30.4389],[-104.6816,30.1929],[-104.6805,29.9423],[-104.5703,29.7875],[-104.5308,29.6679],[-104.349,29.5376],[-104.2672,29.5266],[-104.0573,29.339],[-103.7942,29.2776],[-103.6731,29.1736],[-103.5417,29.1488],[-103.3721,29.0237],[-103.3115,29.026],[-103.148,28.9851],[-102.9884,29.1771],[-102.8969,29.2203],[-102.8831,29.3438],[-102.7797,29.5923],[-102.6835,29.7437],[-102.4061,29.7773],[-102.3022,29.8894],[-102.1093,29.8021],[-101.9722,29.8182],[-101.6322,29.7757],[-101.4093,29.7658],[-101.3644,29.6767],[-101.219,29.6103],[-101.1636,29.5013],[-101.0378,29.4601],[-101.0162,29.3901],[-100.8161,29.2708],[-100.669,29.1162],[-100.6243,28.9247],[-100.5191,28.805],[-100.4939,28.7084],[-100.3971,28.5927],[-100.2843,28.2965],[-100.1976,28.2072],[-100.0749,28.1544],[-100.0006,28.0204],[-99.8788,27.9018],[-99.807,27.7714],[-99.7107,27.6701],[-99.5072,27.5738],[-99.4729,27.4266],[-99.4976,27.3388],[-99.432,27.2076],[-99.4617,27.057],[-99.2483,26.8271],[-99.1649,26.5404],[-99.0855,26.4076],[-98.7959,26.3683],[-98.6406,26.2418],[-98.5816,26.2623],[-98.3693,26.194],[-98.2227,26.0754],[-97.802,26.0637],[-97.6796,26.0346],[-97.4254,25.8549],[-97.2531,25.9635],[-97.1393,25.9658],[-97.2362,25.9842],[-97.3105,26.1233],[-97.3519,26.3538],[-97.4479,26.4202],[-97.4249,26.5349],[-97.4884,26.7751],[-97.5548,26.8251],[-97.5502,27.0092],[-97.4807,27.022],[-97.446,27.1327],[-97.5211,27.2322],[-97.5341,27.3518],[-97.4224,27.3278],[-97.2628,27.6793],[-97.3561,27.7418],[-97.3856,27.8301],[-97.2672,27.8794],[-97.1841,27.8366],[-97.025,28.0414],[-97.1573,28.1339],[-96.8802,28.1506],[-96.7823,28.2416],[-96.7775,28.4374],[-96.6537,28.3195],[-96.4038,28.4349],[-96.5819,28.5789],[-96.5595,28.6543],[-96.3458,28.6353],[-96.2604,28.6887],[-96.2049,28.5867],[-95.8174,28.7325],[-95.6019,28.7639],[-95.3794,28.8806],[-95.1589,29.0457],[-95.1592,29.1524],[-95.0652,29.2042],[-94.8888,29.376],[-95.0239,29.5422],[-95.0155,29.7203],[-94.8761,29.6658],[-94.8265,29.7681],[-94.6927,29.6963],[-94.7552,29.5243],[-94.6543,29.4519],[-94.0601,29.6818],[-93.8758,29.675],[-93.9327,29.7762],[-93.8541,29.9866],[-93.7984,29.9856],[-93.7172,30.0798],[-93.7152,30.2873],[-93.7524,30.3927],[-93.6868,30.6006],[-93.5738,30.8197],[-93.5148,31.042],[-93.6779,31.3307],[-93.6551,31.3703],[-93.8269,31.5878],[-93.8143,31.7131],[-93.9042,31.8832],[-94.0432,31.9982],[-94.0413,33.0109],[-94.0473,33.5542],[-94.3001,33.5948],[-94.3874,33.5618],[-94.4841,33.6474],[-94.8727,33.7559],[-94.9817,33.8617],[-95.2203,33.9629],[-95.357,33.8682],[-95.5371,33.8899],[-95.5981,33.9521],[-95.7723,33.8619],[-95.9379,33.8956],[-96.1564,33.8212],[-96.2027,33.7637],[-96.4965,33.7866],[-96.6494,33.916],[-96.692,33.8546],[-96.8556,33.8748],[-96.9145,33.9559],[-97.0783,33.8079],[-97.2006,33.7866],[-97.2118,33.9101],[-97.3717,33.8305],[-97.5709,33.899],[-97.68,33.9835],[-97.8008,33.8878],[-97.9591,33.893],[-97.9466,33.9771],[-98.0884,34.0278],[-98.0907,34.1383],[-98.3433,34.1435],[-98.4907,34.0752],[-98.5747,34.1517],[-98.7201,34.1366],[-98.9528,34.2117],[-99.193,34.2322],[-99.1921,34.3222],[-99.2655,34.4116],[-99.4014,34.3864],[-99.6808,34.3947],[-99.882,34.5649],[-99.9993,34.5755],[-100.0009,35.5412],[-100.0024,36.4999],[-100.748,36.5001],[-101.8075,36.5002],[-103.0002,36.5002],[-103.0421,36.4996],[-103.0477,35.3381],[-103.0507,34.7821],[-103.0551,33.948],[-103.0604,32.9748],[-103.0656,32.0017],[-103.9541,32.0013],[-104.8427,32.001],[-105.9534,32.0006],[-106.6622,32.0003],[-106.5915,31.8272],[-106.5061,31.7703]]]}},{"type":"Feature","properties":{"sourceId":"1159308731","regionId":"region.0a627fff-2c1f-49ac-9bb2-83a53e53dfdb","countryId":"country.u6myyj"},"geometry":{"type":"MultiPolygon","coordinates":[[[[-141.0056,69.6509],[-141.4129,69.6504],[-141.6533,69.7622],[-142.2709,69.856],[-142.6008,70.0131],[-143.2357,70.1182],[-144.3861,70.044],[-144.5902,69.9828],[-144.9416,69.978],[-145.5997,70.0808],[-145.8802,70.175],[-146.8488,70.1934],[-147.1237,70.1675],[-147.8061,70.2365],[-147.7987,70.2904],[-148.2574,70.3545],[-148.3814,70.3125],[-148.7958,70.4145],[-149.3445,70.5101],[-149.8897,70.5128],[-150.1191,70.4429],[-150.5131,70.5039],[-151.1777,70.4487],[-151.9797,70.4487],[-151.7604,70.5667],[-152.4562,70.5559],[-152.5141,70.6889],[-152.2192,70.818],[-152.5458,70.8875],[-153.3024,70.9287],[-153.514,70.8869],[-153.8935,70.8984],[-154.131,70.7913],[-154.5388,70.8262],[-154.7129,70.9056],[-154.5971,71.0005],[-155.1093,71.1504],[-155.1967,71.0414],[-155.5179,70.9521],[-155.5424,70.8664],[-155.9198,70.8254],[-156.0872,70.927],[-155.5937,71.0697],[-155.6247,71.1835],[-155.9993,71.1945],[-156.8172,71.3063],[-157.2312,71.0714],[-157.5591,70.9514],[-158.043,70.8369],[-159.3568,70.7602],[-159.6682,70.805],[-159.9479,70.6364],[-160.2162,70.579],[-160.8607,70.3473],[-161.3422,70.2588],[-162.015,70.2773],[-162.4615,70.0596],[-162.5378,69.9567],[-162.9498,69.7905],[-163.1558,69.3594],[-163.6225,69.1192],[-163.9645,69.0031],[-164.3464,68.9294],[-165.0441,68.8815],[-165.6647,68.8616],[-166.2368,68.8748],[-166.24,68.5643],[-166.5482,68.3588],[-166.1035,68.2399],[-165.9281,68.1369],[-165.4372,68.0602],[-164.856,67.8496],[-164.6936,67.8246],[-164.1515,67.6196],[-163.81,67.3352],[-163.6883,67.1032],[-162.9373,67.0293],[-162.7333,67.0488],[-162.4355,66.991],[-161.8352,67.055],[-161.7307,66.9536],[-161.8806,66.8148],[-161.8683,66.7063],[-161.5626,66.5664],[-161.3137,66.5353],[-161.1361,66.6519],[-160.881,66.6724],[-160.5517,66.5911],[-160.3254,66.6048],[-160.2192,66.5321],[-160.2491,66.4023],[-160.7848,66.3745],[-161.061,66.4862],[-161.6072,66.4539],[-161.8708,66.5322],[-162.0808,66.6662],[-162.015,66.7724],[-162.3271,66.9604],[-162.6387,66.8996],[-162.4405,66.7308],[-162.2645,66.7227],[-161.9325,66.5563],[-161.7446,66.4055],[-161.5107,66.4077],[-161.1357,66.3432],[-161.1143,66.2069],[-161.5712,66.258],[-161.6853,66.1386],[-161.9156,66.0424],[-162.1794,66.0759],[-162.6547,66.0385],[-162.7648,66.1039],[-163.1217,66.0704],[-163.3544,66.0976],[-163.6805,66.0786],[-163.8905,66.1676],[-163.8956,66.3993],[-163.7591,66.5048],[-163.9864,66.6123],[-164.7181,66.5563],[-164.9506,66.4602],[-165.3057,66.437],[-165.7664,66.3236],[-165.89,66.241],[-165.5001,66.1523],[-165.755,66.1053],[-166.0937,66.1253],[-166.2875,66.1796],[-166.725,66.0613],[-167.0599,65.8776],[-167.3459,65.8986],[-167.561,65.8089],[-167.5809,65.7207],[-167.8227,65.7203],[-168.081,65.5915],[-167.3986,65.4011],[-166.9383,65.3851],[-166.3101,65.3122],[-166.2516,65.2581],[-166.7495,65.062],[-166.6845,64.9822],[-166.3902,64.8985],[-166.4835,64.7296],[-166.1897,64.5852],[-165.4462,64.5119],[-165.0355,64.4483],[-164.3419,64.59],[-163.5366,64.5645],[-163.135,64.4125],[-163.053,64.51],[-163.3898,64.5969],[-163.2425,64.6484],[-162.8275,64.5006],[-162.6072,64.5068],[-162.2702,64.6193],[-162.0809,64.7211],[-161.7164,64.7949],[-161.4222,64.7744],[-161.1826,64.9395],[-160.8847,64.8101],[-160.8032,64.6434],[-161.035,64.5078],[-161.457,64.5211],[-161.4857,64.4571],[-161.2268,64.4118],[-160.9735,64.2505],[-160.9288,64.0482],[-160.767,63.8241],[-160.7916,63.7465],[-161.1863,63.5056],[-161.5734,63.4554],[-162.087,63.4523],[-162.2373,63.5463],[-162.5965,63.2767],[-162.8063,63.2196],[-163.094,63.0574],[-163.3505,63.0308],[-163.6025,63.1056],[-163.7673,63.2248],[-164.1454,63.2622],[-164.3658,63.2292],[-164.5791,63.1406],[-164.4416,63.0319],[-164.7235,63.0129],[-164.8832,62.8415],[-164.8132,62.6202],[-164.8679,62.538],[-165.133,62.5157],[-165.7056,62.1166],[-165.7391,61.9651],[-165.6091,61.8513],[-166.1028,61.8211],[-165.9112,61.7042],[-166.1999,61.5946],[-166.1383,61.5161],[-165.9239,61.5622],[-165.777,61.5158],[-165.9213,61.3994],[-165.8287,61.313],[-165.6237,61.2805],[-165.6217,61.1435],[-165.3737,61.0716],[-165.2115,61.1496],[-165.0587,61.0629],[-165.129,60.9235],[-164.8558,60.9509],[-164.628,60.9323],[-164.5644,60.8547],[-164.0071,60.8622],[-163.7659,60.8895],[-163.4243,60.7647],[-163.4643,60.6766],[-163.7944,60.5842],[-163.8069,60.7349],[-163.9556,60.7799],[-164.2184,60.6902],[-164.2708,60.7879],[-164.6691,60.8258],[-164.6684,60.9218],[-165.0314,60.787],[-164.9992,60.7114],[-165.3143,60.5809],[-164.989,60.3414],[-164.4853,60.1837],[-164.4127,60.0918],[-164.2006,60.0343],[-164.0983,59.8337],[-163.6149,59.8008],[-163.0876,59.8591],[-162.808,59.9426],[-162.7517,60.005],[-162.5258,59.9975],[-162.3749,60.1763],[-162.1088,59.9652],[-162.0818,59.8779],[-161.7139,59.5014],[-161.9466,59.3878],[-162.0295,59.2301],[-161.9741,59.1314],[-161.614,59.0808],[-161.7995,58.984],[-161.7174,58.7548],[-161.9128,58.6319],[-161.5624,58.602],[-161.3639,58.6596],[-161.3575,58.7262],[-160.6672,58.9476],[-160.3522,59.0707],[-160.2572,58.9119],[-160.0458,58.8826],[-159.9115,58.7758],[-159.7252,58.9104],[-159.385,58.7558],[-159.0513,58.4247],[-158.8297,58.4048],[-158.77,58.5185],[-158.8894,58.7063],[-158.7939,58.8164],[-158.5662,58.8195],[-158.4083,58.7701],[-158.3159,58.6466],[-158.1537,58.614],[-157.5682,58.7479],[-157.4752,58.7996],[-157.0845,58.8867],[-157.0619,58.7262],[-157.5027,58.4637],[-157.529,58.256],[-157.6055,58.1052],[-157.7088,57.7299],[-157.7097,57.5687],[-157.9407,57.4975],[-158.0797,57.3966],[-158.3124,57.3149],[-158.6821,57.022],[-158.6815,56.7866],[-158.945,56.8429],[-159.4564,56.6293],[-159.7457,56.5793],[-160.1887,56.3869],[-160.3687,56.2768],[-160.5681,56.0076],[-160.5207,55.9352],[-160.6887,55.8623],[-160.8204,55.7392],[-161.1242,55.9612],[-161.4577,55.9539],[-161.8263,55.8799],[-162.227,55.6979],[-162.6533,55.3615],[-162.962,55.169],[-163.0517,55.2143],[-163.3345,55.1195],[-163.2176,55.0454],[-163.0411,55.0994],[-162.8776,54.939],[-162.6455,54.9984],[-162.6141,55.1663],[-162.7183,55.2179],[-162.5833,55.3011],[-162.4165,55.0979],[-162.2748,55.0196],[-161.9566,55.1257],[-161.8945,55.2424],[-161.7164,55.3933],[-161.7084,55.5271],[-161.6208,55.613],[-161.3887,55.5722],[-161.5184,55.3834],[-161.2792,55.3549],[-161.025,55.4274],[-160.9245,55.5191],[-160.7826,55.4471],[-160.4775,55.4946],[-160.4352,55.5769],[-160.1641,55.6571],[-159.8304,55.8527],[-159.6252,55.8127],[-159.0993,55.9283],[-158.9283,55.9208],[-158.8594,56.0129],[-158.4836,56.0324],[-158.4416,56.1331],[-158.3183,56.1747],[-158.3454,56.3256],[-158.6328,56.2982],[-158.3551,56.4711],[-158.1663,56.4589],[-158.068,56.5119],[-157.8771,56.4782],[-157.9134,56.6539],[-157.7508,56.6743],[-157.4042,56.7737],[-157.1894,56.7763],[-157.0504,56.8782],[-156.7675,57.0118],[-156.5742,56.9832],[-156.4884,57.1138],[-156.346,57.1778],[-156.392,57.3148],[-156.3389,57.4154],[-155.8162,57.5725],[-155.6118,57.6658],[-155.6051,57.7922],[-155.3944,57.7257],[-155.3347,57.8265],[-155.0687,57.8974],[-155.0231,58.0256],[-154.5831,58.025],[-154.4432,58.1445],[-154.2803,58.133],[-154.1657,58.2168],[-154.3001,58.3204],[-154.0002,58.3856],[-153.8994,58.6167],[-153.6907,58.6216],[-153.4388,58.7336],[-153.3316,58.9338],[-153.7115,59.0707],[-154.1984,59.077],[-154.0764,59.3812],[-153.7247,59.4661],[-153.5732,59.6422],[-153.3172,59.6388],[-153.0553,59.7102],[-153.0212,59.8889],[-152.7379,59.9084],[-152.5903,60.0922],[-152.6984,60.1701],[-152.416,60.2978],[-152.3401,60.4761],[-152.0514,60.6732],[-151.8407,60.7511],[-151.7469,60.9168],[-151.5668,60.9945],[-151.1548,61.0644],[-151.0609,61.1633],[-150.6336,61.2987],[-150.4506,61.2526],[-149.9838,61.2463],[-150.0673,61.1557],[-149.618,60.9946],[-150.0438,60.9168],[-150.2253,60.9372],[-150.4525,61.0342],[-151.0715,60.7853],[-151.4173,60.7182],[-151.2828,60.5371],[-151.4654,60.1877],[-151.706,60.0417],[-151.8829,59.7865],[-151.7469,59.6828],[-151.4726,59.6357],[-151.1091,59.7865],[-151.2733,59.56],[-151.4404,59.4936],[-151.6518,59.4859],[-151.894,59.4128],[-151.9772,59.2794],[-151.7415,59.1671],[-151.5681,59.1758],[-151.3968,59.2583],[-151.1103,59.2189],[-151.0925,59.2851],[-150.6531,59.4239],[-150.5533,59.5357],[-150.3262,59.476],[-149.9165,59.7176],[-149.8072,59.7176],[-149.7386,59.8909],[-149.5769,59.8976],[-149.3411,60.0224],[-148.926,59.9715],[-148.5618,59.9571],[-148.402,59.9914],[-148.1413,60.2322],[-148.2762,60.2796],[-147.9419,60.4431],[-148.0836,60.6049],[-148.2063,60.6206],[-148.2646,60.7608],[-148.5864,60.8305],[-148.3065,60.8957],[-148.1724,61.0233],[-147.9381,60.9088],[-147.3646,60.8913],[-147.1007,61.0153],[-146.8155,61.0318],[-146.6835,60.8798],[-146.5115,60.8186],[-146.4823,60.687],[-146.2225,60.7558],[-145.6918,60.6567],[-145.6813,60.6081],[-145.9388,60.4561],[-145.5726,60.4511],[-145.3891,60.3625],[-145.2359,60.3681],[-145.0195,60.5264],[-144.7908,60.4649],[-144.9145,60.3812],[-144.5711,60.1906],[-144.3476,60.2011],[-143.9186,59.997],[-143.6096,60.0495],[-143.1958,60.0677],[-142.7985,60.1124],[-141.9691,60.0281],[-141.7327,59.9631],[-141.3859,60.0348],[-141.2616,60.0118],[-141.2742,59.8492],[-140.8631,59.7456],[-140.3227,59.7012],[-139.6211,59.8903],[-139.4734,59.7176],[-139.6576,59.5755],[-139.857,59.5463],[-139.2059,59.3198],[-138.9817,59.2748],[-138.1849,59.0256],[-137.9844,58.92],[-137.931,58.803],[-137.5543,58.6208],[-137.5185,58.5648],[-137.1314,58.4013],[-136.9794,58.4069],[-136.5984,58.223],[-136.0267,58.3881],[-136.1282,58.5707],[-136.6335,58.8918],[-136.2691,58.7641],[-136.0603,58.8259],[-135.8411,58.5284],[-135.8867,58.3794],[-135.6275,58.4263],[-135.4159,58.395],[-135.3096,58.2521],[-135.1456,58.2168],[-135.0528,58.3093],[-135.2262,58.6123],[-135.231,58.7717],[-135.3858,58.9543],[-135.3607,59.1138],[-135.2296,59.1259],[-135.1436,58.8339],[-134.827,58.511],[-134.7673,58.4003],[-134.498,58.3539],[-134.2416,58.2143],[-134.0677,58.2789],[-134.0597,58.0722],[-133.8612,57.9567],[-133.5729,57.7161],[-133.6588,57.6209],[-133.4974,57.5316],[-133.3915,57.3352],[-133.552,57.1815],[-133.093,57.0865],[-132.7677,56.9697],[-132.8604,56.9189],[-132.6732,56.8028],[-132.4795,56.7428],[-132.4769,56.6045],[-132.2033,56.4713],[-132.161,56.3802],[-131.9713,56.3564],[-131.8138,56.196],[-131.963,56.1574],[-131.9435,56.0069],[-132.086,55.8458],[-132.2615,55.7397],[-132.1716,55.5885],[-131.9614,55.501],[-131.8277,55.6679],[-131.7359,55.8867],[-131.4144,56.0102],[-131.1652,55.9406],[-130.8899,55.7153],[-130.8732,55.342],[-131.0576,55.1987],[-130.9497,55.0738],[-130.9342,54.8244],[-130.5803,54.8064],[-130.3654,54.9073],[-130.0782,55.2338],[-129.9892,55.284],[-130.147,55.5472],[-130.1737,55.7495],[-130.0196,55.908],[-130.0715,56.0841],[-130.404,56.1219],[-130.4955,56.2324],[-130.6458,56.2619],[-130.8391,56.3725],[-131.1005,56.4077],[-131.5859,56.595],[-131.7991,56.5877],[-131.8716,56.7935],[-132.1074,56.8588],[-132.0319,57.0284],[-132.3412,57.0804],[-132.231,57.1968],[-132.5524,57.4991],[-132.9172,57.8805],[-133.0752,58.0079],[-133.1656,58.1473],[-133.3746,58.291],[-133.4631,58.4622],[-133.6263,58.5464],[-133.8712,58.7359],[-134.2222,58.8427],[-134.3994,58.975],[-134.398,59.052],[-134.7055,59.2401],[-134.9324,59.2706],[-135.0958,59.4189],[-135.0162,59.5434],[-135.2599,59.6982],[-135.4828,59.7925],[-135.9238,59.6667],[-136.2585,59.6216],[-136.275,59.4864],[-136.4676,59.4616],[-136.4665,59.2878],[-136.6135,59.1542],[-136.8408,59.1482],[-137.2819,58.9872],[-137.4231,58.9077],[-137.6114,59.2393],[-138.5992,59.7538],[-138.6921,59.8869],[-139.0602,60.0001],[-139.1832,60.1002],[-139.0732,60.2998],[-139.1016,60.3466],[-139.6283,60.3341],[-140.0158,60.1874],[-140.4241,60.2932],[-140.5337,60.2185],[-141.0012,60.3211],[-141.0018,61.6331],[-141.0023,62.6536],[-141.0026,63.3825],[-141.0031,64.5487],[-141.0036,65.5692],[-141.0042,66.5896],[-141.0047,67.7558],[-141.0051,68.6305],[-141.0056,69.6509]]],[[[-132.703,54.7012],[-132.7225,54.7766],[-132.9425,54.9482],[-132.9971,55.0643],[-133.2169,55.0991],[-133.0371,54.8774],[-132.8562,54.7447],[-132.703,54.7012]]],[[[-131.4796,55.0063],[-131.3455,55.0581],[-131.3956,55.2154],[-131.5315,55.1518],[-131.6245,55.0174],[-131.4796,55.0063]]],[[[-131.8185,55.4138],[-131.8532,55.3005],[-131.7433,55.1427],[-131.6361,55.2993],[-131.8185,55.4138]]],[[[-130.9619,55.5851],[-130.9383,55.6515],[-131.1796,55.9235],[-131.2803,55.9652],[-131.5788,55.9072],[-131.6706,55.8395],[-131.7074,55.6296],[-131.6505,55.5503],[-131.8103,55.4766],[-131.6615,55.3432],[-131.5089,55.3117],[-131.192,55.1857],[-131.0652,55.2611],[-130.9619,55.5851]]],[[[-133.6073,56.0785],[-133.7949,55.9436],[-133.631,55.9186],[-133.4703,56.0173],[-133.2995,56.012],[-133.3927,56.1605],[-133.6073,56.0785]]],[[[-132.5484,56.3044],[-132.6814,56.2292],[-132.6454,56.0581],[-132.4491,56.0648],[-132.4286,55.9693],[-132.3034,55.9154],[-132.1226,55.9455],[-132.0922,56.1064],[-132.3594,56.2179],[-132.3853,56.3322],[-132.5484,56.3044]]],[[[-131.9767,54.8315],[-131.9943,55.2681],[-132.0907,55.2768],[-132.4013,55.5168],[-132.3467,55.6431],[-132.4627,55.6676],[-132.4627,55.7768],[-132.7364,55.9966],[-132.9185,56.0659],[-133.0628,56.0523],[-133.0539,56.2344],[-133.1821,56.3323],[-133.2941,56.3138],[-133.5868,56.3529],[-133.6122,56.2123],[-133.2855,56.1674],[-133.2367,55.9003],[-133.1479,55.8184],[-133.3852,55.7093],[-133.2513,55.5848],[-133.0631,55.6235],[-133.213,55.2792],[-132.9596,55.2766],[-132.6086,55.1192],[-132.5794,54.9544],[-132.4226,54.9302],[-132.2648,54.8446],[-132.2976,54.7445],[-132.004,54.6938],[-131.9767,54.8315]]],[[[-132.6129,56.4006],[-132.703,56.4621],[-132.9242,56.452],[-133.0489,56.3628],[-132.8689,56.2435],[-132.6472,56.2824],[-132.6129,56.4006]]],[[[-132.004,56.3392],[-132.1239,56.3432],[-132.3392,56.4832],[-132.3529,56.2778],[-132.0723,56.1195],[-131.9283,56.1946],[-132.004,56.3392]]],[[[-132.9596,56.788],[-132.8909,56.6294],[-132.9375,56.5176],[-132.7917,56.4969],[-132.5334,56.6003],[-132.8163,56.7973],[-132.9596,56.788]]],[[[-133.8847,56.4901],[-133.8577,56.5875],[-133.7057,56.6042],[-133.8012,56.777],[-134.0127,56.8852],[-134.1759,56.922],[-134.4086,56.8429],[-134.3576,56.6766],[-134.2469,56.5634],[-134.0674,56.4776],[-134.1144,56.3938],[-134.282,56.3628],[-134.2001,56.1505],[-133.9491,56.0924],[-133.8956,56.22],[-133.9813,56.2839],[-133.8452,56.4344],[-133.8847,56.4901]]],[[[-133.9127,57.0828],[-134.0182,57.0176],[-133.6966,56.832],[-133.6594,56.4642],[-133.1479,56.4621],[-132.9339,56.6416],[-132.9911,56.8084],[-132.9804,56.935],[-133.1091,56.9987],[-133.3882,56.9971],[-133.5829,57.05],[-133.9127,57.0828]]],[[[-152.9079,57.1647],[-153.1544,57.1645],[-153.2605,57.2056],[-153.4116,57.079],[-153.3256,57.022],[-152.9079,57.1647]]],[[[-135.6016,57.1716],[-135.6152,57.2845],[-135.8241,57.3323],[-135.7621,57.1142],[-135.8411,56.9897],[-135.6282,57.0102],[-135.6016,57.1716]]],[[[-134.6215,56.7438],[-134.6898,56.8497],[-134.8083,57.1814],[-134.9711,57.3124],[-134.9948,57.3978],[-135.3812,57.5536],[-135.6732,57.3497],[-135.3103,57.0473],[-135.2945,56.8922],[-135.3675,56.8289],[-135.1547,56.7459],[-135.0528,56.5378],[-134.75,56.2174],[-134.6264,56.2615],[-134.6215,56.7438]]],[[[-152.1609,57.6271],[-152.4678,57.6572],[-152.459,57.7681],[-152.3291,57.8258],[-152.4863,57.9107],[-153.2025,57.9462],[-153.1919,57.8052],[-153.5744,57.8395],[-153.7238,57.9021],[-153.9246,57.8105],[-153.9255,57.7296],[-153.754,57.562],[-153.8113,57.4123],[-154.0559,57.6551],[-154.2393,57.6733],[-154.6147,57.5266],[-154.81,57.3466],[-154.6015,57.2589],[-154.535,57.1746],[-154.5286,56.9916],[-154.238,56.8996],[-154.1583,56.9692],[-153.8771,56.9766],[-154.1301,56.7865],[-153.9625,56.7482],[-153.5598,56.9865],[-153.6108,57.0238],[-153.2533,57.2367],[-153.0963,57.2182],[-152.6922,57.2833],[-152.591,57.4509],[-152.3303,57.446],[-152.1609,57.6271]]],[[[-135.848,57.3944],[-135.7074,57.3665],[-135.5463,57.4661],[-135.628,57.706],[-135.0569,57.4666],[-134.8139,57.4975],[-134.9139,57.7558],[-135.1975,57.7097],[-135.3724,57.8052],[-134.9425,57.8066],[-134.9248,58.0275],[-135.3893,58.1411],[-135.8135,58.2744],[-135.9823,58.1676],[-136.4053,58.1339],[-136.2969,58.0106],[-136.3948,57.8857],[-136.1428,57.6448],[-135.9468,57.5163],[-135.848,57.3944]]],[[[-134.5973,58.2373],[-134.2584,58.1963],[-134.4818,58.3335],[-134.5973,58.2373]]],[[[-134.354,57.0927],[-134.1274,57.2646],[-133.865,57.3551],[-133.9379,57.6186],[-134.2087,57.8399],[-134.3122,57.9794],[-134.0023,57.9394],[-134.1693,58.0778],[-134.1864,58.1684],[-134.6932,58.1684],[-134.7978,58.1128],[-134.6536,57.5982],[-134.4639,57.3944],[-134.6215,57.2299],[-134.6229,57.1108],[-134.5018,57.029],[-134.354,57.0927]]],[[[-151.966,58.3328],[-152.0951,58.3676],[-152.4769,58.3615],[-152.4998,58.4632],[-152.6506,58.4836],[-152.7851,58.3708],[-152.7933,58.2868],[-153.0417,58.3056],[-153.2296,58.1689],[-153.0144,58.0455],[-152.8049,57.9915],[-152.7081,58.0521],[-152.3311,58.165],[-152.13,58.1662],[-151.9722,58.2373],[-151.966,58.3328]]],[[[-160.9476,58.7376],[-161.0617,58.7005],[-161.0741,58.5469],[-160.8979,58.5703],[-160.6859,58.8108],[-160.9476,58.7376]]],[[[-147.1072,60.2862],[-147.2956,60.2322],[-147.3802,60.1396],[-147.7031,59.9975],[-147.8861,59.8576],[-147.8402,59.7865],[-147.4903,59.9392],[-147.2338,60.1331],[-147.0105,60.2337],[-147.1072,60.2862]]],[[[-146.1886,60.4022],[-146.3531,60.4711],[-146.5881,60.484],[-146.7226,60.3862],[-146.4903,60.3613],[-146.1886,60.4022]]],[[[-177.8003,51.7957],[-177.9523,51.9248],[-178.2138,51.876],[-177.9548,51.7291],[-177.8003,51.7957]]],[[[-177.1222,51.9329],[-177.2155,51.8188],[-177.3854,51.7264],[-177.2777,51.6801],[-177.1278,51.7475],[-177.1222,51.9329]]],[[[-176.4372,51.7883],[-176.6415,51.8572],[-176.9151,51.7919],[-176.8822,51.7204],[-176.5881,51.6859],[-176.4372,51.7883]]],[[[-173.1234,52.108],[-173.8388,52.1196],[-173.836,52.0434],[-173.3765,52.0388],[-173.1234,52.108]]],[[[-172.4072,52.3854],[-172.558,52.3507],[-172.5294,52.2502],[-172.3109,52.3165],[-172.4072,52.3854]]],[[[-174.052,52.2408],[-173.9919,52.3126],[-174.1903,52.4179],[-174.3468,52.3643],[-174.2283,52.2675],[-174.3309,52.2023],[-174.5591,52.1793],[-174.9746,52.0583],[-174.7153,52.0165],[-174.3738,52.1117],[-174.1002,52.1409],[-174.052,52.2408]]],[[[-167.8575,53.3928],[-167.7948,53.502],[-168.0083,53.5703],[-168.1998,53.5402],[-168.4066,53.4095],[-168.3608,53.2713],[-168.6057,53.2751],[-168.7595,53.1867],[-168.7513,52.9602],[-168.4899,53.0421],[-168.2876,53.243],[-168.1382,53.2733],[-167.8575,53.3928]]],[[[-166.2943,53.728],[-166.4404,53.7545],[-166.4558,53.8961],[-166.6361,53.8765],[-166.6057,53.9858],[-166.7539,54.016],[-167.0216,53.9612],[-167.1634,53.8574],[-166.9465,53.7158],[-167.1554,53.6226],[-167.1586,53.4771],[-167.3215,53.4164],[-167.4746,53.434],[-167.7185,53.3813],[-167.85,53.3096],[-167.6651,53.2419],[-167.3913,53.3444],[-166.8768,53.4815],[-166.6564,53.5024],[-166.5472,53.6259],[-166.2943,53.728]]],[[[-165.7391,54.1252],[-165.8796,54.2134],[-166.0712,54.1852],[-166.0408,54.0364],[-165.7391,54.1252]]],[[[179.7809,51.967],[179.6434,52.0303],[179.4861,51.9739],[179.6421,51.8742],[179.7809,51.967]]],[[[173.3766,52.8305],[173.3013,52.9256],[173.1272,52.9949],[172.9694,52.9744],[172.6604,53.0086],[172.6404,52.8688],[172.9443,52.7498],[173.0894,52.8305],[173.3766,52.8305]]],[[[-163.0738,54.6876],[-163.1442,54.7703],[-163.373,54.7927],[-163.4232,54.912],[-163.5716,55.057],[-163.9167,55.0364],[-164.314,54.893],[-164.5474,54.8828],[-164.7007,54.6783],[-164.9582,54.5852],[-164.8453,54.4235],[-164.6526,54.392],[-164.4056,54.436],[-164.3297,54.5348],[-164.1327,54.6232],[-163.7899,54.6379],[-163.6225,54.6118],[-163.4307,54.6801],[-163.0738,54.6876]]],[[[-160.4974,55.1946],[-160.5745,55.3249],[-160.696,55.4069],[-160.8536,55.3319],[-160.8474,55.2071],[-160.6271,55.1537],[-160.4974,55.1946]]],[[[-165.5821,59.951],[-165.7329,60.1763],[-165.6844,60.2998],[-165.9882,60.3206],[-166.1854,60.4022],[-166.4592,60.3872],[-166.7923,60.2923],[-166.874,60.2106],[-167.2881,60.2387],[-167.4361,60.1954],[-167.1898,60.0278],[-166.6134,59.8564],[-166.244,59.8078],[-165.9791,59.8762],[-165.5986,59.9097],[-165.5821,59.951]]],[[[-168.7407,63.281],[-169.0076,63.3493],[-169.124,63.3006],[-169.3256,63.3631],[-169.5495,63.3629],[-170.0386,63.5319],[-170.0825,63.6152],[-170.2974,63.6955],[-170.6626,63.6725],[-170.937,63.5717],[-171.5043,63.6533],[-171.7206,63.7527],[-171.8529,63.5212],[-171.7356,63.3759],[-171.4393,63.3198],[-171.0839,63.4449],[-170.8562,63.4604],[-170.4443,63.3592],[-170.1134,63.2028],[-169.8175,63.1268],[-169.7162,63.0248],[-169.2873,63.1933],[-168.8118,63.1701],[-168.7407,63.281]]]]}},{"type":"Feature","properties":{"sourceId":"1159315221","regionId":"region.acfeff6e-1aa2-431e-bcda-81eb4dd2226b","countryId":"country.u6myyj"},"geometry":{"type":"MultiPolygon","coordinates":[[[[-89.526,30.1928],[-89.5879,30.2121],[-89.6776,30.4568],[-89.7995,30.5659],[-89.8461,30.6825],[-89.7353,31.0001],[-90.7105,31.0002],[-91.6573,31.0002],[-91.579,31.0562],[-91.6275,31.1418],[-91.633,31.2783],[-91.541,31.2825],[-91.4956,31.4113],[-91.5289,31.5006],[-91.4357,31.5732],[-91.4042,31.7384],[-91.336,31.8581],[-91.2575,31.8817],[-91.0689,32.0847],[-90.9165,32.3398],[-91.093,32.4508],[-91.161,32.6254],[-91.1333,32.8585],[-91.0719,32.9232],[-91.1665,33.0143],[-91.8957,33.013],[-93.1473,33.0118],[-94.0413,33.0109],[-94.0432,31.9982],[-93.9042,31.8832],[-93.8143,31.7131],[-93.8269,31.5878],[-93.6551,31.3703],[-93.6779,31.3307],[-93.5148,31.042],[-93.5738,30.8197],[-93.6868,30.6006],[-93.7524,30.3927],[-93.7152,30.2873],[-93.7172,30.0798],[-93.7984,29.9856],[-93.7819,29.8565],[-93.8882,29.8072],[-93.831,29.7001],[-93.7394,29.7372],[-93.4534,29.7704],[-93.1996,29.7728],[-93.0268,29.7329],[-92.6831,29.6041],[-92.2765,29.5338],[-92.1074,29.6204],[-92.1341,29.7568],[-91.9844,29.832],[-91.8779,29.7593],[-91.6847,29.7531],[-91.569,29.6471],[-91.5343,29.534],[-91.3209,29.4966],[-91.2198,29.4044],[-91.328,29.2949],[-91.2286,29.2386],[-90.9299,29.1713],[-90.8286,29.1763],[-90.7059,29.1195],[-90.562,29.3007],[-90.3937,29.2983],[-90.2511,29.2474],[-90.2292,29.0867],[-90.0802,29.1747],[-90.095,29.2838],[-90.0363,29.3659],[-90.0804,29.5373],[-89.9077,29.477],[-89.7577,29.3432],[-89.4825,29.2431],[-89.3837,29.0878],[-89.1881,29.0305],[-89.0232,29.1474],[-89.202,29.3529],[-89.3423,29.3461],[-89.6684,29.5218],[-89.6391,29.6203],[-89.4568,29.8293],[-89.4273,30.0587],[-89.5712,29.9885],[-89.6865,29.8826],[-89.8389,29.9953],[-89.7888,30.0989],[-89.8804,30.1549],[-90.037,30.0403],[-90.1684,30.0245],[-90.3391,30.0661],[-90.433,30.1433],[-90.405,30.2202],[-90.2224,30.3876],[-90.0585,30.3603],[-89.9691,30.2647],[-89.7703,30.2397],[-89.7084,30.1753],[-89.526,30.1928]]],[[[-91.8021,29.4901],[-91.7202,29.5817],[-91.9293,29.6471],[-92.0205,29.5688],[-91.8021,29.4901]]]]}},{"type":"Feature","properties":{"sourceId":"1159315231","regionId":"region.755e5f25-1f72-4e08-8765-6dfcfc77da62","countryId":"country.u6myyj"},"geometry":{"type":"Polygon","coordinates":[[[-88.4022,30.3878],[-88.4494,31.2325],[-88.4862,31.8895],[-88.379,32.7001],[-88.3085,33.2338],[-88.1697,34.284],[-88.0894,34.892],[-88.1791,34.9978],[-89.2644,34.999],[-90.3042,35.0001],[-90.2718,34.9231],[-90.4639,34.8279],[-90.5939,34.6423],[-90.594,34.4251],[-90.8212,34.2856],[-90.9092,34.0353],[-91.0846,33.9967],[-91.0454,33.8145],[-91.1923,33.7081],[-91.1517,33.6334],[-91.2158,33.5339],[-91.1272,33.4781],[-91.1821,33.32],[-91.1076,33.2678],[-91.0992,33.1497],[-91.1665,33.0143],[-91.0719,32.9232],[-91.1333,32.8585],[-91.161,32.6254],[-91.093,32.4508],[-90.9165,32.3398],[-91.0689,32.0847],[-91.2575,31.8817],[-91.336,31.8581],[-91.4042,31.7384],[-91.4357,31.5732],[-91.5289,31.5006],[-91.4956,31.4113],[-91.541,31.2825],[-91.633,31.2783],[-91.6275,31.1418],[-91.579,31.0562],[-91.6573,31.0002],[-90.7105,31.0002],[-89.7353,31.0001],[-89.8461,30.6825],[-89.7995,30.5659],[-89.6776,30.4568],[-89.5879,30.2121],[-89.526,30.1928],[-89.3302,30.3029],[-89.0134,30.3774],[-88.9276,30.4422],[-88.7421,30.3541],[-88.4706,30.3239],[-88.4022,30.3878]]]}},{"type":"Feature","properties":{"sourceId":"1159315233","regionId":"region.19e30bd7-cf48-44e0-a0e8-c84e77e5e22e","countryId":"country.u6myyj"},"geometry":{"type":"Polygon","coordinates":[[[-87.4196,30.4796],[-87.4047,30.6453],[-87.6269,30.8731],[-87.5936,30.9997],[-86.5953,30.9999],[-85.6421,31],[-85.0066,31.0001],[-85.101,31.1827],[-85.1102,31.2715],[-85.0425,31.5353],[-85.1439,31.824],[-85.0604,32.0039],[-85.0474,32.1376],[-84.9007,32.2609],[-84.9723,32.3206],[-84.9677,32.4335],[-85.0835,32.6153],[-85.1986,32.9444],[-85.3502,33.7115],[-85.4588,34.2719],[-85.6057,34.9852],[-86.7265,34.9898],[-87.5143,35.0055],[-88.1791,34.9978],[-88.0894,34.892],[-88.1697,34.284],[-88.3085,33.2338],[-88.379,32.7001],[-88.4862,31.8895],[-88.4494,31.2325],[-88.4022,30.3878],[-88.3553,30.4038],[-88.1201,30.3383],[-88.0526,30.6544],[-87.9425,30.6597],[-87.9166,30.4233],[-87.7762,30.3131],[-87.7865,30.2368],[-87.5902,30.2754],[-87.4011,30.4401],[-87.4196,30.4796]]]}},{"type":"Feature","properties":{"sourceId":"1159315207","regionId":"region.eeab1bf9-a703-44ca-8e80-73a1ef71692d","countryId":"country.u6myyj"},"geometry":{"type":"Polygon","coordinates":[[[-87.4473,30.3131],[-87.4463,30.2982],[-87.3288,30.3197],[-87.1568,30.4745],[-87.0153,30.5211],[-86.9402,30.4565],[-86.6801,30.4223],[-86.4846,30.48],[-86.286,30.4975],[-86.3648,30.3808],[-86.066,30.3061],[-85.8645,30.2163],[-85.7086,30.247],[-85.6709,30.123],[-85.3565,29.8887],[-85.3022,29.7979],[-85.3079,29.6934],[-84.8866,29.73],[-84.7336,29.7917],[-84.5084,29.9221],[-84.349,29.902],[-84.391,30.0245],[-84.2696,30.0927],[-84.024,30.1066],[-83.6806,29.9213],[-83.5277,29.716],[-83.4089,29.6673],[-83.4048,29.5317],[-83.2157,29.4106],[-83.1577,29.3051],[-83.0239,29.1748],[-82.8492,29.1822],[-82.7735,29.1195],[-82.7551,29.0102],[-82.6444,28.9004],[-82.637,28.7465],[-82.6642,28.4479],[-82.7873,28.1938],[-82.7673,28.1059],[-82.8424,27.8285],[-82.6378,27.7011],[-82.596,27.9831],[-82.3982,27.796],[-82.5442,27.6501],[-82.5786,27.5473],[-82.6608,27.5203],[-82.5736,27.3951],[-82.5618,27.2763],[-82.3138,26.8494],[-82.1981,26.8031],[-82.1445,26.9404],[-82.057,26.8658],[-82.0821,26.6802],[-82.0391,26.5279],[-81.8559,26.4489],[-81.8009,26.0986],[-81.6644,25.9814],[-81.3961,25.8516],[-81.3217,25.7827],[-81.1492,25.3954],[-81.1771,25.2278],[-81.0865,25.1214],[-80.9102,25.1453],[-80.855,25.1862],[-80.7109,25.1453],[-80.5806,25.2414],[-80.4269,25.2217],[-80.3143,25.3712],[-80.3424,25.4936],[-80.3069,25.6182],[-80.1962,25.7538],[-80.1293,25.8879],[-80.0536,26.5567],[-80.0382,26.8112],[-80.0756,26.9732],[-80.177,27.1507],[-80.3454,27.5146],[-80.381,27.6661],[-80.7383,28.3735],[-80.8481,28.7906],[-80.7493,28.7241],[-80.7659,28.6123],[-80.6094,28.6102],[-80.9221,29.0683],[-81.1783,29.5855],[-81.2558,29.7895],[-81.4477,30.508],[-81.4286,30.6817],[-81.5,30.7122],[-81.7088,30.7411],[-81.9091,30.8185],[-82.0413,30.7367],[-82.0122,30.588],[-82.0486,30.3754],[-82.1662,30.3646],[-82.2398,30.5647],[-83.0207,30.6109],[-84.2146,30.6818],[-84.867,30.7204],[-85.0066,31.0001],[-85.6421,31],[-86.5953,30.9999],[-87.5936,30.9997],[-87.6269,30.8731],[-87.4047,30.6453],[-87.4196,30.4796],[-87.3585,30.4633],[-87.4473,30.3131]]]}},{"type":"Feature","properties":{"sourceId":"1159311857","regionId":"region.e334efec-8e2c-44fc-b46a-2eb8f528a732","countryId":"country.u6myyj"},"geometry":{"type":"Polygon","coordinates":[[[-80.8903,32.0327],[-81.0779,32.0871],[-81.1564,32.1939],[-81.1298,32.3],[-81.2008,32.4846],[-81.4058,32.6243],[-81.4025,32.7449],[-81.5004,32.9317],[-81.5176,33.0396],[-81.7597,33.1559],[-81.8417,33.3136],[-81.931,33.3612],[-81.9239,33.4586],[-82.0409,33.56],[-82.1939,33.6346],[-82.2453,33.7505],[-82.5705,33.9678],[-82.5994,34.0454],[-82.7344,34.1847],[-82.8573,34.4606],[-83.015,34.4817],[-83.3555,34.7084],[-83.3082,34.82],[-83.1148,35.0004],[-84.3246,34.9871],[-85.6057,34.9852],[-85.4588,34.2719],[-85.3502,33.7115],[-85.1986,32.9444],[-85.0835,32.6153],[-84.9677,32.4335],[-84.9723,32.3206],[-84.9007,32.2609],[-85.0474,32.1376],[-85.0604,32.0039],[-85.1439,31.824],[-85.0425,31.5353],[-85.1102,31.2715],[-85.101,31.1827],[-85.0066,31.0001],[-84.867,30.7204],[-84.2146,30.6818],[-83.0207,30.6109],[-82.2398,30.5647],[-82.1662,30.3646],[-82.0486,30.3754],[-82.0122,30.588],[-82.0413,30.7367],[-81.9091,30.8185],[-81.7088,30.7411],[-81.5,30.7122],[-81.4993,30.9682],[-81.4241,31.0251],[-81.386,31.1418],[-81.2699,31.2748],[-81.3639,31.4158],[-81.3009,31.5708],[-81.1963,31.7176],[-81.0609,31.7882],[-80.8357,32.0029],[-80.8903,32.0327]]]}},{"type":"Feature","properties":{"sourceId":"1159315307","regionId":"region.72b38b75-897a-4d70-830f-7170514f0ce5","countryId":"country.u6myyj"},"geometry":{"type":"Polygon","coordinates":[[[-78.5732,33.8826],[-79.2285,34.4366],[-79.6535,34.7957],[-79.7038,34.8058],[-80.7762,34.8257],[-80.7929,34.9617],[-80.9271,35.1081],[-81.0735,35.1542],[-82.2872,35.2059],[-82.554,35.1591],[-83.1148,35.0004],[-83.3082,34.82],[-83.3555,34.7084],[-83.015,34.4817],[-82.8573,34.4606],[-82.7344,34.1847],[-82.5994,34.0454],[-82.5705,33.9678],[-82.2453,33.7505],[-82.1939,33.6346],[-82.0409,33.56],[-81.9239,33.4586],[-81.931,33.3612],[-81.8417,33.3136],[-81.7597,33.1559],[-81.5176,33.0396],[-81.5004,32.9317],[-81.4025,32.7449],[-81.4058,32.6243],[-81.2008,32.4846],[-81.1298,32.3],[-81.1564,32.1939],[-81.0779,32.0871],[-80.8903,32.0327],[-80.6778,32.2147],[-80.4411,32.3661],[-80.4093,32.4811],[-80.3312,32.4864],[-80.1491,32.5814],[-80.0051,32.6116],[-79.851,32.7586],[-79.7445,32.7996],[-79.6074,32.9162],[-79.5848,33.0138],[-79.387,33.0173],[-79.203,33.1929],[-79.1331,33.4174],[-78.938,33.6421],[-78.7633,33.7786],[-78.5732,33.8826]]]}},{"type":"Feature","properties":{"sourceId":"1159314887","regionId":"region.202684e4-684a-4af6-b962-2bab9d7e3288","countryId":"country.u6myyj"},"geometry":{"type":"MultiPolygon","coordinates":[[[[-76.0317,36.5503],[-77.0362,36.5488],[-77.8987,36.5423],[-78.9836,36.5423],[-80.0896,36.5398],[-80.6771,36.5622],[-81.2273,36.5696],[-81.6589,36.6096],[-81.7405,36.4095],[-81.924,36.2941],[-82.0866,36.1006],[-82.1988,36.1585],[-82.3946,36.0957],[-82.4893,35.9938],[-82.6298,36.0574],[-82.8783,35.9556],[-82.9827,35.788],[-83.0754,35.7895],[-83.4992,35.57],[-83.7281,35.5666],[-83.8802,35.5165],[-84.0115,35.4245],[-84.0952,35.2579],[-84.2612,35.2557],[-84.3005,35.2084],[-84.3246,34.9871],[-83.1148,35.0004],[-82.554,35.1591],[-82.2872,35.2059],[-81.0735,35.1542],[-80.9271,35.1081],[-80.7929,34.9617],[-80.7762,34.8257],[-79.7038,34.8058],[-79.6535,34.7957],[-79.2285,34.4366],[-78.5732,33.8826],[-78.2525,33.9251],[-78.0323,33.8923],[-77.9111,33.9582],[-77.8327,34.207],[-77.6683,34.3762],[-77.5359,34.4686],[-77.2536,34.5944],[-77.2015,34.6507],[-76.8961,34.7392],[-76.6582,34.7219],[-76.5039,34.7665],[-76.3357,34.8995],[-76.3776,34.9658],[-76.5482,34.9993],[-76.7645,34.9892],[-76.5605,35.1244],[-76.4928,35.2302],[-76.4425,35.404],[-76.2687,35.3484],[-76.1504,35.3472],[-75.8972,35.579],[-75.7538,35.6118],[-75.7218,35.8292],[-75.8529,35.98],[-75.99,35.8869],[-76.0483,35.9837],[-76.1954,35.9936],[-76.3873,35.9384],[-76.7298,35.9453],[-76.687,36.0561],[-76.5244,36.0135],[-76.4117,36.083],[-76.1954,36.1035],[-76.0204,36.1915],[-75.8597,36.1616],[-75.9164,36.4027],[-76.0117,36.4606],[-76.0317,36.5503]]],[[[-75.909,36.5494],[-75.943,36.5496],[-75.9669,36.5498],[-76.0133,36.5502],[-75.9729,36.4997],[-75.909,36.5494]]]]}},{"type":"Feature","properties":{"sourceId":"1159315259","regionId":"region.43a75ac7-fba8-4676-948c-9dc699b9fc10","countryId":"country.u6myyj"},"geometry":{"type":"MultiPolygon","coordinates":[[[[-76.0133,36.5502],[-75.9669,36.5498],[-75.9627,36.7093],[-75.9279,36.7062],[-75.8806,36.5493],[-75.8531,36.549],[-75.9889,36.912],[-76.2689,36.9614],[-76.2982,37.1446],[-76.4681,37.214],[-76.3785,37.2723],[-76.2445,37.4495],[-76.3565,37.5218],[-76.317,37.7322],[-76.2479,37.9035],[-76.5306,38.0251],[-76.6146,38.1504],[-76.8818,38.177],[-77.0301,38.3077],[-77.249,38.3299],[-77.3266,38.4509],[-77.2299,38.6567],[-77.1349,38.6363],[-77.1173,38.7062],[-77.0478,38.7157],[-77.0683,38.9019],[-77.1198,38.9341],[-77.2723,39.0478],[-77.4958,39.1239],[-77.4667,39.2438],[-77.5584,39.299],[-77.7347,39.3311],[-77.8357,39.1442],[-78.3222,39.4508],[-78.4039,39.2778],[-78.4139,39.1664],[-78.6605,38.9343],[-78.7432,38.9301],[-78.8622,38.7932],[-78.9882,38.8456],[-79.2974,38.4248],[-79.5043,38.4787],[-79.636,38.5921],[-79.792,38.2802],[-79.9166,38.1791],[-79.9999,38.0016],[-80.2069,37.8148],[-80.2849,37.6851],[-80.2307,37.6107],[-80.2943,37.5092],[-80.4525,37.4295],[-80.5278,37.4683],[-80.8649,37.3464],[-80.9483,37.2948],[-81.2241,37.2443],[-81.3426,37.3339],[-81.5456,37.2128],[-81.6446,37.2094],[-81.8238,37.2864],[-81.9327,37.3797],[-81.9652,37.5387],[-82.3514,37.2785],[-82.6326,37.1639],[-82.7269,37.038],[-82.8546,36.972],[-82.8843,36.8943],[-83.0824,36.8346],[-83.1372,36.75],[-83.6675,36.604],[-82.8341,36.6006],[-81.9525,36.597],[-81.6589,36.6096],[-81.2273,36.5696],[-80.6771,36.5622],[-80.0896,36.5398],[-78.9836,36.5423],[-77.8987,36.5423],[-77.0362,36.5488],[-76.0317,36.5503],[-76.0133,36.5502]]],[[[-75.3774,38.0152],[-75.6479,37.9657],[-75.7887,37.7275],[-75.9217,37.6105],[-75.8938,37.5627],[-76.0106,37.3164],[-75.8873,37.357],[-75.4923,37.8311],[-75.4249,37.8751],[-75.3774,38.0152]]]]}},{"type":"Feature","properties":{"sourceId":"1159315327","regionId":"region.5566dc0a-85f7-406e-9a84-df5164ab03d4","countryId":"country.u6myyj"},"geometry":{"type":"Polygon","coordinates":[[[-77.0229,38.8028],[-76.9093,38.893],[-77.0419,38.9961],[-77.1198,38.9341],[-77.0683,38.9019],[-77.0229,38.8028]]]}},{"type":"Feature","properties":{"sourceId":"1159315329","regionId":"region.41141b09-661d-4c50-b3a4-44ed192aa3b6","countryId":"country.u6myyj"},"geometry":{"type":"Polygon","coordinates":[[[-75.6479,37.9657],[-75.3774,38.0152],[-75.2427,38.227],[-75.1543,38.2409],[-75.0839,38.4536],[-75.6937,38.4604],[-75.7886,39.7213],[-77.1695,39.7215],[-78.4388,39.7216],[-79.4774,39.7218],[-79.4879,39.2099],[-79.1795,39.3863],[-79.0647,39.4823],[-78.969,39.4503],[-78.7786,39.6368],[-78.7452,39.5754],[-78.469,39.5336],[-78.4338,39.6242],[-78.28,39.6354],[-78.133,39.7013],[-77.7909,39.4842],[-77.7347,39.3311],[-77.5584,39.299],[-77.4667,39.2438],[-77.4958,39.1239],[-77.2723,39.0478],[-77.1198,38.9341],[-77.0419,38.9961],[-76.9093,38.893],[-77.0229,38.8028],[-77.0456,38.7007],[-77.121,38.6238],[-77.1844,38.605],[-77.267,38.4941],[-77.2037,38.3643],[-77.0216,38.4614],[-76.9222,38.2916],[-76.7547,38.2276],[-76.6167,38.2233],[-76.4341,38.1321],[-76.3205,38.1388],[-76.4194,38.3217],[-76.3961,38.3913],[-76.512,38.5277],[-76.5517,38.7756],[-76.3985,39.0144],[-76.4492,39.195],[-76.4245,39.3237],[-76.175,39.3162],[-76.2727,39.1516],[-76.1305,39.1178],[-76.1544,38.8953],[-76.3403,38.7284],[-76.1454,38.665],[-76.319,38.4739],[-76.2211,38.3439],[-76.0287,38.2418],[-75.9066,38.271],[-75.8144,38.1352],[-75.8863,37.9879],[-75.6479,37.9657]]]}},{"type":"Feature","properties":{"sourceId":"1159315325","regionId":"region.4b8b0709-6540-4c18-bc0d-efdd508c1244","countryId":"country.u6myyj"},"geometry":{"type":"Polygon","coordinates":[[[-75.0839,38.4536],[-75.0577,38.4534],[-75.044,38.4538],[-75.0843,38.796],[-75.1663,38.7944],[-75.3103,38.9278],[-75.3938,39.0556],[-75.3942,39.2246],[-75.4344,39.3149],[-75.5879,39.4628],[-75.6052,39.6167],[-75.4245,39.8066],[-75.6013,39.8378],[-75.7886,39.7213],[-75.6937,38.4604],[-75.0839,38.4536]]]}},{"type":"Feature","properties":{"sourceId":"1159315267","regionId":"region.2920a4e2-2186-4677-90cd-e3a448b97cae","countryId":"country.u6myyj"},"geometry":{"type":"Polygon","coordinates":[[[-75.0236,40.0163],[-75.1442,39.8749],[-75.3109,39.8432],[-75.4402,39.777],[-75.5102,39.6527],[-75.5316,39.478],[-75.3594,39.3379],[-75.2495,39.2969],[-75.1593,39.1986],[-75.0267,39.2107],[-74.8873,39.1468],[-74.9676,38.9358],[-74.8751,38.9445],[-74.7457,39.0545],[-74.6544,39.2014],[-74.3588,39.5502],[-74.1676,39.6994],[-74.1037,40.014],[-74.0575,40.0121],[-73.9724,40.3277],[-74.0323,40.4216],[-74.1971,40.4409],[-74.2827,40.4973],[-74.2096,40.6342],[-74.0319,40.7142],[-73.9071,40.9908],[-74.699,41.3563],[-74.8447,41.273],[-74.8863,41.1808],[-75.1395,40.9822],[-75.0612,40.8915],[-75.1887,40.7585],[-75.1822,40.5704],[-75.0888,40.5583],[-75.0644,40.454],[-74.7394,40.1849],[-75.0236,40.0163]]]}},{"type":"Feature","properties":{"sourceId":"1159315301","regionId":"region.9098383d-b2f5-42ef-bde3-b05d4ff9b201","countryId":"country.u6myyj"},"geometry":{"type":"Polygon","coordinates":[[[-73.6429,41.0011],[-73.1701,41.1696],[-72.7794,41.2702],[-72.288,41.2829],[-71.9729,41.3437],[-71.8604,41.3205],[-71.8045,41.4157],[-71.8008,42.0109],[-72.7576,42.033],[-73.4805,42.0545],[-73.5447,41.2949],[-73.4841,41.2179],[-73.723,41.1035],[-73.6429,41.0011]]]}},{"type":"Feature","properties":{"sourceId":"1159312213","regionId":"region.82355d36-11f2-419d-8fef-0b1e61dae57b","countryId":"country.u6myyj"},"geometry":{"type":"MultiPolygon","coordinates":[[[[-71.2369,41.7096],[-71.3407,41.7969],[-71.3871,42.0158],[-71.8008,42.0109],[-71.8045,41.4157],[-71.8604,41.3205],[-71.4977,41.3663],[-71.4261,41.4687],[-71.4428,41.5747],[-71.3556,41.7463],[-71.2369,41.7096]]],[[[-71.1219,41.513],[-71.1311,41.6611],[-71.194,41.6769],[-71.202,41.5026],[-71.1219,41.513]]]]}},{"type":"Feature","properties":{"sourceId":"1159312157","regionId":"region.3424d9c6-cc14-4880-8f26-a958eaa43fa6","countryId":"country.u6myyj"},"geometry":{"type":"Polygon","coordinates":[[[-71.194,41.6769],[-71.1311,41.6611],[-71.1219,41.513],[-70.9252,41.5507],[-70.9073,41.6149],[-70.6583,41.722],[-70.6587,41.5213],[-70.5043,41.5637],[-70.4284,41.6319],[-69.9389,41.6742],[-69.9433,41.8576],[-70.0702,41.7735],[-70.2747,41.7152],[-70.5331,41.8162],[-70.631,42.0925],[-70.7838,42.2597],[-71.0384,42.3079],[-70.8614,42.5469],[-70.6473,42.6045],[-70.8196,42.7187],[-70.8143,42.8773],[-70.9256,42.8865],[-71.3063,42.7009],[-72.4668,42.7293],[-73.2655,42.7456],[-73.5072,42.079],[-73.4805,42.0545],[-72.7576,42.033],[-71.8008,42.0109],[-71.3871,42.0158],[-71.3407,41.7969],[-71.2369,41.7096],[-71.194,41.6769]]]}},{"type":"Feature","properties":{"sourceId":"1159309549","regionId":"region.1add37b8-2fe7-44ff-80e8-b2cc4c2e4525","countryId":"country.u6myyj"},"geometry":{"type":"Polygon","coordinates":[[[-123.1801,46.1791],[-123.2333,46.1372],[-123.3855,46.1462],[-123.5193,46.2353],[-123.6141,46.1865],[-123.8669,46.1599],[-123.9368,46.0818],[-123.9811,45.7603],[-123.9207,45.6627],[-123.9711,45.452],[-123.9711,45.1537],[-124.0652,44.8233],[-124.0632,44.6095],[-124.151,43.8817],[-124.277,43.4215],[-124.3765,43.3402],[-124.4449,43.03],[-124.5477,42.8454],[-124.4145,42.6624],[-124.3944,42.5666],[-124.4328,42.3293],[-124.3596,42.113],[-124.2145,41.9995],[-123.4011,41.9995],[-121.8317,41.9995],[-120.7854,41.9995],[-120.0008,41.9995],[-118.6947,41.9995],[-117.9489,41.9995],[-117.0166,41.9995],[-117.0185,42.928],[-117.0202,43.7851],[-116.8969,44.1859],[-116.986,44.2719],[-117.1951,44.2977],[-117.2038,44.4825],[-117.0106,44.75],[-116.8328,44.9199],[-116.8235,45.0358],[-116.7174,45.1514],[-116.649,45.3475],[-116.463,45.5819],[-116.5301,45.7516],[-116.7594,45.838],[-116.8788,46.0015],[-117.9166,46.0005],[-119.0024,45.9995],[-119.0933,45.9488],[-119.5917,45.9211],[-119.6625,45.8718],[-119.9342,45.838],[-120.2299,45.7371],[-120.4702,45.7101],[-120.621,45.7309],[-120.9001,45.6418],[-121.1329,45.6242],[-121.2718,45.7088],[-121.7926,45.7214],[-121.9711,45.6423],[-122.2611,45.5663],[-122.7389,45.6628],[-122.8065,45.9781],[-122.9102,46.1079],[-123.1801,46.1791]]]}},{"type":"Feature","properties":{"sourceId":"1159308409","regionId":"region.1aa669f9-e209-41bb-b01a-bc5994298f78","countryId":"country.u6myyj"},"geometry":{"type":"MultiPolygon","coordinates":[[[[-154.8996,19.567],[-155.0871,19.8604],[-155.168,19.9468],[-155.3323,20.0467],[-155.5864,20.1229],[-155.738,20.2438],[-155.8672,20.2631],[-155.8826,20.1049],[-155.8241,20.0201],[-155.926,19.8688],[-156.0602,19.7312],[-155.9822,19.6077],[-155.8855,19.3342],[-155.9199,19.1386],[-155.8781,19.0291],[-155.6829,18.9329],[-155.6185,18.9555],[-155.5028,19.1377],[-155.2911,19.2595],[-155.203,19.2556],[-154.9823,19.3392],[-154.8172,19.4797],[-154.8996,19.567]]],[[[-156.8484,20.8768],[-156.9904,20.9275],[-156.9824,20.7594],[-156.9137,20.7347],[-156.8035,20.8126],[-156.8484,20.8768]]],[[[-156.0017,20.8004],[-156.1193,20.8361],[-156.2983,20.9527],[-156.4817,20.9044],[-156.5979,21.0327],[-156.696,20.9158],[-156.6202,20.8071],[-156.4643,20.7814],[-156.4077,20.5872],[-156.3026,20.5812],[-156.0031,20.6859],[-156.0017,20.8004]]],[[[-156.749,21.171],[-156.897,21.1652],[-157.2598,21.2219],[-157.2731,21.0873],[-157.0724,21.0994],[-156.8696,21.0534],[-156.7556,21.0955],[-156.749,21.171]]],[[[-157.7068,21.352],[-157.8421,21.461],[-157.8364,21.534],[-157.9624,21.705],[-158.1211,21.5859],[-158.2363,21.5849],[-158.2276,21.483],[-158.0943,21.2936],[-157.9052,21.3056],[-157.795,21.2547],[-157.7068,21.352]]],[[[-159.3013,22.151],[-159.3997,22.2355],[-159.5896,22.221],[-159.7165,22.1575],[-159.7851,22.0573],[-159.7598,21.9785],[-159.61,21.8997],[-159.4373,21.8688],[-159.3341,21.9581],[-159.3013,22.151]]]]}},{"type":"Feature","properties":{"sourceId":"1159315349","regionId":"region.f0abe136-cf51-45f0-b674-b0bcd8654e78","countryId":"country.u6myyj"},"geometry":{"type":"Polygon","coordinates":[[[-111.0502,41.9998],[-112.3594,41.9999],[-113.4815,42],[-114.0425,42.0001],[-114.0424,41.5316],[-114.0419,40.5947],[-114.0416,39.9701],[-114.0413,39.1893],[-114.0408,38.2523],[-114.0402,37.0031],[-113.416,37.0027],[-112.0116,37.0018],[-110.7632,37.0009],[-109.8268,37.0003],[-109.0466,36.9998],[-109.0466,37.4998],[-109.0466,38.3748],[-109.0465,38.9998],[-109.0465,39.7498],[-109.0463,40.9998],[-109.6725,40.9998],[-111.0499,40.9998],[-111.0502,41.9998]]]}},{"type":"Feature","properties":{"sourceId":"1159315351","regionId":"region.c67530ef-221b-4535-be9e-bae460eabc1d","countryId":"country.u6myyj"},"geometry":{"type":"Polygon","coordinates":[[[-111.0502,41.9998],[-111.0499,40.9998],[-109.6725,40.9998],[-109.0463,40.9998],[-107.7902,40.9998],[-107.0051,40.9998],[-106.0629,40.9998],[-104.6497,40.9998],[-104.0537,40.9998],[-104.0526,42.1251],[-104.0531,43.0004],[-104.0554,43.8752],[-104.0567,45.0001],[-104.7987,45.0001],[-105.7779,45.0001],[-107.1923,45.0001],[-108.7154,45],[-109.9122,45],[-111.0508,45],[-111.0514,44.4979],[-111.0509,43.405],[-111.0506,42.7805],[-111.0502,41.9998]]]}},{"type":"Feature","properties":{"sourceId":"1159315345","regionId":"region.2e3f429e-d728-4e9a-92ff-4fdd6d7a93fc","countryId":"country.u6myyj"},"geometry":{"type":"Polygon","coordinates":[[[-114.0425,42.0001],[-114.972,41.9999],[-115.7155,41.9998],[-117.0166,41.9995],[-117.9489,41.9995],[-118.6947,41.9995],[-120.0008,41.9995],[-120.0006,41.45],[-120.0004,40.3509],[-120.0002,39.6182],[-120,38.9992],[-119.2973,38.5088],[-118.8289,38.1818],[-118.1262,37.6913],[-117.3929,37.1401],[-116.6595,36.5889],[-116.1776,36.2104],[-115.1938,35.4378],[-114.6282,35.0036],[-114.6355,35.1372],[-114.5726,35.1912],[-114.5909,35.3529],[-114.6676,35.517],[-114.6451,35.6306],[-114.6867,35.7194],[-114.6668,35.8739],[-114.7396,35.9858],[-114.7212,36.0927],[-114.5548,36.1605],[-114.3475,36.1398],[-114.2336,36.0244],[-114.1239,36.0459],[-114.042,36.2198],[-114.0402,37.0031],[-114.0408,38.2523],[-114.0413,39.1893],[-114.0416,39.9701],[-114.0419,40.5947],[-114.0424,41.5316],[-114.0425,42.0001]]]}},{"type":"Feature","properties":{"sourceId":"1159315343","regionId":"region.c63052e1-9ce7-4ed4-8e91-3e5230a8e750","countryId":"country.u6myyj"},"geometry":{"type":"Polygon","coordinates":[[[-109.0463,40.9998],[-109.0465,39.7498],[-109.0465,38.9998],[-109.0466,38.3748],[-109.0466,37.4998],[-109.0466,36.9998],[-107.9131,36.9998],[-107.1573,36.9998],[-105.8347,36.9998],[-104.5122,36.9998],[-103.0008,36.9998],[-102.0396,36.9998],[-102.0444,38.2187],[-102.0488,39.3438],[-102.0513,40.0001],[-102.0518,40.9996],[-102.8312,40.9997],[-104.0537,40.9998],[-104.6497,40.9998],[-106.0629,40.9998],[-107.0051,40.9998],[-107.7902,40.9998],[-109.0463,40.9998]]]}},{"type":"Feature","properties":{"sourceId":"1159315367","regionId":"region.05fe80e7-8742-42d0-a5ed-2350aca863c5","countryId":"country.u6myyj"},"geometry":{"type":"Polygon","coordinates":[[[-104.0449,45.942],[-104.0393,44.9999],[-104.0567,45.0001],[-104.0554,43.8752],[-104.0531,43.0004],[-103.0066,43.0004],[-102.1548,43.0003],[-100.9622,43.0003],[-99.4289,43.0002],[-98.4851,43.0002],[-98.2429,42.8724],[-98.0069,42.7841],[-97.8388,42.8715],[-97.6612,42.8541],[-97.3012,42.8871],[-97.1273,42.7896],[-96.857,42.7401],[-96.7089,42.6775],[-96.6113,42.5343],[-96.4827,42.5183],[-96.523,42.6491],[-96.638,42.7511],[-96.5634,42.8445],[-96.4554,43.1217],[-96.5645,43.2235],[-96.5356,43.3857],[-96.5953,43.4989],[-96.4536,43.5001],[-96.4536,44.3788],[-96.4536,45.2966],[-96.5665,45.3935],[-96.6882,45.409],[-96.8631,45.6008],[-96.6379,45.7635],[-96.5563,45.9418],[-97.4882,45.9418],[-99.1189,45.9419],[-99.8178,45.9419],[-101.2155,45.9419],[-102.6133,45.942],[-104.0449,45.942]]]}},{"type":"Feature","properties":{"sourceId":"1159315363","regionId":"region.49d3ffdb-08f3-4e91-8841-15ea269f2112","countryId":"country.u6myyj"},"geometry":{"type":"Polygon","coordinates":[[[-104.0537,40.9998],[-102.8312,40.9997],[-102.0518,40.9996],[-102.0513,40.0001],[-100.9764,40.0001],[-100.138,40.0001],[-99.0901,40.0001],[-98.0421,40.0001],[-96.9941,40.0001],[-95.9461,40.0001],[-95.3173,40.0001],[-95.629,40.3454],[-95.6961,40.5183],[-95.7676,40.6005],[-95.8693,40.7289],[-95.8277,40.7941],[-95.8792,41.318],[-95.958,41.3385],[-95.9309,41.4649],[-96.0821,41.5498],[-96.0642,41.796],[-96.1543,41.9878],[-96.2603,42.0579],[-96.3513,42.2057],[-96.4022,42.369],[-96.3974,42.4967],[-96.4827,42.5183],[-96.6113,42.5343],[-96.7089,42.6775],[-96.857,42.7401],[-97.1273,42.7896],[-97.3012,42.8871],[-97.6612,42.8541],[-97.8388,42.8715],[-98.0069,42.7841],[-98.2429,42.8724],[-98.4851,43.0002],[-99.4289,43.0002],[-100.9622,43.0003],[-102.1548,43.0003],[-103.0066,43.0004],[-104.0531,43.0004],[-104.0526,42.1251],[-104.0537,40.9998]]]}},{"type":"Feature","properties":{"sourceId":"1159315359","regionId":"region.37db4aea-f14b-4635-849d-7b2c2bf8d148","countryId":"country.u6myyj"},"geometry":{"type":"Polygon","coordinates":[[[-102.0396,36.9998],[-100.8573,36.9998],[-99.4708,36.9998],[-98.5465,36.9998],[-97.8532,36.9998],[-96.9289,36.9998],[-96.0045,36.9998],[-94.618,36.9998],[-94.6179,37.8937],[-94.6177,39.1231],[-94.8296,39.2173],[-94.9086,39.367],[-95.0988,39.5302],[-95.0377,39.6559],[-94.8823,39.8209],[-95.0019,39.9029],[-95.1908,39.9065],[-95.3173,40.0001],[-95.9461,40.0001],[-96.9941,40.0001],[-98.0421,40.0001],[-99.0901,40.0001],[-100.138,40.0001],[-100.9764,40.0001],[-102.0513,40.0001],[-102.0488,39.3438],[-102.0444,38.2187],[-102.0396,36.9998]]]}},{"type":"Feature","properties":{"sourceId":"1159315365","regionId":"region.fcea44ff-a962-4bb9-be90-23b58be303e0","countryId":"country.u6myyj"},"geometry":{"type":"Polygon","coordinates":[[[-103.0002,36.5002],[-101.8075,36.5002],[-100.748,36.5001],[-100.0024,36.4999],[-100.0009,35.5412],[-99.9993,34.5755],[-99.882,34.5649],[-99.6808,34.3947],[-99.4014,34.3864],[-99.2655,34.4116],[-99.1921,34.3222],[-99.193,34.2322],[-98.9528,34.2117],[-98.7201,34.1366],[-98.5747,34.1517],[-98.4907,34.0752],[-98.3433,34.1435],[-98.0907,34.1383],[-98.0884,34.0278],[-97.9466,33.9771],[-97.9591,33.893],[-97.8008,33.8878],[-97.68,33.9835],[-97.5709,33.899],[-97.3717,33.8305],[-97.2118,33.9101],[-97.2006,33.7866],[-97.0783,33.8079],[-96.9145,33.9559],[-96.8556,33.8748],[-96.692,33.8546],[-96.6494,33.916],[-96.4965,33.7866],[-96.2027,33.7637],[-96.1564,33.8212],[-95.9379,33.8956],[-95.7723,33.8619],[-95.5981,33.9521],[-95.5371,33.8899],[-95.357,33.8682],[-95.2203,33.9629],[-94.9817,33.8617],[-94.8727,33.7559],[-94.4841,33.6474],[-94.4728,34.0821],[-94.4391,35.3862],[-94.6183,36.4998],[-94.618,36.9998],[-96.0045,36.9998],[-96.9289,36.9998],[-97.8532,36.9998],[-98.5465,36.9998],[-99.4708,36.9998],[-100.8573,36.9998],[-102.0396,36.9998],[-103.0008,36.9998],[-103.0002,36.5002]]]}},{"type":"Feature","properties":{"sourceId":"1159315357","regionId":"region.931db7f8-a675-4e9a-b156-6ba561dd1e67","countryId":"country.u6myyj"},"geometry":{"type":"Polygon","coordinates":[[[-96.4536,43.5001],[-96.5953,43.4989],[-96.5356,43.3857],[-96.5645,43.2235],[-96.4554,43.1217],[-96.5634,42.8445],[-96.638,42.7511],[-96.523,42.6491],[-96.4827,42.5183],[-96.3974,42.4967],[-96.4022,42.369],[-96.3513,42.2057],[-96.2603,42.0579],[-96.1543,41.9878],[-96.0642,41.796],[-96.0821,41.5498],[-95.9309,41.4649],[-95.958,41.3385],[-95.8792,41.318],[-95.8277,40.7941],[-95.8693,40.7289],[-95.7676,40.6005],[-94.4783,40.573],[-93.5617,40.5855],[-93.095,40.5813],[-91.944,40.6055],[-91.7307,40.6188],[-91.682,40.5508],[-91.4419,40.3795],[-91.3826,40.3929],[-91.3833,40.5986],[-91.1878,40.6533],[-91.0935,40.8236],[-90.9666,40.9462],[-90.9515,41.0754],[-91.0824,41.1897],[-91.0548,41.3829],[-90.9915,41.4336],[-90.7045,41.4512],[-90.4409,41.5434],[-90.3463,41.6054],[-90.305,41.7485],[-90.2012,41.8136],[-90.1403,42.0306],[-90.1697,42.1165],[-90.4031,42.2454],[-90.4632,42.376],[-90.6413,42.5118],[-90.703,42.6553],[-90.9666,42.7016],[-91.0455,42.7421],[-91.1306,42.9113],[-91.1678,43.1605],[-91.0848,43.2801],[-91.1971,43.366],[-91.2501,43.501],[-92.8762,43.5006],[-93.8519,43.5005],[-94.8275,43.5003],[-96.4536,43.5001]]]}},{"type":"Feature","properties":{"sourceId":"1159315361","regionId":"region.1dd31005-bde8-4cab-b447-260de728384a","countryId":"country.u6myyj"},"geometry":{"type":"Polygon","coordinates":[[[-95.7676,40.6005],[-95.6961,40.5183],[-95.629,40.3454],[-95.3173,40.0001],[-95.1908,39.9065],[-95.0019,39.9029],[-94.8823,39.8209],[-95.0377,39.6559],[-95.0988,39.5302],[-94.9086,39.367],[-94.8296,39.2173],[-94.6177,39.1231],[-94.6179,37.8937],[-94.618,36.9998],[-94.6183,36.4998],[-93.5216,36.4998],[-92.1506,36.4998],[-91.0539,36.4998],[-90.1622,36.4998],[-90.063,36.3689],[-90.0675,36.2874],[-90.3425,36.0615],[-90.3733,35.9862],[-89.7238,36.0005],[-89.6139,36.1417],[-89.6946,36.247],[-89.5308,36.3835],[-89.5599,36.5002],[-89.4944,36.5014],[-89.4245,36.499],[-89.3588,36.638],[-89.2533,36.5691],[-89.1406,36.7346],[-89.1237,36.9796],[-89.2462,37.0455],[-89.3272,37.0142],[-89.5233,37.268],[-89.4511,37.4403],[-89.527,37.562],[-89.5496,37.6977],[-89.6468,37.7335],[-89.7219,37.8372],[-89.9227,37.9526],[-90.1108,38.0167],[-90.3463,38.2071],[-90.382,38.3005],[-90.1965,38.6382],[-90.1836,38.8827],[-90.4283,38.9674],[-90.5853,38.8781],[-90.7026,38.9954],[-90.7299,39.2008],[-90.8196,39.3201],[-91.0509,39.4524],[-91.1043,39.5331],[-91.3551,39.7108],[-91.4493,39.8656],[-91.5189,40.1749],[-91.4419,40.3795],[-91.682,40.5508],[-91.7307,40.6188],[-91.944,40.6055],[-93.095,40.5813],[-93.5617,40.5855],[-94.4783,40.573],[-95.7676,40.6005]]]}},{"type":"Feature","properties":{"sourceId":"1159315321","regionId":"region.931f3d39-4588-4007-a5e0-c93352f53f49","countryId":"country.u6myyj"},"geometry":{"type":"Polygon","coordinates":[[[-87.0188,42.4962],[-87.1472,43.3799],[-87.1144,43.7652],[-86.9999,44.1677],[-86.8519,44.5628],[-86.7146,44.8452],[-86.4486,45.115],[-86.2506,45.2361],[-86.7636,45.4438],[-87.0924,45.4438],[-87.1988,45.3228],[-87.4033,45.205],[-87.436,45.079],[-87.6536,45.1208],[-87.7267,45.2438],[-87.6548,45.3614],[-87.8822,45.3774],[-87.8119,45.4847],[-87.8026,45.687],[-87.9096,45.7605],[-88.0725,45.7875],[-88.1152,45.9246],[-88.5373,46.0261],[-88.8373,46.0356],[-89.1192,46.1482],[-90.1185,46.3406],[-90.2303,46.5087],[-90.4125,46.5842],[-89.9576,47.2861],[-90.654,47.3081],[-91.4683,46.9241],[-91.9649,46.7287],[-92.11,46.7687],[-92.2916,46.6597],[-92.2926,46.0833],[-92.3633,46.0273],[-92.7041,45.9131],[-92.882,45.7159],[-92.8832,45.5761],[-92.7509,45.5592],[-92.6677,45.4454],[-92.7509,45.2997],[-92.8024,45.078],[-92.7583,44.9257],[-92.8198,44.7578],[-92.5847,44.608],[-92.3938,44.5796],[-92.2726,44.4658],[-92.1026,44.4369],[-91.9501,44.3357],[-91.8369,44.1818],[-91.6626,44.0733],[-91.426,44.0225],[-91.295,43.919],[-91.2492,43.7689],[-91.2501,43.501],[-91.1971,43.366],[-91.0848,43.2801],[-91.1678,43.1605],[-91.1306,42.9113],[-91.0455,42.7421],[-90.9666,42.7016],[-90.703,42.6553],[-90.6413,42.5118],[-89.3962,42.503],[-87.801,42.4918],[-87.0188,42.4962]]]}},{"type":"Feature","properties":{"sourceId":"1159315309","regionId":"region.2f3a6f76-6368-4d9c-9a43-d72fad1cf3df","countryId":"country.u6myyj"},"geometry":{"type":"Polygon","coordinates":[[[-91.4419,40.3795],[-91.5189,40.1749],[-91.4493,39.8656],[-91.3551,39.7108],[-91.1043,39.5331],[-91.0509,39.4524],[-90.8196,39.3201],[-90.7299,39.2008],[-90.7026,38.9954],[-90.5853,38.8781],[-90.4283,38.9674],[-90.1836,38.8827],[-90.1965,38.6382],[-90.382,38.3005],[-90.3463,38.2071],[-90.1108,38.0167],[-89.9227,37.9526],[-89.7219,37.8372],[-89.6468,37.7335],[-89.5496,37.6977],[-89.527,37.562],[-89.4511,37.4403],[-89.5233,37.268],[-89.3272,37.0142],[-89.2462,37.0455],[-89.1237,36.9796],[-89.1787,37.0623],[-89.0437,37.2086],[-88.907,37.2202],[-88.4843,37.0725],[-88.434,37.1685],[-88.5034,37.267],[-88.465,37.4089],[-88.1231,37.4746],[-88.083,37.5197],[-88.1633,37.64],[-88.0453,37.8067],[-88.0454,38.0517],[-87.934,38.1599],[-87.9456,38.2988],[-87.8444,38.3178],[-87.6465,38.5199],[-87.615,38.6517],[-87.5112,38.7634],[-87.5837,39.0016],[-87.6633,39.1566],[-87.6254,39.2997],[-87.5327,39.3616],[-87.5289,40.1239],[-87.526,40.7033],[-87.521,41.7597],[-87.2077,41.7597],[-87.0188,42.4962],[-87.801,42.4918],[-89.3962,42.503],[-90.6413,42.5118],[-90.4632,42.376],[-90.4031,42.2454],[-90.1697,42.1165],[-90.1403,42.0306],[-90.2012,41.8136],[-90.305,41.7485],[-90.3463,41.6054],[-90.4409,41.5434],[-90.7045,41.4512],[-90.9915,41.4336],[-91.0548,41.3829],[-91.0824,41.1897],[-90.9515,41.0754],[-90.9666,40.9462],[-91.0935,40.8236],[-91.1878,40.6533],[-91.3833,40.5986],[-91.3826,40.3929],[-91.4419,40.3795]]]}},{"type":"Feature","properties":{"sourceId":"1159315313","regionId":"region.8b992ee9-d62b-4e7a-afff-7ce8e1419c13","countryId":"country.u6myyj"},"geometry":{"type":"Polygon","coordinates":[[[-89.1237,36.9796],[-89.1406,36.7346],[-89.2533,36.5691],[-89.3588,36.638],[-89.4245,36.499],[-88.0427,36.4986],[-88.0671,36.6897],[-87.8333,36.6442],[-87.0823,36.6516],[-86.464,36.6626],[-86.0668,36.6345],[-85.4265,36.6187],[-85.1214,36.6249],[-83.7303,36.5858],[-83.6675,36.604],[-83.1372,36.75],[-83.0824,36.8346],[-82.8843,36.8943],[-82.8546,36.972],[-82.7269,37.038],[-82.6326,37.1639],[-82.3514,37.2785],[-81.9652,37.5387],[-82.1159,37.5634],[-82.2965,37.6884],[-82.6312,38.1529],[-82.5718,38.2476],[-82.5894,38.4193],[-82.6982,38.5355],[-82.8266,38.5865],[-82.8863,38.7448],[-83.031,38.7159],[-83.1336,38.6279],[-83.3051,38.6014],[-83.5343,38.7074],[-83.7143,38.6385],[-83.8659,38.7622],[-84.1956,38.8106],[-84.3219,39.0295],[-84.4442,39.1018],[-84.6372,39.0773],[-84.7211,39.1428],[-84.8235,39.0974],[-84.784,38.8929],[-84.8194,38.7893],[-84.9995,38.7717],[-85.186,38.6937],[-85.2573,38.7409],[-85.4361,38.7347],[-85.4102,38.5721],[-85.6197,38.4319],[-85.6651,38.3095],[-85.8159,38.289],[-85.8913,38.2021],[-85.9146,38.0636],[-86.032,37.994],[-86.4161,38.1152],[-86.5235,38.0192],[-86.5359,37.9286],[-86.7422,37.9039],[-86.8188,37.9952],[-87.043,37.8918],[-87.0867,37.8054],[-87.4266,37.9464],[-87.7972,37.8782],[-87.9458,37.7886],[-88.0453,37.8067],[-88.1633,37.64],[-88.083,37.5197],[-88.1231,37.4746],[-88.465,37.4089],[-88.5034,37.267],[-88.434,37.1685],[-88.4843,37.0725],[-88.907,37.2202],[-89.0437,37.2086],[-89.1787,37.0623],[-89.1237,36.9796]]]}},{"type":"Feature","properties":{"sourceId":"1159315355","regionId":"region.f557a5d7-8e55-44a5-98dd-1825ea1a384f","countryId":"country.u6myyj"},"geometry":{"type":"Polygon","coordinates":[[[-90.3042,35.0001],[-90.0846,35.189],[-90.1031,35.3856],[-90.0123,35.5116],[-89.9179,35.548],[-89.9379,35.7363],[-89.7221,35.8335],[-89.6673,35.9152],[-89.7238,36.0005],[-90.3733,35.9862],[-90.3425,36.0615],[-90.0675,36.2874],[-90.063,36.3689],[-90.1622,36.4998],[-91.0539,36.4998],[-92.1506,36.4998],[-93.5216,36.4998],[-94.6183,36.4998],[-94.4391,35.3862],[-94.4728,34.0821],[-94.4841,33.6474],[-94.3874,33.5618],[-94.3001,33.5948],[-94.0473,33.5542],[-94.0413,33.0109],[-93.1473,33.0118],[-91.8957,33.013],[-91.1665,33.0143],[-91.0992,33.1497],[-91.1076,33.2678],[-91.1821,33.32],[-91.1272,33.4781],[-91.2158,33.5339],[-91.1517,33.6334],[-91.1923,33.7081],[-91.0454,33.8145],[-91.0846,33.9967],[-90.9092,34.0353],[-90.8212,34.2856],[-90.594,34.4251],[-90.5939,34.6423],[-90.4639,34.8279],[-90.2718,34.9231],[-90.3042,35.0001]]]}},{"type":"Feature","properties":{"sourceId":"1159315319","regionId":"region.9196bd8f-19fd-4cd4-9bea-25e11ca6471d","countryId":"country.u6myyj"},"geometry":{"type":"Polygon","coordinates":[[[-89.7238,36.0005],[-89.6673,35.9152],[-89.7221,35.8335],[-89.9379,35.7363],[-89.9179,35.548],[-90.0123,35.5116],[-90.1031,35.3856],[-90.0846,35.189],[-90.3042,35.0001],[-89.2644,34.999],[-88.1791,34.9978],[-87.5143,35.0055],[-86.7265,34.9898],[-85.6057,34.9852],[-84.3246,34.9871],[-84.3005,35.2084],[-84.2612,35.2557],[-84.0952,35.2579],[-84.0115,35.4245],[-83.8802,35.5165],[-83.7281,35.5666],[-83.4992,35.57],[-83.0754,35.7895],[-82.9827,35.788],[-82.8783,35.9556],[-82.6298,36.0574],[-82.4893,35.9938],[-82.3946,36.0957],[-82.1988,36.1585],[-82.0866,36.1006],[-81.924,36.2941],[-81.7405,36.4095],[-81.6589,36.6096],[-81.9525,36.597],[-82.8341,36.6006],[-83.6675,36.604],[-83.7303,36.5858],[-85.1214,36.6249],[-85.4265,36.6187],[-86.0668,36.6345],[-86.464,36.6626],[-87.0823,36.6516],[-87.8333,36.6442],[-88.0671,36.6897],[-88.0427,36.4986],[-89.4245,36.499],[-89.4944,36.5014],[-89.5599,36.5002],[-89.5308,36.3835],[-89.6946,36.247],[-89.6139,36.1417],[-89.7238,36.0005]]]}},{"type":"Feature","properties":{"sourceId":"1159315323","regionId":"region.1529458f-7314-4228-accb-b2027b64d7be","countryId":"country.u6myyj"},"geometry":{"type":"Polygon","coordinates":[[[-82.5894,38.4193],[-82.5718,38.2476],[-82.6312,38.1529],[-82.2965,37.6884],[-82.1159,37.5634],[-81.9652,37.5387],[-81.9327,37.3797],[-81.8238,37.2864],[-81.6446,37.2094],[-81.5456,37.2128],[-81.3426,37.3339],[-81.2241,37.2443],[-80.9483,37.2948],[-80.8649,37.3464],[-80.5278,37.4683],[-80.4525,37.4295],[-80.2943,37.5092],[-80.2307,37.6107],[-80.2849,37.6851],[-80.2069,37.8148],[-79.9999,38.0016],[-79.9166,38.1791],[-79.792,38.2802],[-79.636,38.5921],[-79.5043,38.4787],[-79.2974,38.4248],[-78.9882,38.8456],[-78.8622,38.7932],[-78.7432,38.9301],[-78.6605,38.9343],[-78.4139,39.1664],[-78.4039,39.2778],[-78.3222,39.4508],[-77.8357,39.1442],[-77.7347,39.3311],[-77.7909,39.4842],[-78.133,39.7013],[-78.28,39.6354],[-78.4338,39.6242],[-78.469,39.5336],[-78.7452,39.5754],[-78.7786,39.6368],[-78.969,39.4503],[-79.0647,39.4823],[-79.1795,39.3863],[-79.4879,39.2099],[-79.4774,39.7218],[-80.5194,39.7215],[-80.5202,40.6468],[-80.6768,40.5888],[-80.6015,40.4714],[-80.6006,40.3233],[-80.7391,40.0608],[-80.7587,39.9294],[-80.8411,39.7905],[-80.8752,39.6288],[-81.0553,39.53],[-81.2269,39.3985],[-81.3884,39.3622],[-81.4789,39.4006],[-81.5694,39.2877],[-81.6824,39.271],[-81.7461,39.1934],[-81.7836,38.9327],[-81.8485,38.9134],[-82.003,39.0217],[-82.0584,39.0032],[-82.2087,38.786],[-82.1927,38.5953],[-82.2631,38.5975],[-82.3317,38.4436],[-82.5894,38.4193]]]}},{"type":"Feature","properties":{"sourceId":"1159315311","regionId":"region.401e126a-8b34-40da-b39c-a39d52995915","countryId":"country.u6myyj"},"geometry":{"type":"Polygon","coordinates":[[[-84.8061,41.6968],[-84.8061,41.7583],[-85.8825,41.7592],[-87.2077,41.7597],[-87.521,41.7597],[-87.526,40.7033],[-87.5289,40.1239],[-87.5327,39.3616],[-87.6254,39.2997],[-87.6633,39.1566],[-87.5837,39.0016],[-87.5112,38.7634],[-87.615,38.6517],[-87.6465,38.5199],[-87.8444,38.3178],[-87.9456,38.2988],[-87.934,38.1599],[-88.0454,38.0517],[-88.0453,37.8067],[-87.9458,37.7886],[-87.7972,37.8782],[-87.4266,37.9464],[-87.0867,37.8054],[-87.043,37.8918],[-86.8188,37.9952],[-86.7422,37.9039],[-86.5359,37.9286],[-86.5235,38.0192],[-86.4161,38.1152],[-86.032,37.994],[-85.9146,38.0636],[-85.8913,38.2021],[-85.8159,38.289],[-85.6651,38.3095],[-85.6197,38.4319],[-85.4102,38.5721],[-85.4361,38.7347],[-85.2573,38.7409],[-85.186,38.6937],[-84.9995,38.7717],[-84.8194,38.7893],[-84.784,38.8929],[-84.8235,39.0974],[-84.8141,39.9922],[-84.8004,41.2937],[-84.8061,41.6968]]]}}]}