{"type":"FeatureCollection","features":[{"type":"Feature","properties":{"sourceId":"1159309121","regionId":"region.d2e46b98-4b8e-4ac4-a9ad-daabeada34d9","countryId":"country.3f7ydp"},"geometry":{"type":"Polygon","coordinates":[[[-89.3462,14.4131],[-89.0266,14.3113],[-88.9702,14.2102],[-88.9394,14.3442],[-88.7438,14.4422],[-88.7305,14.5488],[-88.9232,14.5613],[-89.0256,14.7208],[-89.1462,14.7109],[-89.1604,14.5813],[-89.2457,14.573],[-89.3616,14.4155],[-89.3462,14.4131]]]}},{"type":"Feature","properties":{"sourceId":"1159309119","regionId":"region.efada8b1-2f31-470a-b8e1-74682e89ea07","countryId":"country.3f7ydp"},"geometry":{"type":"Polygon","coordinates":[[[-88.9702,14.2102],[-88.8813,14.1842],[-88.8388,14.1004],[-88.7392,14.0999],[-88.6908,14.0118],[-88.4971,13.9691],[-88.3362,14.0768],[-88.3282,14.2156],[-88.4215,14.2479],[-88.457,14.4741],[-88.3605,14.491],[-88.3438,14.6543],[-88.3605,14.8192],[-88.4873,14.8119],[-88.5551,14.9348],[-88.6446,14.9274],[-88.6559,14.7239],[-88.7781,14.7182],[-88.7305,14.5488],[-88.7438,14.4422],[-88.9394,14.3442],[-88.9702,14.2102]]]}},{"type":"Feature","properties":{"sourceId":"1159309111","regionId":"region.9c118878-c41b-4777-afe5-529853645fb6","countryId":"country.3f7ydp"},"geometry":{"type":"Polygon","coordinates":[[[-88.4971,13.9691],[-88.4968,13.8512],[-88.2742,13.9191],[-88.2177,13.9908],[-88.2322,14.0787],[-87.922,14.3854],[-87.8531,14.4291],[-87.9691,14.6131],[-88.075,14.6648],[-88.3438,14.6543],[-88.3605,14.491],[-88.457,14.4741],[-88.4215,14.2479],[-88.3282,14.2156],[-88.3362,14.0768],[-88.4971,13.9691]]]}},{"type":"Feature","properties":{"sourceId":"1159309113","regionId":"region.ff6d4b17-3cc4-477e-ac04-c70f854a2bef","countryId":"country.3f7ydp"},"geometry":{"type":"Polygon","coordinates":[[[-88.2177,13.9908],[-88.0875,13.9805],[-88.0153,13.8664],[-87.9526,13.892],[-87.8329,13.9153],[-87.7495,13.8456],[-87.647,13.8342],[-87.5966,13.9573],[-87.6152,14.0885],[-87.781,14.1431],[-87.8287,14.2253],[-87.6395,14.2737],[-87.6961,14.3555],[-87.8531,14.4291],[-87.922,14.3854],[-88.2322,14.0787],[-88.2177,13.9908]]]}},{"type":"Feature","properties":{"sourceId":"1159309033","regionId":"region.0138a42e-ec94-40e9-86ac-70a3f47c6c54","countryId":"country.3f7ydp"},"geometry":{"type":"Polygon","coordinates":[[[-87.7495,13.8456],[-87.7126,13.8005],[-87.8172,13.4066],[-87.721,13.359],[-87.6224,13.423],[-87.5476,13.355],[-87.4473,13.4205],[-87.379,13.3931],[-87.3495,13.4533],[-87.4611,13.6702],[-87.6494,13.7612],[-87.647,13.8342],[-87.7495,13.8456]]]}},{"type":"Feature","properties":{"sourceId":"1159309101","regionId":"region.49d61137-c4b2-41eb-8ea2-7a83ab04099c","countryId":"country.3f7ydp"},"geometry":{"type":"Polygon","coordinates":[[[-84.9999,14.742],[-84.9999,15.0687],[-85.0927,15.1668],[-85.2493,15.2366],[-85.3604,15.3811],[-85.5052,15.4495],[-85.6077,15.5349],[-85.7641,15.585],[-85.8731,15.5314],[-85.9699,15.4267],[-86.1486,15.373],[-86.2329,15.4098],[-86.372,15.3294],[-86.5265,15.3862],[-86.6664,15.2823],[-86.8589,15.2536],[-86.8862,15.0816],[-86.9875,15.0159],[-86.8483,14.6659],[-86.7437,14.5753],[-86.7142,14.4238],[-86.5229,14.3649],[-86.4282,14.2908],[-86.2325,14.3414],[-86.1422,14.2689],[-86.0193,14.2546],[-85.9131,14.1328],[-85.7575,14.1987],[-85.6155,14.1474],[-85.5631,14.042],[-85.4317,14.1328],[-85.3214,14.2813],[-85.1902,14.3096],[-85.2058,14.4072],[-85.0237,14.6025],[-84.9999,14.742]]]}},{"type":"Feature","properties":{"sourceId":"1159309099","regionId":"region.8d098ee2-555b-41df-8c21-7c8e8d24e131","countryId":"country.3f7ydp"},"geometry":{"type":"Polygon","coordinates":[[[-84.9999,14.742],[-84.9042,14.817],[-84.7702,14.8051],[-84.6993,14.6747],[-84.5274,14.6604],[-84.4827,14.6195],[-84.2878,14.6672],[-84.0236,14.7583],[-83.8695,14.7771],[-83.4592,14.9825],[-83.3903,15.031],[-83.262,14.9832],[-83.1304,14.997],[-83.2538,15.0446],[-83.408,15.2664],[-83.6234,15.2961],[-83.7745,15.2857],[-83.9051,15.3835],[-84.0825,15.3601],[-84.1242,15.4302],[-84.0245,15.5351],[-84.2946,15.811],[-84.4642,15.8298],[-84.4774,15.7788],[-84.6601,15.7745],[-84.6766,15.8762],[-84.9999,15.9879],[-84.9999,15.0687],[-84.9999,14.742]]]}},{"type":"Feature","properties":{"sourceId":"1159309127","regionId":"region.b7dcef53-5f29-4936-a168-395757e3a0f7","countryId":"country.3f7ydp"},"geometry":{"type":"Polygon","coordinates":[[[-85.5631,14.042],[-85.6155,14.1474],[-85.7575,14.1987],[-85.9131,14.1328],[-86.0193,14.2546],[-86.1422,14.2689],[-86.2325,14.3414],[-86.4282,14.2908],[-86.5229,14.3649],[-86.7142,14.4238],[-86.8969,14.2299],[-86.916,13.9993],[-86.9893,13.9645],[-86.9951,13.8459],[-87.0838,13.7837],[-87.1302,13.66],[-87.2142,13.6711],[-87.1843,13.5663],[-87.0392,13.5255],[-86.9329,13.6606],[-86.7712,13.7079],[-86.7272,13.7683],[-86.5417,13.7821],[-86.4101,13.749],[-86.2841,13.8457],[-86.0967,14.0441],[-85.8242,13.8477],[-85.7431,13.824],[-85.6992,13.9615],[-85.5631,14.042]]]}},{"type":"Feature","properties":{"sourceId":"1159309123","regionId":"region.be1ecba3-52b7-4f58-bf7f-af2a27c138c9","countryId":"country.3f7ydp"},"geometry":{"type":"Polygon","coordinates":[[[-86.7327,13.2685],[-86.7019,13.3142],[-86.7641,13.6373],[-86.7712,13.7079],[-86.9329,13.6606],[-87.0392,13.5255],[-87.1843,13.5663],[-87.2142,13.6711],[-87.4611,13.6702],[-87.3495,13.4533],[-87.379,13.3931],[-87.5122,13.2867],[-87.4193,13.1114],[-87.314,12.9816],[-87.0847,12.9959],[-86.9484,13.0697],[-86.9108,13.2396],[-86.8162,13.2919],[-86.7327,13.2685]]]}},{"type":"Feature","properties":{"sourceId":"1159309109","regionId":"region.93a18f87-01b7-494b-a04a-e5c171030f68","countryId":"country.3f7ydp"},"geometry":{"type":"Polygon","coordinates":[[[-88.2209,15.7257],[-88.3167,15.6746],[-88.4674,15.5207],[-88.4099,15.5404],[-88.2409,15.4907],[-88.1309,15.368],[-88.1081,15.1498],[-88.0307,15.0425],[-88.0536,14.9308],[-87.9858,14.8364],[-87.963,14.8035],[-87.7407,14.9625],[-87.7359,15.0166],[-87.7677,15.1397],[-87.9231,15.1908],[-87.9258,15.2964],[-87.87,15.348],[-87.7622,15.6102],[-87.7876,15.721],[-87.7947,15.7934],[-87.7284,15.921],[-87.9088,15.8681],[-88.1189,15.6959],[-88.2209,15.7257]]]}},{"type":"Feature","properties":{"sourceId":"1159309115","regionId":"region.7061c502-dd7d-48f8-86a8-5c31073cab45","countryId":"country.3f7ydp"},"geometry":{"type":"Polygon","coordinates":[[[-88.7609,15.3],[-88.6446,15.077],[-88.6446,14.9274],[-88.5551,14.9348],[-88.4873,14.8119],[-88.3605,14.8192],[-88.3438,14.6543],[-88.075,14.6648],[-88.0698,14.7472],[-87.9858,14.8364],[-88.0536,14.9308],[-88.0307,15.0425],[-88.1081,15.1498],[-88.1309,15.368],[-88.2409,15.4907],[-88.4099,15.5404],[-88.4674,15.5207],[-88.7609,15.3]]]}},{"type":"Feature","properties":{"sourceId":"1159309117","regionId":"region.fe9def1f-8631-4c52-a8b0-c32e8b237375","countryId":"country.3f7ydp"},"geometry":{"type":"Polygon","coordinates":[[[-89.1469,15.0713],[-89.1892,14.9131],[-89.2277,14.8346],[-89.1462,14.7109],[-89.0256,14.7208],[-88.9232,14.5613],[-88.7305,14.5488],[-88.7781,14.7182],[-88.6559,14.7239],[-88.6446,14.9274],[-88.6446,15.077],[-88.7609,15.3],[-88.9734,15.1404],[-89.1469,15.0713]]]}},{"type":"Feature","properties":{"sourceId":"1159309095","regionId":"region.2faa5bf0-a196-4e98-8a46-c42b4b295d62","countryId":"country.3f7ydp"},"geometry":{"type":"Polygon","coordinates":[[[-86.4379,15.7908],[-86.3635,15.6722],[-86.4209,15.5828],[-86.2356,15.4993],[-86.2329,15.4098],[-86.1486,15.373],[-85.9699,15.4267],[-85.8731,15.5314],[-85.7641,15.585],[-85.6077,15.5349],[-85.5052,15.4495],[-85.3604,15.3811],[-85.2493,15.2366],[-85.0927,15.1668],[-84.9999,15.0687],[-84.9999,15.9879],[-85.0758,15.9862],[-85.2542,15.8841],[-85.4886,15.8696],[-85.7032,15.9765],[-85.9032,15.9835],[-85.9949,15.9007],[-86.1378,15.8957],[-86.3747,15.7709],[-86.4379,15.7908]]]}},{"type":"Feature","properties":{"sourceId":"1159309093","regionId":"region.424f0355-18f0-45ec-8b7e-2732bf65f060","countryId":"country.3f7ydp"},"geometry":{"type":"Polygon","coordinates":[[[-87.7284,15.921],[-87.7947,15.7934],[-87.7876,15.721],[-87.6979,15.6637],[-87.61,15.5044],[-87.4384,15.529],[-87.4167,15.4608],[-87.1825,15.4266],[-86.9906,15.5488],[-86.7789,15.5507],[-86.6363,15.6046],[-86.4209,15.5828],[-86.3635,15.6722],[-86.4379,15.7908],[-86.6991,15.7886],[-86.8787,15.7641],[-87.1517,15.7969],[-87.3451,15.8503],[-87.5096,15.7987],[-87.6173,15.8946],[-87.7284,15.921]]]}},{"type":"Feature","properties":{"sourceId":"1159309129","regionId":"region.5746da38-efe7-43fa-b97b-89284376c7a0","countryId":"country.3f7ydp"},"geometry":{"type":"Polygon","coordinates":[[[-86.6065,16.285],[-86.491,16.3255],[-86.3121,16.4125],[-86.3321,16.4294],[-86.5307,16.3562],[-86.6065,16.285]]]}},{"type":"Feature","properties":{"sourceId":"1159309105","regionId":"region.fc80a33f-750b-45c4-94d2-2a44cbf41bbe","countryId":"country.3f7ydp"},"geometry":{"type":"Polygon","coordinates":[[[-88.075,14.6648],[-87.9691,14.6131],[-87.8531,14.4291],[-87.6961,14.3555],[-87.6395,14.2737],[-87.8287,14.2253],[-87.781,14.1431],[-87.6152,14.0885],[-87.4371,14.2189],[-87.4639,14.3216],[-87.3827,14.3953],[-87.4659,14.5222],[-87.3987,14.6268],[-87.2661,14.7031],[-87.2458,14.8977],[-87.4732,14.9802],[-87.5547,15.0556],[-87.7359,15.0166],[-87.7407,14.9625],[-87.963,14.8035],[-87.9858,14.8364],[-88.0698,14.7472],[-88.075,14.6648]]]}},{"type":"Feature","properties":{"sourceId":"1159309103","regionId":"region.6b7e05be-5c7f-40e7-aee4-8f56805393cf","countryId":"country.3f7ydp"},"geometry":{"type":"Polygon","coordinates":[[[-87.7876,15.721],[-87.7622,15.6102],[-87.87,15.348],[-87.9258,15.2964],[-87.9231,15.1908],[-87.7677,15.1397],[-87.7359,15.0166],[-87.5547,15.0556],[-87.4732,14.9802],[-87.2458,14.8977],[-87.1848,15.0114],[-86.9875,15.0159],[-86.8862,15.0816],[-86.8589,15.2536],[-86.6664,15.2823],[-86.5265,15.3862],[-86.372,15.3294],[-86.2329,15.4098],[-86.2356,15.4993],[-86.4209,15.5828],[-86.6363,15.6046],[-86.7789,15.5507],[-86.9906,15.5488],[-87.1825,15.4266],[-87.4167,15.4608],[-87.4384,15.529],[-87.61,15.5044],[-87.6979,15.6637],[-87.7876,15.721]]]}},{"type":"Feature","properties":{"sourceId":"1159309097","regionId":"region.fbcbac90-6845-4227-a211-f000aef41dd0","countryId":"country.3f7ydp"},"geometry":{"type":"Polygon","coordinates":[[[-87.2458,14.8977],[-87.2661,14.7031],[-87.3987,14.6268],[-87.4659,14.5222],[-87.3827,14.3953],[-87.4639,14.3216],[-87.4371,14.2189],[-87.6152,14.0885],[-87.5966,13.9573],[-87.647,13.8342],[-87.6494,13.7612],[-87.4611,13.6702],[-87.2142,13.6711],[-87.1302,13.66],[-87.0838,13.7837],[-86.9951,13.8459],[-86.9893,13.9645],[-86.916,13.9993],[-86.8969,14.2299],[-86.7142,14.4238],[-86.7437,14.5753],[-86.8483,14.6659],[-86.9875,15.0159],[-87.1848,15.0114],[-87.2458,14.8977]]]}}]}