{"type":"FeatureCollection","features":[{"type":"Feature","properties":{"sourceId":"1159307733","regionId":"region.6c9d1495-e593-4960-9276-d467b1326e5f","countryId":"country.1qeehvj"},"geometry":{"type":"Polygon","coordinates":[[[-58.2001,-32.4472],[-58.1915,-32.4919],[-58.111,-32.4847],[-57.9956,-32.5821],[-57.7846,-32.6076],[-57.7573,-32.5583],[-57.5835,-32.5362],[-57.4703,-32.4451],[-57.2512,-32.4376],[-57.0397,-32.3634],[-56.9275,-32.4053],[-56.7252,-32.4115],[-56.5594,-32.4925],[-56.506,-32.3565],[-56.3588,-32.2319],[-56.2449,-31.9071],[-56.3216,-31.7513],[-56.4624,-31.8649],[-56.6515,-31.8463],[-56.8413,-31.7934],[-57.1772,-31.7944],[-57.3697,-31.6908],[-57.7425,-31.5831],[-57.9066,-31.4706],[-58.039,-31.5086],[-57.9886,-31.6428],[-58.0593,-31.8115],[-58.1686,-31.846],[-58.1483,-32.0629],[-58.1865,-32.1529],[-58.1016,-32.3114],[-58.2001,-32.4472]]]}},{"type":"Feature","properties":{"sourceId":"1159307729","regionId":"region.a058a63d-6f65-474b-bed2-0cb2dc8220f9","countryId":"country.1qeehvj"},"geometry":{"type":"Polygon","coordinates":[[[-57.6028,-30.1905],[-57.6425,-30.1931],[-57.6527,-30.3291],[-57.8496,-30.4853],[-57.8858,-30.5899],[-57.8087,-30.7473],[-57.7994,-30.7915],[-57.7013,-30.7649],[-57.5721,-30.8633],[-57.4792,-30.8754],[-57.0714,-31.0779],[-56.9104,-31.0439],[-56.6785,-31.0419],[-56.4155,-30.8871],[-56.1833,-30.9375],[-56.017,-31.0743],[-56.0114,-30.7982],[-56.2351,-30.5654],[-56.3726,-30.4859],[-56.6737,-30.2113],[-56.8313,-30.102],[-57.1023,-30.1212],[-57.2126,-30.2873],[-57.536,-30.2744],[-57.6028,-30.1905]]]}},{"type":"Feature","properties":{"sourceId":"1159307737","regionId":"region.1ddbdd51-b4ed-4d7a-8d62-f997bf8dae6b","countryId":"country.1qeehvj"},"geometry":{"type":"Polygon","coordinates":[[[-57.7994,-30.7915],[-57.8072,-30.9076],[-57.9117,-30.9474],[-57.8552,-31.059],[-57.9051,-31.241],[-58.039,-31.5086],[-57.9066,-31.4706],[-57.7425,-31.5831],[-57.3697,-31.6908],[-57.1772,-31.7944],[-56.8413,-31.7934],[-56.6515,-31.8463],[-56.4624,-31.8649],[-56.3216,-31.7513],[-56.3539,-31.5997],[-56.3215,-31.5193],[-56.1871,-31.3952],[-56.158,-31.3047],[-56.0099,-31.0819],[-56.017,-31.0743],[-56.1833,-30.9375],[-56.4155,-30.8871],[-56.6785,-31.0419],[-56.9104,-31.0439],[-57.0714,-31.0779],[-57.4792,-30.8754],[-57.5721,-30.8633],[-57.7013,-30.7649],[-57.7994,-30.7915]]]}},{"type":"Feature","properties":{"sourceId":"1159307747","regionId":"region.8595ff89-cfad-4db7-ab32-c6388bf25413","countryId":"country.1qeehvj"},"geometry":{"type":"Polygon","coordinates":[[[-54.4672,-31.6642],[-54.4832,-31.5839],[-54.5915,-31.471],[-54.8198,-31.4353],[-54.9696,-31.3408],[-55.0873,-31.3268],[-55.26,-31.2287],[-55.3539,-31.0563],[-55.5919,-30.8483],[-55.8643,-31.0768],[-56.0099,-31.0819],[-56.158,-31.3047],[-56.0977,-31.2561],[-55.8569,-31.3669],[-55.7867,-31.5151],[-55.6868,-31.5656],[-55.6025,-31.8061],[-55.3476,-31.7979],[-55.1004,-31.8229],[-54.8872,-31.875],[-54.6545,-32.1228],[-54.5894,-32.1096],[-54.5041,-31.8424],[-54.5203,-31.7321],[-54.4672,-31.6642]]]}},{"type":"Feature","properties":{"sourceId":"1159307765","regionId":"region.8055cee1-43a9-4ed9-8647-c48ef2e3e6ec","countryId":"country.1qeehvj"},"geometry":{"type":"Polygon","coordinates":[[[-53.5207,-33.125],[-53.7685,-33.1893],[-53.9888,-33.3905],[-54.1257,-33.4653],[-54.3478,-33.6166],[-54.4275,-33.8645],[-54.4821,-33.926],[-54.4609,-34.095],[-54.4921,-34.2012],[-54.4986,-34.5463],[-54.5308,-34.8069],[-54.3065,-34.7077],[-54.1459,-34.6676],[-53.9722,-34.4872],[-53.7649,-34.3904],[-53.711,-34.1988],[-53.5395,-34.0624],[-53.4731,-33.8346],[-53.3791,-33.7407],[-53.5396,-33.6493],[-53.514,-33.3949],[-53.5207,-33.125]]]}},{"type":"Feature","properties":{"sourceId":"1159307751","regionId":"region.41daed27-e818-45b9-8fe7-c5d99b34c7c6","countryId":"country.1qeehvj"},"geometry":{"type":"Polygon","coordinates":[[[-53.1828,-32.7999],[-53.38,-32.7895],[-53.5,-32.7502],[-53.834,-32.766],[-53.9684,-32.7077],[-54.0367,-32.7608],[-54.2863,-32.7313],[-54.4951,-32.7546],[-54.5967,-32.821],[-54.8196,-32.8381],[-55.0072,-32.94],[-55.01,-33.025],[-55.1111,-33.1182],[-55.0911,-33.2524],[-55.1246,-33.3818],[-54.8357,-33.3377],[-54.5043,-33.448],[-54.3546,-33.3572],[-54.1257,-33.4653],[-53.9888,-33.3905],[-53.7685,-33.1893],[-53.5207,-33.125],[-53.3273,-32.9736],[-53.2988,-32.8891],[-53.1828,-32.7999]]]}},{"type":"Feature","properties":{"sourceId":"1159307743","regionId":"region.16e418ab-9182-4338-bd0f-90afa49c6010","countryId":"country.1qeehvj"},"geometry":{"type":"Polygon","coordinates":[[[-54.4672,-31.6642],[-54.5203,-31.7321],[-54.5041,-31.8424],[-54.5894,-32.1096],[-54.6545,-32.1228],[-54.7557,-32.1019],[-54.8396,-32.3105],[-55.04,-32.4687],[-55.2051,-32.4571],[-55.3284,-32.4939],[-55.3208,-32.8908],[-55.1595,-33.0177],[-55.01,-33.025],[-55.0072,-32.94],[-54.8196,-32.8381],[-54.5967,-32.821],[-54.4951,-32.7546],[-54.2863,-32.7313],[-54.0367,-32.7608],[-53.9684,-32.7077],[-53.834,-32.766],[-53.5,-32.7502],[-53.38,-32.7895],[-53.1828,-32.7999],[-53.1108,-32.7224],[-53.1861,-32.6467],[-53.4156,-32.5642],[-53.5613,-32.4495],[-53.6487,-32.3386],[-53.6706,-32.2264],[-53.7718,-32.0471],[-54.0688,-31.8799],[-54.1351,-31.909],[-54.4672,-31.6642]]]}},{"type":"Feature","properties":{"sourceId":"1159307761","regionId":"region.33acdde9-aa60-494f-a838-62ef1b308cb7","countryId":"country.1qeehvj"},"geometry":{"type":"Polygon","coordinates":[[[-54.5308,-34.8069],[-54.4986,-34.5463],[-54.4921,-34.2012],[-54.4609,-34.095],[-54.4821,-33.926],[-54.5742,-34.0398],[-54.6897,-34.0719],[-54.78,-34.2018],[-54.8444,-34.3929],[-55.2811,-34.597],[-55.4733,-34.6219],[-55.3738,-34.8029],[-55.2602,-34.8976],[-55.0821,-34.884],[-54.9393,-34.9699],[-54.5308,-34.8069]]]}},{"type":"Feature","properties":{"sourceId":"1159307753","regionId":"region.b45ce480-9398-433a-923c-734a01f48827","countryId":"country.1qeehvj"},"geometry":{"type":"Polygon","coordinates":[[[-55.3738,-34.8029],[-55.4733,-34.6219],[-55.5442,-34.4999],[-55.537,-34.3954],[-55.6191,-34.2077],[-55.9022,-34.271],[-55.9986,-34.2444],[-56.1356,-34.3646],[-56.3507,-34.3573],[-56.4013,-34.433],[-56.398,-34.5271],[-56.4719,-34.5967],[-56.3642,-34.7341],[-56.2325,-34.7617],[-56.1471,-34.7247],[-56.0359,-34.7796],[-56.0384,-34.8858],[-55.7921,-34.7741],[-55.6018,-34.7724],[-55.3738,-34.8029]]]}},{"type":"Feature","properties":{"sourceId":"1159307763","regionId":"region.3dbc5812-c5ee-4cc7-bcbe-3bfeb295180b","countryId":"country.1qeehvj"},"geometry":{"type":"Polygon","coordinates":[[[-56.0384,-34.8858],[-56.0359,-34.7796],[-56.1471,-34.7247],[-56.2325,-34.7617],[-56.3642,-34.7341],[-56.3646,-34.7935],[-56.3113,-34.9062],[-56.1499,-34.9203],[-56.0384,-34.8858]]]}},{"type":"Feature","properties":{"sourceId":"1159307727","regionId":"region.6dad5be7-59a9-4b8e-8b7e-50666996e156","countryId":"country.1qeehvj"},"geometry":{"type":"Polygon","coordinates":[[[-56.3646,-34.7935],[-56.3642,-34.7341],[-56.4719,-34.5967],[-56.398,-34.5271],[-56.4013,-34.433],[-56.4444,-34.1778],[-56.4187,-34.0554],[-56.4627,-33.9024],[-56.6029,-33.8497],[-56.8904,-33.9884],[-57.0777,-33.963],[-56.9419,-34.1476],[-57.091,-34.2272],[-57.106,-34.4041],[-57.1675,-34.4482],[-56.7953,-34.6985],[-56.3646,-34.7935]]]}},{"type":"Feature","properties":{"sourceId":"1159307725","regionId":"region.1a0ef74c-e94a-47f2-96f6-16f117caa967","countryId":"country.1qeehvj"},"geometry":{"type":"Polygon","coordinates":[[[-57.1675,-34.4482],[-57.106,-34.4041],[-57.091,-34.2272],[-56.9419,-34.1476],[-57.0777,-33.963],[-57.293,-33.9464],[-57.3932,-33.8961],[-57.6542,-33.9381],[-57.8502,-33.8619],[-57.9942,-33.8621],[-58.0396,-33.804],[-58.1856,-33.782],[-58.4156,-33.8756],[-58.1962,-34.1594],[-58.077,-34.192],[-57.8225,-34.4751],[-57.6242,-34.4305],[-57.5379,-34.4536],[-57.1675,-34.4482]]]}},{"type":"Feature","properties":{"sourceId":"1159307741","regionId":"region.644ce7b4-1173-44e6-9ec1-68f46d3a0e3b","countryId":"country.1qeehvj"},"geometry":{"type":"Polygon","coordinates":[[[-58.4156,-33.8756],[-58.1856,-33.782],[-58.0396,-33.804],[-57.9942,-33.8621],[-57.8502,-33.8619],[-57.6542,-33.9381],[-57.3932,-33.8961],[-57.293,-33.9464],[-57.0777,-33.963],[-57.1837,-33.7591],[-57.1744,-33.5969],[-57.2584,-33.5414],[-57.3367,-33.3549],[-57.1271,-33.1231],[-57.2401,-33.1157],[-57.5466,-33.0254],[-57.6505,-33.085],[-57.8685,-33.0443],[-58.0603,-33.1442],[-58.0284,-33.2051],[-58.3915,-33.4244],[-58.4332,-33.5278],[-58.4156,-33.8756]]]}},{"type":"Feature","properties":{"sourceId":"1159307735","regionId":"region.84e8a4c8-bf6d-4a72-8130-f1195503d987","countryId":"country.1qeehvj"},"geometry":{"type":"Polygon","coordinates":[[[-58.3915,-33.4244],[-58.0284,-33.2051],[-58.0603,-33.1442],[-57.8685,-33.0443],[-57.6505,-33.085],[-57.5466,-33.0254],[-57.2401,-33.1157],[-57.1271,-33.1231],[-57.1185,-33.0198],[-56.8779,-32.9848],[-56.8046,-32.8891],[-56.6668,-32.8433],[-56.5594,-32.4925],[-56.7252,-32.4115],[-56.9275,-32.4053],[-57.0397,-32.3634],[-57.2512,-32.4376],[-57.4703,-32.4451],[-57.5835,-32.5362],[-57.7573,-32.5583],[-57.7846,-32.6076],[-57.9956,-32.5821],[-58.111,-32.4847],[-58.1915,-32.4919],[-58.1205,-32.8193],[-58.0485,-32.9117],[-58.077,-33.0307],[-58.1744,-33.1104],[-58.3669,-33.1537],[-58.3492,-33.2828],[-58.3915,-33.4244]]]}},{"type":"Feature","properties":{"sourceId":"1159307749","regionId":"region.8b5b3fe2-88a0-4060-9388-5f76f5d163c4","countryId":"country.1qeehvj"},"geometry":{"type":"Polygon","coordinates":[[[-56.5594,-32.4925],[-56.6668,-32.8433],[-56.3616,-32.8148],[-56.2249,-32.823],[-56.1695,-32.726],[-56.0138,-32.7],[-55.9271,-32.6145],[-55.8304,-32.6338],[-55.7485,-32.5222],[-55.5644,-32.5106],[-55.4962,-32.4447],[-55.3284,-32.4939],[-55.2051,-32.4571],[-55.04,-32.4687],[-54.8396,-32.3105],[-54.7557,-32.1019],[-54.6545,-32.1228],[-54.8872,-31.875],[-55.1004,-31.8229],[-55.3476,-31.7979],[-55.6025,-31.8061],[-55.6868,-31.5656],[-55.7867,-31.5151],[-55.8569,-31.3669],[-56.0977,-31.2561],[-56.158,-31.3047],[-56.1871,-31.3952],[-56.3215,-31.5193],[-56.3539,-31.5997],[-56.3216,-31.7513],[-56.2449,-31.9071],[-56.3588,-32.2319],[-56.506,-32.3565],[-56.5594,-32.4925]]]}},{"type":"Feature","properties":{"sourceId":"1159307745","regionId":"region.980d6666-4fb3-42bd-a31a-e779fb355315","countryId":"country.1qeehvj"},"geometry":{"type":"Polygon","coordinates":[[[-55.3284,-32.4939],[-55.4962,-32.4447],[-55.5644,-32.5106],[-55.7485,-32.5222],[-55.8304,-32.6338],[-55.9271,-32.6145],[-56.0138,-32.7],[-56.1695,-32.726],[-56.2249,-32.823],[-56.3616,-32.8148],[-56.6668,-32.8433],[-56.8046,-32.8891],[-56.8779,-32.9848],[-57.1185,-33.0198],[-57.1271,-33.1231],[-57.0282,-33.1843],[-56.8833,-33.1927],[-56.8088,-33.2726],[-56.6811,-33.2992],[-56.533,-33.4955],[-56.2803,-33.429],[-56.0956,-33.4926],[-56.0217,-33.4337],[-55.8852,-33.4354],[-55.6224,-33.3611],[-55.3039,-33.1963],[-55.1111,-33.1182],[-55.01,-33.025],[-55.1595,-33.0177],[-55.3208,-32.8908],[-55.3284,-32.4939]]]}},{"type":"Feature","properties":{"sourceId":"1159307731","regionId":"region.39338a75-0a07-49e8-8e4b-e027ec3f713a","countryId":"country.1qeehvj"},"geometry":{"type":"Polygon","coordinates":[[[-57.1271,-33.1231],[-57.3367,-33.3549],[-57.2584,-33.5414],[-57.1744,-33.5969],[-57.1837,-33.7591],[-57.0777,-33.963],[-56.8904,-33.9884],[-56.6029,-33.8497],[-56.4627,-33.9024],[-56.4218,-33.763],[-56.533,-33.4955],[-56.6811,-33.2992],[-56.8088,-33.2726],[-56.8833,-33.1927],[-57.0282,-33.1843],[-57.1271,-33.1231]]]}},{"type":"Feature","properties":{"sourceId":"1159307755","regionId":"region.cccd3753-ef5c-4b75-8757-86fd5656f03f","countryId":"country.1qeehvj"},"geometry":{"type":"Polygon","coordinates":[[[-55.1111,-33.1182],[-55.3039,-33.1963],[-55.6224,-33.3611],[-55.8852,-33.4354],[-56.0217,-33.4337],[-56.0956,-33.4926],[-56.2803,-33.429],[-56.533,-33.4955],[-56.4218,-33.763],[-56.4627,-33.9024],[-56.4187,-34.0554],[-56.4444,-34.1778],[-56.4013,-34.433],[-56.3507,-34.3573],[-56.1356,-34.3646],[-55.9986,-34.2444],[-55.9022,-34.271],[-55.6191,-34.2077],[-55.3474,-33.8802],[-55.2921,-33.7074],[-55.3216,-33.61],[-55.1099,-33.44],[-55.1246,-33.3818],[-55.0911,-33.2524],[-55.1111,-33.1182]]]}},{"type":"Feature","properties":{"sourceId":"1159307759","regionId":"region.fd2c664f-1b3d-4249-ba3f-929287fd28df","countryId":"country.1qeehvj"},"geometry":{"type":"Polygon","coordinates":[[[-55.6191,-34.2077],[-55.537,-34.3954],[-55.5442,-34.4999],[-55.4733,-34.6219],[-55.2811,-34.597],[-54.8444,-34.3929],[-54.78,-34.2018],[-54.6897,-34.0719],[-54.5742,-34.0398],[-54.4821,-33.926],[-54.4275,-33.8645],[-54.3478,-33.6166],[-54.1257,-33.4653],[-54.3546,-33.3572],[-54.5043,-33.448],[-54.8357,-33.3377],[-55.1246,-33.3818],[-55.1099,-33.44],[-55.3216,-33.61],[-55.2921,-33.7074],[-55.3474,-33.8802],[-55.6191,-34.2077]]]}}]}