{"type":"FeatureCollection","features":[{"type":"Feature","properties":{"sourceId":"1159314107","regionId":"region.01669686-f97a-47ef-ad98-6bd51afd6e49","countryId":"country.wxv6tu"},"geometry":{"type":"Polygon","coordinates":[[[11.1823,32.2622],[10.8732,32.1367],[10.8056,32.0324],[10.6059,31.9536],[10.5846,31.8403],[10.5135,31.757],[10.264,31.6805],[10.1169,31.4944],[10.1081,31.4118],[10.2448,31.0782],[10.2702,30.9156],[10.1922,30.7313],[9.8713,30.3552],[9.7435,30.3313],[9.5197,30.2289],[9.2865,30.1171],[9.3695,30.0228],[9.5497,29.8023],[9.6677,29.6083],[9.8261,29.1285],[9.8513,28.786],[9.8273,28.6186],[10.1379,28.7173],[10.3749,28.614],[10.7058,28.7301],[10.9099,28.8446],[11.0163,28.6416],[11.1449,28.6228],[11.3239,28.5449],[11.4924,28.6033],[11.7248,28.6103],[11.8979,28.529],[11.9519,28.5951],[11.8974,28.8592],[11.7293,29.087],[11.7299,29.3665],[11.6197,30.0327],[11.6163,30.4133],[11.5899,30.5424],[11.8673,30.931],[11.9457,31.0868],[11.853,31.2474],[11.8329,31.5621],[11.8555,31.7813],[11.8228,31.9618],[11.8627,32.3076],[11.6431,32.3224],[11.5261,32.4179],[11.1823,32.2622]]]}},{"type":"Feature","properties":{"sourceId":"1159314131","regionId":"region.74d7a9df-f7b0-45c7-ba4e-09fab7390796","countryId":"country.wxv6tu"},"geometry":{"type":"Polygon","coordinates":[[[11.5261,32.4179],[11.6431,32.3224],[11.8627,32.3076],[12.0976,32.3544],[12.1221,32.4068],[12.2864,32.4742],[12.4621,32.6008],[12.5732,32.8126],[12.3483,32.8327],[12.1224,32.9213],[11.847,33.0828],[11.6358,33.1087],[11.5051,33.1812],[11.4565,32.9021],[11.4499,32.638],[11.5374,32.5435],[11.5261,32.4179]]]}},{"type":"Feature","properties":{"sourceId":"1159314113","regionId":"region.00b632a9-833a-41a9-a149-36e37eee4ed2","countryId":"country.wxv6tu"},"geometry":{"type":"Polygon","coordinates":[[[23.9813,19.4961],[23.9813,19.9954],[24.968,19.995],[24.9805,20.0084],[24.9809,20.8741],[24.9812,21.9954],[24.9812,22.8708],[24.9812,23.7463],[24.9812,24.6217],[24.9812,25.2054],[24.9812,26.0808],[24.9812,27.0492],[24.2618,27.0331],[23.0919,27.0147],[21.9228,27.0076],[20.7231,27.0218],[19.8493,27.0154],[19.1698,27.0129],[19.1681,26.0038],[19.1703,25.5066],[19.1747,24.5124],[19.179,23.5181],[19.1835,22.5238],[19.1858,21.8642],[19.9053,21.5089],[20.8933,21.0209],[21.6345,20.655],[22.2521,20.3501],[23.2402,19.8621],[23.9813,19.4961]]]}},{"type":"Feature","properties":{"sourceId":"1159314121","regionId":"region.e5edf113-3f9b-428e-8be3-d15ce401c22b","countryId":"country.wxv6tu"},"geometry":{"type":"Polygon","coordinates":[[[19.1858,21.8642],[19.1835,22.5238],[19.179,23.5181],[19.1747,24.5124],[19.1703,25.5066],[19.1681,26.0038],[19.0208,26.0552],[18.515,26.1498],[18.3206,26.3294],[18.2041,26.3765],[17.9542,26.2941],[17.778,26.1575],[17.5666,26.1258],[17.4098,26.0523],[17.2634,26.1009],[16.9405,26.1634],[16.6207,26.4258],[16.568,26.5281],[16.5751,26.6309],[16.52,26.7015],[16.3227,26.7928],[16.2784,26.8462],[16.2797,27.0752],[15.761,26.9479],[15.278,26.8767],[14.8276,26.7579],[14.4244,26.3763],[14.133,26.2677],[13.9344,26.2469],[13.4819,26.118],[13.3083,25.945],[13.2054,25.8768],[12.9655,25.8614],[12.7067,25.7794],[12.6249,25.7209],[12.3636,25.7323],[12.1599,25.5759],[11.8584,25.5478],[11.5941,25.652],[11.3995,25.5514],[11.3326,25.3893],[11.334,24.7968],[11.4555,24.5939],[11.4672,24.3263],[11.5671,24.2668],[11.7101,24.0001],[11.9689,23.5174],[12.8512,23.3205],[13.4823,23.1797],[13.5996,23.119],[14.2016,22.6232],[14.2317,22.6179],[14.9799,22.9957],[15.9646,23.4422],[15.9851,23.4447],[16.6938,23.0947],[17.4348,22.7288],[18.176,22.3628],[18.9171,21.9968],[19.1858,21.8642]]]}},{"type":"Feature","properties":{"sourceId":"1159314153","regionId":"region.4ad98973-af24-423d-9a2a-3dbf060779cc","countryId":"country.wxv6tu"},"geometry":{"type":"Polygon","coordinates":[[[25.1509,31.6565],[25.0222,31.8547],[24.9817,31.9679],[24.6703,32.0324],[24.5461,31.9914],[24.0907,32.0058],[23.9987,32.0939],[23.6697,32.1833],[23.2514,32.2167],[23.1184,31.848],[23.0714,31.5122],[22.9854,31.4036],[22.9566,31.2333],[22.9689,30.7994],[23.057,30.77],[23.0584,30.1123],[23.0608,28.797],[23.0621,28.1393],[23.5368,28.1296],[24.9812,28.0967],[24.9812,29.1814],[24.8738,29.4683],[24.8707,29.6383],[24.8049,29.7548],[24.8116,29.8909],[24.6883,30.1442],[24.7724,30.331],[24.9077,30.4987],[24.9949,30.7851],[24.8896,31.0188],[24.8595,31.146],[24.8613,31.3804],[25.0237,31.4944],[25.1509,31.6565]]]}},{"type":"Feature","properties":{"sourceId":"1159314143","regionId":"region.11a05017-45d4-4b4f-9e6a-243f82dd6aa2","countryId":"country.wxv6tu"},"geometry":{"type":"Polygon","coordinates":[[[24.9812,28.0967],[23.5368,28.1296],[23.0621,28.1393],[23.0608,28.797],[23.0584,30.1123],[23.057,30.77],[22.9689,30.7994],[22.7899,30.7916],[22.6192,30.829],[22.5118,30.8935],[22.4565,30.9928],[22.2589,31.1452],[22.1125,31.1199],[21.7928,31.093],[21.7172,31.0656],[21.6552,31.0431],[21.319,31.0351],[20.9341,31.0461],[20.5937,31.007],[20.4175,31.0883],[20.2991,31.2317],[20.1416,31.2239],[20.1467,31.0456],[20.0365,30.8191],[19.7489,30.5109],[19.6164,30.4214],[19.3386,30.2988],[19.0568,30.2662],[18.926,30.2934],[18.7805,30.3759],[18.7137,29.8334],[18.7332,29.666],[18.6993,29.5174],[18.5799,29.3692],[18.5136,29.1647],[18.4993,28.5021],[19.0045,28.3602],[19.1722,28.3474],[19.1698,27.0129],[19.8493,27.0154],[20.7231,27.0218],[21.9228,27.0076],[23.0919,27.0147],[24.2618,27.0331],[24.9812,27.0492],[24.9812,27.6665],[24.9812,28.0967]]]}},{"type":"Feature","properties":{"sourceId":"1159314117","regionId":"region.a5d8cf6d-ac48-4797-bd15-97cc60189c8e","countryId":"country.wxv6tu"},"geometry":{"type":"Polygon","coordinates":[[[9.9313,27.8186],[10.2726,27.667],[10.6576,27.5696],[10.8918,27.5315],[11.1068,27.4362],[11.164,27.3259],[11.2601,26.7483],[11.3589,26.3577],[11.3747,26.2175],[11.7441,26.4362],[12.3099,26.7911],[12.7737,27.1131],[13.0124,27.2504],[13.1905,27.2922],[13.6252,27.1898],[13.9832,27.1289],[14.4212,27.1727],[14.5248,27.2775],[14.849,27.4605],[14.9213,27.5738],[15.0685,27.632],[15.3535,27.6638],[15.5641,27.7411],[15.7959,27.7212],[15.894,27.9963],[15.7921,28.1564],[15.5897,28.2148],[15.3803,28.207],[15.2493,28.1414],[15.0176,28.1448],[14.9587,28.4077],[14.8397,28.5204],[14.527,28.7195],[14.4225,28.8785],[14.4198,29.2091],[14.4222,29.2644],[14.287,29.4006],[13.992,29.5525],[13.8247,29.5459],[13.659,29.422],[13.517,29.2667],[13.4202,29.1077],[13.2084,28.8426],[13.1045,28.7393],[12.8495,28.6092],[12.6885,28.4303],[12.5016,28.4656],[12.4924,28.5435],[12.2782,28.5652],[11.9833,28.6472],[11.9519,28.5951],[11.8979,28.529],[11.7248,28.6103],[11.4924,28.6033],[11.3239,28.5449],[11.1449,28.6228],[11.0163,28.6416],[10.9099,28.8446],[10.7058,28.7301],[10.3749,28.614],[10.1379,28.7173],[9.8273,28.6186],[9.777,28.2676],[9.9359,27.8667],[9.9313,27.8186]]]}},{"type":"Feature","properties":{"sourceId":"1159314119","regionId":"region.4ced3523-1844-4655-9196-4c16d0b220d9","countryId":"country.wxv6tu"},"geometry":{"type":"Polygon","coordinates":[[[9.9313,27.8186],[9.8216,27.5057],[9.7213,27.2919],[9.8255,26.9206],[9.9106,26.8431],[9.8963,26.6528],[9.8358,26.5042],[9.4826,26.3526],[9.3778,26.1689],[9.4012,26.1134],[9.9695,25.3954],[10.0214,25.268],[10.032,24.8563],[10.1934,24.7499],[10.2603,24.5766],[10.4502,24.4769],[10.7207,24.5523],[11.4672,24.3263],[11.4555,24.5939],[11.334,24.7968],[11.3326,25.3893],[11.3995,25.5514],[11.3037,25.7492],[11.3161,25.9413],[11.3747,26.2175],[11.3589,26.3577],[11.2601,26.7483],[11.164,27.3259],[11.1068,27.4362],[10.8918,27.5315],[10.6576,27.5696],[10.2726,27.667],[9.9313,27.8186]]]}},{"type":"Feature","properties":{"sourceId":"1159314149","regionId":"region.f4340a44-40a0-4ed4-9874-3c53a1982a18","countryId":"country.wxv6tu"},"geometry":{"type":"Polygon","coordinates":[[[16.1374,31.2612],[16.1156,31.0493],[16.2257,30.689],[16.303,30.3094],[16.4659,29.9207],[16.5312,29.6329],[16.5101,29.5305],[16.4186,29.4088],[16.7459,29.4016],[16.9812,29.4305],[17.0881,29.3472],[17.3339,29.2826],[17.5052,29.3945],[17.6654,29.3294],[17.7287,29.1619],[17.8985,28.9848],[17.9821,28.7331],[18.2255,28.5553],[18.4993,28.5021],[18.5136,29.1647],[18.5799,29.3692],[18.6993,29.5174],[18.7332,29.666],[18.7137,29.8334],[18.7805,30.3759],[18.6532,30.4223],[18.3242,30.6569],[18.1753,30.7861],[17.9268,30.8552],[17.8486,30.9237],[17.4668,31.03],[17.3659,31.0866],[17.1603,31.1188],[16.728,31.2238],[16.3587,31.2271],[16.1374,31.2612]]]}},{"type":"Feature","properties":{"sourceId":"1159314123","regionId":"region.04348557-b9b2-49cc-9cde-a01c01eea968","countryId":"country.wxv6tu"},"geometry":{"type":"Polygon","coordinates":[[[14.7558,32.4497],[14.7217,32.3451],[14.7584,32.2385],[14.6667,31.9678],[14.4705,31.9456],[14.365,31.9771],[14.1221,32.1426],[13.9916,32.074],[13.8337,32.1005],[13.6164,32.0481],[13.3977,32.0508],[13.6324,31.5083],[13.7982,31.3226],[13.9342,31.2432],[14.0659,31.032],[14.2117,30.721],[14.5607,30.5505],[14.7818,30.4988],[14.9501,30.4092],[14.9797,30.0171],[14.8542,29.862],[15.0519,29.702],[15.3851,29.6133],[15.503,29.6147],[15.5999,29.56],[15.7406,29.394],[15.8797,29.3768],[16.1356,29.5],[16.4186,29.4088],[16.5101,29.5305],[16.5312,29.6329],[16.4659,29.9207],[16.303,30.3094],[16.2257,30.689],[16.1156,31.0493],[16.1374,31.2612],[16.0446,31.2755],[15.7615,31.3881],[15.6228,31.4973],[15.4904,31.6649],[15.3705,31.9294],[15.3705,32.1591],[15.2831,32.3173],[15.196,32.3898],[14.9111,32.4439],[14.7558,32.4497]]]}},{"type":"Feature","properties":{"sourceId":"1159314115","regionId":"region.f05d2d9b-a1f7-4846-a08f-ea32b07ed334","countryId":"country.wxv6tu"},"geometry":{"type":"Polygon","coordinates":[[[13.9544,32.7582],[13.8128,32.6394],[13.4513,32.5286],[13.3848,32.3832],[13.2364,32.3337],[13.2508,32.3174],[13.3632,32.2016],[13.3977,32.0508],[13.6164,32.0481],[13.8337,32.1005],[13.9916,32.074],[14.1221,32.1426],[14.365,31.9771],[14.4705,31.9456],[14.6667,31.9678],[14.7584,32.2385],[14.7217,32.3451],[14.7558,32.4497],[14.4695,32.519],[14.1755,32.7177],[13.9544,32.7582]]]}},{"type":"Feature","properties":{"sourceId":"1159314137","regionId":"region.cb5723c6-4577-4c16-b005-ab1b69cac576","countryId":"country.wxv6tu"},"geometry":{"type":"Polygon","coordinates":[[[13.1032,32.8774],[13.0763,32.7212],[13.1632,32.6492],[13.1875,32.3898],[13.2364,32.3337],[13.3848,32.3832],[13.4513,32.5286],[13.8128,32.6394],[13.9544,32.7582],[13.7871,32.7996],[13.5715,32.8028],[13.3517,32.9042],[13.1647,32.9127],[13.1032,32.8774]]]}},{"type":"Feature","properties":{"sourceId":"1159314133","regionId":"region.71012c65-1f64-4205-a582-b9b34447f291","countryId":"country.wxv6tu"},"geometry":{"type":"Polygon","coordinates":[[[12.5732,32.8126],[12.4621,32.6008],[12.2864,32.4742],[12.1221,32.4068],[12.0976,32.3544],[11.8627,32.3076],[12.4015,32.3037],[12.649,32.2326],[12.8196,32.2602],[12.8233,32.407],[12.9693,32.669],[13.0763,32.7212],[13.1032,32.8774],[12.8244,32.8043],[12.5732,32.8126]]]}},{"type":"Feature","properties":{"sourceId":"1159314151","regionId":"region.dfb45aa9-95e3-4321-bb2d-555ea042101b","countryId":"country.wxv6tu"},"geometry":{"type":"Polygon","coordinates":[[[21.9862,32.9131],[21.9693,32.7564],[22.0332,32.5526],[21.9593,32.3195],[22.0044,32.0512],[21.9912,31.6778],[21.9674,31.4612],[21.9178,31.282],[22.1125,31.1199],[22.2589,31.1452],[22.4565,30.9928],[22.5118,30.8935],[22.6192,30.829],[22.7899,30.7916],[22.9689,30.7994],[22.9566,31.2333],[22.9854,31.4036],[23.0714,31.5122],[23.1184,31.848],[23.2514,32.2167],[23.0956,32.3236],[23.1489,32.4781],[23.0864,32.6465],[22.5138,32.791],[22.3792,32.8703],[22.2068,32.8881],[22.1496,32.9479],[21.9862,32.9131]]]}},{"type":"Feature","properties":{"sourceId":"1159314141","regionId":"region.c9c206db-23cd-4373-864d-0649aba7c7c3","countryId":"country.wxv6tu"},"geometry":{"type":"Polygon","coordinates":[[[21.357,32.7803],[21.4616,32.6335],[21.3319,32.5117],[21.3644,32.327],[21.462,32.1316],[21.6321,31.9992],[21.6618,31.9063],[21.6596,31.6756],[21.6149,31.4733],[21.7118,31.2818],[21.7172,31.0656],[21.7928,31.093],[22.1125,31.1199],[21.9178,31.282],[21.9674,31.4612],[21.9912,31.6778],[22.0044,32.0512],[21.9593,32.3195],[22.0332,32.5526],[21.9693,32.7564],[21.9862,32.9131],[21.8775,32.9032],[21.7163,32.9504],[21.6087,32.9307],[21.4546,32.8126],[21.357,32.7803]]]}},{"type":"Feature","properties":{"sourceId":"1159314139","regionId":"region.f6ab7558-2a1e-40f6-b4df-bf74dc80a1b8","countryId":"country.wxv6tu"},"geometry":{"type":"Polygon","coordinates":[[[20.576,32.5627],[20.5647,32.4371],[20.3572,32.219],[20.3093,32.0353],[20.3504,31.9287],[20.5485,31.5797],[20.9721,31.5777],[21.1464,31.5977],[21.2154,31.541],[21.2424,31.3557],[21.2889,31.2763],[21.319,31.0351],[21.6552,31.0431],[21.7172,31.0656],[21.7118,31.2818],[21.6149,31.4733],[21.6596,31.6756],[21.6618,31.9063],[21.6321,31.9992],[21.462,32.1316],[21.3644,32.327],[21.3319,32.5117],[21.4616,32.6335],[21.357,32.7803],[21.0967,32.7811],[20.7966,32.643],[20.576,32.5627]]]}},{"type":"Feature","properties":{"sourceId":"1159314145","regionId":"region.c24c8d1b-970e-4c57-8b9d-7a92bcac0cb5","countryId":"country.wxv6tu"},"geometry":{"type":"Polygon","coordinates":[[[20.1416,31.2239],[20.2991,31.2317],[20.4175,31.0883],[20.5937,31.007],[20.9341,31.0461],[21.319,31.0351],[21.2889,31.2763],[21.2424,31.3557],[21.2154,31.541],[21.1464,31.5977],[20.9721,31.5777],[20.5485,31.5797],[20.3504,31.9287],[20.3093,32.0353],[20.3572,32.219],[20.5647,32.4371],[20.576,32.5627],[20.3855,32.4346],[20.0715,32.1764],[19.9401,31.9578],[19.9207,31.7177],[20.0222,31.3968],[20.1416,31.2239]]]}},{"type":"Feature","properties":{"sourceId":"1159314127","regionId":"region.0d3a5ecd-cb77-4343-a224-1b49f727aedf","countryId":"country.wxv6tu"},"geometry":{"type":"Polygon","coordinates":[[[13.2508,32.3174],[13.2364,32.3337],[13.1875,32.3898],[13.1632,32.6492],[13.0763,32.7212],[12.9693,32.669],[12.8233,32.407],[12.8196,32.2602],[13.2508,32.3174]]]}},{"type":"Feature","properties":{"sourceId":"1159314135","regionId":"region.74175fc6-6a1b-4185-ac6c-a791a92affd1","countryId":"country.wxv6tu"},"geometry":{"type":"Polygon","coordinates":[[[12.8196,32.2602],[12.649,32.2326],[12.4015,32.3037],[11.8627,32.3076],[11.8228,31.9618],[11.8555,31.7813],[11.8329,31.5621],[11.853,31.2474],[11.9457,31.0868],[11.8673,30.931],[11.5899,30.5424],[11.6163,30.4133],[11.6197,30.0327],[11.7299,29.3665],[11.7293,29.087],[11.8974,28.8592],[11.9519,28.5951],[11.9833,28.6472],[12.2782,28.5652],[12.4924,28.5435],[12.5016,28.4656],[12.6885,28.4303],[12.8495,28.6092],[13.1045,28.7393],[13.2084,28.8426],[13.4202,29.1077],[13.517,29.2667],[13.659,29.422],[13.8247,29.5459],[13.992,29.5525],[14.287,29.4006],[14.4222,29.2644],[14.4198,29.2091],[14.5066,29.232],[14.7524,29.4053],[14.7366,29.6833],[14.8542,29.862],[14.9797,30.0171],[14.9501,30.4092],[14.7818,30.4988],[14.5607,30.5505],[14.2117,30.721],[14.0659,31.032],[13.9342,31.2432],[13.7982,31.3226],[13.6324,31.5083],[13.3977,32.0508],[13.3632,32.2016],[13.2508,32.3174],[12.8196,32.2602]]]}},{"type":"Feature","properties":{"sourceId":"1159314109","regionId":"region.bb444719-0217-434e-b03b-1c8c6a6346f7","countryId":"country.wxv6tu"},"geometry":{"type":"Polygon","coordinates":[[[14.4198,29.2091],[14.4225,28.8785],[14.527,28.7195],[14.8397,28.5204],[14.9587,28.4077],[15.0176,28.1448],[15.2493,28.1414],[15.3803,28.207],[15.5897,28.2148],[15.7921,28.1564],[15.894,27.9963],[15.7959,27.7212],[15.9632,27.4666],[16.0232,27.3059],[16.258,27.1517],[16.2797,27.0752],[16.2784,26.8462],[16.3227,26.7928],[16.52,26.7015],[16.5751,26.6309],[16.568,26.5281],[16.6207,26.4258],[16.9405,26.1634],[17.2634,26.1009],[17.4098,26.0523],[17.5666,26.1258],[17.778,26.1575],[17.9542,26.2941],[18.2041,26.3765],[18.3206,26.3294],[18.515,26.1498],[19.0208,26.0552],[19.1681,26.0038],[19.1698,27.0129],[19.1722,28.3474],[19.0045,28.3602],[18.4993,28.5021],[18.2255,28.5553],[17.9821,28.7331],[17.8985,28.9848],[17.7287,29.1619],[17.6654,29.3294],[17.5052,29.3945],[17.3339,29.2826],[17.0881,29.3472],[16.9812,29.4305],[16.7459,29.4016],[16.4186,29.4088],[16.1356,29.5],[15.8797,29.3768],[15.7406,29.394],[15.5999,29.56],[15.503,29.6147],[15.3851,29.6133],[15.0519,29.702],[14.8542,29.862],[14.7366,29.6833],[14.7524,29.4053],[14.5066,29.232],[14.4198,29.2091]]]}},{"type":"Feature","properties":{"sourceId":"1159314125","regionId":"region.2e5ff6ff-9bd3-4ac6-bff3-1c3faece2de3","countryId":"country.wxv6tu"},"geometry":{"type":"Polygon","coordinates":[[[15.7959,27.7212],[15.5641,27.7411],[15.3535,27.6638],[15.0685,27.632],[14.9213,27.5738],[14.849,27.4605],[14.5248,27.2775],[14.4212,27.1727],[13.9832,27.1289],[14.0455,26.9878],[14.0376,26.8565],[14.1462,26.6712],[14.0855,26.5575],[13.972,26.4615],[13.9344,26.2469],[14.133,26.2677],[14.4244,26.3763],[14.8276,26.7579],[15.278,26.8767],[15.761,26.9479],[16.2797,27.0752],[16.258,27.1517],[16.0232,27.3059],[15.9632,27.4666],[15.7959,27.7212]]]}},{"type":"Feature","properties":{"sourceId":"1159317121","regionId":"region.7d231ff5-9fdc-49d0-aefc-2406489e024f","countryId":"country.wxv6tu"},"geometry":{"type":"Polygon","coordinates":[[[13.9832,27.1289],[13.6252,27.1898],[13.1905,27.2922],[13.0124,27.2504],[12.7737,27.1131],[12.3099,26.7911],[11.7441,26.4362],[11.3747,26.2175],[11.3161,25.9413],[11.3037,25.7492],[11.3995,25.5514],[11.5941,25.652],[11.8584,25.5478],[12.1599,25.5759],[12.3636,25.7323],[12.6249,25.7209],[12.7067,25.7794],[12.9655,25.8614],[13.2054,25.8768],[13.3083,25.945],[13.4819,26.118],[13.9344,26.2469],[13.972,26.4615],[14.0855,26.5575],[14.1462,26.6712],[14.0376,26.8565],[14.0455,26.9878],[13.9832,27.1289]]]}}]}