{"type":"FeatureCollection","features":[{"type":"Feature","properties":{"sourceId":"1159311407","regionId":"region.c86fd77d-c5e1-4306-87e8-31751e4ad7b5","countryId":"country.xs7zo4"},"geometry":{"type":"Polygon","coordinates":[[[80.9229,8.9889],[80.7657,8.9368],[80.753,8.9051],[80.9126,8.8368],[80.8961,8.6257],[80.9871,8.4743],[80.9242,8.3369],[81.205,8.2186],[81.3103,8.2574],[81.4167,8.2539],[81.3657,8.4822],[81.2131,8.4724],[81.2317,8.6511],[80.9785,8.98],[80.9229,8.9889]]]}},{"type":"Feature","properties":{"sourceId":"1159311415","regionId":"region.06f747aa-2250-49f8-91a3-24abc6e3142f","countryId":"country.xs7zo4"},"geometry":{"type":"Polygon","coordinates":[[[80.626,9.4548],[80.6148,9.4462],[80.5006,9.3452],[80.3992,9.3022],[80.2415,9.2953],[80.1917,9.2372],[80.2175,9.1414],[80.175,8.9503],[80.34,8.959],[80.6166,9.1257],[80.7841,9.0045],[80.7657,8.9368],[80.9229,8.9889],[80.8345,9.2395],[80.7444,9.3597],[80.626,9.4548]]]}},{"type":"Feature","properties":{"sourceId":"1159311395","regionId":"region.f0519eb2-daaa-43f7-be0f-d023c88759a4","countryId":"country.xs7zo4"},"geometry":{"type":"MultiPolygon","coordinates":[[[[80.4417,9.5769],[80.4564,9.5287],[80.6148,9.4462],[80.626,9.4548],[80.4417,9.5769]]],[[[80.256,9.6156],[80.2907,9.6808],[80.1223,9.8189],[79.9885,9.8229],[79.9097,9.7683],[79.947,9.6932],[80.0874,9.6184],[80.256,9.6156]]]]}},{"type":"Feature","properties":{"sourceId":"1159311417","regionId":"region.9f65e353-2ea4-4137-988d-aad06556424d","countryId":"country.xs7zo4"},"geometry":{"type":"MultiPolygon","coordinates":[[[[80.2907,9.6808],[80.256,9.6156],[80.3687,9.5302],[80.4564,9.5287],[80.4417,9.5769],[80.2907,9.6808]]],[[[80.1098,9.2095],[80.1917,9.2372],[80.2415,9.2953],[80.3992,9.3022],[80.5006,9.3452],[80.6148,9.4462],[80.4266,9.5002],[80.2722,9.5041],[80.053,9.3915],[80.1162,9.3062],[80.1098,9.2095]]]]}},{"type":"Feature","properties":{"sourceId":"1159311387","regionId":"region.0213d987-0e3f-46ca-9564-669ddd8a58d0","countryId":"country.xs7zo4"},"geometry":{"type":"Polygon","coordinates":[[[79.9128,8.572],[80.0325,8.5271],[80.0444,8.6732],[80.2353,8.6803],[80.1738,8.7467],[80.2465,8.8259],[80.3978,8.8835],[80.34,8.959],[80.175,8.9503],[80.2175,9.1414],[80.1917,9.2372],[80.1098,9.2095],[80.048,9.0263],[79.9471,8.9487],[79.9505,8.7398],[79.9128,8.572]]]}},{"type":"Feature","properties":{"sourceId":"1159311421","regionId":"region.7df0a5c9-7c2d-4939-86bc-ee8dfd0b4134","countryId":"country.xs7zo4"},"geometry":{"type":"Polygon","coordinates":[[[79.8279,7.276],[79.9413,7.2744],[79.9021,7.5999],[80.0133,7.8347],[80.1452,7.9479],[80.1532,8.0678],[80.1025,8.1962],[80.0008,8.2271],[79.966,8.3985],[80.0325,8.5271],[79.9128,8.572],[79.8738,8.5381],[79.8245,8.2667],[79.8272,8.1365],[79.7638,7.9901],[79.7603,7.8684],[79.802,7.6593],[79.7847,7.5898],[79.8279,7.276]]]}},{"type":"Feature","properties":{"sourceId":"1159311441","regionId":"region.78243986-6fbc-42c2-a9f0-74167df44048","countryId":"country.xs7zo4"},"geometry":{"type":"Polygon","coordinates":[[[79.8493,6.965],[80.0543,6.912],[80.1795,6.9778],[80.1497,7.1532],[80.1936,7.2572],[80.1335,7.3248],[79.9413,7.2744],[79.8279,7.276],[79.8137,7.1807],[79.8493,6.965]]]}},{"type":"Feature","properties":{"sourceId":"1159311439","regionId":"region.7da62135-e295-46a8-88a6-f977cff3a914","countryId":"country.xs7zo4"},"geometry":{"type":"Polygon","coordinates":[[[79.9004,6.712],[80.0803,6.8168],[80.1796,6.8135],[80.2101,6.9176],[80.1795,6.9778],[80.0543,6.912],[79.8493,6.965],[79.9004,6.712]]]}},{"type":"Feature","properties":{"sourceId":"1159311443","regionId":"region.529f887f-2539-4cb5-84f6-1185cf516021","countryId":"country.xs7zo4"},"geometry":{"type":"Polygon","coordinates":[[[79.9821,6.441],[80.1802,6.3569],[80.3819,6.4258],[80.2988,6.5977],[80.2151,6.6923],[80.1796,6.8135],[80.0803,6.8168],[79.9004,6.712],[79.9821,6.441]]]}},{"type":"Feature","properties":{"sourceId":"1159311425","regionId":"region.c9bb0850-88b2-445e-9fdb-463f0185f0d1","countryId":"country.xs7zo4"},"geometry":{"type":"Polygon","coordinates":[[[80.385,5.9638],[80.4388,6.0936],[80.3997,6.194],[80.4953,6.3675],[80.3819,6.4258],[80.1802,6.3569],[79.9821,6.441],[80.032,6.2663],[80.1038,6.1271],[80.1852,6.0412],[80.385,5.9638]]]}},{"type":"Feature","properties":{"sourceId":"1159311431","regionId":"region.c31d8e51-4b13-44de-a3ca-82fcd2a4d293","countryId":"country.xs7zo4"},"geometry":{"type":"Polygon","coordinates":[[[80.7297,5.9756],[80.6623,6.1663],[80.67,6.306],[80.6023,6.3969],[80.4953,6.3675],[80.3997,6.194],[80.4388,6.0936],[80.385,5.9638],[80.5908,5.9237],[80.7297,5.9756]]]}},{"type":"Feature","properties":{"sourceId":"1159311427","regionId":"region.d0fd60b7-5f8d-4844-84ad-02af763ef2d5","countryId":"country.xs7zo4"},"geometry":{"type":"Polygon","coordinates":[[[81.7121,6.5103],[81.6081,6.5788],[81.4804,6.4933],[81.4368,6.418],[81.2218,6.3532],[81.0708,6.4237],[80.9198,6.2957],[80.8006,6.2685],[80.67,6.306],[80.6623,6.1663],[80.7297,5.9756],[80.8091,6.0351],[81.1126,6.1203],[81.3621,6.2254],[81.6815,6.4621],[81.7121,6.5103]]]}},{"type":"Feature","properties":{"sourceId":"1159311403","regionId":"region.20f4adea-fc43-4697-a8fc-877fb0827486","countryId":"country.xs7zo4"},"geometry":{"type":"Polygon","coordinates":[[[81.77,7.4608],[81.6609,7.4189],[81.6496,7.5251],[81.5596,7.505],[81.4455,7.5513],[81.4456,7.642],[81.3271,7.7268],[81.2412,7.7391],[81.2208,7.6536],[81.0634,7.7276],[80.989,7.7208],[80.9881,7.6149],[81.0464,7.5078],[81.2015,7.5583],[81.1999,7.3716],[81.2705,7.2768],[81.375,7.4093],[81.4578,7.4561],[81.5487,7.2191],[81.5247,7.0982],[81.6168,7.0596],[81.6341,6.9457],[81.6081,6.5788],[81.7121,6.5103],[81.8316,6.7654],[81.8903,7.0199],[81.8807,7.3271],[81.8215,7.4587],[81.77,7.4608]]]}},{"type":"Feature","properties":{"sourceId":"1159311383","regionId":"region.73a4b310-45f1-45bd-a089-00f2b0a728bd","countryId":"country.xs7zo4"},"geometry":{"type":"Polygon","coordinates":[[[81.4167,8.2539],[81.3103,8.2574],[81.3075,8.0476],[81.3399,7.9374],[81.2433,7.9225],[81.2412,7.7391],[81.3271,7.7268],[81.4456,7.642],[81.4455,7.5513],[81.5596,7.505],[81.6496,7.5251],[81.6609,7.4189],[81.77,7.4608],[81.773,7.568],[81.6968,7.753],[81.6082,7.8317],[81.5659,7.9868],[81.4485,8.128],[81.4167,8.2539]]]}},{"type":"Feature","properties":{"sourceId":"1159311423","regionId":"region.3c01cc9e-11ea-463b-ba45-c1eea7f82122","countryId":"country.xs7zo4"},"geometry":{"type":"Polygon","coordinates":[[[80.928,6.6875],[80.8095,6.7919],[80.6426,6.7539],[80.5114,6.7749],[80.496,6.8317],[80.3491,6.8373],[80.2101,6.9176],[80.1796,6.8135],[80.2151,6.6923],[80.2988,6.5977],[80.3819,6.4258],[80.4953,6.3675],[80.6023,6.3969],[80.67,6.306],[80.8006,6.2685],[80.9198,6.2957],[80.8397,6.4005],[80.8296,6.4945],[80.928,6.6875]]]}},{"type":"Feature","properties":{"sourceId":"1159311435","regionId":"region.89802614-12e0-463e-8d5b-9a8799e0c8e0","countryId":"country.xs7zo4"},"geometry":{"type":"Polygon","coordinates":[[[80.9198,6.2957],[81.0708,6.4237],[81.2218,6.3532],[81.4368,6.418],[81.4804,6.4933],[81.6081,6.5788],[81.6341,6.9457],[81.6168,7.0596],[81.5247,7.0982],[81.5487,7.2191],[81.4578,7.4561],[81.375,7.4093],[81.2705,7.2768],[81.1256,7.1503],[81.2435,7.023],[81.2153,6.926],[81.065,6.8095],[81.062,6.6606],[81.0024,6.5702],[80.928,6.6875],[80.8296,6.4945],[80.8397,6.4005],[80.9198,6.2957]]]}},{"type":"Feature","properties":{"sourceId":"1159311437","regionId":"region.08e28973-a1cf-4970-9c48-bc69526f3174","countryId":"country.xs7zo4"},"geometry":{"type":"Polygon","coordinates":[[[80.2101,6.9176],[80.3491,6.8373],[80.496,6.8317],[80.446,6.9078],[80.4634,7.0284],[80.4488,7.1121],[80.5324,7.1483],[80.5219,7.2351],[80.4221,7.3572],[80.1936,7.2572],[80.1497,7.1532],[80.1795,6.9778],[80.2101,6.9176]]]}},{"type":"Feature","properties":{"sourceId":"1159311433","regionId":"region.d00a2da1-34dc-40f6-8d4d-b2558ca5f053","countryId":"country.xs7zo4"},"geometry":{"type":"Polygon","coordinates":[[[81.2705,7.2768],[81.1999,7.3716],[81.2015,7.5583],[81.0464,7.5078],[80.9881,7.6149],[80.9833,7.4861],[81.0122,7.2304],[80.9512,7.1918],[80.9612,7.0785],[80.8356,6.9544],[80.8095,6.7919],[80.928,6.6875],[81.0024,6.5702],[81.062,6.6606],[81.065,6.8095],[81.2153,6.926],[81.2435,7.023],[81.1256,7.1503],[81.2705,7.2768]]]}},{"type":"Feature","properties":{"sourceId":"1159311399","regionId":"region.5a979176-066a-4e3c-af1b-0fc9ab4e9a93","countryId":"country.xs7zo4"},"geometry":{"type":"Polygon","coordinates":[[[80.7561,8.0123],[80.5998,7.8557],[80.4991,7.815],[80.5731,7.6158],[80.5656,7.4576],[80.6497,7.3898],[80.8368,7.4658],[80.9833,7.4861],[80.9881,7.6149],[80.989,7.7208],[80.7817,7.6783],[80.8233,7.9315],[80.7561,8.0123]]]}},{"type":"Feature","properties":{"sourceId":"1159311405","regionId":"region.37054e8d-0e62-4db6-90c9-75d4116f1231","countryId":"country.xs7zo4"},"geometry":{"type":"Polygon","coordinates":[[[80.7561,8.0123],[80.8233,7.9315],[80.7817,7.6783],[80.989,7.7208],[81.0634,7.7276],[81.2208,7.6536],[81.2412,7.7391],[81.2433,7.9225],[81.3399,7.9374],[81.3075,8.0476],[81.3103,8.2574],[81.205,8.2186],[80.9242,8.3369],[80.8029,8.2736],[80.7561,8.0123]]]}},{"type":"Feature","properties":{"sourceId":"1159311419","regionId":"region.41f34174-e283-4cbe-bd8c-61126b64a19a","countryId":"country.xs7zo4"},"geometry":{"type":"Polygon","coordinates":[[[80.4221,7.3572],[80.5656,7.4576],[80.5731,7.6158],[80.4991,7.815],[80.4202,8.0403],[80.1025,8.1962],[80.1532,8.0678],[80.1452,7.9479],[80.0133,7.8347],[79.9021,7.5999],[79.9413,7.2744],[80.1335,7.3248],[80.1936,7.2572],[80.4221,7.3572]]]}},{"type":"Feature","properties":{"sourceId":"1159311409","regionId":"region.bd9790e0-71e9-4f0f-856a-96b2556fa86b","countryId":"country.xs7zo4"},"geometry":{"type":"Polygon","coordinates":[[[80.9242,8.3369],[80.9871,8.4743],[80.8961,8.6257],[80.9126,8.8368],[80.753,8.9051],[80.5958,8.8698],[80.6505,8.7895],[80.5268,8.6674],[80.429,8.675],[80.338,8.5461],[80.2353,8.6803],[80.0444,8.6732],[80.0325,8.5271],[79.966,8.3985],[80.0008,8.2271],[80.1025,8.1962],[80.4202,8.0403],[80.4991,7.815],[80.5998,7.8557],[80.7561,8.0123],[80.8029,8.2736],[80.9242,8.3369]]]}},{"type":"Feature","properties":{"sourceId":"1159311401","regionId":"region.f4d62d8d-8b9c-4e25-b3a3-84340c225f90","countryId":"country.xs7zo4"},"geometry":{"type":"Polygon","coordinates":[[[80.496,6.8317],[80.5114,6.7749],[80.6426,6.7539],[80.8095,6.7919],[80.8356,6.9544],[80.9612,7.0785],[80.9512,7.1918],[80.7881,7.2374],[80.6841,7.0958],[80.4634,7.0284],[80.446,6.9078],[80.496,6.8317]]]}},{"type":"Feature","properties":{"sourceId":"1159311413","regionId":"region.3a1c3c88-08b8-445a-8cfa-95ddc74e8ef4","countryId":"country.xs7zo4"},"geometry":{"type":"Polygon","coordinates":[[[80.753,8.9051],[80.7657,8.9368],[80.7841,9.0045],[80.6166,9.1257],[80.34,8.959],[80.3978,8.8835],[80.2465,8.8259],[80.1738,8.7467],[80.2353,8.6803],[80.338,8.5461],[80.429,8.675],[80.5268,8.6674],[80.6505,8.7895],[80.5958,8.8698],[80.753,8.9051]]]}},{"type":"Feature","properties":{"sourceId":"1159311397","regionId":"region.c743a123-7be0-4654-92ae-9bc2f37aba76","countryId":"country.xs7zo4"},"geometry":{"type":"Polygon","coordinates":[[[80.4634,7.0284],[80.6841,7.0958],[80.7881,7.2374],[80.9512,7.1918],[81.0122,7.2304],[80.9833,7.4861],[80.8368,7.4658],[80.6497,7.3898],[80.5656,7.4576],[80.4221,7.3572],[80.5219,7.2351],[80.5324,7.1483],[80.4488,7.1121],[80.4634,7.0284]]]}}]}