{"type":"FeatureCollection","features":[{"type":"Feature","properties":{"sourceId":"1159315995","regionId":"region.b14886fa-c7ae-45c9-b1a8-7a3133b604cf","countryId":"country.8c79c739-2c80-452e-88cf-10db55637921"},"geometry":{"type":"Polygon","coordinates":[[[12.4907,43.965],[12.4272,43.9694],[12.4481,43.9547],[12.4907,43.965]]]}},{"type":"Feature","properties":{"sourceId":"1159315997","regionId":"region.886245cc-be74-42cc-8c05-45f29ff50787","countryId":"country.8c79c739-2c80-452e-88cf-10db55637921"},"geometry":{"type":"Polygon","coordinates":[[[12.4907,43.965],[12.4481,43.9547],[12.4572,43.9334],[12.4915,43.9491],[12.4907,43.965]]]}},{"type":"Feature","properties":{"sourceId":"1159315999","regionId":"region.586e9a6b-fb2a-46f9-bc8b-78fc50aa21bb","countryId":"country.8c79c739-2c80-452e-88cf-10db55637921"},"geometry":{"type":"Polygon","coordinates":[[[12.4915,43.9491],[12.4572,43.9334],[12.4645,43.9245],[12.468,43.9226],[12.478,43.9232],[12.4831,43.9292],[12.4915,43.9491]]]}},{"type":"Feature","properties":{"sourceId":"1159316003","regionId":"region.13f2a502-eb47-4901-ab84-e9605d15c2e7","countryId":"country.8c79c739-2c80-452e-88cf-10db55637921"},"geometry":{"type":"Polygon","coordinates":[[[12.478,43.9232],[12.468,43.9226],[12.4644,43.9001],[12.478,43.9232]]]}},{"type":"Feature","properties":{"sourceId":"1159316005","regionId":"region.4e7d01a3-6b27-4deb-92e9-fa95e1c59c34","countryId":"country.8c79c739-2c80-452e-88cf-10db55637921"},"geometry":{"type":"Polygon","coordinates":[[[12.4644,43.9001],[12.468,43.9226],[12.4645,43.9245],[12.4411,43.9145],[12.4351,43.904],[12.4413,43.8933],[12.4644,43.9001]]]}},{"type":"Feature","properties":{"sourceId":"1159316007","regionId":"region.751e1fb5-656f-48e7-9817-acd513807a2a","countryId":"country.8c79c739-2c80-452e-88cf-10db55637921"},"geometry":{"type":"Polygon","coordinates":[[[12.4413,43.8933],[12.4351,43.904],[12.39,43.9179],[12.4211,43.8952],[12.4413,43.8933]]]}},{"type":"Feature","properties":{"sourceId":"1159315991","regionId":"region.ee46cd91-bfd8-4e41-b88d-773efbc8aa00","countryId":"country.8c79c739-2c80-452e-88cf-10db55637921"},"geometry":{"type":"Polygon","coordinates":[[[12.39,43.9179],[12.4351,43.904],[12.4411,43.9145],[12.4181,43.9406],[12.3856,43.9245],[12.39,43.9179]]]}},{"type":"Feature","properties":{"sourceId":"1159315993","regionId":"region.828dbc21-0dfa-4dc6-9d3c-0d1a2ea522bc","countryId":"country.8c79c739-2c80-452e-88cf-10db55637921"},"geometry":{"type":"Polygon","coordinates":[[[12.3856,43.9245],[12.4181,43.9406],[12.4166,43.9637],[12.3856,43.9245]]]}},{"type":"Feature","properties":{"sourceId":"1159315591","regionId":"region.8aba7632-bcba-43c8-8917-250f19c0d8da","countryId":"country.8c79c739-2c80-452e-88cf-10db55637921"},"geometry":{"type":"Polygon","coordinates":[[[12.4166,43.9637],[12.4181,43.9406],[12.4411,43.9145],[12.4645,43.9245],[12.4572,43.9334],[12.4481,43.9547],[12.4272,43.9694],[12.4166,43.9637]]]}}]}