{"type":"FeatureCollection","features":[{"type":"Feature","properties":{"sourceId":"1159316701","regionId":"region.23e920bd-123e-4d2f-a344-38b44123159d","countryId":"country.2aded07b-a46c-4e6b-8b87-ad5e4f973d52"},"geometry":{"type":"Polygon","coordinates":[[[73.0975,-0.5997],[73.0949,-0.6047],[73.1112,-0.6413],[73.1116,-0.6171],[73.0975,-0.5997]]]}},{"type":"Feature","properties":{"sourceId":"1159316699","regionId":"region.6bc0ed26-3109-4321-806b-b8e6fed21cee","countryId":"country.2aded07b-a46c-4e6b-8b87-ad5e4f973d52"},"geometry":{"type":"Polygon","coordinates":[[[73.4351,-0.2836],[73.4352,-0.2936],[73.443,-0.2927],[73.4351,-0.2836]]]}},{"type":"Feature","properties":{"sourceId":"1159316697","regionId":"region.4a7a6438-d5b4-449d-ba68-a352a03ce643","countryId":"country.2aded07b-a46c-4e6b-8b87-ad5e4f973d52"},"geometry":{"type":"Polygon","coordinates":[[[73.0955,0.228],[73.0989,0.2164],[73.1043,0.2196],[73.0955,0.228]]]}},{"type":"Feature","properties":{"sourceId":"1159316695","regionId":"region.fbe01437-81b0-40de-aa80-bc36d5791a2a","countryId":"country.2aded07b-a46c-4e6b-8b87-ad5e4f973d52"},"geometry":{"type":"Polygon","coordinates":[[[73.5134,0.3878],[73.5066,0.3878],[73.5086,0.3806],[73.5134,0.3878]]]}},{"type":"Feature","properties":{"sourceId":"1159316677","regionId":"region.78292f3f-bcc4-4c71-8eb8-d595c29fb758","countryId":"country.2aded07b-a46c-4e6b-8b87-ad5e4f973d52"},"geometry":{"type":"Polygon","coordinates":[[[72.9284,3.5519],[72.9199,3.5522],[72.9118,3.5417],[72.9284,3.5519]]]}},{"type":"Feature","properties":{"sourceId":"1159316673","regionId":"region.5ebe7a57-203d-4f60-b016-b45f8e6dc16f","countryId":"country.2aded07b-a46c-4e6b-8b87-ad5e4f973d52"},"geometry":{"type":"Polygon","coordinates":[[[73.4773,3.9421],[73.4692,3.937],[73.47,3.9351],[73.4773,3.9421]]]}},{"type":"Feature","properties":{"sourceId":"1159316675","regionId":"region.e48fdcd6-01ac-4228-b684-3959c3cc0984","countryId":"country.2aded07b-a46c-4e6b-8b87-ad5e4f973d52"},"geometry":{"type":"Polygon","coordinates":[[[72.957,4.4383],[72.9434,4.4316],[72.9561,4.4221],[72.957,4.4383]]]}},{"type":"Feature","properties":{"sourceId":"1159316669","regionId":"region.ae033437-7ad6-45f2-a01f-bbd5fa00d60e","countryId":"country.2aded07b-a46c-4e6b-8b87-ad5e4f973d52"},"geometry":{"type":"Polygon","coordinates":[[[72.9793,4.8955],[72.9727,4.8944],[72.9701,4.8904],[72.9697,4.8807],[72.9793,4.8955]]]}},{"type":"Feature","properties":{"sourceId":"1159316671","regionId":"region.445f9a7f-cb8d-40cb-85fa-3b529f59196f","countryId":"country.2aded07b-a46c-4e6b-8b87-ad5e4f973d52"},"geometry":{"type":"Polygon","coordinates":[[[73.6296,5.4185],[73.6278,5.4133],[73.6325,5.3863],[73.6367,5.4029],[73.6296,5.4185]]]}},{"type":"Feature","properties":{"sourceId":"1159316663","regionId":"region.808e2669-55c9-40a1-be8e-0e9edb855cc2","countryId":"country.2aded07b-a46c-4e6b-8b87-ad5e4f973d52"},"geometry":{"type":"Polygon","coordinates":[[[72.9317,5.9691],[72.9258,5.9633],[72.9302,5.9569],[72.9317,5.9691]]]}},{"type":"Feature","properties":{"sourceId":"1159316661","regionId":"region.98caa918-7f3d-4b94-9cf2-077e740a203c","countryId":"country.2aded07b-a46c-4e6b-8b87-ad5e4f973d52"},"geometry":{"type":"Polygon","coordinates":[[[73.2417,6.2397],[73.2363,6.2321],[73.2439,6.2316],[73.2417,6.2397]]]}},{"type":"Feature","properties":{"sourceId":"1159316693","regionId":"region.f84b01ca-ed20-439b-b37d-ecfb7b1f89cc","countryId":"country.2aded07b-a46c-4e6b-8b87-ad5e4f973d52"},"geometry":{"type":"Polygon","coordinates":[[[73.5531,1.9324],[73.5498,1.925],[73.5409,1.8924],[73.5457,1.9016],[73.5488,1.9114],[73.5531,1.9324]]]}},{"type":"Feature","properties":{"sourceId":"1159316691","regionId":"region.29b22f6d-2719-43af-8a77-377d23419290","countryId":"country.2aded07b-a46c-4e6b-8b87-ad5e4f973d52"},"geometry":{"type":"Polygon","coordinates":[[[73.3543,2.4372],[73.3539,2.429],[73.3626,2.3849],[73.3662,2.4115],[73.3543,2.4372]]]}},{"type":"Feature","properties":{"sourceId":"1159316689","regionId":"region.d2f3ecb9-c54a-4eab-8dbe-c53533015fff","countryId":"country.2aded07b-a46c-4e6b-8b87-ad5e4f973d52"},"geometry":{"type":"Polygon","coordinates":[[[73.0223,2.7417],[73.028,2.7382],[73.0322,2.7451],[73.0223,2.7417]]]}},{"type":"Feature","properties":{"sourceId":"1159316687","regionId":"region.c7f11e8b-2e69-4e8a-a435-b304537bd59d","countryId":"country.2aded07b-a46c-4e6b-8b87-ad5e4f973d52"},"geometry":{"type":"Polygon","coordinates":[[[73.3993,2.7857],[73.3944,2.7843],[73.3919,2.7815],[73.3906,2.7754],[73.3993,2.7857]]]}},{"type":"Feature","properties":{"sourceId":"1159316679","regionId":"region.854187bf-354e-4969-b4a6-e340bf2d9ff7","countryId":"country.2aded07b-a46c-4e6b-8b87-ad5e4f973d52"},"geometry":{"type":"Polygon","coordinates":[[[73.0317,3.253],[73.029,3.2469],[73.0357,3.2478],[73.0317,3.253]]]}},{"type":"Feature","properties":{"sourceId":"1159316683","regionId":"region.1e96a4d0-5749-4716-9b2d-4da733c4d4c5","countryId":"country.2aded07b-a46c-4e6b-8b87-ad5e4f973d52"},"geometry":{"type":"Polygon","coordinates":[[[73.7476,3.4511],[73.7485,3.4482],[73.7531,3.4464],[73.7476,3.4511]]]}},{"type":"Feature","properties":{"sourceId":"1159316681","regionId":"region.d080fdc7-8649-4350-bd7e-b22bf84cc0ec","countryId":"country.2aded07b-a46c-4e6b-8b87-ad5e4f973d52"},"geometry":{"type":"Polygon","coordinates":[[[73.5462,4.243],[73.512,4.1863],[73.5382,4.1833],[73.5462,4.243]]]}},{"type":"Feature","properties":{"sourceId":"1159316665","regionId":"region.e4e3ba92-f7ea-4777-b09e-02185cebfb1a","countryId":"country.2aded07b-a46c-4e6b-8b87-ad5e4f973d52"},"geometry":{"type":"Polygon","coordinates":[[[73.3928,5.7377],[73.3826,5.7221],[73.3807,5.7146],[73.3928,5.7377]]]}},{"type":"Feature","properties":{"sourceId":"1159316659","regionId":"region.382c8042-0ccd-4770-acc8-4ee301b58a10","countryId":"country.2aded07b-a46c-4e6b-8b87-ad5e4f973d52"},"geometry":{"type":"Polygon","coordinates":[[[73.1595,6.7865],[73.136,6.7412],[73.1448,6.7355],[73.1665,6.7803],[73.1595,6.7865]]]}},{"type":"Feature","properties":{"sourceId":"1159307979","regionId":"region.86b8c1e8-13fc-4ebf-8452-237b2c1da3db","countryId":"country.2aded07b-a46c-4e6b-8b87-ad5e4f973d52"},"geometry":{"type":"Polygon","coordinates":[[[73.214,6.9186],[73.2049,6.9118],[73.201,6.8931],[73.2088,6.8911],[73.214,6.9186]]]}}]}