{"type":"FeatureCollection","features":[{"type":"Feature","properties":{"sourceId":"1159316087","regionId":"region.f2768a44-f0c1-422b-90d0-8389344c40ca","countryId":"country.4b67c337-52f1-4fbe-bb69-f51e8f67fc03"},"geometry":{"type":"Polygon","coordinates":[[[50.5039,26.242],[50.5516,26.1942],[50.5867,26.2425],[50.5039,26.242]]]}},{"type":"Feature","properties":{"sourceId":"1159316083","regionId":"region.04188d0e-667a-47fc-aeca-b304346da1f6","countryId":"country.4b67c337-52f1-4fbe-bb69-f51e8f67fc03"},"geometry":{"type":"Polygon","coordinates":[[[50.4909,26.048],[50.5245,26.1289],[50.5516,26.1942],[50.5039,26.242],[50.453,26.1496],[50.4909,26.048]]]}},{"type":"Feature","properties":{"sourceId":"1159315657","regionId":"region.8e692527-6fd4-40cc-ba4b-018915262d94","countryId":"country.4b67c337-52f1-4fbe-bb69-f51e8f67fc03"},"geometry":{"type":"Polygon","coordinates":[[[50.6163,26.0959],[50.5245,26.1289],[50.4909,26.048],[50.4605,25.9853],[50.5472,25.8529],[50.6035,25.8546],[50.6163,26.0959]]]}},{"type":"Feature","properties":{"sourceId":"1159316085","regionId":"region.4d611f16-0aa0-484a-91c1-f4ea1b83dee2","countryId":"country.4b67c337-52f1-4fbe-bb69-f51e8f67fc03"},"geometry":{"type":"Polygon","coordinates":[[[50.5516,26.1942],[50.5245,26.1289],[50.6163,26.0959],[50.5516,26.1942]]]}},{"type":"Feature","properties":{"sourceId":"1159316089","regionId":"region.306a7ad3-4294-4101-a429-00f31a19c3d2","countryId":"country.4b67c337-52f1-4fbe-bb69-f51e8f67fc03"},"geometry":{"type":"Polygon","coordinates":[[[50.6017,26.2789],[50.6124,26.2413],[50.6478,26.2391],[50.6553,26.2767],[50.6017,26.2789]]]}}]}