{"type":"FeatureCollection","features":[{"type":"Feature","properties":{"sourceId":"1159317181","regionId":"region.6d495136-7a58-4c41-a3f9-7b130ac18c01","countryId":"country.1bf4760"},"geometry":{"type":"Polygon","coordinates":[[[-11.9,13.3822],[-12.0463,13.3159],[-12.2547,13.4479],[-12.3574,13.2542],[-12.4454,13.2777],[-12.5129,13.1926],[-12.7008,13.1603],[-12.7418,13.0459],[-12.8534,12.9842],[-12.9766,13.0576],[-13.1292,13.0136],[-13.3284,13.0437],[-13.3557,13.3249],[-13.5995,13.3133],[-13.6228,13.2401],[-13.6,13.1155],[-13.473,12.8918],[-13.4808,12.7089],[-13.3598,12.6497],[-13.0765,12.6359],[-13.0827,12.5157],[-12.981,12.467],[-12.9131,12.5363],[-12.7733,12.4351],[-12.648,12.4258],[-12.5781,12.3615],[-12.5051,12.3903],[-12.3609,12.3056],[-12.0792,12.4081],[-11.9352,12.417],[-11.7578,12.3833],[-11.5154,12.4316],[-11.3884,12.4039],[-11.3778,12.4802],[-11.461,12.6584],[-11.4022,12.7317],[-11.4503,13.0751],[-11.5331,13.1118],[-11.5585,13.2665],[-11.6131,13.3608],[-11.7565,13.3998],[-11.8281,13.3073],[-11.9,13.3822]]]}},{"type":"Feature","properties":{"sourceId":"1159309135","regionId":"region.4df36723-3950-4d1f-95e2-bccc27e8cfe6","countryId":"country.1bf4760"},"geometry":{"type":"Polygon","coordinates":[[[-12.2641,14.7749],[-12.3825,14.846],[-12.4715,14.998],[-12.6229,15.1023],[-12.6896,15.0925],[-12.5726,14.8937],[-12.6489,14.7063],[-12.7555,14.5655],[-12.9488,14.5462],[-13.2189,14.5946],[-13.5112,14.3985],[-13.8341,14.4018],[-14.2695,14.5625],[-14.3566,14.6437],[-14.5087,14.5403],[-14.633,14.5109],[-14.6337,14.3226],[-14.5775,14.0648],[-14.6287,13.9391],[-14.8126,13.84],[-14.8603,13.7656],[-14.8029,13.6523],[-14.7286,13.6193],[-14.5855,13.6605],[-14.4621,13.5167],[-14.3299,13.4564],[-14.0929,13.5547],[-13.9675,13.5756],[-13.8825,13.5038],[-13.733,13.4681],[-13.6864,13.2884],[-13.6228,13.2401],[-13.5995,13.3133],[-13.3557,13.3249],[-13.3284,13.0437],[-13.1292,13.0136],[-12.9766,13.0576],[-12.8534,12.9842],[-12.7418,13.0459],[-12.7008,13.1603],[-12.5129,13.1926],[-12.4454,13.2777],[-12.3574,13.2542],[-12.2547,13.4479],[-12.0463,13.3159],[-11.9,13.3822],[-11.8904,13.4651],[-11.9968,13.5442],[-12.0976,13.7044],[-12.0123,13.7512],[-11.9629,13.9092],[-12.0252,14.0267],[-11.9976,14.1662],[-12.1156,14.3551],[-12.2217,14.3912],[-12.2364,14.5195],[-12.1659,14.6252],[-12.2641,14.7749]]]}},{"type":"Feature","properties":{"sourceId":"1159309131","regionId":"region.365fd105-2cdf-4d3f-a8b7-540a3b72547b","countryId":"country.1bf4760"},"geometry":{"type":"Polygon","coordinates":[[[-13.3598,12.6497],[-13.4808,12.7089],[-13.473,12.8918],[-13.6,13.1155],[-13.6228,13.2401],[-13.6864,13.2884],[-13.733,13.4681],[-13.8825,13.5038],[-13.8187,13.4294],[-13.851,13.3358],[-14.0566,13.2972],[-14.2017,13.2296],[-14.395,13.243],[-14.5521,13.3231],[-14.7316,13.359],[-14.7796,13.4109],[-15.0151,13.4957],[-15.1376,13.59],[-15.1813,13.5598],[-15.2278,13.4252],[-15.3424,13.3626],[-15.3597,13.2073],[-15.2776,13.175],[-15.2365,13.0429],[-15.169,12.9989],[-15.1308,12.8844],[-15.1462,12.6792],[-14.8722,12.6781],[-14.3431,12.6759],[-13.7283,12.6734],[-13.3598,12.6497]]]}},{"type":"Feature","properties":{"sourceId":"1159317183","regionId":"region.369e46b0-d6ef-42ed-bef8-c12250404b21","countryId":"country.1bf4760"},"geometry":{"type":"Polygon","coordinates":[[[-15.1462,12.6792],[-15.1308,12.8844],[-15.169,12.9989],[-15.2365,13.0429],[-15.2776,13.175],[-15.3597,13.2073],[-15.3424,13.3626],[-15.5195,13.3866],[-15.8071,13.3398],[-15.8244,13.2485],[-15.8974,13.1574],[-15.9016,13.0791],[-15.9868,12.9269],[-16.0221,12.729],[-15.9639,12.6022],[-15.884,12.4422],[-15.677,12.4393],[-15.4217,12.5571],[-15.2238,12.6752],[-15.1462,12.6792]]]}},{"type":"Feature","properties":{"sourceId":"1159309133","regionId":"region.d2f9bbd1-e295-4629-bc30-b02d51505de7","countryId":"country.1bf4760"},"geometry":{"type":"MultiPolygon","coordinates":[[[[-16.7284,12.3325],[-16.382,12.3738],[-16.2329,12.4529],[-16.0905,12.4643],[-15.884,12.4422],[-15.9639,12.6022],[-16.0079,12.6321],[-16.1929,12.5776],[-16.3096,12.598],[-16.3883,12.5516],[-16.5797,12.6328],[-16.803,12.4854],[-16.7284,12.3325]]],[[[-15.8974,13.1574],[-16.6735,13.1643],[-16.7537,13.065],[-16.7589,12.8908],[-16.7945,12.8388],[-16.7612,12.7132],[-16.7731,12.583],[-16.6266,12.6625],[-16.371,12.5645],[-16.3468,12.598],[-16.155,12.6117],[-16.0489,12.6564],[-16.0221,12.729],[-15.9868,12.9269],[-15.9016,13.0791],[-15.8974,13.1574]]]]}},{"type":"Feature","properties":{"sourceId":"1159317179","regionId":"region.d4083aa1-1b75-495c-be88-55d106a17e87","countryId":"country.1bf4760"},"geometry":{"type":"Polygon","coordinates":[[[-14.9489,16.6706],[-15.1251,16.5827],[-15.4909,16.5645],[-15.6722,16.4814],[-15.813,16.5138],[-16.0538,16.4954],[-16.1323,16.5548],[-16.3274,16.4746],[-16.3811,16.2467],[-16.466,16.1741],[-16.5423,15.8088],[-16.5409,15.8057],[-16.3777,15.8091],[-16.2575,15.8445],[-16.116,15.9973],[-15.9219,16.1034],[-15.8411,16.1818],[-15.5912,15.9212],[-15.434,15.9317],[-15.4267,15.9985],[-14.8545,15.9974],[-14.7047,15.9535],[-14.5414,15.8047],[-14.4979,15.7467],[-14.2983,15.6378],[-13.9899,15.8773],[-13.8629,16.0116],[-13.7614,16.0515],[-13.7196,16.1356],[-13.7183,16.1593],[-13.8113,16.1221],[-13.9641,16.2301],[-14.0156,16.3559],[-14.3433,16.6367],[-14.4066,16.6608],[-14.597,16.6292],[-14.9489,16.6706]]]}},{"type":"Feature","properties":{"sourceId":"1159310237","regionId":"region.0ea88a68-3c65-4b92-8aa4-b23b7a77b363","countryId":"country.1bf4760"},"geometry":{"type":"Polygon","coordinates":[[[-13.7196,16.1356],[-13.7614,16.0515],[-13.8629,16.0116],[-13.9899,15.8773],[-14.2983,15.6378],[-14.4979,15.7467],[-14.5414,15.8047],[-14.741,15.6778],[-14.7482,15.4963],[-14.7845,15.4419],[-14.6176,15.3585],[-14.5342,15.3693],[-14.585,15.1226],[-14.6213,15.0791],[-14.8027,15.0392],[-14.7301,14.8469],[-14.8627,14.6377],[-14.6549,14.5628],[-14.633,14.5109],[-14.5087,14.5403],[-14.3566,14.6437],[-14.2695,14.5625],[-13.8341,14.4018],[-13.5112,14.3985],[-13.2189,14.5946],[-12.9488,14.5462],[-12.7555,14.5655],[-12.6489,14.7063],[-12.5726,14.8937],[-12.6896,15.0925],[-12.7466,15.1311],[-12.8568,15.222],[-12.9643,15.5092],[-13.0896,15.497],[-13.1222,15.6035],[-13.2378,15.6234],[-13.3137,15.9221],[-13.4849,16.155],[-13.6759,16.1069],[-13.7196,16.1356]]]}},{"type":"Feature","properties":{"sourceId":"1159317185","regionId":"region.e5877cb9-55c2-4efd-ba85-2f72af8d7d9b","countryId":"country.1bf4760"},"geometry":{"type":"Polygon","coordinates":[[[-14.8603,13.7656],[-14.8126,13.84],[-14.6287,13.9391],[-14.5775,14.0648],[-14.6337,14.3226],[-14.633,14.5109],[-14.6549,14.5628],[-14.8627,14.6377],[-14.898,14.6771],[-15.0628,14.5999],[-15.2495,14.6329],[-15.3796,14.6983],[-15.4313,14.5743],[-15.5938,14.5441],[-15.799,14.3849],[-15.8549,14.1539],[-15.8549,14.0378],[-15.7025,13.9035],[-15.7097,13.8273],[-15.5827,13.8273],[-15.3941,13.7715],[-15.2673,13.7418],[-15.0977,13.82],[-14.8603,13.7656]]]}},{"type":"Feature","properties":{"sourceId":"1159310233","regionId":"region.3a4e0a17-d7e1-4e1d-92f5-b4fccb1dcc97","countryId":"country.1bf4760"},"geometry":{"type":"Polygon","coordinates":[[[-15.498,13.6415],[-15.3941,13.7715],[-15.5827,13.8273],[-15.7097,13.8273],[-15.7025,13.9035],[-15.8549,14.0378],[-15.8549,14.1539],[-15.799,14.3849],[-16.014,14.3351],[-16.1131,14.3595],[-16.2571,14.3396],[-16.3802,14.1684],[-16.3723,14.1627],[-16.2488,14.1233],[-16.2014,13.8825],[-16.2373,13.7964],[-16.1725,13.7459],[-16.0854,13.5852],[-15.5182,13.5831],[-15.498,13.6415]]]}},{"type":"Feature","properties":{"sourceId":"1159310231","regionId":"region.01a6e3e8-972d-4420-9ab4-8b5f545bc743","countryId":"country.1bf4760"},"geometry":{"type":"MultiPolygon","coordinates":[[[[-16.0854,13.5852],[-16.1725,13.7459],[-16.2373,13.7964],[-16.2014,13.8825],[-16.2488,14.1233],[-16.3723,14.1627],[-16.4891,14.1282],[-16.6239,13.9739],[-16.7468,13.9514],[-16.7102,13.7736],[-16.5614,13.5869],[-16.0854,13.5852]]],[[[-16.3802,14.1684],[-16.2571,14.3396],[-16.1131,14.3595],[-16.014,14.3351],[-15.799,14.3849],[-15.5938,14.5441],[-15.4313,14.5743],[-15.4684,14.6277],[-15.6333,14.6927],[-15.8034,14.7152],[-15.8701,14.5574],[-16.0307,14.5262],[-16.1971,14.5775],[-16.462,14.6073],[-16.5313,14.5806],[-16.5511,14.5214],[-16.695,14.4267],[-16.8113,14.1249],[-16.7211,14.0163],[-16.6317,14.0101],[-16.4746,14.1794],[-16.3802,14.1684]]]]}},{"type":"Feature","properties":{"sourceId":"1159310235","regionId":"region.2c39f0ac-97b9-4cbd-846b-7de839845d99","countryId":"country.1bf4760"},"geometry":{"type":"Polygon","coordinates":[[[-16.7353,15.4773],[-16.6953,15.4008],[-16.7169,15.2707],[-16.6172,15.1809],[-16.5277,15.2031],[-16.4514,15.3206],[-16.3437,15.3178],[-16.1922,15.0001],[-16.1324,14.969],[-16.0771,15.0019],[-15.8319,15.0034],[-15.7177,14.8616],[-15.453,14.829],[-15.3796,14.6983],[-15.2495,14.6329],[-15.0628,14.5999],[-14.898,14.6771],[-14.8627,14.6377],[-14.7301,14.8469],[-14.8027,15.0392],[-14.6213,15.0791],[-14.585,15.1226],[-14.5342,15.3693],[-14.6176,15.3585],[-14.7845,15.4419],[-14.7482,15.4963],[-14.741,15.6778],[-14.5414,15.8047],[-14.7047,15.9535],[-14.8545,15.9974],[-15.4267,15.9985],[-15.434,15.9317],[-15.5912,15.9212],[-15.8411,16.1818],[-15.9219,16.1034],[-16.116,15.9973],[-16.2575,15.8445],[-16.3777,15.8091],[-16.5409,15.8057],[-16.5389,15.7744],[-16.7353,15.4773]]]}},{"type":"Feature","properties":{"sourceId":"1159310239","regionId":"region.52761283-d671-4433-9415-fc37b28a4648","countryId":"country.1bf4760"},"geometry":{"type":"Polygon","coordinates":[[[-17.182,14.8971],[-17.1295,14.7503],[-17.1484,14.6132],[-17.0595,14.4539],[-16.9396,14.3559],[-16.8839,14.189],[-16.8113,14.1249],[-16.695,14.4267],[-16.5511,14.5214],[-16.5313,14.5806],[-16.6147,14.6162],[-16.5925,14.7019],[-16.6783,14.8775],[-16.6405,14.9444],[-16.3995,15.0116],[-16.1927,14.9263],[-16.1324,14.969],[-16.1922,15.0001],[-16.3437,15.3178],[-16.4514,15.3206],[-16.5277,15.2031],[-16.6172,15.1809],[-16.7169,15.2707],[-16.6953,15.4008],[-16.7353,15.4773],[-16.8782,15.2331],[-17.1387,14.9277],[-17.182,14.8971]]]}},{"type":"Feature","properties":{"sourceId":"1159310227","regionId":"region.5ec8bfba-a80f-4393-99bd-b6ecfa52a366","countryId":"country.1bf4760"},"geometry":{"type":"Polygon","coordinates":[[[-17.1484,14.6132],[-17.1295,14.7503],[-17.182,14.8971],[-17.371,14.8003],[-17.1484,14.6132]]]}},{"type":"Feature","properties":{"sourceId":"1159310229","regionId":"region.ed55dc25-4e58-47cb-8152-d8fd36126813","countryId":"country.1bf4760"},"geometry":{"type":"Polygon","coordinates":[[[-15.3796,14.6983],[-15.453,14.829],[-15.7177,14.8616],[-15.8319,15.0034],[-16.0771,15.0019],[-16.1324,14.969],[-16.1927,14.9263],[-16.3995,15.0116],[-16.6405,14.9444],[-16.6783,14.8775],[-16.5925,14.7019],[-16.6147,14.6162],[-16.5313,14.5806],[-16.462,14.6073],[-16.1971,14.5775],[-16.0307,14.5262],[-15.8701,14.5574],[-15.8034,14.7152],[-15.6333,14.6927],[-15.4684,14.6277],[-15.4313,14.5743],[-15.3796,14.6983]]]}}]}