{"type":"FeatureCollection","features":[{"type":"Feature","properties":{"sourceId":"1159307845","regionId":"region.cc7a352d-2dee-45ca-9636-1307d575cf3e","countryId":"country.1p0y3nd"},"geometry":{"type":"Polygon","coordinates":[[[124.4505,-9.1802],[124.1908,-9.2551],[124.03,-9.342],[124.1211,-9.4269],[124.1975,-9.3732],[124.3101,-9.4887],[124.3479,-9.3746],[124.4318,-9.2908],[124.4505,-9.1802]]]}},{"type":"Feature","properties":{"sourceId":"1159307859","regionId":"region.0a253d66-0315-417e-a1ee-73bafa2b03ca","countryId":"country.1p0y3nd"},"geometry":{"type":"Polygon","coordinates":[[[124.9195,-8.962],[124.9479,-9.0785],[125.0518,-9.035],[125.1624,-9.0606],[125.1527,-9.1708],[125.3112,-9.2095],[125.3606,-9.0603],[125.4106,-9.0341],[125.4131,-8.9822],[125.3263,-8.9914],[125.2393,-8.787],[125.1792,-8.7545],[125.1029,-8.7403],[124.9195,-8.962]]]}},{"type":"Feature","properties":{"sourceId":"1159307861","regionId":"region.f50b67cb-a77c-4cab-bdee-a6f66807cf31","countryId":"country.1p0y3nd"},"geometry":{"type":"Polygon","coordinates":[[[125.1527,-9.1708],[124.9745,-9.1919],[125.0616,-9.4858],[125.1966,-9.4247],[125.3788,-9.281],[125.488,-9.2408],[125.4106,-9.0341],[125.3606,-9.0603],[125.3112,-9.2095],[125.1527,-9.1708]]]}},{"type":"Feature","properties":{"sourceId":"1159307855","regionId":"region.72f6b31a-c36e-40f1-b09d-e0369d4d6846","countryId":"country.1p0y3nd"},"geometry":{"type":"Polygon","coordinates":[[[125.6701,-9.1933],[125.6732,-9.1165],[125.5955,-9.0553],[125.6004,-8.928],[125.6719,-8.9067],[125.6883,-8.7946],[125.488,-8.8556],[125.4131,-8.9822],[125.4106,-9.0341],[125.488,-9.2408],[125.6701,-9.1933]]]}},{"type":"Feature","properties":{"sourceId":"1159307869","regionId":"region.22a955fa-9bbe-4bc2-a878-875a7a2b620f","countryId":"country.1p0y3nd"},"geometry":{"type":"Polygon","coordinates":[[[126.0475,-9.0573],[125.9061,-8.915],[125.8104,-8.8569],[125.8052,-8.7532],[125.6883,-8.7946],[125.6719,-8.9067],[125.6004,-8.928],[125.5955,-9.0553],[125.6732,-9.1165],[125.6701,-9.1933],[125.8499,-9.1242],[125.9471,-9.1257],[126.0475,-9.0573]]]}},{"type":"Feature","properties":{"sourceId":"1159307867","regionId":"region.223884ec-1e6c-4ab9-a8a0-326e3f243230","countryId":"country.1p0y3nd"},"geometry":{"type":"Polygon","coordinates":[[[126.138,-8.9999],[126.0337,-8.794],[126.14,-8.6811],[126.1792,-8.6237],[126.1418,-8.5028],[126.0691,-8.5216],[125.8285,-8.4909],[125.7637,-8.5828],[125.8052,-8.7532],[125.8104,-8.8569],[125.9061,-8.915],[126.0475,-9.0573],[126.138,-8.9999]]]}},{"type":"Feature","properties":{"sourceId":"1159307871","regionId":"region.3a8a0ed8-0334-45a7-ae15-8759241db396","countryId":"country.1p0y3nd"},"geometry":{"type":"Polygon","coordinates":[[[126.7284,-8.761],[126.739,-8.6965],[126.6156,-8.6837],[126.4322,-8.7064],[126.3311,-8.6754],[126.14,-8.6811],[126.0337,-8.794],[126.138,-8.9999],[126.4302,-8.9547],[126.5833,-8.8058],[126.7284,-8.761]]]}},{"type":"Feature","properties":{"sourceId":"1159307873","regionId":"region.d2b64507-0fa4-4b1c-a4fc-5275c2f6c800","countryId":"country.1p0y3nd"},"geometry":{"type":"Polygon","coordinates":[[[126.6882,-8.4312],[126.8043,-8.6039],[126.739,-8.6965],[126.7284,-8.761],[126.8462,-8.7525],[127.0093,-8.6767],[127.3032,-8.4323],[127.1863,-8.3325],[127.0696,-8.3576],[126.9671,-8.309],[126.8421,-8.391],[126.6882,-8.4312]]]}},{"type":"Feature","properties":{"sourceId":"1159307857","regionId":"region.a613b277-a38a-463e-bf9e-87da2b662c94","countryId":"country.1p0y3nd"},"geometry":{"type":"Polygon","coordinates":[[[126.1418,-8.5028],[126.1792,-8.6237],[126.14,-8.6811],[126.3311,-8.6754],[126.4322,-8.7064],[126.6156,-8.6837],[126.739,-8.6965],[126.8043,-8.6039],[126.6882,-8.4312],[126.5488,-8.4867],[126.4116,-8.4191],[126.2402,-8.4948],[126.1418,-8.5028]]]}},{"type":"Feature","properties":{"sourceId":"1159307849","regionId":"region.bb6bf936-92ea-4ef3-8563-1f5969371da9","countryId":"country.1p0y3nd"},"geometry":{"type":"Polygon","coordinates":[[[125.4898,-8.5682],[125.5119,-8.6202],[125.6959,-8.565],[125.7637,-8.5828],[125.8285,-8.4909],[125.4898,-8.5682]]]}},{"type":"Feature","properties":{"sourceId":"1159307851","regionId":"region.52f85400-8894-481e-a81c-d2ec1e2dfca6","countryId":"country.1p0y3nd"},"geometry":{"type":"Polygon","coordinates":[[[125.1029,-8.7403],[125.1792,-8.7545],[125.4947,-8.6498],[125.5119,-8.6202],[125.4898,-8.5682],[125.381,-8.5715],[125.1443,-8.6314],[125.1029,-8.7403]]]}},{"type":"Feature","properties":{"sourceId":"1159307863","regionId":"region.2177c8ec-dfcd-4e42-8a82-dff3ae45c21e","countryId":"country.1p0y3nd"},"geometry":{"type":"Polygon","coordinates":[[[125.4947,-8.6498],[125.1792,-8.7545],[125.2393,-8.787],[125.3263,-8.9914],[125.4131,-8.9822],[125.488,-8.8556],[125.4336,-8.794],[125.4947,-8.6498]]]}},{"type":"Feature","properties":{"sourceId":"1159307853","regionId":"region.6aa6f6a7-189b-4043-b7a5-444ce6b2923f","countryId":"country.1p0y3nd"},"geometry":{"type":"Polygon","coordinates":[[[125.7637,-8.5828],[125.6959,-8.565],[125.5119,-8.6202],[125.4947,-8.6498],[125.4336,-8.794],[125.488,-8.8556],[125.6883,-8.7946],[125.8052,-8.7532],[125.7637,-8.5828]]]}}]}