{"type":"FeatureCollection","features":[{"type":"Feature","properties":{"sourceId":"1159316571","regionId":"region.59e50b1b-0993-47bc-a74c-07af1943983d","countryId":"country.589767fd-d38e-45be-933c-e243cd22ec04"},"geometry":{"type":"Polygon","coordinates":[[[57.5803,-19.9999],[57.6308,-20.1555],[57.7337,-20.0961],[57.6677,-19.9941],[57.5803,-19.9999]]]}},{"type":"Feature","properties":{"sourceId":"1159316569","regionId":"region.1ded876f-b64e-4ccf-b3c5-7945e5ca910e","countryId":"country.589767fd-d38e-45be-933c-e243cd22ec04"},"geometry":{"type":"Polygon","coordinates":[[[57.4938,-20.1223],[57.4993,-20.1232],[57.5463,-20.202],[57.6079,-20.1849],[57.6308,-20.1555],[57.5803,-19.9999],[57.4938,-20.1223]]]}},{"type":"Feature","properties":{"sourceId":"1159316591","regionId":"region.e946c94f-fef1-4742-b3c6-4be4dfd44a38","countryId":"country.589767fd-d38e-45be-933c-e243cd22ec04"},"geometry":{"type":"Polygon","coordinates":[[[57.4639,-20.1616],[57.4654,-20.1675],[57.4993,-20.1232],[57.4938,-20.1223],[57.4639,-20.1616]]]}},{"type":"Feature","properties":{"sourceId":"1159316585","regionId":"region.e2cf0a88-042f-4972-af75-b3619ff1ea82","countryId":"country.589767fd-d38e-45be-933c-e243cd22ec04"},"geometry":{"type":"Polygon","coordinates":[[[57.3993,-20.498],[57.487,-20.4229],[57.471,-20.3288],[57.4592,-20.2909],[57.457,-20.2561],[57.4597,-20.2191],[57.4708,-20.1888],[57.4654,-20.1675],[57.4639,-20.1616],[57.3706,-20.2605],[57.3578,-20.4274],[57.3993,-20.498]]]}},{"type":"Feature","properties":{"sourceId":"1159316583","regionId":"region.ebe33d9d-931a-453c-8acd-968c406291af","countryId":"country.589767fd-d38e-45be-933c-e243cd22ec04"},"geometry":{"type":"Polygon","coordinates":[[[57.631,-20.492],[57.546,-20.4025],[57.487,-20.4229],[57.3993,-20.498],[57.631,-20.492]]]}},{"type":"Feature","properties":{"sourceId":"1159316581","regionId":"region.02fbb3d5-7209-4674-9cd3-a4a9be5f850d","countryId":"country.589767fd-d38e-45be-933c-e243cd22ec04"},"geometry":{"type":"Polygon","coordinates":[[[57.7782,-20.3048],[57.6684,-20.3284],[57.5997,-20.3434],[57.546,-20.4025],[57.631,-20.492],[57.7268,-20.4251],[57.7782,-20.3048]]]}},{"type":"Feature","properties":{"sourceId":"1159316573","regionId":"region.e70a7225-74cb-4ebc-af59-4c0d9c5f02c2","countryId":"country.589767fd-d38e-45be-933c-e243cd22ec04"},"geometry":{"type":"Polygon","coordinates":[[[57.7337,-20.0961],[57.6308,-20.1555],[57.6079,-20.1849],[57.6684,-20.3284],[57.7782,-20.3048],[57.7957,-20.2228],[57.7337,-20.0961]]]}},{"type":"Feature","properties":{"sourceId":"1159315815","regionId":"region.f9f25fdc-e120-4d76-b169-4147bd264a74","countryId":"country.589767fd-d38e-45be-933c-e243cd22ec04"},"geometry":{"type":"Polygon","coordinates":[[[56.5242,-10.33],[56.5298,-10.353],[56.5485,-10.382],[56.5686,-10.3864],[56.5428,-10.3464],[56.5242,-10.33]]]}},{"type":"Feature","properties":{"sourceId":"1159316587","regionId":"region.acf7b107-9cc3-4eff-a9e1-a7c4863e748b","countryId":"country.589767fd-d38e-45be-933c-e243cd22ec04"},"geometry":{"type":"Polygon","coordinates":[[[63.4762,-19.6778],[63.3892,-19.6847],[63.3664,-19.7672],[63.4694,-19.7229],[63.4762,-19.6778]]]}},{"type":"Feature","properties":{"sourceId":"1159316575","regionId":"region.5290fa47-647d-4591-b96c-37ee8831e3ed","countryId":"country.589767fd-d38e-45be-933c-e243cd22ec04"},"geometry":{"type":"Polygon","coordinates":[[[57.6079,-20.1849],[57.5463,-20.202],[57.4859,-20.1909],[57.5997,-20.3434],[57.6684,-20.3284],[57.6079,-20.1849]]]}},{"type":"Feature","properties":{"sourceId":"1159316579","regionId":"region.33da1896-41c7-493c-839c-a94431d88dc9","countryId":"country.589767fd-d38e-45be-933c-e243cd22ec04"},"geometry":{"type":"Polygon","coordinates":[[[57.5997,-20.3434],[57.4859,-20.1909],[57.4708,-20.1888],[57.4597,-20.2191],[57.4948,-20.2485],[57.5112,-20.2766],[57.5288,-20.2965],[57.5545,-20.3264],[57.5036,-20.3469],[57.4831,-20.3221],[57.471,-20.3288],[57.487,-20.4229],[57.546,-20.4025],[57.5997,-20.3434]]]}},{"type":"Feature","properties":{"sourceId":"1159316593","regionId":"region.d3fe9a13-1beb-48db-a493-c565060e92a9","countryId":"country.589767fd-d38e-45be-933c-e243cd22ec04"},"geometry":{"type":"Polygon","coordinates":[[[57.457,-20.2561],[57.4948,-20.2485],[57.4597,-20.2191],[57.457,-20.2561]]]}},{"type":"Feature","properties":{"sourceId":"1159307843","regionId":"region.76589c68-b57f-4806-b01c-9e35484a4772","countryId":"country.589767fd-d38e-45be-933c-e243cd22ec04"},"geometry":{"type":"Polygon","coordinates":[[[57.4708,-20.1888],[57.4859,-20.1909],[57.5463,-20.202],[57.4993,-20.1232],[57.4654,-20.1675],[57.4708,-20.1888]]]}},{"type":"Feature","properties":{"sourceId":"1159316599","regionId":"region.d5c552fe-8ccf-4ea2-a9bc-aebd6022bbc6","countryId":"country.589767fd-d38e-45be-933c-e243cd22ec04"},"geometry":{"type":"Polygon","coordinates":[[[57.4592,-20.2909],[57.5112,-20.2766],[57.4948,-20.2485],[57.457,-20.2561],[57.4592,-20.2909]]]}},{"type":"Feature","properties":{"sourceId":"1159316601","regionId":"region.ff2c7e1e-d8ae-4b1f-8119-323936441ca4","countryId":"country.589767fd-d38e-45be-933c-e243cd22ec04"},"geometry":{"type":"Polygon","coordinates":[[[57.471,-20.3288],[57.4831,-20.3221],[57.5288,-20.2965],[57.5112,-20.2766],[57.4592,-20.2909],[57.471,-20.3288]]]}},{"type":"Feature","properties":{"sourceId":"1159316597","regionId":"region.940fb88f-0437-4a2f-9586-962513d11a54","countryId":"country.589767fd-d38e-45be-933c-e243cd22ec04"},"geometry":{"type":"Polygon","coordinates":[[[57.4831,-20.3221],[57.5036,-20.3469],[57.5545,-20.3264],[57.5288,-20.2965],[57.4831,-20.3221]]]}}]}