{"type":"FeatureCollection","features":[{"type":"Feature","properties":{"sourceId":"1159312557","regionId":"region.4caa76f3-e81f-449b-97af-65577ba34507","countryId":"country.6mdobv"},"geometry":{"type":"Polygon","coordinates":[[[26.6179,48.259],[26.8049,48.2583],[27.048,48.1214],[27.3011,48.2492],[27.3115,48.3029],[27.2519,48.3783],[26.8428,48.3937],[26.6179,48.259]]]}},{"type":"Feature","properties":{"sourceId":"1159312561","regionId":"region.77f95742-210d-4779-a463-658ab5e97343","countryId":"country.6mdobv"},"geometry":{"type":"Polygon","coordinates":[[[27.048,48.1214],[27.1783,47.9421],[27.278,48.0031],[27.4379,48.0115],[27.5462,48.1204],[27.5099,48.2373],[27.3115,48.3029],[27.3011,48.2492],[27.048,48.1214]]]}},{"type":"Feature","properties":{"sourceId":"1159312567","regionId":"region.6cb68df0-7198-4ed0-b0af-7cca92a907f1","countryId":"country.6mdobv"},"geometry":{"type":"Polygon","coordinates":[[[27.2881,47.7507],[27.4835,47.8645],[27.8484,47.7846],[27.9528,47.8162],[27.951,47.848],[27.8254,47.9634],[27.6847,47.9527],[27.6883,48.0546],[27.5462,48.1204],[27.4379,48.0115],[27.278,48.0031],[27.1783,47.9421],[27.2881,47.7507]]]}},{"type":"Feature","properties":{"sourceId":"1159312575","regionId":"region.5052a5c3-a9d8-4dc5-ac5b-d0bf5ee2c331","countryId":"country.6mdobv"},"geometry":{"type":"Polygon","coordinates":[[[27.4294,47.5781],[27.6377,47.6449],[27.7956,47.7702],[27.8601,47.7507],[27.8484,47.7846],[27.4835,47.8645],[27.2881,47.7507],[27.4294,47.5781]]]}},{"type":"Feature","properties":{"sourceId":"1159312573","regionId":"region.33b3189f-3ea4-4602-89d7-d4c6391a0d81","countryId":"country.6mdobv"},"geometry":{"type":"Polygon","coordinates":[[[27.4313,47.5726],[27.5632,47.4683],[27.5887,47.3674],[27.7002,47.4198],[27.9758,47.463],[27.931,47.5543],[28.0171,47.6193],[27.9646,47.7362],[27.8601,47.7507],[27.7956,47.7702],[27.6377,47.6449],[27.4294,47.5781],[27.4313,47.5726]]]}},{"type":"Feature","properties":{"sourceId":"1159312579","regionId":"region.682f6027-8924-41f6-9b89-f8e47a331993","countryId":"country.6mdobv"},"geometry":{"type":"Polygon","coordinates":[[[27.5887,47.3674],[27.7228,47.2833],[27.8066,47.1446],[28.0381,47.0155],[27.9692,47.1393],[28.091,47.2509],[28.0867,47.3279],[28.2258,47.4194],[28.1513,47.458],[27.9758,47.463],[27.7002,47.4198],[27.5887,47.3674]]]}},{"type":"Feature","properties":{"sourceId":"1159312613","regionId":"region.9860ca3a-98cc-41b2-ade6-282a6d3e894b","countryId":"country.6mdobv"},"geometry":{"type":"Polygon","coordinates":[[[28.105,46.9202],[28.2232,46.9054],[28.4868,47.0491],[28.5046,47.0637],[28.349,47.0791],[28.3269,47.1572],[28.091,47.2509],[27.9692,47.1393],[28.0381,47.0155],[28.105,46.9202]]]}},{"type":"Feature","properties":{"sourceId":"1159312607","regionId":"region.a060cbe5-6fc6-4685-a67e-c27777f11ae9","countryId":"country.6mdobv"},"geometry":{"type":"Polygon","coordinates":[[[28.1226,46.8423],[28.2451,46.6315],[28.3766,46.6211],[28.3985,46.7235],[28.5837,46.6685],[28.7356,46.8233],[28.4868,47.0491],[28.2232,46.9054],[28.105,46.9202],[28.1226,46.8423]]]}},{"type":"Feature","properties":{"sourceId":"1159312611","regionId":"region.b0ce0065-4906-4dfd-ab97-3db2ec7ecdf8","countryId":"country.6mdobv"},"geometry":{"type":"Polygon","coordinates":[[[28.2451,46.6315],[28.2268,46.3955],[28.4721,46.4264],[28.5856,46.5026],[28.5837,46.6685],[28.3985,46.7235],[28.3766,46.6211],[28.2451,46.6315]]]}},{"type":"Feature","properties":{"sourceId":"1159312595","regionId":"region.8485a70b-a6c3-413c-8f27-93c935c34ef6","countryId":"country.6mdobv"},"geometry":{"type":"Polygon","coordinates":[[[28.1105,46.1015],[28.2399,46.0762],[28.4406,46.0969],[28.4982,46.2081],[28.4721,46.4264],[28.2268,46.3955],[28.111,46.2256],[28.1105,46.1015]]]}},{"type":"Feature","properties":{"sourceId":"1159312583","regionId":"region.af199f11-daf1-4194-8f4a-e028be4f6e6d","countryId":"country.6mdobv"},"geometry":{"type":"Polygon","coordinates":[[[28.1078,46.0961],[28.0861,46.0006],[28.155,45.7618],[28.1409,45.5602],[28.1995,45.4618],[28.2704,45.5215],[28.2805,45.5853],[28.5037,45.5661],[28.474,45.6579],[28.5635,45.7355],[28.5149,45.8027],[28.4009,45.6622],[28.2967,45.7101],[28.3917,45.8655],[28.4566,45.9077],[28.4587,46.0879],[28.4406,46.0969],[28.2399,46.0762],[28.1105,46.1015],[28.1078,46.0961]]]}},{"type":"Feature","properties":{"sourceId":"1159312565","regionId":"region.5369aeb2-e7c4-40d8-ac9d-6139a7d97a76","countryId":"country.6mdobv"},"geometry":{"type":"Polygon","coordinates":[[[27.8854,48.3784],[27.7518,48.452],[27.5038,48.4724],[27.2519,48.3783],[27.3115,48.3029],[27.5099,48.2373],[27.5916,48.3567],[27.8854,48.3784]]]}},{"type":"Feature","properties":{"sourceId":"1159312559","regionId":"region.b08fccf3-cc33-49c2-8990-6a9dbac1ad7d","countryId":"country.6mdobv"},"geometry":{"type":"Polygon","coordinates":[[[27.8854,48.3784],[27.5916,48.3567],[27.5099,48.2373],[27.5462,48.1204],[27.6883,48.0546],[27.952,48.1955],[28.0032,48.3259],[27.8854,48.3784]]]}},{"type":"Feature","properties":{"sourceId":"1159312631","regionId":"region.8894c348-3646-48df-b81d-71c1b1b7232f","countryId":"country.6mdobv"},"geometry":{"type":"Polygon","coordinates":[[[28.0032,48.3259],[27.952,48.1955],[28.111,48.0733],[28.0689,47.9851],[28.4666,47.9972],[28.4998,48.1089],[28.2945,48.2365],[28.1999,48.2117],[28.0032,48.3259]]]}},{"type":"Feature","properties":{"sourceId":"1159311153","regionId":"region.4f518c9e-8d8d-4777-8a34-1db9b04a03cc","countryId":"country.6mdobv"},"geometry":{"type":"Polygon","coordinates":[[[28.8621,48.0005],[28.7993,48.1118],[28.5736,48.155],[28.4998,48.1089],[28.4666,47.9972],[28.478,47.8886],[28.5692,47.8871],[28.7848,47.9828],[28.9421,47.8832],[28.9361,47.9422],[28.8621,48.0005]]]}},{"type":"Feature","properties":{"sourceId":"1159311149","regionId":"region.3888782a-b297-45f7-ac89-de8f0375459b","countryId":"country.6mdobv"},"geometry":{"type":"Polygon","coordinates":[[[28.9361,47.9422],[28.9421,47.8832],[29.0267,47.5295],[29.108,47.4694],[29.1372,47.484],[29.2386,47.756],[29.124,47.976],[28.9361,47.9422]]]}},{"type":"Feature","properties":{"sourceId":"1159311143","regionId":"region.ef61fcd3-856b-458d-826a-9314526637d6","countryId":"country.6mdobv"},"geometry":{"type":"Polygon","coordinates":[[[29.1372,47.484],[29.108,47.4694],[29.0217,47.3331],[29.151,47.2448],[29.1252,47.2742],[29.1745,47.2903],[29.1896,47.2625],[29.1633,47.2308],[29.2922,47.1358],[29.3709,47.3044],[29.3589,47.3527],[29.1372,47.484]]]}},{"type":"Feature","properties":{"sourceId":"1159311145","regionId":"region.50988031-8ddf-4d2e-b722-e5a21215d590","countryId":"country.6mdobv"},"geometry":{"type":"Polygon","coordinates":[[[29.3709,47.3044],[29.2922,47.1358],[29.4617,46.951],[29.5606,46.9613],[29.603,47.0458],[29.5304,47.1237],[29.5566,47.324],[29.3709,47.3044]]]}},{"type":"Feature","properties":{"sourceId":"1159311151","regionId":"region.2a042c1f-b2c0-45b8-a060-3c63b61a9b83","countryId":"country.6mdobv"},"geometry":{"type":"Polygon","coordinates":[[[29.5606,46.9613],[29.4617,46.951],[29.4504,46.8242],[29.5701,46.7238],[29.7583,46.6588],[29.8988,46.5531],[29.9526,46.7247],[29.9307,46.8031],[29.7541,46.858],[29.5606,46.9613]]]}},{"type":"Feature","properties":{"sourceId":"1159312629","regionId":"region.25559be2-8aba-4c32-a7a1-b062745e8164","countryId":"country.6mdobv"},"geometry":{"type":"Polygon","coordinates":[[[29.8988,46.5531],[29.7583,46.6588],[29.5701,46.7238],[29.4299,46.6058],[29.4567,46.4844],[29.5986,46.3631],[29.727,46.4558],[29.8478,46.3415],[30.0811,46.3742],[29.8988,46.5531]]]}},{"type":"Feature","properties":{"sourceId":"1159312627","regionId":"region.c594379b-71fc-40fc-b492-049a75ddf4a6","countryId":"country.6mdobv"},"geometry":{"type":"Polygon","coordinates":[[[29.1831,46.538],[29.2007,46.3571],[29.4567,46.4844],[29.4299,46.6058],[29.5701,46.7238],[29.4504,46.8242],[29.2909,46.7632],[29.088,46.852],[28.9712,46.8036],[29.0726,46.6369],[29.1831,46.538]]]}},{"type":"Feature","properties":{"sourceId":"1159312601","regionId":"region.e97816ee-3f27-4767-a0bb-ce4c375d3547","countryId":"country.6mdobv"},"geometry":{"type":"Polygon","coordinates":[[[29.1831,46.538],[29.0726,46.6369],[28.9712,46.8036],[28.7356,46.8233],[28.5837,46.6685],[28.5856,46.5026],[28.7634,46.4174],[28.9315,46.5459],[29.0559,46.4987],[29.1831,46.538]]]}},{"type":"Feature","properties":{"sourceId":"1159312593","regionId":"region.454df73f-cf14-4f0d-82e5-a72bc8a99a86","countryId":"country.6mdobv"},"geometry":{"type":"Polygon","coordinates":[[[29.0559,46.4987],[28.9315,46.5459],[28.7634,46.4174],[28.7437,46.3451],[28.9162,46.1666],[28.9841,46.2212],[28.9192,46.4047],[29.0559,46.4987]]]}},{"type":"Feature","properties":{"sourceId":"1159312585","regionId":"region.9fc5901c-b309-4b75-91ae-c26fa59e6e55","countryId":"country.6mdobv"},"geometry":{"type":"Polygon","coordinates":[[[28.9841,46.2212],[28.9162,46.1666],[28.8283,46.0096],[28.6222,45.9667],[28.4587,46.0879],[28.4566,45.9077],[28.3917,45.8655],[28.5149,45.8027],[28.5635,45.7355],[28.7383,45.8376],[28.7576,45.9612],[28.932,45.9932],[28.9841,46.2212]]]}},{"type":"Feature","properties":{"sourceId":"1159312587","regionId":"region.7d190c27-fc51-43d5-b57e-faf13e1f492e","countryId":"country.6mdobv"},"geometry":{"type":"MultiPolygon","coordinates":[[[[28.5037,45.5661],[28.2805,45.5853],[28.2704,45.5215],[28.4809,45.502],[28.5037,45.5661]]],[[[28.5856,46.5026],[28.4721,46.4264],[28.4982,46.2081],[28.4406,46.0969],[28.4587,46.0879],[28.6222,45.9667],[28.8283,46.0096],[28.9162,46.1666],[28.7437,46.3451],[28.7634,46.4174],[28.5856,46.5026]]],[[[28.3917,45.8655],[28.2967,45.7101],[28.4009,45.6622],[28.5149,45.8027],[28.3917,45.8655]]]]}},{"type":"Feature","properties":{"sourceId":"1159312603","regionId":"region.6f3ecd68-417d-4fcf-9c0b-a800a8660003","countryId":"country.6mdobv"},"geometry":{"type":"Polygon","coordinates":[[[28.8425,47.0953],[28.9744,47.0104],[29.2545,46.9948],[29.2922,47.1358],[29.1633,47.2308],[29.151,47.2448],[29.0217,47.3331],[28.7899,47.2025],[28.8425,47.0953]]]}},{"type":"Feature","properties":{"sourceId":"1159312623","regionId":"region.188836a1-ec93-4726-bbf8-8e508e5404ee","countryId":"country.6mdobv"},"geometry":{"type":"Polygon","coordinates":[[[28.7899,47.2025],[28.6551,47.3312],[28.5796,47.3319],[28.4851,47.2297],[28.3269,47.1572],[28.349,47.0791],[28.5046,47.0637],[28.7718,47.0532],[28.8425,47.0953],[28.7899,47.2025]]]}},{"type":"Feature","properties":{"sourceId":"1159312591","regionId":"region.51bab2e5-5026-455e-9f5b-f8f417a85441","countryId":"country.6mdobv"},"geometry":{"type":"Polygon","coordinates":[[[29.2922,47.1358],[29.2545,46.9948],[28.9744,47.0104],[28.9081,46.9611],[29.088,46.852],[29.2909,46.7632],[29.4504,46.8242],[29.4617,46.951],[29.2922,47.1358]]]}},{"type":"Feature","properties":{"sourceId":"1159312615","regionId":"region.dc428b4c-2ade-4d7d-8fe3-6fcd99525c89","countryId":"country.6mdobv"},"geometry":{"type":"Polygon","coordinates":[[[29.0217,47.3331],[29.108,47.4694],[29.0267,47.5295],[28.9049,47.5991],[28.7093,47.5546],[28.5207,47.4176],[28.5796,47.3319],[28.6551,47.3312],[28.7899,47.2025],[29.0217,47.3331]]]}},{"type":"Feature","properties":{"sourceId":"1159311147","regionId":"region.2196c8ff-c7ca-49a5-a14f-512c6bd9dcba","countryId":"country.6mdobv"},"geometry":{"type":"Polygon","coordinates":[[[29.1633,47.2308],[29.1896,47.2625],[29.1745,47.2903],[29.1252,47.2742],[29.151,47.2448],[29.1633,47.2308]]]}},{"type":"Feature","properties":{"sourceId":"1159312589","regionId":"region.5c2c577f-bf88-45bc-aaad-b192d81b8e4f","countryId":"country.6mdobv"},"geometry":{"type":"Polygon","coordinates":[[[28.8425,47.0953],[28.7718,47.0532],[28.9081,46.9611],[28.9744,47.0104],[28.8425,47.0953]]]}},{"type":"Feature","properties":{"sourceId":"1159312625","regionId":"region.339509f7-1cfb-4e99-a6b5-51f3e460711a","countryId":"country.6mdobv"},"geometry":{"type":"Polygon","coordinates":[[[28.5341,47.7556],[28.4053,47.6879],[28.3205,47.5636],[28.1709,47.5538],[28.1513,47.458],[28.2258,47.4194],[28.5207,47.4176],[28.7093,47.5546],[28.637,47.717],[28.5341,47.7556]]]}},{"type":"Feature","properties":{"sourceId":"1159312621","regionId":"region.ab06ad15-1eb0-43be-a31b-b0e222ffb1e0","countryId":"country.6mdobv"},"geometry":{"type":"Polygon","coordinates":[[[28.637,47.717],[28.7664,47.7355],[28.9421,47.8832],[28.7848,47.9828],[28.5692,47.8871],[28.478,47.8886],[28.5341,47.7556],[28.637,47.717]]]}},{"type":"Feature","properties":{"sourceId":"1159312605","regionId":"region.69ec5bcd-92d8-4c44-b60e-8c3f36e0d374","countryId":"country.6mdobv"},"geometry":{"type":"Polygon","coordinates":[[[28.478,47.8886],[28.4666,47.9972],[28.0689,47.9851],[28.0684,47.9011],[28.2752,47.7328],[28.4053,47.6879],[28.5341,47.7556],[28.478,47.8886]]]}},{"type":"Feature","properties":{"sourceId":"1159312619","regionId":"region.3888782a-b297-45f7-ac89-de8f0375459b","countryId":"country.6mdobv"},"geometry":{"type":"Polygon","coordinates":[[[28.7093,47.5546],[28.9049,47.5991],[29.0267,47.5295],[28.9421,47.8832],[28.7664,47.7355],[28.637,47.717],[28.7093,47.5546]]]}},{"type":"Feature","properties":{"sourceId":"1159312609","regionId":"region.55bc3064-7347-4ee6-8465-e7c2a1bde0fd","countryId":"country.6mdobv"},"geometry":{"type":"Polygon","coordinates":[[[28.4868,47.0491],[28.7356,46.8233],[28.9712,46.8036],[29.088,46.852],[28.9081,46.9611],[28.7718,47.0532],[28.5046,47.0637],[28.4868,47.0491]]]}},{"type":"Feature","properties":{"sourceId":"1159312597","regionId":"region.5b0ccd0d-ec26-4d04-9feb-571687748f6f","countryId":"country.6mdobv"},"geometry":{"type":"Polygon","coordinates":[[[28.5796,47.3319],[28.5207,47.4176],[28.2258,47.4194],[28.0867,47.3279],[28.091,47.2509],[28.3269,47.1572],[28.4851,47.2297],[28.5796,47.3319]]]}},{"type":"Feature","properties":{"sourceId":"1159312571","regionId":"region.ad09cebd-8e5a-4e3d-9a4c-d235917b69c1","countryId":"country.6mdobv"},"geometry":{"type":"Polygon","coordinates":[[[28.0684,47.9011],[28.0689,47.9851],[28.111,48.0733],[27.952,48.1955],[27.6883,48.0546],[27.6847,47.9527],[27.8254,47.9634],[27.951,47.848],[28.0684,47.9011]]]}},{"type":"Feature","properties":{"sourceId":"1159312577","regionId":"region.5d3187b5-6f4a-463b-a1ac-5e1074b02930","countryId":"country.6mdobv"},"geometry":{"type":"Polygon","coordinates":[[[27.951,47.848],[27.9528,47.8162],[27.9646,47.7362],[28.0171,47.6193],[27.931,47.5543],[27.9758,47.463],[28.1513,47.458],[28.1709,47.5538],[28.3205,47.5636],[28.4053,47.6879],[28.2752,47.7328],[28.0684,47.9011],[27.951,47.848]]]}},{"type":"Feature","properties":{"sourceId":"1159312569","regionId":"region.91a53dd1-4d21-4281-b636-d83444429d37","countryId":"country.6mdobv"},"geometry":{"type":"Polygon","coordinates":[[[27.9528,47.8162],[27.8484,47.7846],[27.8601,47.7507],[27.9646,47.7362],[27.9528,47.8162]]]}}]}