{"type":"FeatureCollection","features":[{"type":"Feature","properties":{"sourceId":"1159311997","regionId":"region.57098910-f222-4f62-80be-cf1a1dddf9b5","countryId":"country.hw7u0k"},"geometry":{"type":"Polygon","coordinates":[[[-4.8216,24.9951],[-4.1659,24.575],[-3.4485,24.106],[-2.5232,23.501],[-1.83,23.0478],[-0.9636,22.4813],[0.0037,21.8489],[1.1465,21.1017],[1.1801,20.9953],[1.1453,20.7959],[1.1685,20.7335],[1.2967,20.7335],[1.364,20.6577],[1.5204,20.617],[1.644,20.5227],[1.6492,20.4121],[1.7781,20.3043],[2.0563,20.215],[2.1824,20.2785],[2.2796,20.2179],[2.4004,20.0566],[2.4954,20.0201],[2.946,19.9417],[3.2168,19.7941],[3.1994,19.5538],[3.2582,19.4104],[3.1027,19.1536],[3.1586,19.0816],[3.3587,18.9769],[3.7903,19.0608],[3.7822,20.5494],[3.7515,20.7783],[3.5732,20.969],[1.369,22.1779],[1.3001,22.2701],[1.3072,25.5414],[1.1171,25.6928],[1.0811,25.9752],[0.8254,26.2688],[0.8644,26.3189],[1.0678,26.4155],[1.394,26.4258],[1.5314,26.4726],[1.6208,26.578],[1.7636,26.6094],[1.9394,26.8083],[2.0655,28.0733],[2.1208,28.2901],[2.1341,28.4915],[2.0793,29.0364],[1.9434,30.0948],[2.0717,30.8597],[2.0854,31.6586],[1.033,31.2018],[0.7502,31.0299],[0.3991,30.7087],[-0.1992,29.745],[-0.8257,29.0082],[-0.9584,28.923],[-1.876,28.779],[-2.1142,28.6758],[-2.4292,28.4583],[-2.5697,28.3811],[-2.8129,28.2943],[-3.0227,28.331],[-3.5526,28.5824],[-3.7506,28.5669],[-2.9743,27.2033],[-5.649,25.5195],[-5.6615,25.5089],[-4.8216,24.9951]]]}},{"type":"Feature","properties":{"sourceId":"1159311945","regionId":"region.ff6f4b99-45a9-49d4-b1a2-8719cd12a250","countryId":"country.hw7u0k"},"geometry":{"type":"Polygon","coordinates":[[[11.9689,23.5174],[11.7101,24.0001],[8.7125,24.0014],[8.6532,24.0397],[8.5213,24.2286],[8.3924,24.2397],[8.0976,24.3501],[7.9567,24.3667],[7.6306,24.5972],[7.3202,24.7028],[7.1254,24.8951],[7.0858,25.1092],[7.1707,25.2864],[6.9955,25.5016],[6.9586,25.7598],[6.7119,25.8217],[6.5185,25.9114],[6.3073,26.1653],[6.1788,26.2316],[6.187,26.3353],[6.2699,26.5126],[6.2063,26.6597],[5.9504,26.8618],[5.8157,27.3214],[5.8724,27.4568],[6.2578,27.7655],[6.5666,27.8881],[6.5109,28.0899],[5.9527,28.4908],[4.7505,28.4619],[3.8156,28.5459],[2.986,29.1235],[2.0793,29.0364],[2.1341,28.4915],[2.1208,28.2901],[2.0655,28.0733],[1.9394,26.8083],[1.7636,26.6094],[1.6208,26.578],[1.5314,26.4726],[1.394,26.4258],[1.0678,26.4155],[0.8644,26.3189],[0.8254,26.2688],[1.0811,25.9752],[1.1171,25.6928],[1.3072,25.5414],[1.3001,22.2701],[1.369,22.1779],[3.5732,20.969],[3.7515,20.7783],[3.7822,20.5494],[3.7903,19.0608],[4.2286,19.1422],[5.0828,19.306],[5.7493,19.4337],[5.8376,19.4786],[6.61,20.1429],[7.0205,20.4954],[7.4827,20.8726],[8.6345,21.5515],[9.7233,22.1934],[10.4038,22.5946],[11.0844,22.9958],[11.9689,23.5174]]]}},{"type":"Feature","properties":{"sourceId":"1159312013","regionId":"region.0b2283b8-72c0-4b84-bba3-385767ceda92","countryId":"country.hw7u0k"},"geometry":{"type":"Polygon","coordinates":[[[-5.6615,25.5089],[-5.649,25.5195],[-2.9743,27.2033],[-3.7506,28.5669],[-5.2668,28.2072],[-6.0008,29.5791],[-6.3439,29.5721],[-6.6996,29.5162],[-6.7835,29.4463],[-6.9582,29.5092],[-7.1469,29.5092],[-7.3496,29.3834],[-7.6195,29.3894],[-8.0697,29.0793],[-8.3835,28.9058],[-8.4178,28.8523],[-8.6488,28.7259],[-8.6824,28.6659],[-8.6824,27.6614],[-8.6824,27.2854],[-8.0886,26.9362],[-7.297,26.4707],[-6.3075,25.8888],[-5.6615,25.5089]]]}},{"type":"Feature","properties":{"sourceId":"1159312009","regionId":"region.99e86a37-6d91-4462-ab16-7df559e769bc","countryId":"country.hw7u0k"},"geometry":{"type":"Polygon","coordinates":[[[-1.2734,32.2294],[-1.2496,32.0817],[-2.5161,32.1322],[-2.9387,32.0486],[-2.8278,31.7946],[-3.1617,31.7325],[-3.6595,31.6478],[-3.6735,31.3892],[-3.8192,31.3189],[-3.815,31.2205],[-3.6359,31.0957],[-3.5547,30.9559],[-3.6595,30.8371],[-3.6455,30.7113],[-3.8342,30.6275],[-4.1557,30.5855],[-4.3724,30.5086],[-4.4842,30.3828],[-4.624,30.285],[-4.7707,30.2291],[-4.8756,30.1802],[-5.1761,29.9775],[-5.2739,29.8866],[-5.4347,29.642],[-5.5395,29.5232],[-5.7212,29.5232],[-5.7562,29.6141],[-6.0008,29.5791],[-5.2668,28.2072],[-3.7506,28.5669],[-3.5526,28.5824],[-3.0227,28.331],[-2.8129,28.2943],[-2.5697,28.3811],[-2.4292,28.4583],[-2.1142,28.6758],[-1.876,28.779],[-0.9584,28.923],[-0.8257,29.0082],[-0.1992,29.745],[0.3991,30.7087],[-0.154,31.1238],[-0.3702,31.337],[-0.4011,31.4293],[-0.0394,32.3273],[-0.8451,32.11],[-0.9182,32.1077],[-1.0498,32.2422],[-1.2734,32.2294]]]}},{"type":"Feature","properties":{"sourceId":"1159312017","regionId":"region.923184b2-bb74-419b-89e0-54d4c256e435","countryId":"country.hw7u0k"},"geometry":{"type":"Polygon","coordinates":[[[8.6025,36.9395],[8.4976,36.9042],[8.2332,36.9581],[7.9085,36.8496],[7.7738,36.8898],[7.7554,36.7834],[7.6497,36.6634],[7.9879,36.4844],[8.0833,36.4221],[8.1679,36.492],[8.1699,36.5258],[8.4079,36.6426],[8.444,36.7962],[8.6238,36.8261],[8.6025,36.9395]]]}},{"type":"Feature","properties":{"sourceId":"1159311917","regionId":"region.b0b202d5-6918-48e1-a08b-21505b491294","countryId":"country.hw7u0k"},"geometry":{"type":"Polygon","coordinates":[[[7.7083,33.4107],[7.553,33.6587],[7.4798,33.8939],[7.5392,34.1138],[7.3276,34.1083],[7.1358,34.1606],[6.9606,34.1939],[6.7449,34.2987],[6.6959,34.3761],[6.5055,34.3197],[6.3705,34.3925],[6.1933,34.429],[5.9985,34.395],[5.4772,34.4498],[5.3193,34.4989],[5.1855,34.3567],[5.3599,34.1662],[5.3738,34.0584],[5.3348,33.846],[5.1218,33.5727],[5.008,33.4419],[6.193,33.377],[6.3786,33.3176],[6.4648,33.1577],[6.6838,32.5118],[6.8509,32.2392],[7.0309,32.053],[7.3138,32.0023],[9.0633,32.0002],[9.0199,32.1049],[8.3326,32.5264],[8.2829,32.8364],[8.0868,33.0943],[7.7507,33.2077],[7.7083,33.4107]]]}},{"type":"Feature","properties":{"sourceId":"1159311995","regionId":"region.a7159d6c-e431-4716-abc8-4c96554ddb32","countryId":"country.hw7u0k"},"geometry":{"type":"Polygon","coordinates":[[[8.1025,34.5364],[8.2365,34.6477],[8.2587,34.7413],[8.2489,34.902],[8.3137,35.1031],[8.4313,35.2417],[8.3174,35.2895],[8.29,35.4026],[8.3272,35.6214],[8.2414,35.8277],[8.2684,35.9699],[8.1999,36.0031],[8.0027,35.9713],[7.8659,35.8587],[7.8234,35.739],[7.8407,35.6152],[7.5448,35.4478],[7.426,35.3973],[7.416,35.1827],[7.262,34.9985],[7.3614,34.9659],[7.3977,34.7264],[7.2741,34.5407],[7.2047,34.2966],[7.1358,34.1606],[7.3276,34.1083],[7.5392,34.1138],[7.6315,34.1991],[7.7743,34.261],[7.8315,34.4144],[8.1025,34.5364]]]}},{"type":"Feature","properties":{"sourceId":"1159311993","regionId":"region.8cc4c94b-eb20-4442-85e6-6fe966080e56","countryId":"country.hw7u0k"},"geometry":{"type":"Polygon","coordinates":[[[8.3554,36.3561],[8.3492,36.4488],[8.1679,36.492],[8.0833,36.4221],[7.9879,36.4844],[7.7937,36.4351],[7.8294,36.315],[7.4104,36.1813],[7.3259,36.1274],[7.3683,36.0028],[7.452,35.9191],[7.6416,35.831],[7.7193,35.9265],[7.8659,35.8587],[8.0027,35.9713],[8.1999,36.0031],[8.2684,35.9699],[8.3554,36.3561]]]}},{"type":"Feature","properties":{"sourceId":"1159311923","regionId":"region.f4dd809c-013b-4ba4-a1c0-db17c38cfb43","countryId":"country.hw7u0k"},"geometry":{"type":"Polygon","coordinates":[[[9.0633,32.0002],[7.3138,32.0023],[7.0309,32.053],[6.8509,32.2392],[6.6838,32.5118],[6.4648,33.1577],[6.3786,33.3176],[6.193,33.377],[5.008,33.4419],[4.9531,33.2415],[4.9783,32.8408],[4.7389,32.5319],[4.5424,32.3756],[4.3989,32.2963],[4.322,32.2002],[4.1108,31.7914],[4.0506,31.5535],[3.8025,29.9898],[3.7215,29.8633],[3.4796,29.6368],[3.3976,29.3649],[3.3445,29.3066],[2.986,29.1235],[3.8156,28.5459],[4.7505,28.4619],[5.9527,28.4908],[6.4209,28.7313],[6.7874,28.8683],[7.1464,28.8394],[9.3695,30.0228],[9.2865,30.1171],[9.5197,30.2289],[9.2644,31.2193],[9.0633,32.0002]]]}},{"type":"Feature","properties":{"sourceId":"1159311943","regionId":"region.e0a77535-650e-455d-8ff2-0c08146eb6ed","countryId":"country.hw7u0k"},"geometry":{"type":"Polygon","coordinates":[[[9.3695,30.0228],[7.1464,28.8394],[6.7874,28.8683],[6.4209,28.7313],[5.9527,28.4908],[6.5109,28.0899],[6.5666,27.8881],[6.2578,27.7655],[5.8724,27.4568],[5.8157,27.3214],[5.9504,26.8618],[6.2063,26.6597],[6.2699,26.5126],[6.187,26.3353],[6.1788,26.2316],[6.3073,26.1653],[6.5185,25.9114],[6.7119,25.8217],[6.9586,25.7598],[6.9955,25.5016],[7.1707,25.2864],[7.0858,25.1092],[7.1254,24.8951],[7.3202,24.7028],[7.6306,24.5972],[7.9567,24.3667],[8.0976,24.3501],[8.3924,24.2397],[8.5213,24.2286],[8.6532,24.0397],[8.7125,24.0014],[11.7101,24.0001],[11.5671,24.2668],[11.4672,24.3263],[10.7207,24.5523],[10.4502,24.4769],[10.2603,24.5766],[10.1934,24.7499],[10.032,24.8563],[10.0214,25.268],[9.9695,25.3954],[9.4012,26.1134],[9.3778,26.1689],[9.4826,26.3526],[9.8358,26.5042],[9.8963,26.6528],[9.9106,26.8431],[9.8255,26.9206],[9.7213,27.2919],[9.8216,27.5057],[9.9313,27.8186],[9.9359,27.8667],[9.777,28.2676],[9.8273,28.6186],[9.8513,28.786],[9.8261,29.1285],[9.6677,29.6083],[9.5497,29.8023],[9.3695,30.0228]]]}},{"type":"Feature","properties":{"sourceId":"1159312011","regionId":"region.b6b7ffbd-9179-47b5-841b-be6f8ee7916f","countryId":"country.hw7u0k"},"geometry":{"type":"Polygon","coordinates":[[[-1.2734,32.2294],[-1.0498,32.2422],[-0.9182,32.1077],[-0.8451,32.11],[-0.0394,32.3273],[-0.0066,32.487],[-0.0989,32.5907],[-0.0049,32.8182],[-0.0293,33],[0.0681,33.3761],[0.0457,33.6231],[0.086,34.0483],[-0.0554,33.9862],[-0.0818,34.0815],[-0.2289,34.0539],[-0.3488,33.927],[-0.4889,34.1581],[-0.4857,34.2293],[-0.6173,34.3111],[-0.8362,34.2151],[-1.1204,34.2713],[-1.2423,34.2089],[-1.4799,34.1905],[-1.6721,34.092],[-1.7187,33.8981],[-1.7025,33.7728],[-1.6127,33.5215],[-1.6832,33.3692],[-1.6742,33.238],[-1.4995,33.0602],[-1.5588,32.9337],[-1.4233,32.7424],[-1.0475,32.517],[-1.1232,32.4179],[-1.218,32.3926],[-1.2734,32.2294]]]}},{"type":"Feature","properties":{"sourceId":"1159312007","regionId":"region.bc11115b-28d5-42ee-8873-915d9c3bf0d1","countryId":"country.hw7u0k"},"geometry":{"type":"Polygon","coordinates":[[[-1.6721,34.092],[-1.4799,34.1905],[-1.2423,34.2089],[-1.1204,34.2713],[-0.8959,34.4517],[-0.7612,34.7024],[-0.8965,34.7609],[-0.9661,34.9227],[-0.9332,35.0518],[-1.0005,35.0874],[-1.3473,35.2193],[-1.362,35.3199],[-1.5104,35.2955],[-1.7611,35.1296],[-2.0524,35.075],[-2.2226,35.0893],[-2.1938,35.0036],[-1.7877,34.7567],[-1.8711,34.5966],[-1.7507,34.4942],[-1.8096,34.3725],[-1.7461,34.2903],[-1.6721,34.092]]]}},{"type":"Feature","properties":{"sourceId":"1159312015","regionId":"region.1760954a-676a-40ec-a86b-d624acc39324","countryId":"country.hw7u0k"},"geometry":{"type":"Polygon","coordinates":[[[7.2627,37.076],[7.3842,36.7261],[7.4811,36.6341],[7.6497,36.6634],[7.7554,36.7834],[7.7738,36.8898],[7.7127,36.9632],[7.4902,37.055],[7.2627,37.076]]]}},{"type":"Feature","properties":{"sourceId":"1159312021","regionId":"region.55a099d6-4f68-48a5-911b-5ae6f1580ec6","countryId":"country.hw7u0k"},"geometry":{"type":"Polygon","coordinates":[[[6.2478,36.9353],[6.366,36.7418],[6.4785,36.6604],[6.4574,36.5799],[6.5041,36.5777],[6.6524,36.6079],[6.8393,36.5205],[6.938,36.4329],[7.0757,36.5026],[7.124,36.5858],[7.3044,36.6474],[7.3842,36.7261],[7.2627,37.076],[7.239,36.9715],[6.9094,36.8931],[6.822,36.9526],[6.5833,36.9898],[6.4624,37.0939],[6.3387,37.0693],[6.2478,36.9353]]]}},{"type":"Feature","properties":{"sourceId":"1159312019","regionId":"region.9d6f22bc-81da-4ab2-bed6-b6417aafbba0","countryId":"country.hw7u0k"},"geometry":{"type":"Polygon","coordinates":[[[5.428,36.6639],[5.4755,36.5906],[5.5547,36.5241],[5.7372,36.5551],[5.9043,36.5455],[6.0032,36.6033],[6.1975,36.5819],[6.2946,36.6241],[6.4574,36.5799],[6.4785,36.6604],[6.366,36.7418],[6.2478,36.9353],[6.0371,36.8536],[5.7588,36.8334],[5.5762,36.7614],[5.428,36.6639]]]}},{"type":"Feature","properties":{"sourceId":"1159311961","regionId":"region.3dfeb136-4386-4b0e-b27c-3ba94f6dc814","countryId":"country.hw7u0k"},"geometry":{"type":"Polygon","coordinates":[[[4.5915,36.8953],[4.6481,36.7955],[4.5281,36.5685],[4.3709,36.4727],[4.3564,36.3404],[4.4082,36.2385],[4.6202,36.2479],[4.6313,36.3291],[4.8011,36.3797],[4.9085,36.3827],[5.0001,36.5296],[5.1016,36.5777],[5.1941,36.5205],[5.1878,36.4084],[5.4607,36.5028],[5.4755,36.5906],[5.428,36.6639],[5.3044,36.643],[5.1184,36.6994],[5.1048,36.7813],[4.7871,36.8954],[4.5915,36.8953]]]}},{"type":"Feature","properties":{"sourceId":"1159311929","regionId":"region.e1f23c15-e279-48c8-871d-abd5a6e0e1bc","countryId":"country.hw7u0k"},"geometry":{"type":"Polygon","coordinates":[[[4.0395,36.8969],[3.9205,36.6707],[3.7337,36.6076],[3.9361,36.4744],[4.3709,36.4727],[4.5281,36.5685],[4.6481,36.7955],[4.5915,36.8953],[4.4407,36.9116],[4.0395,36.8969]]]}},{"type":"Feature","properties":{"sourceId":"1159311927","regionId":"region.95adbae6-4464-4102-8601-fd3bdb7f28d6","countryId":"country.hw7u0k"},"geometry":{"type":"Polygon","coordinates":[[[3.1733,36.7426],[3.2298,36.6851],[3.4774,36.6886],[3.675,36.6801],[3.7337,36.6076],[3.9205,36.6707],[4.0395,36.8969],[3.8275,36.9129],[3.6497,36.824],[3.4607,36.7751],[3.2378,36.8131],[3.1733,36.7426]]]}},{"type":"Feature","properties":{"sourceId":"1159311925","regionId":"region.36274b38-728d-4474-ad54-4a287850ba66","countryId":"country.hw7u0k"},"geometry":{"type":"Polygon","coordinates":[[[2.9849,36.815],[3.0251,36.7101],[3.0974,36.6499],[3.2298,36.6851],[3.1733,36.7426],[2.9849,36.815]]]}},{"type":"Feature","properties":{"sourceId":"1159311931","regionId":"region.47db1edd-9b9e-4f8f-a759-663efb1ae17a","countryId":"country.hw7u0k"},"geometry":{"type":"Polygon","coordinates":[[[1.7009,36.5472],[1.6478,36.4432],[1.7084,36.3677],[1.8092,36.4324],[2.0038,36.4102],[2.1433,36.4383],[2.4763,36.4206],[2.8471,36.6401],[2.962,36.6376],[3.0251,36.7101],[2.9849,36.815],[2.633,36.6051],[2.457,36.5895],[2.3098,36.6305],[2.0599,36.5701],[1.7009,36.5472]]]}},{"type":"Feature","properties":{"sourceId":"1159311937","regionId":"region.aed9287d-efd4-4a05-953e-325e34555f97","countryId":"country.hw7u0k"},"geometry":{"type":"Polygon","coordinates":[[[0.7404,36.3378],[0.7041,36.1865],[0.8974,36.1976],[0.9205,36.0652],[1.1752,35.9444],[1.2805,35.969],[1.4116,35.8416],[1.5484,36.004],[1.7127,35.9234],[1.5885,36.1641],[1.6033,36.2791],[1.5595,36.381],[1.6478,36.4432],[1.7009,36.5472],[1.2883,36.5212],[1.0448,36.4869],[0.8648,36.3774],[0.7404,36.3378]]]}},{"type":"Feature","properties":{"sourceId":"1159311941","regionId":"region.d079d384-c33d-4ced-8f9f-e01e8400aa01","countryId":"country.hw7u0k"},"geometry":{"type":"Polygon","coordinates":[[[-0.1137,35.7888],[-0.1144,35.7838],[-0.0296,35.7127],[0.1045,35.7567],[0.2294,35.6959],[0.4348,35.8344],[0.4517,35.952],[0.536,35.9801],[0.7041,36.1865],[0.7404,36.3378],[0.6633,36.3326],[0.1273,36.0508],[0.0345,35.8633],[-0.1137,35.7888]]]}},{"type":"Feature","properties":{"sourceId":"1159312001","regionId":"region.5946f6f6-852a-4aba-9a45-8eac9b06e1ce","countryId":"country.hw7u0k"},"geometry":{"type":"Polygon","coordinates":[[[-1.1064,35.6232],[-0.9541,35.4373],[-0.7409,35.4825],[-0.6342,35.4224],[-0.6689,35.332],[-0.5454,35.412],[-0.4073,35.5741],[-0.1144,35.7838],[-0.1137,35.7888],[-0.2594,35.8175],[-0.3485,35.9071],[-0.477,35.8594],[-0.5234,35.7797],[-0.6826,35.7174],[-0.825,35.7685],[-1.1064,35.6232]]]}},{"type":"Feature","properties":{"sourceId":"1159311999","regionId":"region.d3ddb2d5-1fac-4328-8f7c-79e2e37e2ee1","countryId":"country.hw7u0k"},"geometry":{"type":"Polygon","coordinates":[[[-1.362,35.3199],[-1.3473,35.2193],[-1.0005,35.0874],[-0.8781,35.18],[-0.8872,35.243],[-0.6689,35.332],[-0.6342,35.4224],[-0.7409,35.4825],[-0.9541,35.4373],[-1.1064,35.6232],[-1.1903,35.5661],[-1.2677,35.3903],[-1.362,35.3199]]]}},{"type":"Feature","properties":{"sourceId":"1159311977","regionId":"region.2408749b-d79d-4da7-bd18-cb4c6e8a1935","countryId":"country.hw7u0k"},"geometry":{"type":"Polygon","coordinates":[[[4.8011,36.3797],[4.8212,36.3069],[5.0628,36.3014],[5.1881,36.2455],[5.2433,36.1544],[5.0545,35.7773],[5.2262,35.664],[5.3797,35.6329],[5.5889,35.8231],[5.7211,35.8717],[5.9767,35.9158],[5.9833,36.0585],[5.866,36.2554],[5.8724,36.4019],[5.7662,36.4526],[5.7372,36.5551],[5.5547,36.5241],[5.4755,36.5906],[5.4607,36.5028],[5.1878,36.4084],[5.1941,36.5205],[5.1016,36.5777],[5.0001,36.5296],[4.9085,36.3827],[4.8011,36.3797]]]}},{"type":"Feature","properties":{"sourceId":"1159311959","regionId":"region.05bf4c3e-9fe3-4bf5-a1f7-59ff0695412d","countryId":"country.hw7u0k"},"geometry":{"type":"Polygon","coordinates":[[[4.8011,36.3797],[4.6313,36.3291],[4.6202,36.2479],[4.4082,36.2385],[4.3564,36.3404],[4.1906,36.1765],[4.0843,36.0291],[4.4043,35.9922],[4.537,35.9379],[4.5998,35.8218],[4.8549,35.8732],[5.0545,35.7773],[5.2433,36.1544],[5.1881,36.2455],[5.0628,36.3014],[4.8212,36.3069],[4.8011,36.3797]]]}},{"type":"Feature","properties":{"sourceId":"1159311965","regionId":"region.ca49bccf-02f0-46bf-8951-a0e4d706aa98","countryId":"country.hw7u0k"},"geometry":{"type":"Polygon","coordinates":[[[4.3564,36.3404],[4.3709,36.4727],[3.9361,36.4744],[3.7337,36.6076],[3.675,36.6801],[3.4774,36.6886],[3.5101,36.6232],[3.3355,36.5561],[3.283,36.4902],[3.4051,36.4181],[3.5605,36.412],[3.5789,35.9994],[3.6284,35.9228],[3.7355,35.93],[3.8508,35.862],[4.0223,35.8669],[4.0843,36.0291],[4.1906,36.1765],[4.3564,36.3404]]]}},{"type":"Feature","properties":{"sourceId":"1159311963","regionId":"region.5a4f748a-1fd1-4119-ae31-c24958fafe61","countryId":"country.hw7u0k"},"geometry":{"type":"Polygon","coordinates":[[[3.4774,36.6886],[3.2298,36.6851],[3.0974,36.6499],[3.0251,36.7101],[2.962,36.6376],[2.8471,36.6401],[2.4763,36.4206],[2.5225,36.364],[2.6611,36.3631],[2.9963,36.3533],[3.283,36.4902],[3.3355,36.5561],[3.5101,36.6232],[3.4774,36.6886]]]}},{"type":"Feature","properties":{"sourceId":"1159311957","regionId":"region.2031d0aa-2614-4a6c-8fe6-0b59282e1754","countryId":"country.hw7u0k"},"geometry":{"type":"Polygon","coordinates":[[[1.7127,35.9234],[1.5484,36.004],[1.4116,35.8416],[1.2636,35.7494],[1.2456,35.6473],[1.3465,35.6898],[1.6346,35.5505],[2.0502,35.5753],[2.2497,35.5596],[2.1582,35.6982],[2.242,35.7441],[2.3118,35.867],[2.1963,35.9116],[2.0087,35.9179],[1.8536,35.8605],[1.7127,35.9234]]]}},{"type":"Feature","properties":{"sourceId":"1159311935","regionId":"region.a0e7bd33-6ba4-4847-bc6a-491c24c1c981","countryId":"country.hw7u0k"},"geometry":{"type":"Polygon","coordinates":[[[1.7127,35.9234],[1.8536,35.8605],[2.0087,35.9179],[2.1963,35.9116],[2.3118,35.867],[2.4676,36.0444],[2.5716,36.0991],[2.4865,36.242],[2.6611,36.3631],[2.5225,36.364],[2.4763,36.4206],[2.1433,36.4383],[2.0038,36.4102],[1.8092,36.4324],[1.7084,36.3677],[1.6478,36.4432],[1.5595,36.381],[1.6033,36.2791],[1.5885,36.1641],[1.7127,35.9234]]]}},{"type":"Feature","properties":{"sourceId":"1159311949","regionId":"region.9c8f4234-ead5-4a19-8e52-de01d7a50c8f","countryId":"country.hw7u0k"},"geometry":{"type":"Polygon","coordinates":[[[1.4116,35.8416],[1.2805,35.969],[1.1752,35.9444],[0.9205,36.0652],[0.8974,36.1976],[0.7041,36.1865],[0.536,35.9801],[0.4517,35.952],[0.4348,35.8344],[0.2294,35.6959],[0.3191,35.5578],[0.8279,35.4435],[0.9595,35.5478],[1.2456,35.6473],[1.2636,35.7494],[1.4116,35.8416]]]}},{"type":"Feature","properties":{"sourceId":"1159311947","regionId":"region.1a0e6a80-1cbf-4e32-8f62-896627506908","countryId":"country.hw7u0k"},"geometry":{"type":"Polygon","coordinates":[[[0.7576,34.4382],[0.696,34.4243],[0.3408,34.2341],[0.2438,34.2301],[0.086,34.0483],[0.0457,33.6231],[0.0681,33.3761],[-0.0293,33],[-0.0049,32.8182],[-0.0989,32.5907],[-0.0066,32.487],[-0.0394,32.3273],[-0.4011,31.4293],[-0.3702,31.337],[-0.154,31.1238],[0.3991,30.7087],[0.7502,31.0299],[1.033,31.2018],[2.0854,31.6586],[2.2393,31.7735],[2.2288,31.9517],[2.3433,32.1327],[2.2975,32.3773],[2.2915,32.696],[2.1749,32.975],[2.0779,33.0758],[1.9752,33.2922],[2.0374,33.4249],[2.0193,33.499],[1.76,33.8426],[1.5246,33.9114],[1.3898,33.9782],[1.3362,34.0689],[1.2315,34.1919],[1.0391,34.1888],[1.032,34.3394],[0.7576,34.4382]]]}},{"type":"Feature","properties":{"sourceId":"1159311953","regionId":"region.accf3fb6-cf70-4658-ba5e-cd6f002af5a1","countryId":"country.hw7u0k"},"geometry":{"type":"Polygon","coordinates":[[[0.7576,34.4382],[0.8563,34.5021],[0.6935,34.7363],[0.6698,34.8555],[0.774,34.9351],[0.7542,35.0078],[0.6251,35.0959],[0.4922,35.0863],[0.2098,35.0215],[0.1122,35.0961],[-0.0143,35.0639],[-0.1652,35.1229],[-0.2536,35.0865],[-0.285,34.8975],[-0.364,34.8641],[-0.1144,34.6824],[-0.0719,34.5297],[-0.4857,34.2293],[-0.4889,34.1581],[-0.3488,33.927],[-0.2289,34.0539],[-0.0818,34.0815],[-0.0554,33.9862],[0.086,34.0483],[0.2438,34.2301],[0.3408,34.2341],[0.696,34.4243],[0.7576,34.4382]]]}},{"type":"Feature","properties":{"sourceId":"1159312003","regionId":"region.7c2b83ea-6051-462f-b4b6-9db95a9ac41d","countryId":"country.hw7u0k"},"geometry":{"type":"Polygon","coordinates":[[[-0.1652,35.1229],[-0.2062,35.31],[-0.4637,35.358],[-0.5454,35.412],[-0.6689,35.332],[-0.8872,35.243],[-0.8781,35.18],[-1.0005,35.0874],[-0.9332,35.0518],[-0.9661,34.9227],[-0.8965,34.7609],[-0.7612,34.7024],[-0.8959,34.4517],[-1.1204,34.2713],[-0.8362,34.2151],[-0.6173,34.3111],[-0.4857,34.2293],[-0.0719,34.5297],[-0.1144,34.6824],[-0.364,34.8641],[-0.285,34.8975],[-0.2536,35.0865],[-0.1652,35.1229]]]}},{"type":"Feature","properties":{"sourceId":"1159311939","regionId":"region.77e6763b-877a-446c-9fd8-c853d352ce30","countryId":"country.hw7u0k"},"geometry":{"type":"Polygon","coordinates":[[[0.2294,35.6959],[0.1045,35.7567],[-0.0296,35.7127],[-0.1144,35.7838],[-0.4073,35.5741],[-0.5454,35.412],[-0.4637,35.358],[-0.2062,35.31],[-0.1652,35.1229],[-0.0143,35.0639],[0.1122,35.0961],[0.2098,35.0215],[0.4922,35.0863],[0.6178,35.276],[0.8021,35.2905],[0.8805,35.3864],[0.8279,35.4435],[0.3191,35.5578],[0.2294,35.6959]]]}},{"type":"Feature","properties":{"sourceId":"1159311919","regionId":"region.86de70b1-19d1-4cdf-b40c-4b4d45799a73","countryId":"country.hw7u0k"},"geometry":{"type":"Polygon","coordinates":[[[2.0854,31.6586],[2.0717,30.8597],[1.9434,30.0948],[2.0793,29.0364],[2.986,29.1235],[3.3445,29.3066],[3.3976,29.3649],[3.4796,29.6368],[3.7215,29.8633],[3.8025,29.9898],[4.0506,31.5535],[4.1108,31.7914],[4.322,32.2002],[4.3989,32.2963],[4.5424,32.3756],[4.7389,32.5319],[4.9783,32.8408],[4.1762,33.0296],[3.8844,32.9819],[3.735,32.998],[3.4275,32.8755],[3.2652,32.7812],[3.1007,32.8307],[2.8873,32.8124],[2.65,32.7524],[2.2915,32.696],[2.2975,32.3773],[2.3433,32.1327],[2.2288,31.9517],[2.2393,31.7735],[2.0854,31.6586]]]}},{"type":"Feature","properties":{"sourceId":"1159311921","regionId":"region.edbc68e8-3287-4595-8f7c-64884147254a","countryId":"country.hw7u0k"},"geometry":{"type":"Polygon","coordinates":[[[2.2915,32.696],[2.65,32.7524],[2.8873,32.8124],[3.1007,32.8307],[3.2652,32.7812],[3.4275,32.8755],[3.735,32.998],[3.8844,32.9819],[4.1762,33.0296],[4.0283,33.2804],[3.641,33.5643],[3.2321,33.9474],[3.1606,34.0522],[3.1039,34.2297],[2.9332,34.2544],[2.8281,34.1472],[2.6449,34.078],[2.6428,33.9157],[2.49,33.9174],[2.4834,34.1136],[2.3045,34.4126],[2.3095,34.5634],[2.3577,34.6929],[2.2384,34.68],[1.9811,34.507],[1.8328,34.4643],[1.7164,34.3746],[1.6416,34.2562],[1.3362,34.0689],[1.3898,33.9782],[1.5246,33.9114],[1.76,33.8426],[2.0193,33.499],[2.0374,33.4249],[1.9752,33.2922],[2.0779,33.0758],[2.1749,32.975],[2.2915,32.696]]]}},{"type":"Feature","properties":{"sourceId":"1159311973","regionId":"region.a6b87ad9-067b-4249-a537-efa49d711bc1","countryId":"country.hw7u0k"},"geometry":{"type":"Polygon","coordinates":[[[2.2497,35.5596],[2.2857,35.4391],[2.527,35.5012],[2.6369,35.4418],[2.8988,35.63],[2.8842,35.7805],[2.9944,35.7913],[3.0563,35.683],[3.1781,35.6859],[3.2301,35.7701],[3.3795,35.7512],[3.6027,35.8321],[3.6284,35.9228],[3.5789,35.9994],[3.5605,36.412],[3.4051,36.4181],[3.283,36.4902],[2.9963,36.3533],[2.6611,36.3631],[2.4865,36.242],[2.5716,36.0991],[2.4676,36.0444],[2.3118,35.867],[2.242,35.7441],[2.1582,35.6982],[2.2497,35.5596]]]}},{"type":"Feature","properties":{"sourceId":"1159311955","regionId":"region.72eb73bc-c119-4036-9365-26308394a840","countryId":"country.hw7u0k"},"geometry":{"type":"Polygon","coordinates":[[[2.2497,35.5596],[2.0502,35.5753],[1.6346,35.5505],[1.3465,35.6898],[1.2456,35.6473],[0.9595,35.5478],[0.8279,35.4435],[0.8805,35.3864],[0.8021,35.2905],[0.6178,35.276],[0.4922,35.0863],[0.6251,35.0959],[0.7542,35.0078],[0.774,34.9351],[0.6698,34.8555],[0.6935,34.7363],[0.8563,34.5021],[0.7576,34.4382],[1.032,34.3394],[1.0391,34.1888],[1.2315,34.1919],[1.3362,34.0689],[1.6416,34.2562],[1.7164,34.3746],[1.8328,34.4643],[1.9811,34.507],[2.2384,34.68],[2.3577,34.6929],[2.37,34.7763],[2.5234,34.9991],[2.6042,35.055],[2.3871,35.1983],[2.2868,35.3293],[2.2857,35.4391],[2.2497,35.5596]]]}},{"type":"Feature","properties":{"sourceId":"1159311975","regionId":"region.4b862eca-7b80-46b3-a2e5-74f0ddebe1e1","countryId":"country.hw7u0k"},"geometry":{"type":"Polygon","coordinates":[[[5.0545,35.7773],[4.8549,35.8732],[4.5998,35.8218],[4.537,35.9379],[4.4043,35.9922],[4.0843,36.0291],[4.0223,35.8669],[3.8508,35.862],[3.7355,35.93],[3.6284,35.9228],[3.6027,35.8321],[3.3795,35.7512],[3.4497,35.6591],[3.6804,35.4956],[3.6553,35.285],[3.4736,35.158],[3.6711,34.7903],[3.906,34.7626],[4.0387,34.3716],[4.2137,34.2322],[4.3148,34.2631],[4.2304,34.3767],[4.1957,34.5257],[4.4347,34.7727],[4.9328,34.8389],[5.0411,34.9186],[5.0386,35.0833],[4.777,35.1806],[4.8655,35.2626],[4.9632,35.4888],[5.1738,35.5103],[5.3797,35.6329],[5.2262,35.664],[5.0545,35.7773]]]}},{"type":"Feature","properties":{"sourceId":"1159311979","regionId":"region.5aa23f55-1b8b-4eca-9e50-3074fc8e2fde","countryId":"country.hw7u0k"},"geometry":{"type":"Polygon","coordinates":[[[5.9767,35.9158],[5.7211,35.8717],[5.5889,35.8231],[5.3797,35.6329],[5.1738,35.5103],[4.9632,35.4888],[4.8655,35.2626],[4.777,35.1806],[5.0386,35.0833],[5.306,35.0214],[5.6087,35.0984],[5.5549,35.1914],[5.8209,35.2879],[6.0054,35.2263],[5.9323,35.1436],[5.9399,35.0295],[6.0615,35.0566],[6.1256,35.0009],[6.4127,35.0688],[6.4578,35.0323],[6.4313,34.8717],[6.4988,34.7822],[6.5879,34.7785],[6.5986,34.9004],[6.5121,35.0524],[6.5697,35.2535],[6.5874,35.4222],[6.7423,35.5147],[6.7691,35.6839],[6.6495,35.7967],[6.487,35.7814],[6.3511,35.8847],[6.1492,35.9004],[5.9767,35.9158]]]}},{"type":"Feature","properties":{"sourceId":"1159311985","regionId":"region.b3051c26-2a2b-46ba-a87a-b61b01bc849d","countryId":"country.hw7u0k"},"geometry":{"type":"Polygon","coordinates":[[[6.7691,35.6839],[6.7423,35.5147],[6.5874,35.4222],[6.5697,35.2535],[6.5121,35.0524],[6.5986,34.9004],[6.5879,34.7785],[6.728,34.7754],[6.7495,34.7122],[6.6959,34.3761],[6.7449,34.2987],[6.9606,34.1939],[7.1358,34.1606],[7.2047,34.2966],[7.2741,34.5407],[7.3977,34.7264],[7.3614,34.9659],[7.262,34.9985],[7.416,35.1827],[7.426,35.3973],[7.5448,35.4478],[7.4706,35.5316],[7.2883,35.6126],[6.825,35.6236],[6.7691,35.6839]]]}},{"type":"Feature","properties":{"sourceId":"1159311983","regionId":"region.759a1523-54fb-4f1a-8225-93876073e144","countryId":"country.hw7u0k"},"geometry":{"type":"Polygon","coordinates":[[[7.0106,36.1552],[7.079,36.0425],[7.3259,36.1274],[7.4104,36.1813],[7.8294,36.315],[7.7937,36.4351],[7.9879,36.4844],[7.6497,36.6634],[7.4811,36.6341],[7.3842,36.7261],[7.3044,36.6474],[7.124,36.5858],[7.0757,36.5026],[6.938,36.4329],[7.0456,36.2758],[7.0106,36.1552]]]}},{"type":"Feature","properties":{"sourceId":"1159311981","regionId":"region.53c0976b-2247-4adf-9269-c74c409c12c5","countryId":"country.hw7u0k"},"geometry":{"type":"Polygon","coordinates":[[[6.938,36.4329],[6.8393,36.5205],[6.6524,36.6079],[6.5041,36.5777],[6.4657,36.4231],[6.3487,36.3999],[6.525,36.2047],[6.5163,36.1656],[6.5727,36.1116],[6.7868,36.1914],[7.0106,36.1552],[7.0456,36.2758],[6.938,36.4329]]]}},{"type":"Feature","properties":{"sourceId":"1159311989","regionId":"region.406b1509-5ea6-4ca3-a02d-2d8345bbd60e","countryId":"country.hw7u0k"},"geometry":{"type":"Polygon","coordinates":[[[5.7372,36.5551],[5.7662,36.4526],[5.8724,36.4019],[5.866,36.2554],[5.9833,36.0585],[5.9767,35.9158],[6.1492,35.9004],[6.1585,35.945],[6.3958,36.0288],[6.4062,36.1103],[6.5163,36.1656],[6.525,36.2047],[6.3487,36.3999],[6.4657,36.4231],[6.5041,36.5777],[6.4574,36.5799],[6.2946,36.6241],[6.1975,36.5819],[6.0032,36.6033],[5.9043,36.5455],[5.7372,36.5551]]]}},{"type":"Feature","properties":{"sourceId":"1159311991","regionId":"region.8c0055b8-b92b-47b2-8ae1-9c2f81835fa6","countryId":"country.hw7u0k"},"geometry":{"type":"Polygon","coordinates":[[[6.1492,35.9004],[6.3511,35.8847],[6.487,35.7814],[6.6495,35.7967],[6.7691,35.6839],[6.825,35.6236],[7.2883,35.6126],[7.4706,35.5316],[7.5448,35.4478],[7.8407,35.6152],[7.8234,35.739],[7.8659,35.8587],[7.7193,35.9265],[7.6416,35.831],[7.452,35.9191],[7.3683,36.0028],[7.3259,36.1274],[7.079,36.0425],[7.0106,36.1552],[6.7868,36.1914],[6.5727,36.1116],[6.5163,36.1656],[6.4062,36.1103],[6.3958,36.0288],[6.1585,35.945],[6.1492,35.9004]]]}},{"type":"Feature","properties":{"sourceId":"1159311967","regionId":"region.ad95961f-3bf8-45a5-b78a-623480d4ccab","countryId":"country.hw7u0k"},"geometry":{"type":"Polygon","coordinates":[[[5.0386,35.0833],[5.0411,34.9186],[4.9328,34.8389],[4.4347,34.7727],[4.1957,34.5257],[4.2304,34.3767],[4.3148,34.2631],[4.2137,34.2322],[4.2985,34.1358],[4.3413,33.9761],[4.4066,33.9276],[5.1218,33.5727],[5.3348,33.846],[5.3738,34.0584],[5.3599,34.1662],[5.1855,34.3567],[5.3193,34.4989],[5.4772,34.4498],[5.9985,34.395],[6.1933,34.429],[6.3705,34.3925],[6.5055,34.3197],[6.6959,34.3761],[6.7495,34.7122],[6.728,34.7754],[6.5879,34.7785],[6.4988,34.7822],[6.4313,34.8717],[6.4578,35.0323],[6.4127,35.0688],[6.1256,35.0009],[6.0615,35.0566],[5.9399,35.0295],[5.9323,35.1436],[6.0054,35.2263],[5.8209,35.2879],[5.5549,35.1914],[5.6087,35.0984],[5.306,35.0214],[5.0386,35.0833]]]}},{"type":"Feature","properties":{"sourceId":"1159311971","regionId":"region.605b5b1f-420d-402f-8d80-48ab78b69aeb","countryId":"country.hw7u0k"},"geometry":{"type":"Polygon","coordinates":[[[4.9783,32.8408],[4.9531,33.2415],[5.008,33.4419],[5.1218,33.5727],[4.4066,33.9276],[4.3413,33.9761],[4.2985,34.1358],[4.2137,34.2322],[4.0387,34.3716],[3.906,34.7626],[3.6711,34.7903],[3.4736,35.158],[3.6553,35.285],[3.6804,35.4956],[3.4497,35.6591],[3.3795,35.7512],[3.2301,35.7701],[3.1781,35.6859],[3.0563,35.683],[2.9944,35.7913],[2.8842,35.7805],[2.8988,35.63],[2.6369,35.4418],[2.527,35.5012],[2.2857,35.4391],[2.2868,35.3293],[2.3871,35.1983],[2.6042,35.055],[2.5234,34.9991],[2.37,34.7763],[2.3577,34.6929],[2.3095,34.5634],[2.3045,34.4126],[2.4834,34.1136],[2.49,33.9174],[2.6428,33.9157],[2.6449,34.078],[2.8281,34.1472],[2.9332,34.2544],[3.1039,34.2297],[3.1606,34.0522],[3.2321,33.9474],[3.641,33.5643],[4.0283,33.2804],[4.1762,33.0296],[4.9783,32.8408]]]}}]}