{"type":"FeatureCollection","features":[{"type":"Feature","properties":{"sourceId":"1159311805","regionId":"region.c067c818-1ebf-4466-8d75-3da4479e3747","countryId":"country.1lye27d"},"geometry":{"type":"Polygon","coordinates":[[[91.4365,27.9894],[91.3231,27.9167],[91.3096,27.5813],[91.3973,27.4693],[91.3926,27.4018],[91.5242,27.3693],[91.7271,27.4599],[91.5951,27.5464],[91.6283,27.8527],[91.6217,27.9507],[91.4365,27.9894]]]}},{"type":"Feature","properties":{"sourceId":"1159311803","regionId":"region.d764fec1-c563-462a-adbe-3d280c72cb2e","countryId":"country.1lye27d"},"geometry":{"type":"Polygon","coordinates":[[[90.7553,28.0552],[90.7968,27.8383],[90.9454,27.6856],[90.9698,27.39],[91.2449,27.4287],[91.3096,27.5813],[91.3231,27.9167],[91.4365,27.9894],[91.2697,28.0729],[91.1759,28.0575],[91.0926,27.9717],[90.7553,28.0552]]]}},{"type":"Feature","properties":{"sourceId":"1159311797","regionId":"region.d0cb17af-c1a4-42a5-bf78-7c733a22e24e","countryId":"country.1lye27d"},"geometry":{"type":"Polygon","coordinates":[[[90.4752,28.0723],[90.465,27.7762],[90.5676,27.4499],[90.7242,27.349],[90.8332,27.3262],[90.9316,27.3691],[90.9698,27.39],[90.9454,27.6856],[90.7968,27.8383],[90.7553,28.0552],[90.6839,28.0871],[90.4752,28.0723]]]}},{"type":"Feature","properties":{"sourceId":"1159311829","regionId":"region.c98f6686-21ca-4c9f-b8b3-5a35531e21a9","countryId":"country.1lye27d"},"geometry":{"type":"Polygon","coordinates":[[[88.8761,27.2805],[89.0289,27.1587],[89.3293,27.1191],[89.3299,27.2107],[89.3709,27.3142],[89.2162,27.5565],[89.1247,27.6149],[89.051,27.6083],[88.9511,27.4331],[88.997,27.3309],[88.8923,27.3155],[88.8761,27.2805]]]}},{"type":"Feature","properties":{"sourceId":"1159311835","regionId":"region.d3282760-b1cf-4769-83c0-241a3693e524","countryId":"country.1lye27d"},"geometry":{"type":"Polygon","coordinates":[[[88.7331,27.149],[88.8276,27.0979],[88.9545,26.9126],[89.1846,26.8106],[89.3689,26.8374],[89.3017,26.9521],[89.3293,27.1191],[89.0289,27.1587],[88.8761,27.2805],[88.7759,27.2409],[88.7331,27.149]]]}},{"type":"Feature","properties":{"sourceId":"1159311823","regionId":"region.d6f04f71-5b45-4cf6-9b4e-1e239df239f3","countryId":"country.1lye27d"},"geometry":{"type":"Polygon","coordinates":[[[89.7547,26.701],[89.7619,26.8001],[89.7809,26.9377],[89.6804,27.0307],[89.6235,27.1411],[89.615,27.2376],[89.5315,27.307],[89.5065,27.1889],[89.3299,27.2107],[89.3293,27.1191],[89.3017,26.9521],[89.3689,26.8374],[89.7547,26.701]]]}},{"type":"Feature","properties":{"sourceId":"1159311801","regionId":"region.34a7c685-1066-4604-abee-5bb03a3ac71e","countryId":"country.1lye27d"},"geometry":{"type":"Polygon","coordinates":[[[89.8587,26.7221],[90.0892,26.7417],[90.1774,26.8321],[90.3826,26.8918],[90.5878,26.7801],[90.9445,26.7789],[90.8079,26.8251],[90.6804,26.9529],[90.6674,27.0446],[90.5168,27.1257],[90.3367,27.2093],[90.3128,27.1705],[90.2369,26.9967],[90.069,26.8091],[90.0045,26.8552],[89.7619,26.8001],[89.7547,26.701],[89.8587,26.7221]]]}},{"type":"Feature","properties":{"sourceId":"1159311809","regionId":"region.264701a1-a0f6-49f8-9e5f-d1c83ae51ae8","countryId":"country.1lye27d"},"geometry":{"type":"Polygon","coordinates":[[[91.0128,26.7843],[91.0237,26.8496],[91.1842,26.9422],[91.0869,26.9795],[90.9906,27.1134],[91.0036,27.211],[90.9316,27.3691],[90.8332,27.3262],[90.7242,27.349],[90.7064,27.2544],[90.5168,27.1257],[90.6674,27.0446],[90.6804,26.9529],[90.8079,26.8251],[90.9445,26.7789],[91.0128,26.7843]]]}},{"type":"Feature","properties":{"sourceId":"1159311819","regionId":"region.23f503b8-82c8-48c8-850d-21736e61d583","countryId":"country.1lye27d"},"geometry":{"type":"Polygon","coordinates":[[[92.0804,26.9216],[91.9877,27.104],[92.0058,27.1761],[91.8097,27.1371],[91.7667,27.0848],[91.491,27.0176],[91.4161,26.9017],[91.1842,26.9422],[91.0237,26.8496],[91.0128,26.7843],[91.1982,26.8023],[91.276,26.7741],[91.4063,26.8695],[91.5206,26.7976],[91.7021,26.8035],[91.7953,26.8535],[92.0359,26.8548],[92.0804,26.9216]]]}},{"type":"Feature","properties":{"sourceId":"1159311821","regionId":"region.83879c81-8e41-4562-87d4-8a8444d2a664","countryId":"country.1lye27d"},"geometry":{"type":"Polygon","coordinates":[[[91.7271,27.4599],[91.5242,27.3693],[91.3926,27.4018],[91.4711,27.2952],[91.3795,27.1629],[91.491,27.0176],[91.7667,27.0848],[91.8097,27.1371],[92.0058,27.1761],[92.0848,27.3042],[91.9751,27.4724],[91.7271,27.4599]]]}},{"type":"Feature","properties":{"sourceId":"1159311837","regionId":"region.8d18f795-7d8d-413d-96bf-c36806778d2f","countryId":"country.1lye27d"},"geometry":{"type":"Polygon","coordinates":[[[89.2058,27.7474],[89.3853,27.7482],[89.3897,27.6484],[89.4743,27.5448],[89.4623,27.4266],[89.5315,27.307],[89.615,27.2376],[89.6235,27.1411],[89.7096,27.2609],[89.7425,27.4594],[89.8145,27.5222],[89.689,27.5389],[89.6083,27.7153],[89.4864,27.7639],[89.515,27.9154],[89.4174,27.9887],[89.2058,27.7474]]]}},{"type":"Feature","properties":{"sourceId":"1159311831","regionId":"region.bd9ce739-d790-4172-bd25-239f26a1854f","countryId":"country.1lye27d"},"geometry":{"type":"Polygon","coordinates":[[[89.1247,27.6149],[89.2162,27.5565],[89.3709,27.3142],[89.3299,27.2107],[89.5065,27.1889],[89.5315,27.307],[89.4623,27.4266],[89.4743,27.5448],[89.3897,27.6484],[89.3853,27.7482],[89.2058,27.7474],[89.1247,27.6149]]]}},{"type":"Feature","properties":{"sourceId":"1159311833","regionId":"region.4caeb909-3247-464b-ba3a-118735e61c7e","countryId":"country.1lye27d"},"geometry":{"type":"Polygon","coordinates":[[[89.4174,27.9887],[89.515,27.9154],[89.4864,27.7639],[89.6083,27.7153],[89.7683,27.7599],[89.8938,27.8528],[90.0024,27.8012],[90.1631,27.9739],[90.2756,27.8952],[90.4752,28.0723],[90.5877,28.2333],[90.2618,28.3354],[90.0709,28.3452],[89.8629,28.2958],[89.7558,28.1844],[89.5615,28.1346],[89.4174,27.9887]]]}},{"type":"Feature","properties":{"sourceId":"1159311799","regionId":"region.366a6344-a70e-4972-ae05-d2c1729aee22","countryId":"country.1lye27d"},"geometry":{"type":"Polygon","coordinates":[[[90.3128,27.1705],[90.0569,27.1721],[90.0583,27.1032],[90.0499,26.9318],[90.0045,26.8552],[90.069,26.8091],[90.2369,26.9967],[90.3128,27.1705]]]}},{"type":"Feature","properties":{"sourceId":"1159311813","regionId":"region.beafc506-a9a9-4248-8c19-0ab97e451255","countryId":"country.1lye27d"},"geometry":{"type":"Polygon","coordinates":[[[90.0583,27.1032],[90.0569,27.1721],[90.3128,27.1705],[90.3367,27.2093],[90.3603,27.263],[90.2381,27.4683],[90.3418,27.4997],[90.3125,27.6711],[90.4552,27.7156],[90.465,27.7762],[90.4752,28.0723],[90.2756,27.8952],[90.1631,27.9739],[90.0024,27.8012],[89.9602,27.6927],[90.036,27.6533],[89.9079,27.5306],[89.8145,27.5222],[89.7425,27.4594],[89.7096,27.2609],[89.8417,27.252],[89.9367,27.1396],[90.0583,27.1032]]]}},{"type":"Feature","properties":{"sourceId":"1159311827","regionId":"region.fa406563-bda1-462a-b40d-76e0aae700ac","countryId":"country.1lye27d"},"geometry":{"type":"Polygon","coordinates":[[[90.0583,27.1032],[89.9367,27.1396],[89.8417,27.252],[89.7096,27.2609],[89.6235,27.1411],[89.6804,27.0307],[89.7809,26.9377],[89.7619,26.8001],[90.0045,26.8552],[90.0499,26.9318],[90.0583,27.1032]]]}},{"type":"Feature","properties":{"sourceId":"1159311839","regionId":"region.71131a26-dedc-40ff-8ecf-8e5a14776e7b","countryId":"country.1lye27d"},"geometry":{"type":"Polygon","coordinates":[[[90.0024,27.8012],[89.8938,27.8528],[89.7683,27.7599],[89.6083,27.7153],[89.689,27.5389],[89.8145,27.5222],[89.9079,27.5306],[90.036,27.6533],[89.9602,27.6927],[90.0024,27.8012]]]}},{"type":"Feature","properties":{"sourceId":"1159311815","regionId":"region.0b3a99b0-052f-43aa-98b7-3c046cb07997","countryId":"country.1lye27d"},"geometry":{"type":"Polygon","coordinates":[[[91.3096,27.5813],[91.2449,27.4287],[90.9698,27.39],[90.9316,27.3691],[91.0036,27.211],[90.9906,27.1134],[91.0869,26.9795],[91.1842,26.9422],[91.2198,27.0127],[91.3453,27.0878],[91.3795,27.1629],[91.4711,27.2952],[91.3926,27.4018],[91.3973,27.4693],[91.3096,27.5813]]]}},{"type":"Feature","properties":{"sourceId":"1159311811","regionId":"region.6738a2e1-d9cd-4ffd-a984-6f64a34ed176","countryId":"country.1lye27d"},"geometry":{"type":"Polygon","coordinates":[[[90.465,27.7762],[90.4552,27.7156],[90.3125,27.6711],[90.3418,27.4997],[90.2381,27.4683],[90.3603,27.263],[90.3367,27.2093],[90.5168,27.1257],[90.7064,27.2544],[90.7242,27.349],[90.5676,27.4499],[90.465,27.7762]]]}},{"type":"Feature","properties":{"sourceId":"1159311817","regionId":"region.a431ba95-6494-4fae-acb5-756edf38d6e7","countryId":"country.1lye27d"},"geometry":{"type":"Polygon","coordinates":[[[91.3795,27.1629],[91.3453,27.0878],[91.2198,27.0127],[91.1842,26.9422],[91.4161,26.9017],[91.491,27.0176],[91.3795,27.1629]]]}}]}