{"type":"FeatureCollection","features":[{"type":"Feature","properties":{"sourceId":"1159311175","regionId":"region.681090d0-bc7e-4964-8144-916393a70ec1","countryId":"country.1wszh7v"},"geometry":{"type":"Polygon","coordinates":[[[-69.5101,-17.5066],[-69.4758,-17.6524],[-69.3342,-17.8058],[-69.3024,-17.9762],[-69.0823,-18.0391],[-68.8677,-17.9668],[-68.6964,-17.8471],[-68.5423,-17.6884],[-68.4466,-17.6524],[-68.1704,-17.65],[-68.0058,-17.7185],[-67.8093,-17.8604],[-67.7559,-17.7387],[-67.3024,-17.4451],[-67.1508,-17.401],[-66.9899,-17.5513],[-66.8419,-17.4681],[-66.8972,-17.175],[-67.0152,-17.0469],[-66.9323,-16.8351],[-66.7614,-16.7578],[-66.7659,-16.5895],[-66.8162,-16.483],[-66.7996,-16.2833],[-66.9456,-16.0753],[-66.9345,-15.8447],[-66.7844,-15.6993],[-67.1186,-15.3785],[-67.1155,-15.2898],[-67.2927,-15.0154],[-67.4176,-14.9685],[-67.4363,-14.7381],[-67.536,-14.5986],[-67.4879,-14.5116],[-67.5607,-14.3691],[-67.5079,-14.2747],[-67.536,-13.9984],[-67.4717,-13.7105],[-67.3696,-13.5909],[-67.3956,-13.4025],[-67.3367,-13.3045],[-67.0523,-13.0159],[-66.9486,-12.6708],[-66.9278,-12.3822],[-67.9555,-11.9093],[-68.0128,-11.97],[-68.1845,-12.0056],[-68.2462,-12.1537],[-68.3902,-12.2425],[-68.4584,-12.387],[-68.5935,-12.4209],[-68.6895,-12.4934],[-68.7934,-12.6202],[-68.7737,-12.7194],[-68.8562,-12.7414],[-68.981,-12.8679],[-68.9739,-13.0318],[-68.9628,-13.2836],[-68.9857,-13.5502],[-69.081,-13.6954],[-69.016,-13.7531],[-68.983,-13.9722],[-68.9162,-14.0249],[-68.8837,-14.2115],[-69.0101,-14.2459],[-68.9903,-14.379],[-69.1643,-14.503],[-69.2475,-14.5937],[-69.2676,-14.7507],[-69.3614,-14.788],[-69.3907,-14.9644],[-69.2886,-15.102],[-69.1481,-15.2333],[-69.2912,-15.3508],[-69.2929,-15.4099],[-69.4212,-15.5964],[-69.4243,-15.6563],[-69.2196,-16.1528],[-69.1447,-16.2235],[-68.982,-16.21],[-68.8436,-16.302],[-68.8558,-16.3632],[-69.0017,-16.4228],[-69.0389,-16.4919],[-69.0371,-16.6702],[-69.1917,-16.743],[-69.2245,-16.8182],[-69.4072,-17.0157],[-69.4274,-17.0869],[-69.6228,-17.1856],[-69.6644,-17.2886],[-69.5226,-17.3691],[-69.5101,-17.5066]]]}},{"type":"Feature","properties":{"sourceId":"1159311179","regionId":"region.450892cf-6ae4-4fe9-ab64-5f4cbf1f2f85","countryId":"country.1wszh7v"},"geometry":{"type":"Polygon","coordinates":[[[-68.9896,-18.9465],[-68.9197,-19.0538],[-68.8154,-19.1133],[-68.6633,-19.2736],[-68.4932,-19.377],[-68.5767,-19.5646],[-67.8319,-19.8079],[-67.6875,-19.826],[-67.5519,-19.7824],[-66.7281,-19.4415],[-66.4301,-19.2329],[-66.0971,-19.2091],[-66.0586,-19.1408],[-66.1821,-18.9958],[-66.2994,-18.7545],[-66.503,-18.6984],[-66.6273,-18.6094],[-66.6906,-18.4943],[-66.6804,-18.364],[-66.5446,-18.2772],[-66.6846,-18.2374],[-66.7483,-18.1627],[-66.7348,-18.0539],[-66.6249,-17.9913],[-66.6805,-17.864],[-66.8261,-17.6712],[-66.9899,-17.5513],[-67.1508,-17.401],[-67.3024,-17.4451],[-67.7559,-17.7387],[-67.8093,-17.8604],[-68.0058,-17.7185],[-68.1704,-17.65],[-68.4466,-17.6524],[-68.5423,-17.6884],[-68.6964,-17.8471],[-68.8677,-17.9668],[-69.0823,-18.0391],[-69.1554,-18.1402],[-69.1004,-18.2343],[-69.0344,-18.4783],[-69.0428,-18.6005],[-68.9546,-18.857],[-68.9896,-18.9465]]]}},{"type":"Feature","properties":{"sourceId":"1159311183","regionId":"region.8a8e94f3-f544-485d-b55c-0473fbbf9d82","countryId":"country.1wszh7v"},"geometry":{"type":"Polygon","coordinates":[[[-68.5767,-19.5646],[-68.6984,-19.7463],[-68.5535,-19.8579],[-68.5883,-20.0556],[-68.7755,-20.0897],[-68.6785,-20.3286],[-68.769,-20.3905],[-68.6855,-20.5168],[-68.4816,-20.643],[-68.5728,-20.7429],[-68.5316,-20.9277],[-68.4163,-20.9598],[-68.2075,-21.2843],[-68.1984,-21.5719],[-68.1076,-21.7896],[-68.0962,-21.954],[-67.9902,-22.0576],[-67.9348,-22.2517],[-67.9453,-22.3542],[-67.8587,-22.5668],[-67.8913,-22.7157],[-67.8763,-22.8336],[-67.7714,-22.8887],[-67.5471,-22.8925],[-67.1939,-22.8222],[-67.0377,-22.6546],[-67.0327,-22.5246],[-66.7965,-22.4349],[-66.7359,-22.2251],[-66.3775,-22.1271],[-66.2972,-22.0503],[-66.24,-21.7924],[-66.0945,-21.8329],[-66.0465,-21.918],[-65.9327,-21.9446],[-65.7446,-22.114],[-65.5799,-22.0865],[-65.1905,-22.0985],[-65.2115,-21.9465],[-65.3285,-21.8029],[-65.2349,-21.5354],[-65.4585,-21.3351],[-65.472,-21.1013],[-65.4227,-20.8368],[-65.296,-20.5338],[-65.3661,-20.269],[-65.3166,-20.0484],[-65.2513,-20.0001],[-65.0564,-19.9687],[-64.8677,-19.8684],[-64.7469,-19.7324],[-64.8607,-19.5667],[-64.8687,-19.4541],[-64.9637,-19.3504],[-65.155,-19.3714],[-65.3728,-19.2542],[-65.5405,-19.0187],[-65.47,-18.905],[-65.5025,-18.8047],[-65.4574,-18.683],[-65.6078,-18.6741],[-65.6286,-18.4583],[-65.6944,-18.3642],[-65.3439,-18.4226],[-65.4363,-18.3693],[-65.6424,-18.1291],[-65.8433,-17.9683],[-65.9311,-17.9838],[-66.0185,-17.8622],[-66.1752,-17.8668],[-66.3355,-17.9829],[-66.6249,-17.9913],[-66.7348,-18.0539],[-66.7483,-18.1627],[-66.6846,-18.2374],[-66.5446,-18.2772],[-66.6804,-18.364],[-66.6906,-18.4943],[-66.6273,-18.6094],[-66.503,-18.6984],[-66.2994,-18.7545],[-66.1821,-18.9958],[-66.0586,-19.1408],[-66.0971,-19.2091],[-66.4301,-19.2329],[-66.7281,-19.4415],[-67.5519,-19.7824],[-67.6875,-19.826],[-67.8319,-19.8079],[-68.5767,-19.5646]]]}},{"type":"Feature","properties":{"sourceId":"1159311187","regionId":"region.f3a52c23-1da6-468a-9f71-2625aca71e52","countryId":"country.1wszh7v"},"geometry":{"type":"Polygon","coordinates":[[[-62.6504,-22.2345],[-62.2757,-21.0666],[-62.2719,-21.0004],[-63.8692,-20.9993],[-63.9833,-20.9935],[-64.0743,-20.9143],[-64.1858,-20.9236],[-64.2256,-21.1409],[-64.3406,-21.1381],[-64.546,-21.0765],[-64.6494,-20.9421],[-64.7174,-20.9359],[-64.8296,-21.0975],[-65.0659,-20.9635],[-65.1743,-20.9682],[-65.2349,-21.5354],[-65.3285,-21.8029],[-65.2115,-21.9465],[-65.1905,-22.0985],[-65.0204,-22.0966],[-64.6874,-22.1729],[-64.5869,-22.2128],[-64.572,-22.3432],[-64.4283,-22.5423],[-64.4537,-22.6429],[-64.369,-22.7297],[-64.294,-22.6909],[-64.2508,-22.5407],[-64.1605,-22.4385],[-63.9476,-22.0076],[-63.8131,-22.003],[-63.7404,-22.0506],[-63.6394,-21.9975],[-62.8044,-22.0041],[-62.7909,-22.1132],[-62.6504,-22.2345]]]}},{"type":"Feature","properties":{"sourceId":"1159311185","regionId":"region.1e9aa473-4f01-4ac5-8061-f9f970249c34","countryId":"country.1wszh7v"},"geometry":{"type":"Polygon","coordinates":[[[-58.1588,-20.1651],[-57.8597,-19.9801],[-58.1246,-19.7299],[-57.789,-19.0592],[-57.7158,-19.0446],[-57.7823,-18.9104],[-57.5667,-18.2561],[-57.5511,-18.1836],[-57.7301,-17.8461],[-57.7245,-17.7366],[-57.7779,-17.6955],[-57.7908,-17.5558],[-57.8541,-17.5085],[-58.0102,-17.4968],[-58.2316,-17.3297],[-58.3812,-17.2672],[-58.4663,-16.8873],[-58.4803,-16.6837],[-58.3561,-16.5095],[-58.3396,-16.2893],[-58.4647,-16.3312],[-59.1082,-16.3087],[-60.1298,-16.2731],[-60.1798,-16.222],[-60.238,-15.5027],[-60.2605,-15.4561],[-60.5295,-15.1437],[-60.275,-15.0951],[-60.2917,-14.6301],[-60.3999,-14.3408],[-60.4643,-14.2784],[-60.4735,-14.1172],[-60.3897,-13.9749],[-60.4653,-13.8166],[-60.7256,-13.6628],[-60.8967,-13.5529],[-61.3477,-13.4937],[-61.4587,-13.5437],[-61.5931,-13.5068],[-62.1287,-13.8089],[-63.0129,-14.3055],[-63.5704,-14.6185],[-63.963,-14.7374],[-63.9402,-14.8323],[-63.9498,-15.0856],[-63.8632,-15.2981],[-63.6238,-15.6274],[-63.4987,-15.6921],[-63.4298,-15.8435],[-63.3409,-15.9176],[-64.6575,-15.8505],[-64.7306,-15.9225],[-64.6818,-16.0033],[-64.6842,-16.3884],[-64.7647,-16.5258],[-64.7538,-16.6185],[-64.8071,-16.7174],[-64.7561,-16.8743],[-64.6474,-16.996],[-64.3757,-17.1746],[-64.2337,-17.3186],[-64.2246,-17.416],[-64.3395,-17.4207],[-64.5643,-17.7457],[-64.7042,-17.8832],[-64.5893,-18.1149],[-64.4443,-18.3199],[-64.4273,-18.409],[-64.3136,-18.4894],[-64.2929,-18.585],[-64.3402,-18.6569],[-64.289,-18.8142],[-64.1991,-18.9288],[-64.0647,-18.9998],[-64.0163,-19.1606],[-63.9398,-19.1693],[-63.8609,-19.0262],[-63.7413,-19.0444],[-63.7677,-19.2713],[-63.7253,-19.963],[-63.7069,-20.0038],[-63.6519,-20.4501],[-63.4974,-20.4575],[-63.3685,-20.3574],[-63.2859,-20.4751],[-62.2106,-20.4713],[-61.9247,-20.0651],[-61.7612,-19.6578],[-60.8339,-19.4679],[-60.0064,-19.2981],[-59.0895,-19.2867],[-58.1753,-19.8214],[-58.1452,-19.9696],[-58.1588,-20.1651]]]}},{"type":"Feature","properties":{"sourceId":"1159309853","regionId":"region.48bc9e19-30c3-49dc-a082-04ad683ff2dd","countryId":"country.1wszh7v"},"geometry":{"type":"Polygon","coordinates":[[[-62.2106,-20.4713],[-63.2859,-20.4751],[-63.3685,-20.3574],[-63.4974,-20.4575],[-63.6519,-20.4501],[-63.7069,-20.0038],[-63.7253,-19.963],[-63.7677,-19.2713],[-63.7413,-19.0444],[-63.8609,-19.0262],[-63.9398,-19.1693],[-64.0163,-19.1606],[-64.0647,-18.9998],[-64.1991,-18.9288],[-64.289,-18.8142],[-64.3402,-18.6569],[-64.414,-18.6097],[-64.5838,-18.6612],[-64.7032,-18.5281],[-64.8387,-18.4869],[-64.9646,-18.5313],[-65.0939,-18.6507],[-65.2445,-18.6014],[-65.2502,-18.5302],[-65.3439,-18.4226],[-65.6944,-18.3642],[-65.6286,-18.4583],[-65.6078,-18.6741],[-65.4574,-18.683],[-65.5025,-18.8047],[-65.47,-18.905],[-65.5405,-19.0187],[-65.3728,-19.2542],[-65.155,-19.3714],[-64.9637,-19.3504],[-64.8687,-19.4541],[-64.8607,-19.5667],[-64.7469,-19.7324],[-64.8677,-19.8684],[-65.0564,-19.9687],[-65.2513,-20.0001],[-65.3166,-20.0484],[-65.3661,-20.269],[-65.296,-20.5338],[-65.4227,-20.8368],[-65.472,-21.1013],[-65.4585,-21.3351],[-65.2349,-21.5354],[-65.1743,-20.9682],[-65.0659,-20.9635],[-64.8296,-21.0975],[-64.7174,-20.9359],[-64.6494,-20.9421],[-64.546,-21.0765],[-64.3406,-21.1381],[-64.2256,-21.1409],[-64.1858,-20.9236],[-64.0743,-20.9143],[-63.9833,-20.9935],[-63.8692,-20.9993],[-62.2719,-21.0004],[-62.2773,-20.5798],[-62.2106,-20.4713]]]}},{"type":"Feature","properties":{"sourceId":"1159311181","regionId":"region.3868ad32-ce5a-4374-b632-20d994e10e6c","countryId":"country.1wszh7v"},"geometry":{"type":"Polygon","coordinates":[[[-65.3946,-10.3921],[-65.2881,-10.2162],[-65.3333,-9.9268],[-65.3044,-9.8257],[-65.3705,-9.7106],[-65.4518,-9.6814],[-65.584,-9.8372],[-65.7886,-9.733],[-65.8744,-9.7813],[-66.1907,-9.8008],[-66.4529,-9.8887],[-66.6489,-9.9159],[-66.9027,-10.0931],[-67.0643,-10.2569],[-67.2018,-10.3268],[-67.3378,-10.3261],[-67.4882,-10.4648],[-67.5846,-10.5018],[-67.7558,-10.7142],[-67.8626,-10.6588],[-68.0979,-10.6977],[-68.2933,-10.979],[-68.6157,-11.1125],[-68.787,-11.126],[-68.8047,-10.9947],[-68.884,-11.0164],[-69.0713,-10.97],[-69.3959,-10.935],[-69.5776,-10.9523],[-69.1316,-11.726],[-68.6895,-12.4934],[-68.5935,-12.4209],[-68.4584,-12.387],[-68.3902,-12.2425],[-68.2462,-12.1537],[-68.1845,-12.0056],[-68.0128,-11.97],[-67.9555,-11.9093],[-66.9278,-12.3822],[-66.8774,-12.065],[-66.9176,-11.8418],[-66.7209,-11.5835],[-66.6561,-11.4402],[-66.497,-11.4423],[-66.3169,-11.3859],[-66.2115,-11.1746],[-66.2178,-11.0977],[-66.0781,-10.9511],[-66.0117,-10.7894],[-65.895,-10.8117],[-65.8562,-10.723],[-65.7531,-10.667],[-65.6739,-10.5716],[-65.3946,-10.3921]]]}},{"type":"Feature","properties":{"sourceId":"1159309855","regionId":"region.388aa21b-0e4e-4164-8eef-1b1c10c830c0","countryId":"country.1wszh7v"},"geometry":{"type":"Polygon","coordinates":[[[-65.3946,-10.3921],[-65.6739,-10.5716],[-65.7531,-10.667],[-65.8562,-10.723],[-65.895,-10.8117],[-66.0117,-10.7894],[-66.0781,-10.9511],[-66.2178,-11.0977],[-66.2115,-11.1746],[-66.3169,-11.3859],[-66.497,-11.4423],[-66.6561,-11.4402],[-66.7209,-11.5835],[-66.9176,-11.8418],[-66.8774,-12.065],[-66.9278,-12.3822],[-66.9486,-12.6708],[-67.0523,-13.0159],[-67.3367,-13.3045],[-67.3956,-13.4025],[-67.3696,-13.5909],[-67.4717,-13.7105],[-67.536,-13.9984],[-67.5079,-14.2747],[-67.5607,-14.3691],[-67.4879,-14.5116],[-67.536,-14.5986],[-67.4363,-14.7381],[-67.4176,-14.9685],[-67.2927,-15.0154],[-67.1155,-15.2898],[-67.1186,-15.3785],[-66.7844,-15.6993],[-66.5035,-15.9719],[-66.4608,-16.0742],[-66.2392,-16.3169],[-65.9916,-16.445],[-65.8044,-16.4657],[-65.4556,-16.3689],[-65.3309,-16.2791],[-65.2732,-16.0719],[-65.1639,-15.9071],[-64.6575,-15.8505],[-63.3409,-15.9176],[-63.4298,-15.8435],[-63.4987,-15.6921],[-63.6238,-15.6274],[-63.8632,-15.2981],[-63.9498,-15.0856],[-63.9402,-14.8323],[-63.963,-14.7374],[-63.5704,-14.6185],[-63.0129,-14.3055],[-62.1287,-13.8089],[-61.5931,-13.5068],[-61.848,-13.5308],[-61.8686,-13.4639],[-62.0033,-13.3605],[-62.1125,-13.2318],[-62.1147,-13.1502],[-62.2216,-13.1213],[-62.3818,-13.1399],[-62.4927,-13.065],[-62.6417,-13.03],[-62.6866,-12.965],[-62.8074,-12.9889],[-62.9205,-12.8623],[-62.9753,-12.8529],[-63.075,-12.6527],[-63.1367,-12.6337],[-63.2473,-12.7013],[-63.3933,-12.6645],[-63.4961,-12.5533],[-63.6577,-12.4754],[-63.8014,-12.4549],[-63.9212,-12.5443],[-64.1448,-12.5204],[-64.2152,-12.4738],[-64.3957,-12.4573],[-64.4898,-12.3736],[-64.4691,-12.2611],[-64.7163,-12.1465],[-64.7925,-12.0325],[-64.9974,-11.9963],[-65.0656,-11.7531],[-65.1962,-11.7418],[-65.1954,-11.5922],[-65.2925,-11.5047],[-65.353,-11.3906],[-65.36,-11.2188],[-65.303,-10.9907],[-65.319,-10.8654],[-65.4047,-10.7992],[-65.3811,-10.6981],[-65.4357,-10.6258],[-65.45,-10.4681],[-65.3946,-10.3921]]]}},{"type":"Feature","properties":{"sourceId":"1159309851","regionId":"region.0e707f31-f575-4209-b0f3-d47864362447","countryId":"country.1wszh7v"},"geometry":{"type":"Polygon","coordinates":[[[-66.9899,-17.5513],[-66.8261,-17.6712],[-66.6805,-17.864],[-66.6249,-17.9913],[-66.3355,-17.9829],[-66.1752,-17.8668],[-66.0185,-17.8622],[-65.9311,-17.9838],[-65.8433,-17.9683],[-65.6424,-18.1291],[-65.4363,-18.3693],[-65.3439,-18.4226],[-65.2502,-18.5302],[-65.2445,-18.6014],[-65.0939,-18.6507],[-64.9646,-18.5313],[-64.8387,-18.4869],[-64.7032,-18.5281],[-64.5838,-18.6612],[-64.414,-18.6097],[-64.3402,-18.6569],[-64.2929,-18.585],[-64.3136,-18.4894],[-64.4273,-18.409],[-64.4443,-18.3199],[-64.5893,-18.1149],[-64.7042,-17.8832],[-64.5643,-17.7457],[-64.3395,-17.4207],[-64.2246,-17.416],[-64.2337,-17.3186],[-64.3757,-17.1746],[-64.6474,-16.996],[-64.7561,-16.8743],[-64.8071,-16.7174],[-64.7538,-16.6185],[-64.7647,-16.5258],[-64.6842,-16.3884],[-64.6818,-16.0033],[-64.7306,-15.9225],[-64.6575,-15.8505],[-65.1639,-15.9071],[-65.2732,-16.0719],[-65.3309,-16.2791],[-65.4556,-16.3689],[-65.8044,-16.4657],[-65.9916,-16.445],[-66.2392,-16.3169],[-66.4608,-16.0742],[-66.5035,-15.9719],[-66.7844,-15.6993],[-66.9345,-15.8447],[-66.9456,-16.0753],[-66.7996,-16.2833],[-66.8162,-16.483],[-66.7659,-16.5895],[-66.7614,-16.7578],[-66.9323,-16.8351],[-67.0152,-17.0469],[-66.8972,-17.175],[-66.8419,-17.4681],[-66.9899,-17.5513]]]}}]}