{"type":"FeatureCollection","features":[{"type":"Feature","properties":{"sourceId":"1159313975","regionId":"region.3d4f541d-381f-4721-9eae-da9d2917934f","countryId":"country.50z1vg"},"geometry":{"type":"MultiPolygon","coordinates":[[[[92.641,21.3086],[92.4231,21.3637],[92.3227,21.4619],[92.2363,21.4171],[92.1837,21.3172],[92.175,21.1756],[92.2651,21.0611],[92.3811,20.7001],[92.4536,20.6685],[92.5399,20.5275],[92.6532,20.4183],[92.8316,20.4789],[92.9012,20.3081],[92.7721,20.2015],[92.8604,20.1249],[92.9759,20.0878],[93.0487,19.9948],[93.1481,19.9943],[93.3748,20.0885],[93.4136,19.9775],[93.5659,19.9166],[93.7075,19.9166],[93.6014,19.7834],[93.6935,19.7248],[93.7396,19.6175],[93.9146,19.4728],[93.9844,19.4641],[93.9873,19.3867],[93.9299,19.2998],[93.7969,19.2352],[93.6653,19.3056],[93.6113,19.4033],[93.4841,19.3927],[93.4978,19.3139],[93.7503,18.9704],[93.9304,18.8586],[93.9739,18.9228],[93.9554,19.1269],[94.0661,19.0429],[94.0532,18.8409],[94.1336,18.8465],[94.2124,18.7418],[94.2796,18.4802],[94.3897,18.3627],[94.481,18.0942],[94.4474,17.9733],[94.5017,17.7866],[94.5952,17.6155],[94.5677,17.4629],[94.7544,17.3717],[94.7994,17.4654],[94.8095,17.624],[94.8829,17.73],[94.9027,17.8508],[94.8595,17.928],[94.8915,18.1805],[94.8366,18.3576],[94.7637,18.4663],[94.7467,18.6054],[94.7919,18.6972],[94.7228,18.7914],[94.7895,18.87],[94.6823,19.025],[94.5712,19.0992],[94.5315,19.3058],[94.4301,19.4513],[94.3698,19.7306],[94.3279,19.8181],[94.3339,19.9496],[94.2652,20.0169],[94.2562,20.1114],[94.0002,20.5321],[93.904,20.5811],[93.9046,20.7019],[93.8022,20.7623],[93.7498,20.869],[93.6558,20.8539],[93.6836,20.7159],[93.6147,20.6657],[93.474,20.6737],[93.2634,20.7934],[93.1602,20.9185],[93.1326,21.0441],[92.9276,21.0776],[92.8351,21.0595],[92.641,21.3086]]],[[[93.7454,18.8],[93.7424,18.8723],[93.6218,18.9103],[93.4978,18.8409],[93.6453,18.6793],[93.7468,18.7088],[93.7454,18.8]]],[[[93.9707,19.4169],[93.82,19.4715],[93.7312,19.5541],[93.6418,19.492],[93.7738,19.2988],[93.8569,19.2789],[93.9658,19.363],[93.9707,19.4169]]]]}},{"type":"Feature","properties":{"sourceId":"1159314049","regionId":"region.c106fee2-c396-4b5c-8889-089e0bc8d97d","countryId":"country.50z1vg"},"geometry":{"type":"Polygon","coordinates":[[[92.641,21.3086],[92.8351,21.0595],[92.9276,21.0776],[93.1326,21.0441],[93.1602,20.9185],[93.2634,20.7934],[93.474,20.6737],[93.6147,20.6657],[93.6836,20.7159],[93.6558,20.8539],[93.7498,20.869],[93.8022,20.7623],[93.9046,20.7019],[94.023,20.6516],[94.1383,20.6929],[94.0416,20.9068],[94.1097,21.0655],[94.106,21.2087],[94.028,21.2658],[94.1252,21.5855],[94.007,21.7901],[94.0534,21.9591],[94.0215,22.0494],[94.0497,22.1598],[94.0472,22.36],[94.007,22.678],[93.9925,22.9203],[94.0194,23.0718],[94.0003,23.3305],[94.0445,23.4906],[94.1425,23.4993],[94.1701,23.695],[94.1289,23.8539],[93.9979,23.917],[93.8037,23.9361],[93.743,23.9953],[93.6124,24.0091],[93.4567,23.96],[93.3683,24.0785],[93.3026,24.0358],[93.356,23.907],[93.3748,23.739],[93.4324,23.6473],[93.3842,23.3131],[93.3749,23.1297],[93.2988,23.018],[93.1965,23.0538],[93.1382,23.0053],[93.1755,22.8817],[93.0795,22.7727],[93.0992,22.512],[93.1659,22.3866],[93.169,22.2469],[92.9672,22.0627],[92.8539,22.0241],[92.7081,22.148],[92.6509,22.0192],[92.5759,21.9776],[92.5902,21.4955],[92.641,21.3086]]]}},{"type":"Feature","properties":{"sourceId":"1159315217","regionId":"region.5ce0aea3-c060-417c-bb86-f04f2fc9ce2a","countryId":"country.50z1vg"},"geometry":{"type":"Polygon","coordinates":[[[97.3235,28.2175],[97.3065,28.0697],[97.3551,28.023],[97.3335,27.8942],[97.2229,27.8997],[97.0604,27.7505],[96.8702,27.6191],[96.9051,27.4084],[97.1348,27.1273],[97.0588,27.0921],[96.9517,26.9899],[96.7646,26.9884],[96.4494,26.9424],[96.3422,26.9632],[96.1983,26.7662],[96.0697,26.6943],[96.132,26.5788],[96.1279,26.47],[96.0141,26.3882],[96.1549,26.1422],[96.1638,26.0311],[96.08,25.889],[96.178,25.6517],[96.0432,25.5337],[95.9685,25.5157],[95.988,25.1997],[96.0731,25.078],[95.8404,24.965],[95.9372,24.7102],[96.1038,24.637],[96.2351,24.4587],[96.4247,24.5011],[96.6563,24.4172],[96.6067,24.2498],[96.6736,24.1419],[96.7298,24.0281],[96.9168,23.9044],[96.8929,23.8234],[96.7841,23.7497],[97.0035,23.6999],[97.0976,23.6454],[97.3053,23.7041],[97.6473,23.8685],[97.5165,23.9428],[97.7077,24.1253],[97.7184,24.2777],[97.6399,24.4393],[97.5196,24.4308],[97.5361,24.745],[97.6639,24.8298],[97.7375,25.0905],[97.8236,25.2616],[97.8889,25.2056],[98.1084,25.3889],[98.0995,25.4933],[98.1502,25.6131],[98.3326,25.567],[98.4613,25.7947],[98.61,25.8006],[98.6924,25.879],[98.5824,25.9823],[98.5455,26.1056],[98.7055,26.1749],[98.6578,26.3116],[98.7172,26.4087],[98.7556,26.625],[98.7492,26.7714],[98.6726,27.1756],[98.7042,27.3042],[98.6744,27.3866],[98.6793,27.5773],[98.4,27.6757],[98.3833,27.5558],[98.2947,27.5366],[98.2044,27.7273],[98.1767,27.8981],[98.1071,27.9731],[98.115,28.1439],[97.9911,28.214],[97.8975,28.3553],[97.74,28.3826],[97.6996,28.488],[97.5277,28.5295],[97.4453,28.383],[97.4367,28.2864],[97.3235,28.2175]]]}},{"type":"Feature","properties":{"sourceId":"1159315219","regionId":"region.b836df06-86da-4449-a767-1351bae1a45b","countryId":"country.50z1vg"},"geometry":{"type":"Polygon","coordinates":[[[97.0588,27.0921],[96.8653,27.1716],[96.8596,27.2407],[96.7589,27.3417],[96.5869,27.3536],[96.5109,27.2925],[96.1426,27.2575],[96.0132,27.1908],[95.8889,27.027],[95.778,26.9951],[95.5913,26.8237],[95.4898,26.8107],[95.3927,26.6918],[95.2469,26.6489],[95.1191,26.6042],[95.0406,26.4756],[95.0463,26.248],[95.1395,26.0299],[95.0006,25.922],[95.0088,25.7371],[94.8508,25.5628],[94.6504,25.4467],[94.5501,25.2453],[94.5769,25.1736],[94.6891,25.1385],[94.7086,25.0259],[94.5895,24.7473],[94.5163,24.705],[94.29,24.3168],[94.1903,23.9953],[94.1289,23.8539],[94.1701,23.695],[94.1425,23.4993],[94.0445,23.4906],[94.0003,23.3305],[94.0194,23.0718],[93.9925,22.9203],[94.007,22.678],[94.1133,22.7081],[94.2958,22.3889],[94.2429,22.2614],[94.2794,22.1063],[94.3493,22.1105],[94.4162,21.9896],[94.3957,21.8244],[94.4904,21.7673],[94.6019,21.8197],[95.1521,21.8233],[95.2485,21.661],[95.3422,21.6089],[95.3799,21.7074],[95.5615,21.7396],[95.6571,21.6269],[95.7721,21.6261],[95.8693,21.8252],[96.0209,21.8965],[96.0512,21.9563],[96.0075,22.0894],[95.9637,22.3925],[95.9853,22.5501],[95.917,22.6617],[95.9648,22.7691],[95.9752,23.154],[95.9095,23.3446],[95.9453,23.452],[96.082,23.6294],[96.193,23.5002],[96.3207,23.5067],[96.3965,23.5737],[96.4398,23.6886],[96.5584,23.8646],[96.508,24.0107],[96.4146,24.0512],[96.6736,24.1419],[96.6067,24.2498],[96.6563,24.4172],[96.4247,24.5011],[96.2351,24.4587],[96.1038,24.637],[95.9372,24.7102],[95.8404,24.965],[96.0731,25.078],[95.988,25.1997],[95.9685,25.5157],[96.0432,25.5337],[96.178,25.6517],[96.08,25.889],[96.1638,26.0311],[96.1549,26.1422],[96.0141,26.3882],[96.1279,26.47],[96.132,26.5788],[96.0697,26.6943],[96.1983,26.7662],[96.3422,26.9632],[96.4494,26.9424],[96.7646,26.9884],[96.9517,26.9899],[97.0588,27.0921]]]}},{"type":"Feature","properties":{"sourceId":"1159314053","regionId":"region.98c67f98-f0d0-4b4f-b2c6-675f4fddd88a","countryId":"country.50z1vg"},"geometry":{"type":"Polygon","coordinates":[[[99.5087,20.1528],[99.5029,20.3452],[99.6519,20.3068],[99.7696,20.3284],[99.8377,20.4168],[99.942,20.444],[100.0993,20.3178],[100.1493,20.5481],[100.2113,20.6974],[100.3837,20.8317],[100.5134,20.807],[100.6078,20.8399],[100.5157,20.8865],[100.5435,21.0274],[100.6376,21.0697],[100.7254,21.3117],[100.792,21.2974],[101.0034,21.406],[101.159,21.5527],[101.1739,21.6119],[101.0687,21.762],[100.797,21.6261],[100.6217,21.4691],[100.4567,21.455],[100.3265,21.5243],[100.1871,21.4279],[100.09,21.5289],[100.0823,21.6845],[99.9503,21.7212],[99.9202,21.852],[99.9657,21.963],[99.9424,22.0455],[99.821,22.0178],[99.7392,22.0668],[99.4386,22.1242],[99.3649,22.0989],[99.1664,22.1321],[99.1664,22.2046],[99.2828,22.4119],[99.3578,22.4955],[99.3079,22.7196],[99.4144,22.8569],[99.4299,22.9367],[99.5346,22.9493],[99.4782,23.0658],[99.351,23.1193],[99.2166,23.0574],[99.0749,23.1017],[99.0264,23.1604],[98.859,23.1794],[98.9107,23.2976],[98.8755,23.4464],[98.7809,23.5329],[98.8574,23.6043],[98.7779,23.7693],[98.6637,23.7969],[98.6633,23.9695],[98.8562,24.0838],[98.867,24.1433],[98.5852,24.0757],[98.5033,24.1213],[98.3307,24.0995],[98.1815,24.1187],[97.89,24.0226],[97.6473,23.8685],[97.3053,23.7041],[97.0976,23.6454],[97.0035,23.6999],[96.7841,23.7497],[96.8929,23.8234],[96.9168,23.9044],[96.7298,24.0281],[96.6736,24.1419],[96.4146,24.0512],[96.508,24.0107],[96.5584,23.8646],[96.4398,23.6886],[96.3965,23.5737],[96.3207,23.5067],[96.3065,23.4295],[96.2042,23.3119],[96.1592,23.1663],[96.2125,23.0498],[96.3465,23.0175],[96.4863,23.0396],[96.7174,22.9339],[96.6403,22.8219],[96.4712,22.7831],[96.2668,22.7801],[96.2036,22.7397],[96.3334,22.4878],[96.3175,22.398],[96.4025,22.3653],[96.4781,22.1644],[96.7461,22.0651],[96.8766,21.8075],[96.7046,21.717],[96.5829,21.597],[96.3448,21.5413],[96.2883,21.4597],[96.3315,21.2495],[96.2105,21.0595],[96.2579,20.9742],[96.5888,20.8452],[96.4542,20.6853],[96.5481,20.5793],[96.4764,20.4231],[96.5386,20.2051],[96.3805,20.0225],[96.4516,19.8607],[96.5371,19.8494],[96.6556,19.6775],[96.6733,19.4958],[96.8156,19.3881],[96.8399,19.2884],[96.9268,19.4359],[96.8956,19.4963],[96.9726,19.6238],[97.1354,19.7278],[97.1678,19.9887],[97.2808,19.8909],[97.3935,19.9404],[97.5136,19.9019],[97.586,19.8273],[97.612,19.6866],[97.8521,19.6352],[97.8691,19.5705],[98.0083,19.6391],[98.0179,19.7894],[98.2179,19.708],[98.4778,19.7056],[98.5326,19.6759],[98.8079,19.8065],[98.8837,19.7455],[99.0088,19.8459],[99.0168,20.041],[99.1175,20.1178],[99.2957,20.0625],[99.5087,20.1528]]]}},{"type":"Feature","properties":{"sourceId":"1159311841","regionId":"region.099e89c5-45b7-4be6-81c1-df0ad3d8de10","countryId":"country.50z1vg"},"geometry":{"type":"Polygon","coordinates":[[[97.8691,19.5705],[97.8521,19.6352],[97.612,19.6866],[97.586,19.8273],[97.5136,19.9019],[97.3935,19.9404],[97.2808,19.8909],[97.1678,19.9887],[97.1354,19.7278],[96.9726,19.6238],[96.8956,19.4963],[96.9268,19.4359],[96.8399,19.2884],[96.8665,19.168],[96.9323,19.1179],[96.9652,18.9867],[97.1146,18.7003],[97.301,18.683],[97.3729,18.5486],[97.5095,18.4913],[97.7518,18.5825],[97.7191,18.8646],[97.6578,18.9257],[97.8108,19.1122],[97.8062,19.3011],[97.7671,19.3975],[97.8691,19.5705]]]}},{"type":"Feature","properties":{"sourceId":"1159314041","regionId":"region.b080a08c-b8a7-4d53-9915-3a158740d264","countryId":"country.50z1vg"},"geometry":{"type":"Polygon","coordinates":[[[97.3729,18.5486],[97.301,18.683],[97.1146,18.7003],[96.9652,18.9867],[96.9323,19.1179],[96.8665,19.168],[96.8399,19.2884],[96.8156,19.3881],[96.6733,19.4958],[96.6367,19.4524],[96.3989,19.47],[96.538,19.173],[96.5304,19.08],[96.6845,18.9218],[96.6271,18.8757],[96.6156,18.7477],[96.7027,18.6044],[96.8131,18.5992],[96.9302,18.6452],[96.9824,18.588],[96.9704,18.439],[97.1292,18.3038],[97.2035,18.1527],[97.1323,17.9559],[97.2038,17.8069],[97.1778,17.7382],[97.234,17.5455],[97.3865,17.6246],[97.5213,17.295],[97.5314,17.1252],[97.4708,17.0274],[97.5577,16.7275],[97.7035,16.5735],[97.7402,16.5593],[97.9195,16.4297],[98.0806,16.2782],[98.1319,16.1628],[97.8234,16.1339],[97.863,16.0448],[97.8413,15.8549],[97.8853,15.7281],[98.2077,15.2192],[98.283,15.29],[98.3852,15.2563],[98.4034,15.3601],[98.5599,15.3553],[98.5441,15.6751],[98.5838,15.977],[98.6587,16.1163],[98.8072,16.1105],[98.9033,16.3634],[98.7886,16.3746],[98.657,16.3016],[98.6316,16.4631],[98.5471,16.6201],[98.4567,16.7232],[98.5246,16.8504],[98.4362,17.0116],[98.3133,17.052],[98.221,17.2008],[98.1006,17.3026],[97.9828,17.5054],[97.908,17.5549],[97.7689,17.6792],[97.6855,17.8807],[97.7541,17.969],[97.6843,18.1461],[97.5606,18.3283],[97.4526,18.3336],[97.3729,18.5486]]]}},{"type":"Feature","properties":{"sourceId":"1159313965","regionId":"region.c7f88028-2186-44ac-a62a-6b138de6a53c","countryId":"country.50z1vg"},"geometry":{"type":"MultiPolygon","coordinates":[[[[98.2077,15.2192],[97.8853,15.7281],[97.8413,15.8549],[97.863,16.0448],[97.8234,16.1339],[98.1319,16.1628],[98.0806,16.2782],[97.9195,16.4297],[97.7402,16.5593],[97.6266,16.4376],[97.6499,16.2838],[97.5823,16.0091],[97.7271,15.8432],[97.7429,15.6045],[97.7948,15.4079],[97.7264,15.3396],[97.8071,15.175],[97.7949,14.8802],[97.9023,15.0784],[98.0128,15.0981],[98.1189,14.9931],[98.1912,14.9932],[98.165,15.1258],[98.2077,15.2192]]],[[[97.7035,16.5735],[97.5577,16.7275],[97.4708,17.0274],[97.5314,17.1252],[97.5213,17.295],[97.3865,17.6246],[97.234,17.5455],[97.1065,17.5288],[96.9599,17.6163],[96.8908,17.6027],[96.8829,17.4572],[96.9046,17.3753],[97.0686,17.2514],[97.1003,17.1338],[97.199,16.9975],[97.1833,16.9215],[97.2554,16.6979],[97.4026,16.5169],[97.613,16.5306],[97.7035,16.5735]]],[[[97.5894,16.4153],[97.5205,16.5109],[97.4522,16.4494],[97.4593,16.3014],[97.5714,16.2227],[97.5894,16.4153]]]]}},{"type":"Feature","properties":{"sourceId":"1159313765","regionId":"region.4c0cc747-c4d7-4bc0-98a9-816cf1fdb448","countryId":"country.50z1vg"},"geometry":{"type":"MultiPolygon","coordinates":[[[[98.1912,14.9932],[98.1189,14.9931],[98.0128,15.0981],[97.9023,15.0784],[97.7949,14.8802],[97.8425,14.7363],[97.9764,14.4438],[97.9935,14.3305],[98.1086,14.1326],[98.0617,14.0101],[98.1033,13.8764],[98.1033,13.701],[98.2448,13.7141],[98.4317,13.4787],[98.48,13.2839],[98.5785,13.1868],[98.5838,13.0266],[98.6912,12.7104],[98.6231,12.5582],[98.6052,12.4289],[98.6768,12.3153],[98.552,12.2796],[98.7031,12.0481],[98.7202,11.9643],[98.6104,11.7313],[98.6843,11.6828],[98.7681,11.7619],[98.698,11.388],[98.7593,11.2689],[98.7066,11.0978],[98.7124,10.9244],[98.634,10.9137],[98.5774,10.7704],[98.4593,10.7154],[98.5285,10.3642],[98.4907,10.2043],[98.521,10.029],[98.5899,10.0421],[98.7474,10.3505],[98.7913,10.5204],[98.7667,10.6888],[98.8792,10.7882],[98.9745,10.8242],[99.0015,10.9576],[99.1409,11.0394],[99.4282,11.4969],[99.4406,11.5973],[99.5307,11.6309],[99.63,11.8158],[99.5541,11.895],[99.574,11.9763],[99.4663,12.126],[99.4571,12.2564],[99.387,12.4659],[99.4047,12.5669],[99.2141,12.7347],[99.1511,12.9948],[99.0932,13.0383],[99.1021,13.1713],[99.1865,13.2116],[99.1879,13.4271],[99.1468,13.7237],[99.0922,13.8636],[98.9453,14.0691],[98.7537,14.2001],[98.5477,14.3777],[98.4182,14.6076],[98.2433,14.8051],[98.1912,14.9932]]],[[[98.2783,11.7998],[98.2405,11.6248],[98.1875,11.535],[98.2752,11.4808],[98.323,11.7313],[98.2783,11.7998]]],[[[98.5353,11.8036],[98.3821,11.7762],[98.4419,11.5641],[98.549,11.6217],[98.5353,11.8036]]],[[[98.6035,11.9674],[98.4403,12.0154],[98.478,11.8909],[98.6035,11.9674]]],[[[98.4663,12.5837],[98.333,12.6712],[98.3338,12.5124],[98.302,12.338],[98.3913,12.3615],[98.4653,12.4807],[98.4663,12.5837]]]]}},{"type":"Feature","properties":{"sourceId":"1159315793","regionId":"region.b6aa88c1-9188-44d6-b8ed-df5271095d21","countryId":"country.50z1vg"},"geometry":{"type":"MultiPolygon","coordinates":[[[[96.0173,16.3782],[95.9042,16.4061],[95.8323,16.4791],[95.889,16.5526],[95.9043,16.905],[95.7958,17.1182],[95.7067,17.2064],[95.6907,17.3001],[95.7467,17.4622],[95.6494,17.5816],[95.5165,17.634],[95.4582,17.726],[95.4903,17.9145],[95.3827,18.2307],[95.1534,18.4713],[95.0844,18.3769],[94.9107,18.4116],[94.8366,18.3576],[94.8915,18.1805],[94.8595,17.928],[94.9027,17.8508],[94.8829,17.73],[94.8095,17.624],[94.7994,17.4654],[94.7544,17.3717],[94.5677,17.4629],[94.5725,17.3111],[94.4567,17.0506],[94.4647,16.9497],[94.3789,16.8869],[94.4027,16.7883],[94.3311,16.5286],[94.2731,16.5382],[94.2151,16.1577],[94.2395,15.9763],[94.34,15.9962],[94.507,16.1896],[94.5156,16.2873],[94.6437,16.2835],[94.6838,16.2092],[94.6423,16.0447],[94.5623,15.9619],[94.6587,15.8545],[94.7212,15.8567],[94.8396,15.9621],[94.8587,15.7826],[94.9756,15.7641],[95.1152,15.8939],[95.1736,15.7778],[95.3965,15.7164],[95.5234,15.8037],[95.6647,15.9492],[95.7555,16.1453],[95.98,16.2231],[96.0676,16.3102],[96.0173,16.3782]]],[[[94.6621,16.2219],[94.6116,16.2217],[94.4854,16.059],[94.3897,16.0009],[94.4092,15.9075],[94.5796,16.0133],[94.6621,16.2219]]]]}},{"type":"Feature","properties":{"sourceId":"1159314047","regionId":"region.df9e8c4d-67f5-4fc0-bd69-0fda65f7ce69","countryId":"country.50z1vg"},"geometry":{"type":"Polygon","coordinates":[[[96.8272,16.8904],[96.7145,16.9765],[96.3945,16.9894],[96.396,17.073],[96.3288,17.206],[96.2861,17.3708],[96.0741,17.7425],[95.9026,17.6468],[95.7467,17.4622],[95.6907,17.3001],[95.7067,17.2064],[95.7958,17.1182],[95.9043,16.905],[95.889,16.5526],[95.8323,16.4791],[95.9042,16.4061],[96.0173,16.3782],[96.119,16.3218],[96.2853,16.366],[96.3364,16.4394],[96.6159,16.518],[96.801,16.7374],[96.8272,16.8904]]]}},{"type":"Feature","properties":{"sourceId":"1159314045","regionId":"region.0c0a6aef-c67d-4613-8a0c-2fae8f2d2d4e","countryId":"country.50z1vg"},"geometry":{"type":"Polygon","coordinates":[[[96.8829,17.4572],[96.8908,17.6027],[96.9599,17.6163],[97.1065,17.5288],[97.234,17.5455],[97.1778,17.7382],[97.2038,17.8069],[97.1323,17.9559],[97.2035,18.1527],[97.1292,18.3038],[96.9704,18.439],[96.9824,18.588],[96.9302,18.6452],[96.8131,18.5992],[96.7027,18.6044],[96.6156,18.7477],[96.6271,18.8757],[96.6845,18.9218],[96.5304,19.08],[96.538,19.173],[96.3989,19.47],[96.1772,19.4832],[96.1234,19.4175],[95.9631,19.478],[95.8003,19.4636],[95.853,19.3298],[95.8259,19.1711],[95.5451,19.1654],[95.3069,19.0553],[95.2787,18.9647],[95.1883,18.9009],[95.213,18.8055],[95.0798,18.667],[95.0631,18.5617],[95.1534,18.4713],[95.3827,18.2307],[95.4903,17.9145],[95.4582,17.726],[95.5165,17.634],[95.6494,17.5816],[95.7467,17.4622],[95.9026,17.6468],[96.0741,17.7425],[96.2861,17.3708],[96.3288,17.206],[96.396,17.073],[96.3945,16.9894],[96.7145,16.9765],[96.8272,16.8904],[96.9102,17.0668],[96.8494,17.213],[96.9109,17.2849],[96.8512,17.3596],[96.8829,17.4572]]]}},{"type":"Feature","properties":{"sourceId":"1159314051","regionId":"region.440e924d-a01c-4e0e-9bde-5df3a54319e2","countryId":"country.50z1vg"},"geometry":{"type":"Polygon","coordinates":[[[94.8366,18.3576],[94.9107,18.4116],[95.0844,18.3769],[95.1534,18.4713],[95.0631,18.5617],[95.0798,18.667],[95.213,18.8055],[95.1883,18.9009],[95.2787,18.9647],[95.3069,19.0553],[95.5451,19.1654],[95.8259,19.1711],[95.853,19.3298],[95.8003,19.4636],[95.7254,19.6094],[95.8162,19.8378],[95.7853,20.0073],[95.828,20.1384],[95.7517,20.2788],[95.718,20.4975],[95.6242,20.7225],[95.4738,20.7555],[95.2915,20.6568],[95.0686,20.5894],[95.084,20.8242],[94.9034,20.8897],[94.8147,20.953],[94.7999,21.1436],[94.843,21.2225],[95.1416,21.3139],[95.3302,21.4639],[95.3422,21.6089],[95.2485,21.661],[95.1521,21.8233],[94.6019,21.8197],[94.4904,21.7673],[94.3957,21.8244],[94.4162,21.9896],[94.3493,22.1105],[94.2794,22.1063],[94.2429,22.2614],[94.2958,22.3889],[94.1133,22.7081],[94.007,22.678],[94.0472,22.36],[94.0497,22.1598],[94.0215,22.0494],[94.0534,21.9591],[94.007,21.7901],[94.1252,21.5855],[94.028,21.2658],[94.106,21.2087],[94.1097,21.0655],[94.0416,20.9068],[94.1383,20.6929],[94.023,20.6516],[93.9046,20.7019],[93.904,20.5811],[94.0002,20.5321],[94.2562,20.1114],[94.2652,20.0169],[94.3339,19.9496],[94.3279,19.8181],[94.3698,19.7306],[94.4301,19.4513],[94.5315,19.3058],[94.5712,19.0992],[94.6823,19.025],[94.7895,18.87],[94.7228,18.7914],[94.7919,18.6972],[94.7467,18.6054],[94.7637,18.4663],[94.8366,18.3576]]]}},{"type":"Feature","properties":{"sourceId":"1159314043","regionId":"region.c914af0b-93cf-46a2-9383-c6728e41b374","countryId":"country.50z1vg"},"geometry":{"type":"Polygon","coordinates":[[[96.3207,23.5067],[96.193,23.5002],[96.082,23.6294],[95.9453,23.452],[95.9095,23.3446],[95.9752,23.154],[95.9648,22.7691],[95.917,22.6617],[95.9853,22.5501],[95.9637,22.3925],[96.0075,22.0894],[96.0512,21.9563],[96.0209,21.8965],[95.8693,21.8252],[95.7721,21.6261],[95.6571,21.6269],[95.5615,21.7396],[95.3799,21.7074],[95.3422,21.6089],[95.3302,21.4639],[95.1416,21.3139],[94.843,21.2225],[94.7999,21.1436],[94.8147,20.953],[94.9034,20.8897],[95.084,20.8242],[95.0686,20.5894],[95.2915,20.6568],[95.4738,20.7555],[95.6242,20.7225],[95.718,20.4975],[95.7517,20.2788],[95.828,20.1384],[95.7853,20.0073],[95.8162,19.8378],[95.7254,19.6094],[95.8003,19.4636],[95.9631,19.478],[96.1234,19.4175],[96.1772,19.4832],[96.3989,19.47],[96.6367,19.4524],[96.6733,19.4958],[96.6556,19.6775],[96.5371,19.8494],[96.4516,19.8607],[96.3805,20.0225],[96.5386,20.2051],[96.4764,20.4231],[96.5481,20.5793],[96.4542,20.6853],[96.5888,20.8452],[96.2579,20.9742],[96.2105,21.0595],[96.3315,21.2495],[96.2883,21.4597],[96.3448,21.5413],[96.5829,21.597],[96.7046,21.717],[96.8766,21.8075],[96.7461,22.0651],[96.4781,22.1644],[96.4025,22.3653],[96.3175,22.398],[96.3334,22.4878],[96.2036,22.7397],[96.2668,22.7801],[96.4712,22.7831],[96.6403,22.8219],[96.7174,22.9339],[96.4863,23.0396],[96.3465,23.0175],[96.2125,23.0498],[96.1592,23.1663],[96.2042,23.3119],[96.3065,23.4295],[96.3207,23.5067]]]}}]}