{"type":"FeatureCollection","features":[{"type":"Feature","properties":{"sourceId":"1159316367","regionId":"region.f35bcb06-fdcc-4f42-881a-fed50259f3a6","countryId":"country.fb52b2fd-95f8-4731-a50a-e7e0f6fbeb26"},"geometry":{"type":"Polygon","coordinates":[[[-61.683,12.0254],[-61.6765,12.0846],[-61.6864,12.1109],[-61.751,12.1101],[-61.683,12.0254]]]}},{"type":"Feature","properties":{"sourceId":"1159316369","regionId":"region.d3f500d1-9157-4092-a135-4aad9135f073","countryId":"country.fb52b2fd-95f8-4731-a50a-e7e0f6fbeb26"},"geometry":{"type":"Polygon","coordinates":[[[-61.6245,12.069],[-61.6765,12.0846],[-61.683,12.0254],[-61.6245,12.069]]]}},{"type":"Feature","properties":{"sourceId":"1159316371","regionId":"region.d1ce224c-b63a-46a3-a7bc-05dc7b82b5e0","countryId":"country.fb52b2fd-95f8-4731-a50a-e7e0f6fbeb26"},"geometry":{"type":"Polygon","coordinates":[[[-61.6032,12.1767],[-61.6559,12.1792],[-61.6625,12.1586],[-61.6864,12.1109],[-61.6765,12.0846],[-61.6245,12.069],[-61.6032,12.1767]]]}},{"type":"Feature","properties":{"sourceId":"1159315637","regionId":"region.df3497fa-9c9c-4d85-a870-09e743a324f7","countryId":"country.fb52b2fd-95f8-4731-a50a-e7e0f6fbeb26"},"geometry":{"type":"Polygon","coordinates":[[[-61.6821,12.2233],[-61.6559,12.1792],[-61.6032,12.1767],[-61.6821,12.2233]]]}},{"type":"Feature","properties":{"sourceId":"1159316363","regionId":"region.89a92242-ee46-4adf-b181-f1745336b7ca","countryId":"country.fb52b2fd-95f8-4731-a50a-e7e0f6fbeb26"},"geometry":{"type":"Polygon","coordinates":[[[-61.7151,12.1839],[-61.6625,12.1586],[-61.6559,12.1792],[-61.6821,12.2233],[-61.7151,12.1839]]]}},{"type":"Feature","properties":{"sourceId":"1159316365","regionId":"region.c420f731-bd65-4b63-8bd6-9cbeea131b0c","countryId":"country.fb52b2fd-95f8-4731-a50a-e7e0f6fbeb26"},"geometry":{"type":"Polygon","coordinates":[[[-61.751,12.1101],[-61.6864,12.1109],[-61.6625,12.1586],[-61.7151,12.1839],[-61.751,12.1101]]]}},{"type":"Feature","properties":{"sourceId":"1159316373","regionId":"region.275b1650-1ed7-440d-95cd-7ee0167e95a8","countryId":"country.fb52b2fd-95f8-4731-a50a-e7e0f6fbeb26"},"geometry":{"type":"Polygon","coordinates":[[[-61.428,12.4547],[-61.4216,12.5134],[-61.4435,12.5165],[-61.4673,12.4756],[-61.428,12.4547]]]}}]}