{"type":"FeatureCollection","features":[{"type":"Feature","properties":{"sourceId":"1159307911","regionId":"region.e7abc2a8-22dd-4474-988b-c4af6a0c2c9c","countryId":"country.1mxwn59"},"geometry":{"type":"Polygon","coordinates":[[[-57.6028,-30.1905],[-57.536,-30.2744],[-57.2126,-30.2873],[-57.1023,-30.1212],[-56.8313,-30.102],[-56.6737,-30.2113],[-56.3726,-30.4859],[-56.2351,-30.5654],[-56.0114,-30.7982],[-56.017,-31.0743],[-56.0099,-31.0819],[-55.8643,-31.0768],[-55.5919,-30.8483],[-55.3539,-31.0563],[-55.26,-31.2287],[-55.0873,-31.3268],[-54.9696,-31.3408],[-54.8198,-31.4353],[-54.5915,-31.471],[-54.4832,-31.5839],[-54.4672,-31.6642],[-54.1351,-31.909],[-54.0688,-31.8799],[-53.7718,-32.0471],[-53.6706,-32.2264],[-53.6487,-32.3386],[-53.5613,-32.4495],[-53.4156,-32.5642],[-53.1861,-32.6467],[-53.1108,-32.7224],[-53.1828,-32.7999],[-53.2988,-32.8891],[-53.3273,-32.9736],[-53.5207,-33.125],[-53.514,-33.3949],[-53.5396,-33.6493],[-53.3791,-33.7407],[-53.2663,-33.6767],[-52.8195,-33.3225],[-52.6217,-33.102],[-52.4709,-32.801],[-52.3753,-32.4987],[-52.2534,-32.2825],[-52.1274,-32.1775],[-52.2586,-32.0536],[-52.1698,-31.9365],[-52.2456,-31.841],[-52.2037,-31.7273],[-52.0958,-31.6911],[-52.09,-31.6061],[-52.0008,-31.5512],[-52.0016,-31.4291],[-51.9228,-31.3069],[-51.6528,-31.2592],[-51.6236,-31.1353],[-51.443,-31.081],[-51.4842,-31.013],[-51.4554,-30.8894],[-51.3619,-30.8792],[-51.3833,-30.6589],[-51.2902,-30.6244],[-51.2004,-30.3998],[-51.2921,-30.2717],[-51.314,-30.1546],[-51.1225,-30.256],[-51.0148,-30.2786],[-51.0341,-30.3757],[-50.9364,-30.4316],[-50.8975,-30.3105],[-50.672,-30.289],[-50.5373,-30.3204],[-50.7311,-30.7924],[-50.9393,-30.8961],[-50.9877,-31.0456],[-51.1761,-31.1493],[-51.1796,-31.359],[-51.3345,-31.5192],[-51.435,-31.4965],[-51.5126,-31.616],[-51.6662,-31.7697],[-51.786,-31.7921],[-51.9228,-31.8687],[-52.088,-31.8586],[-52.0326,-32.109],[-51.8635,-31.9317],[-51.5633,-31.7774],[-51.1518,-31.4815],[-51.0346,-31.378],[-50.7214,-31.0445],[-50.3157,-30.4615],[-50.0453,-29.8145],[-49.8107,-29.4431],[-49.7135,-29.3245],[-49.8706,-29.2179],[-50.079,-29.2433],[-50.1651,-29.1961],[-50.0697,-29.0926],[-50.0056,-29.1031],[-49.9468,-28.9514],[-49.9541,-28.7947],[-49.796,-28.6239],[-49.7366,-28.5114],[-49.8833,-28.4509],[-50.1618,-28.484],[-50.217,-28.4499],[-50.6211,-28.3742],[-50.7743,-28.1561],[-50.8675,-28.1272],[-50.8862,-28.0252],[-51.0124,-27.9347],[-51.0805,-27.8211],[-51.2269,-27.7678],[-51.3346,-27.6691],[-51.6057,-27.5017],[-51.8923,-27.5139],[-51.9158,-27.4494],[-52.1791,-27.2682],[-52.2605,-27.2964],[-52.5509,-27.2376],[-52.7382,-27.2501],[-52.8686,-27.1614],[-52.9642,-27.1881],[-53.0695,-27.1505],[-53.2174,-27.1614],[-53.3689,-27.072],[-53.6534,-27.216],[-53.6865,-27.1545],[-53.842,-27.1635],[-53.9641,-27.154],[-54.0918,-27.2852],[-54.1895,-27.2609],[-54.2869,-27.4284],[-54.4608,-27.4126],[-54.6053,-27.468],[-54.6997,-27.553],[-54.8275,-27.5451],[-54.8983,-27.6236],[-54.9132,-27.7369],[-55.0258,-27.8402],[-55.1977,-27.8606],[-55.3299,-27.9281],[-55.4407,-28.0789],[-55.623,-28.1443],[-55.7725,-28.232],[-55.6636,-28.3265],[-55.6841,-28.388],[-55.8423,-28.3464],[-55.8981,-28.4607],[-56.0116,-28.4966],[-56.0219,-28.5857],[-56.1847,-28.7442],[-56.2861,-28.7802],[-56.301,-28.8814],[-56.3916,-28.9522],[-56.4158,-29.0514],[-56.6173,-29.1609],[-56.677,-29.3134],[-56.9658,-29.6009],[-57.0942,-29.752],[-57.2196,-29.7783],[-57.3085,-29.8485],[-57.3252,-29.981],[-57.5062,-30.1443],[-57.6117,-30.183],[-57.6028,-30.1905]]]}},{"type":"Feature","properties":{"sourceId":"1159308883","regionId":"region.1c4ef612-5c7a-434a-a4b3-de31cfa05ebd","countryId":"country.1mxwn59"},"geometry":{"type":"Polygon","coordinates":[[[-60.0887,5.1554],[-60.1317,5.2434],[-60.2134,5.2672],[-60.3331,5.1938],[-60.4564,5.1747],[-60.7399,5.2021],[-60.6643,5.1703],[-60.5987,4.9969],[-60.6126,4.9006],[-60.7637,4.7551],[-60.9034,4.6996],[-60.9478,4.5736],[-61.012,4.5183],[-61.1512,4.4921],[-61.2973,4.5237],[-61.3332,4.4239],[-61.4582,4.4191],[-61.5421,4.263],[-61.7189,4.2547],[-61.9315,4.1464],[-62.035,4.1599],[-62.1927,4.0947],[-62.3842,4.1735],[-62.537,4.1254],[-62.561,4.0378],[-62.7662,4.0207],[-62.7888,3.8994],[-62.7496,3.6604],[-62.8894,3.5608],[-62.9971,3.5991],[-63.286,3.9208],[-63.4254,3.9684],[-63.5107,3.8545],[-63.6228,3.9352],[-63.8751,3.9498],[-63.9964,3.8808],[-64.0638,3.9116],[-64.1251,4.0885],[-64.2406,4.142],[-64.365,4.1519],[-64.5897,4.1189],[-64.648,4.2079],[-64.7916,4.2844],[-64.8013,4.1885],[-64.7271,4.1408],[-64.6629,3.997],[-64.5314,3.8535],[-64.3242,3.7241],[-64.203,3.5947],[-64.2456,3.4189],[-64.2229,3.124],[-64.106,2.9472],[-63.9979,2.706],[-64.048,2.4713],[-63.8313,2.4286],[-63.3848,2.4206],[-63.3865,2.2359],[-63.1225,2.1143],[-63.0039,2.0208],[-62.8484,2.0191],[-62.7071,1.9472],[-62.7133,1.7366],[-62.7868,1.6033],[-62.6229,1.4159],[-62.5147,1.0585],[-62.5097,0.9619],[-62.4463,0.8046],[-62.5362,0.7324],[-62.4862,0.5404],[-62.5305,0.4286],[-62.5667,0.1756],[-62.526,0.0954],[-62.5781,0.0168],[-62.4778,-0.2228],[-62.3721,-0.3416],[-62.3706,-0.4679],[-62.3187,-0.5203],[-62.3116,-0.6409],[-62.3777,-0.7158],[-62.4775,-0.6937],[-62.5057,-0.7729],[-62.4196,-0.8273],[-62.205,-1.0447],[-62.0276,-1.1443],[-61.9374,-1.2449],[-61.8794,-1.3693],[-61.7608,-1.359],[-61.6016,-1.3995],[-61.6202,-1.2744],[-61.561,-1.0223],[-61.5802,-0.9448],[-61.5322,-0.7285],[-61.4587,-0.6384],[-61.1072,-0.4928],[-60.9312,-0.5549],[-60.8148,-0.6862],[-60.7367,-0.8495],[-60.5151,-0.8289],[-60.4688,-0.7408],[-60.3398,-0.7041],[-60.3172,-0.6207],[-60.3927,-0.5191],[-60.3107,-0.2353],[-60.1268,0.1299],[-60.0245,0.2237],[-59.7699,0.2301],[-58.8705,0.2254],[-58.972,1.3123],[-59.2421,1.3778],[-59.5727,1.7272],[-59.6825,1.7656],[-59.7645,1.9205],[-59.7417,2.2638],[-59.9031,2.3596],[-59.9068,2.4588],[-60.0001,2.694],[-59.9594,3.0665],[-59.8285,3.3834],[-59.8377,3.6093],[-59.6801,3.7017],[-59.5292,3.9319],[-59.6633,4.0797],[-59.7385,4.2028],[-59.6871,4.3715],[-59.7963,4.4482],[-59.9433,4.5039],[-60.0556,4.4916],[-60.0877,4.6075],[-60.0345,4.7878],[-59.9831,5.0859],[-60.0887,5.1554]]]}},{"type":"Feature","properties":{"sourceId":"1159307941","regionId":"region.b4bbedae-3b2c-42e5-8f1d-90ff66a109cc","countryId":"country.1mxwn59"},"geometry":{"type":"MultiPolygon","coordinates":[[[[-56.4818,1.9416],[-56.6396,1.9369],[-56.8065,1.8736],[-57.0112,1.9186],[-57.1045,2.0215],[-57.2384,1.9485],[-57.3415,1.9688],[-57.4295,1.9003],[-57.5612,1.709],[-57.7908,1.7049],[-57.991,1.6504],[-58.0272,1.5169],[-58.3319,1.5934],[-58.4135,1.472],[-58.5018,1.4538],[-58.4811,1.3339],[-58.5189,1.2673],[-58.6826,1.2825],[-58.7719,1.2013],[-58.8979,1.2178],[-58.972,1.3123],[-58.8705,0.2254],[-58.8493,-0.0828],[-58.8537,-0.352],[-58.7405,-0.4306],[-58.7498,-0.6218],[-58.6276,-0.7651],[-58.5708,-0.7645],[-58.441,-0.8619],[-58.3895,-1.049],[-58.2545,-1.1303],[-58.0817,-1.2984],[-57.9015,-1.4233],[-57.8273,-1.4434],[-57.6559,-1.59],[-57.3375,-1.7292],[-57.0879,-1.8118],[-57.0052,-1.9349],[-56.7426,-2.054],[-56.749,-2.1755],[-56.6352,-2.2224],[-56.5216,-2.1648],[-56.4851,-2.2486],[-56.3969,-2.2722],[-56.3897,-2.3906],[-56.7567,-3.1861],[-58.2944,-6.4969],[-58.4664,-6.7016],[-58.4666,-6.7833],[-58.3918,-6.9559],[-58.217,-7.11],[-58.1355,-7.3391],[-58.059,-7.411],[-57.8937,-7.6926],[-57.7812,-8.0464],[-57.6403,-8.2294],[-57.6806,-8.4358],[-57.5796,-8.7563],[-57.4819,-8.7927],[-57.2978,-8.9575],[-57.1031,-9.0513],[-57.0455,-9.2304],[-56.8371,-9.2731],[-56.7701,-9.3979],[-56.6782,-9.3773],[-56.4616,-9.4669],[-55.0927,-9.5651],[-51.2977,-9.7894],[-50.2357,-9.844],[-50.1502,-9.7004],[-50.0537,-9.3191],[-49.8182,-9.0282],[-49.7551,-8.923],[-49.5813,-8.8307],[-49.3808,-8.4368],[-49.3105,-8.3822],[-49.1986,-8.0586],[-49.1634,-7.8036],[-49.3096,-7.7136],[-49.3906,-7.5976],[-49.3749,-7.5001],[-49.2183,-7.3093],[-49.185,-7.2253],[-49.2211,-6.9642],[-49.1985,-6.9026],[-49.0105,-6.7807],[-48.6834,-6.6627],[-48.6678,-6.5415],[-48.6063,-6.435],[-48.5008,-6.3511],[-48.3899,-6.3624],[-48.4288,-6.1713],[-48.2842,-6.0976],[-48.3334,-5.9762],[-48.2227,-5.9143],[-48.2968,-5.807],[-48.2886,-5.7272],[-48.1424,-5.6461],[-48.2092,-5.5385],[-48.2705,-5.5341],[-48.3971,-5.3901],[-48.5556,-5.4129],[-48.723,-5.3553],[-48.7326,-5.3386],[-48.2535,-4.9527],[-47.8007,-4.5958],[-47.6544,-4.6056],[-47.5814,-4.5471],[-47.4563,-4.3385],[-47.3814,-4.2749],[-47.3109,-4.0668],[-47.2632,-4.0531],[-47.0658,-3.8417],[-47.0229,-3.5597],[-46.9683,-3.5255],[-46.9446,-3.3982],[-46.818,-3.3191],[-46.6667,-3.0942],[-46.646,-2.8923],[-46.5984,-2.8341],[-46.6667,-2.7385],[-46.509,-2.615],[-46.4269,-2.5105],[-46.4476,-2.3611],[-46.2803,-2.1407],[-46.2142,-1.9291],[-46.2153,-1.8066],[-46.314,-1.7319],[-46.2012,-1.6793],[-46.2012,-1.4841],[-46.0846,-1.2104],[-46.0939,-1.0759],[-46.2212,-1.1415],[-46.2212,-1.0112],[-46.4067,-1.0392],[-46.4801,-1.0222],[-46.6138,-0.8132],[-46.7699,-0.8671],[-46.8586,-0.7657],[-47.0845,-0.7506],[-47.294,-0.5929],[-47.4147,-0.6613],[-47.5845,-0.5782],[-47.6528,-0.7239],[-47.7252,-0.6441],[-47.9461,-0.7405],[-48.0236,-0.7232],[-48.154,-0.7818],[-48.1403,-0.8429],[-48.1608,-0.9601],[-48.2707,-1.1347],[-48.3397,-1.316],[-48.4828,-1.2813],[-48.5033,-1.4485],[-48.4072,-1.4562],[-48.443,-1.57],[-48.535,-1.5815],[-48.6421,-1.3857],[-48.8119,-1.6213],[-48.9656,-1.5997],[-49.0089,-1.6811],[-49.123,-1.768],[-49.1456,-1.8568],[-49.232,-1.9482],[-49.3316,-2.2048],[-49.4268,-2.3673],[-49.4357,-2.4704],[-49.5274,-2.6284],[-49.5517,-2.4128],[-49.503,-2.2584],[-49.4455,-2.1838],[-49.3792,-1.8964],[-49.4476,-1.8699],[-49.4852,-1.7639],[-49.6761,-1.9086],[-49.8105,-1.9006],[-49.9769,-1.8261],[-50.2808,-1.8938],[-50.3728,-1.9737],[-50.5653,-1.8907],[-50.6547,-1.738],[-50.6893,-1.6121],[-50.8192,-1.4363],[-50.8199,-1.2317],[-50.9018,-1.121],[-50.8245,-1.0309],[-50.8396,-0.9128],[-50.9427,-0.9088],[-51.0329,-1.038],[-51.1615,-1.1036],[-51.2683,-1.2204],[-51.3996,-1.2511],[-51.4375,-1.3127],[-51.6695,-1.4016],[-51.9146,-1.571],[-52.1238,-1.6191],[-52.2003,-1.6847],[-52.2791,-1.5182],[-52.4231,-1.5661],[-52.5581,-1.5187],[-52.402,-1.4221],[-52.1954,-1.345],[-52.0658,-1.405],[-51.9215,-1.3258],[-51.9083,-1.158],[-52.0944,-1.1766],[-52.2405,-1.1446],[-52.3582,-1.0698],[-52.3991,-0.8689],[-52.4996,-0.8812],[-52.5266,-0.6475],[-52.6319,-0.5569],[-52.6269,-0.3972],[-52.8267,-0.1798],[-52.9154,-0.192],[-53.0159,0.0554],[-53.0415,0.2472],[-53.1284,0.387],[-53.1396,0.5387],[-53.1122,0.7201],[-53.2644,0.7808],[-53.4162,0.9418],[-53.4661,1.1551],[-53.5375,1.2424],[-53.5555,1.3658],[-53.6606,1.4193],[-53.8821,1.4018],[-54.0055,1.5233],[-54.0847,1.5407],[-54.2016,1.6554],[-54.3665,1.7622],[-54.6884,1.7636],[-54.7533,1.805],[-54.7874,2.1284],[-54.7161,2.266],[-54.7755,2.4573],[-54.8803,2.4473],[-55.0177,2.5906],[-55.1125,2.5278],[-55.3545,2.4949],[-55.3996,2.4302],[-55.6083,2.434],[-55.7243,2.3969],[-55.7831,2.4452],[-55.9892,2.5208],[-56.0133,2.3988],[-56.1168,2.3331],[-56.0313,2.1635],[-55.9258,2.0617],[-55.9168,1.9222],[-56.0197,1.8335],[-56.3672,1.9289],[-56.4818,1.9416]]],[[[-49.288,-1.7585],[-49.3381,-1.7127],[-49.453,-1.8502],[-49.3674,-1.8951],[-49.288,-1.7585]]],[[[-48.339,-1.0665],[-48.4215,-1.0795],[-48.4621,-1.1645],[-48.3799,-1.2172],[-48.2974,-1.1285],[-48.339,-1.0665]]],[[[-48.1949,-0.8194],[-48.3191,-0.9737],[-48.2074,-1.0178],[-48.1559,-0.8663],[-48.1949,-0.8194]]],[[[-50.8192,-0.6202],[-50.9564,-0.6071],[-51.1004,-0.7306],[-51.1004,-0.8263],[-50.9343,-0.7317],[-50.8431,-0.716],[-50.8192,-0.6202]]],[[[-51.186,-0.6139],[-51.3083,-0.5187],[-51.5051,-0.6071],[-51.6758,-0.8468],[-51.7179,-1.1297],[-51.8725,-1.2433],[-51.9541,-1.4225],[-51.8925,-1.4837],[-51.7856,-1.45],[-51.4348,-1.1867],[-51.3315,-1.0099],[-51.2711,-1.0177],[-51.2307,-0.8393],[-51.1556,-0.6816],[-51.186,-0.6139]]],[[[-51.1653,-0.1403],[-51.2643,-0.2195],[-51.3756,-0.4605],[-51.2013,-0.3437],[-51.1488,-0.2638],[-51.1653,-0.1403]]],[[[-48.4625,-0.5761],[-48.4547,-0.4856],[-48.3731,-0.3737],[-48.4272,-0.2599],[-48.6014,-0.2262],[-48.892,-0.2159],[-48.927,-0.1588],[-49.2154,-0.1412],[-49.3868,-0.1847],[-49.4252,-0.2304],[-49.6535,-0.2411],[-50.0958,-0.1323],[-50.3682,-0.1056],[-50.4115,-0.1645],[-50.5834,-0.1922],[-50.6964,-0.36],[-50.7799,-0.6606],[-50.7693,-0.8073],[-50.7982,-0.9113],[-50.7782,-1.1725],[-50.8042,-1.425],[-50.7423,-1.5312],[-50.5879,-1.6845],[-50.5597,-1.7995],[-50.4052,-1.831],[-50.297,-1.8035],[-50.2872,-1.7309],[-50.155,-1.779],[-50.0521,-1.7039],[-49.8236,-1.8166],[-49.5587,-1.7242],[-49.5565,-1.6454],[-49.2228,-1.6212],[-49.1819,-1.4016],[-49.0658,-1.5319],[-48.9181,-1.5046],[-48.8392,-1.4426],[-48.7931,-1.2797],[-48.842,-1.2133],[-48.6428,-1.0836],[-48.6129,-0.9329],[-48.5375,-0.8945],[-48.4625,-0.5761]]],[[[-50.9737,-0.2912],[-50.9234,-0.3305],[-50.6274,-0.0857],[-50.766,0.0464],[-50.9473,-0.012],[-51.0328,-0.1682],[-50.9737,-0.2912]]],[[[-49.8323,-0.1031],[-49.6869,-0.1354],[-49.4387,-0.1205],[-49.3475,-0.0097],[-49.4282,0.0713],[-49.6281,0.0576],[-49.7405,-0.0003],[-49.8323,-0.1031]]],[[[-50.6343,0.0713],[-50.5597,-0.0038],[-50.4475,-0.0152],[-50.4465,0.1259],[-50.6106,0.1834],[-50.6343,0.0713]]],[[[-50.0369,0.2997],[-50.1073,0.2222],[-50.3668,0.2145],[-50.3837,0.1299],[-50.2976,0.012],[-50.2067,0.0393],[-50.0694,0.0166],[-50.0045,-0.0528],[-49.8297,0.0113],[-49.6924,0.205],[-49.5289,0.3008],[-49.5602,0.3858],[-49.6502,0.3864],[-49.9216,0.2928],[-50.0369,0.2997]]],[[[-50.378,0.245],[-50.3233,0.287],[-50.3551,0.4125],[-50.3473,0.5713],[-50.4308,0.548],[-50.4071,0.4307],[-50.5168,0.2086],[-50.4263,0.1684],[-50.378,0.245]]],[[[-50.3121,0.414],[-50.2814,0.3566],[-50.0427,0.5103],[-50.0384,0.6063],[-50.2421,0.593],[-50.3029,0.531],[-50.3121,0.414]]]]}},{"type":"Feature","properties":{"sourceId":"1159310053","regionId":"region.37de01ba-1e8e-4f32-8522-703807f6283e","countryId":"country.1mxwn59"},"geometry":{"type":"Polygon","coordinates":[[[-69.5776,-10.9523],[-69.3959,-10.935],[-69.0713,-10.97],[-68.884,-11.0164],[-68.8047,-10.9947],[-68.787,-11.126],[-68.6157,-11.1125],[-68.2933,-10.979],[-68.0979,-10.6977],[-67.8626,-10.6588],[-67.7558,-10.7142],[-67.5846,-10.5018],[-67.4882,-10.4648],[-67.3378,-10.3261],[-67.2018,-10.3268],[-67.0643,-10.2569],[-66.9027,-10.0931],[-66.6489,-9.9159],[-66.8305,-9.838],[-69.8068,-8.4545],[-70.3715,-8.1573],[-72.6637,-7.5916],[-73.8068,-7.1179],[-73.7345,-7.2251],[-73.7608,-7.3374],[-73.9794,-7.3745],[-73.9845,-7.5294],[-73.8388,-7.7206],[-73.7122,-7.7882],[-73.7788,-7.9541],[-73.668,-8.0138],[-73.5265,-8.3724],[-73.3564,-8.4798],[-73.3506,-8.5983],[-73.1746,-8.7207],[-73.0686,-8.8937],[-72.9761,-8.9854],[-72.9594,-9.0856],[-73.215,-9.409],[-72.8133,-9.4109],[-72.4302,-9.4822],[-72.3445,-9.5329],[-72.2617,-9.6674],[-72.2652,-9.7622],[-72.1604,-9.8877],[-72.1957,-10.0056],[-71.3914,-10.0068],[-71.1965,-9.9399],[-71.1611,-9.8756],[-71.0154,-9.8175],[-70.8755,-9.6605],[-70.6808,-9.5277],[-70.6244,-9.5658],[-70.5434,-9.7269],[-70.629,-9.8116],[-70.6387,-9.9559],[-70.6413,-11.0108],[-70.5341,-10.9381],[-70.4373,-11.0367],[-70.2894,-11.0647],[-70.1987,-11.0412],[-69.9561,-10.9193],[-69.7202,-10.9649],[-69.5776,-10.9523]]]}},{"type":"Feature","properties":{"sourceId":"1159308867","regionId":"region.6f14e7d0-4080-48d5-852c-9d8dd51dab20","countryId":"country.1mxwn59"},"geometry":{"type":"MultiPolygon","coordinates":[[[[-54.6153,2.3263],[-54.7041,2.3248],[-54.7032,2.4458],[-54.7755,2.4573],[-54.7161,2.266],[-54.7874,2.1284],[-54.7533,1.805],[-54.6884,1.7636],[-54.3665,1.7622],[-54.2016,1.6554],[-54.0847,1.5407],[-54.0055,1.5233],[-53.8821,1.4018],[-53.6606,1.4193],[-53.5555,1.3658],[-53.5375,1.2424],[-53.4661,1.1551],[-53.4162,0.9418],[-53.2644,0.7808],[-53.1122,0.7201],[-53.1396,0.5387],[-53.1284,0.387],[-53.0415,0.2472],[-53.0159,0.0554],[-52.9154,-0.192],[-52.8267,-0.1798],[-52.6269,-0.3972],[-52.6319,-0.5569],[-52.5266,-0.6475],[-52.4996,-0.8812],[-52.3991,-0.8689],[-52.3582,-1.0698],[-52.2405,-1.1446],[-52.0944,-1.1766],[-51.9083,-1.158],[-51.7242,-1.0392],[-51.6975,-0.7472],[-51.4452,-0.4714],[-51.3225,-0.2153],[-51.2016,-0.0491],[-51.0692,-0.0193],[-50.9289,0.1554],[-50.7906,0.1695],[-50.609,0.3739],[-50.4659,0.6464],[-50.3456,0.7363],[-50.3125,0.8172],[-49.9788,1.0722],[-49.89,1.1652],[-49.9215,1.2185],[-49.873,1.3599],[-49.9102,1.6643],[-50.0041,1.7516],[-50.1832,1.8189],[-50.4665,1.8154],[-50.7126,2.2368],[-50.7424,2.3785],[-50.9028,2.7938],[-50.9445,2.8222],[-51.0927,3.3763],[-51.0794,3.4921],[-51.0799,3.8823],[-51.1802,3.8044],[-51.1794,4.0252],[-51.2244,4.165],[-51.3892,4.3589],[-51.5165,4.4411],[-51.561,4.3571],[-51.6317,4.0678],[-51.6832,4.0394],[-51.7832,3.9809],[-51.8354,3.8675],[-51.9884,3.7046],[-52.0128,3.6191],[-52.2279,3.2601],[-52.3618,3.132],[-52.3532,3.0584],[-52.5716,2.6386],[-52.5535,2.5734],[-52.7077,2.3589],[-52.8802,2.2604],[-52.9597,2.1752],[-53.2342,2.251],[-53.3441,2.3496],[-53.5318,2.247],[-53.7482,2.3193],[-53.8668,2.3049],[-53.9461,2.222],[-54.0693,2.1883],[-54.1349,2.1107],[-54.4766,2.2141],[-54.6153,2.3263]]],[[[-50.2024,0.7497],[-50.1034,0.7557],[-50.0157,0.8925],[-50.1321,0.9142],[-50.275,0.8091],[-50.2024,0.7497]]],[[[-50.4544,2.1109],[-50.5238,2.0015],[-50.4586,1.881],[-50.3125,1.9471],[-50.3996,2.1151],[-50.4544,2.1109]]]]}},{"type":"Feature","properties":{"sourceId":"1159307905","regionId":"region.1b413a60-ca52-419b-ae85-2517ea67c0ad","countryId":"country.1mxwn59"},"geometry":{"type":"Polygon","coordinates":[[[-57.7245,-17.7366],[-57.7301,-17.8461],[-57.5511,-18.1836],[-57.5667,-18.2561],[-57.7823,-18.9104],[-57.7158,-19.0446],[-57.789,-19.0592],[-58.1246,-19.7299],[-57.8597,-19.9801],[-58.1588,-20.1651],[-58.083,-20.3762],[-57.9894,-20.4331],[-57.991,-20.6206],[-57.8602,-20.7303],[-57.9087,-20.8816],[-57.8254,-20.9986],[-57.8556,-21.3307],[-57.9299,-21.4531],[-57.939,-21.6237],[-57.8956,-21.6884],[-57.9559,-21.8511],[-57.9254,-21.905],[-57.9731,-22.081],[-57.8439,-22.1437],[-57.6545,-22.1045],[-57.6141,-22.177],[-57.385,-22.2133],[-57.2138,-22.1882],[-56.8429,-22.289],[-56.6547,-22.2373],[-56.5113,-22.0914],[-56.4218,-22.0745],[-56.3168,-22.2077],[-56.1968,-22.2793],[-55.8929,-22.3068],[-55.7516,-22.4163],[-55.7413,-22.5372],[-55.6312,-22.6268],[-55.659,-22.8183],[-55.6378,-23.0007],[-55.5352,-23.2291],[-55.5139,-23.3794],[-55.5338,-23.5304],[-55.5305,-23.6035],[-55.4453,-23.7354],[-55.398,-23.9768],[-55.2009,-24.0195],[-54.9436,-23.9692],[-54.8274,-23.887],[-54.6126,-23.8112],[-54.4229,-23.9138],[-54.2457,-24.0504],[-54.0772,-23.9492],[-54.0678,-23.8165],[-53.9477,-23.4245],[-53.7251,-23.2964],[-53.6413,-23.106],[-53.5968,-22.9202],[-53.4796,-22.8308],[-53.168,-22.7017],[-52.967,-22.4589],[-52.8426,-22.4206],[-52.6762,-22.2938],[-52.5189,-22.2233],[-52.3693,-22.0989],[-52.3137,-21.9401],[-52.2083,-21.8535],[-52.1527,-21.7393],[-52.0436,-21.6661],[-52.1063,-21.5503],[-52.0705,-21.4803],[-51.9652,-21.4666],[-51.8516,-21.2986],[-51.8749,-21.1717],[-51.632,-20.877],[-51.6202,-20.6998],[-51.3264,-20.3624],[-51.1372,-20.2973],[-51.0291,-20.1893],[-50.994,-20.1017],[-51.0276,-19.7541],[-50.9612,-19.4735],[-51.1382,-19.2844],[-51.3108,-19.2529],[-51.4067,-19.1692],[-51.6431,-19.1288],[-51.8421,-19.0481],[-51.913,-18.9883],[-52.0598,-18.9447],[-52.1736,-18.8488],[-52.3658,-18.8038],[-52.4964,-18.7051],[-52.6156,-18.7226],[-52.8696,-18.6805],[-52.8929,-18.6378],[-52.7865,-18.462],[-52.7834,-18.3916],[-52.9094,-18.3461],[-52.9876,-18.3879],[-53.0567,-18.2931],[-53.0538,-18.0166],[-53.1466,-18.0316],[-53.3076,-17.9975],[-53.7282,-18.008],[-53.9888,-17.9022],[-53.8586,-17.689],[-53.7506,-17.6428],[-53.6816,-17.2566],[-53.8215,-17.3061],[-53.951,-17.4579],[-54.1436,-17.6273],[-54.3931,-17.6722],[-54.4205,-17.5809],[-54.5261,-17.5136],[-54.6971,-17.5167],[-54.8987,-17.6496],[-55.1805,-17.6858],[-55.3391,-17.5846],[-55.536,-17.5015],[-55.6086,-17.3933],[-55.7875,-17.3515],[-56.1026,-17.1874],[-56.2487,-17.2186],[-56.3289,-17.2864],[-56.7563,-17.3182],[-56.8387,-17.397],[-56.8521,-17.4852],[-56.9687,-17.5774],[-56.9789,-17.6568],[-57.1313,-17.7866],[-57.4182,-17.8641],[-57.6023,-17.8181],[-57.7245,-17.7366]]]}},{"type":"Feature","properties":{"sourceId":"1159307913","regionId":"region.204867fb-58d9-4699-8c30-71a52710958a","countryId":"country.1mxwn59"},"geometry":{"type":"Polygon","coordinates":[[[-54.3584,-24.7314],[-54.4073,-24.8212],[-54.4623,-25.0372],[-54.4297,-25.1306],[-54.6098,-25.4328],[-54.6002,-25.5749],[-54.4606,-25.6421],[-54.3217,-25.5551],[-54.2148,-25.5315],[-53.91,-25.6292],[-53.8373,-25.8092],[-53.8262,-25.9727],[-53.765,-26.0281],[-53.6616,-26.2598],[-53.46,-26.2879],[-53.3552,-26.2416],[-53.126,-26.3645],[-52.9146,-26.3641],[-52.8158,-26.3366],[-52.457,-26.4326],[-52.1997,-26.4516],[-52.0065,-26.5816],[-51.8744,-26.6002],[-51.5025,-26.5997],[-51.399,-26.6805],[-51.2386,-26.6073],[-51.2885,-26.4245],[-51.2499,-26.3484],[-51.0723,-26.2351],[-50.968,-26.2653],[-50.733,-26.2323],[-50.6465,-26.0702],[-50.5416,-26.024],[-50.3845,-26.0605],[-50.1918,-26.0541],[-49.951,-26.0137],[-49.5943,-26.2237],[-49.2954,-26.1077],[-49.2145,-26.0285],[-48.9466,-26.0068],[-48.9193,-25.9785],[-48.5827,-25.9809],[-48.5176,-25.7702],[-48.4327,-25.6225],[-48.524,-25.5148],[-48.4602,-25.4709],[-48.4072,-25.2839],[-48.2473,-25.4109],[-48.0821,-25.3073],[-48.1495,-25.2226],[-48.2302,-25.0136],[-48.4142,-24.9599],[-48.5111,-25.0835],[-48.5662,-25.0577],[-48.5435,-24.8102],[-48.4876,-24.7457],[-48.6132,-24.6804],[-48.7808,-24.6955],[-48.8293,-24.6623],[-49.2181,-24.6898],[-49.3006,-24.5919],[-49.2278,-24.3385],[-49.4103,-24.0859],[-49.6018,-23.8644],[-49.5526,-23.7117],[-49.6544,-23.5062],[-49.6153,-23.4082],[-49.6381,-23.2593],[-49.7697,-23.0963],[-49.9085,-23.0358],[-49.97,-22.9121],[-50.2913,-22.9533],[-50.6278,-22.9216],[-50.7855,-22.9436],[-50.8801,-22.8221],[-51.1107,-22.7672],[-51.3551,-22.6501],[-51.547,-22.6853],[-51.7445,-22.6179],[-51.8749,-22.6104],[-52.0667,-22.5217],[-52.2171,-22.6438],[-52.6147,-22.5695],[-52.6939,-22.6037],[-52.9472,-22.5708],[-53.168,-22.7017],[-53.4796,-22.8308],[-53.5968,-22.9202],[-53.6413,-23.106],[-53.7251,-23.2964],[-53.9477,-23.4245],[-54.0678,-23.8165],[-54.0772,-23.9492],[-54.2457,-24.0504],[-54.3346,-24.1489],[-54.261,-24.3295],[-54.3348,-24.5273],[-54.3584,-24.7314]]]}},{"type":"Feature","properties":{"sourceId":"1159307915","regionId":"region.9832e01d-9126-4cdd-93bb-0449e38092e0","countryId":"country.1mxwn59"},"geometry":{"type":"MultiPolygon","coordinates":[[[[-53.6616,-26.2598],[-53.7244,-26.3761],[-53.746,-26.6939],[-53.7107,-26.8738],[-53.842,-27.1635],[-53.6865,-27.1545],[-53.6534,-27.216],[-53.3689,-27.072],[-53.2174,-27.1614],[-53.0695,-27.1505],[-52.9642,-27.1881],[-52.8686,-27.1614],[-52.7382,-27.2501],[-52.5509,-27.2376],[-52.2605,-27.2964],[-52.1791,-27.2682],[-51.9158,-27.4494],[-51.8923,-27.5139],[-51.6057,-27.5017],[-51.3346,-27.6691],[-51.2269,-27.7678],[-51.0805,-27.8211],[-51.0124,-27.9347],[-50.8862,-28.0252],[-50.8675,-28.1272],[-50.7743,-28.1561],[-50.6211,-28.3742],[-50.217,-28.4499],[-50.1618,-28.484],[-49.8833,-28.4509],[-49.7366,-28.5114],[-49.796,-28.6239],[-49.9541,-28.7947],[-49.9468,-28.9514],[-50.0056,-29.1031],[-50.0697,-29.0926],[-50.1651,-29.1961],[-50.079,-29.2433],[-49.8706,-29.2179],[-49.7135,-29.3245],[-49.5523,-29.1274],[-49.3428,-28.9235],[-48.9406,-28.6454],[-48.8153,-28.6104],[-48.7809,-28.4875],[-48.6553,-28.2128],[-48.5655,-27.8603],[-48.6292,-27.7675],[-48.6474,-27.6474],[-48.5775,-27.594],[-48.6474,-27.4796],[-48.5548,-27.3425],[-48.6129,-27.2995],[-48.5752,-27.0162],[-48.6201,-26.9826],[-48.6269,-26.7709],[-48.6822,-26.7192],[-48.6645,-26.5561],[-48.6142,-26.4568],[-48.6436,-26.3849],[-48.7982,-26.3049],[-48.5826,-26.1572],[-48.5827,-25.9809],[-48.9193,-25.9785],[-48.9466,-26.0068],[-49.2145,-26.0285],[-49.2954,-26.1077],[-49.5943,-26.2237],[-49.951,-26.0137],[-50.1918,-26.0541],[-50.3845,-26.0605],[-50.5416,-26.024],[-50.6465,-26.0702],[-50.733,-26.2323],[-50.968,-26.2653],[-51.0723,-26.2351],[-51.2499,-26.3484],[-51.2885,-26.4245],[-51.2386,-26.6073],[-51.399,-26.6805],[-51.5025,-26.5997],[-51.8744,-26.6002],[-52.0065,-26.5816],[-52.1997,-26.4516],[-52.457,-26.4326],[-52.8158,-26.3366],[-52.9146,-26.3641],[-53.126,-26.3645],[-53.3552,-26.2416],[-53.46,-26.2879],[-53.6616,-26.2598]]],[[[-48.4346,-27.4047],[-48.5349,-27.4841],[-48.4966,-27.7027],[-48.4145,-27.5951],[-48.3773,-27.4582],[-48.4346,-27.4047]]],[[[-48.5444,-26.3419],[-48.4891,-26.236],[-48.63,-26.2397],[-48.6997,-26.3167],[-48.6113,-26.4128],[-48.5444,-26.3419]]]]}},{"type":"Feature","properties":{"sourceId":"1159307981","regionId":"region.1bb66de6-3a75-45b9-81ec-62cafa8665c6","countryId":"country.1mxwn59"},"geometry":{"type":"Polygon","coordinates":[[[-66.8751,1.2225],[-67.0652,1.1727],[-67.0982,1.2534],[-67.0736,1.5412],[-67.1172,1.7098],[-67.2648,1.9325],[-67.3406,2.0901],[-67.4397,2.1396],[-67.5929,2.0548],[-67.7905,1.8126],[-67.8605,1.7615],[-67.9982,1.75],[-68.1012,1.9241],[-68.2008,2.0078],[-68.2608,1.8582],[-68.1633,1.7213],[-69.3524,1.7202],[-69.5803,1.7702],[-69.8412,1.7076],[-69.8522,1.0594],[-69.7626,1.0911],[-69.3709,1.063],[-69.2888,1.0384],[-69.2043,0.9437],[-69.1375,0.6501],[-69.2262,0.6148],[-69.3626,0.6409],[-69.5037,0.7296],[-69.6192,0.6507],[-69.6947,0.6687],[-69.8053,0.6069],[-70.0542,0.5881],[-70.0738,-0.1249],[-69.9444,-0.3055],[-69.8581,-0.3414],[-69.7465,-0.453],[-69.6321,-0.5069],[-69.5842,-0.6446],[-69.6284,-0.7334],[-69.5392,-0.9206],[-69.45,-0.9968],[-69.4211,-1.2393],[-69.4523,-1.4905],[-69.5657,-2.106],[-69.7712,-3.2342],[-69.9472,-4.2011],[-69.9649,-4.2365],[-69.9894,-4.3146],[-70.0966,-4.2657],[-70.2313,-4.3037],[-70.307,-4.2603],[-70.3111,-4.1709],[-70.4299,-4.1342],[-70.5853,-4.1945],[-70.8322,-4.1794],[-70.8428,-4.2381],[-70.9687,-4.3853],[-71.5061,-4.4486],[-71.6652,-4.5076],[-71.7743,-4.4815],[-72.0711,-4.6051],[-72.2511,-4.7588],[-72.3968,-4.8056],[-72.4041,-4.8602],[-72.6273,-5.0224],[-72.9179,-5.1321],[-72.8967,-5.2716],[-72.9735,-5.4661],[-72.9605,-5.5592],[-73.0014,-5.7088],[-73.14,-5.8785],[-73.2348,-6.0776],[-73.1777,-6.2024],[-73.1318,-6.4353],[-73.199,-6.5456],[-73.3707,-6.5839],[-73.6851,-6.8119],[-73.7655,-6.9042],[-73.8068,-7.1179],[-72.6637,-7.5916],[-70.3715,-8.1573],[-69.8068,-8.4545],[-66.8305,-9.838],[-66.7436,-9.7487],[-66.5042,-9.6349],[-66.4037,-9.5242],[-66.3967,-9.4053],[-65.9306,-9.4142],[-65.7679,-9.5664],[-65.6762,-9.5325],[-65.6328,-9.4488],[-65.4195,-9.3902],[-65.2234,-9.2565],[-65.1435,-9.4163],[-65.0371,-9.3998],[-64.9042,-9.2145],[-64.9254,-9.1204],[-64.8419,-9.0221],[-64.7527,-8.9849],[-64.5975,-9.0259],[-64.4748,-8.9518],[-64.117,-8.938],[-64.138,-8.7133],[-63.9987,-8.6797],[-63.9215,-8.535],[-63.9928,-8.4399],[-63.9179,-8.3343],[-63.7506,-8.2848],[-63.7257,-8.1922],[-63.5929,-8.1655],[-63.5383,-8.0005],[-62.9042,-8.0083],[-62.7237,-8.0631],[-62.5402,-8.3627],[-62.3734,-8.3835],[-62.3068,-8.5716],[-62.1712,-8.611],[-62.1335,-8.7685],[-61.8755,-8.8569],[-61.8378,-8.7446],[-61.7322,-8.6917],[-61.6113,-8.7686],[-58.5452,-8.7483],[-58.4721,-8.6896],[-58.4187,-8.5415],[-58.4371,-8.4126],[-58.3412,-8.2562],[-58.3079,-8.1161],[-58.3786,-7.8181],[-58.2098,-7.5909],[-58.2084,-7.4176],[-58.1355,-7.3391],[-58.217,-7.11],[-58.3918,-6.9559],[-58.4666,-6.7833],[-58.4664,-6.7016],[-58.2944,-6.4969],[-56.7567,-3.1861],[-56.3897,-2.3906],[-56.3969,-2.2722],[-56.4851,-2.2486],[-56.5216,-2.1648],[-56.6352,-2.2224],[-56.749,-2.1755],[-56.7426,-2.054],[-57.0052,-1.9349],[-57.0879,-1.8118],[-57.3375,-1.7292],[-57.6559,-1.59],[-57.8273,-1.4434],[-57.9015,-1.4233],[-58.0817,-1.2984],[-58.2545,-1.1303],[-58.3895,-1.049],[-58.441,-0.8619],[-58.5708,-0.7645],[-58.6276,-0.7651],[-58.7498,-0.6218],[-58.7405,-0.4306],[-58.8537,-0.352],[-58.8493,-0.0828],[-58.8705,0.2254],[-59.7699,0.2301],[-60.0245,0.2237],[-60.1268,0.1299],[-60.3107,-0.2353],[-60.3927,-0.5191],[-60.3172,-0.6207],[-60.3398,-0.7041],[-60.4688,-0.7408],[-60.5151,-0.8289],[-60.7367,-0.8495],[-60.8148,-0.6862],[-60.9312,-0.5549],[-61.1072,-0.4928],[-61.4587,-0.6384],[-61.5322,-0.7285],[-61.5802,-0.9448],[-61.561,-1.0223],[-61.6202,-1.2744],[-61.6016,-1.3995],[-61.7608,-1.359],[-61.8794,-1.3693],[-61.9374,-1.2449],[-62.0276,-1.1443],[-62.205,-1.0447],[-62.4196,-0.8273],[-62.5057,-0.7729],[-62.4775,-0.6937],[-62.3777,-0.7158],[-62.3116,-0.6409],[-62.3187,-0.5203],[-62.3706,-0.4679],[-62.3721,-0.3416],[-62.4778,-0.2228],[-62.5781,0.0168],[-62.526,0.0954],[-62.5667,0.1756],[-62.5305,0.4286],[-62.4862,0.5404],[-62.5362,0.7324],[-62.4463,0.8046],[-62.5097,0.9619],[-62.5147,1.0585],[-62.6229,1.4159],[-62.7868,1.6033],[-62.7133,1.7366],[-62.7071,1.9472],[-62.8484,2.0191],[-63.0039,2.0208],[-63.1225,2.1143],[-63.3865,2.2359],[-63.4118,2.1494],[-63.6175,2.1012],[-63.7626,1.9857],[-63.995,1.958],[-64.0536,1.8937],[-64.0809,1.6474],[-64.1297,1.5781],[-64.3015,1.4467],[-64.409,1.5075],[-64.5512,1.4195],[-64.6042,1.3313],[-64.7309,1.2476],[-64.8393,1.2708],[-65.0225,1.14],[-65.1368,1.1269],[-65.203,0.9238],[-65.3272,0.9103],[-65.4512,0.6901],[-65.5605,0.656],[-65.5873,0.7391],[-65.517,0.8628],[-65.5829,0.9777],[-65.7454,0.9742],[-65.872,0.909],[-65.9741,0.807],[-66.1563,0.733],[-66.3462,0.7594],[-66.4071,0.8021],[-66.8751,1.2225]]]}},{"type":"Feature","properties":{"sourceId":"1159307983","regionId":"region.70c4a946-25e5-4161-bb0e-b3d3bdc85a50","countryId":"country.1mxwn59"},"geometry":{"type":"Polygon","coordinates":[[[-65.3946,-10.3921],[-65.45,-10.4681],[-65.4357,-10.6258],[-65.3811,-10.6981],[-65.4047,-10.7992],[-65.319,-10.8654],[-65.303,-10.9907],[-65.36,-11.2188],[-65.353,-11.3906],[-65.2925,-11.5047],[-65.1954,-11.5922],[-65.1962,-11.7418],[-65.0656,-11.7531],[-64.9974,-11.9963],[-64.7925,-12.0325],[-64.7163,-12.1465],[-64.4691,-12.2611],[-64.4898,-12.3736],[-64.3957,-12.4573],[-64.2152,-12.4738],[-64.1448,-12.5204],[-63.9212,-12.5443],[-63.8014,-12.4549],[-63.6577,-12.4754],[-63.4961,-12.5533],[-63.3933,-12.6645],[-63.2473,-12.7013],[-63.1367,-12.6337],[-63.075,-12.6527],[-62.9753,-12.8529],[-62.9205,-12.8623],[-62.8074,-12.9889],[-62.6866,-12.965],[-62.6417,-13.03],[-62.4927,-13.065],[-62.3818,-13.1399],[-62.2216,-13.1213],[-62.1147,-13.1502],[-62.1125,-13.2318],[-62.0033,-13.3605],[-61.8686,-13.4639],[-61.848,-13.5308],[-61.5931,-13.5068],[-61.4587,-13.5437],[-61.3477,-13.4937],[-60.8967,-13.5529],[-60.7256,-13.6628],[-60.6607,-13.6016],[-60.3838,-13.4203],[-60.3512,-13.2721],[-60.2706,-13.0688],[-60.1952,-12.972],[-60.0834,-12.9285],[-60.002,-12.7294],[-59.9091,-12.6184],[-59.8241,-12.3866],[-59.8895,-12.2436],[-59.8872,-12.1297],[-59.9834,-11.9167],[-60.0601,-11.9049],[-60.1013,-11.7446],[-60.1014,-11.5998],[-59.9112,-11.3841],[-60.0016,-11.1443],[-60.2783,-11.081],[-60.3825,-11.1016],[-60.4412,-11.0035],[-61.4703,-10.9968],[-61.5218,-10.9525],[-61.52,-10.7904],[-61.471,-10.4348],[-61.5632,-10.2616],[-61.5705,-10.0606],[-61.5203,-9.8618],[-61.5421,-9.7584],[-61.4814,-9.6381],[-61.562,-9.3746],[-61.6113,-9.3201],[-61.5308,-9.2246],[-61.5565,-9.1294],[-61.486,-8.9143],[-61.6113,-8.7686],[-61.7322,-8.6917],[-61.8378,-8.7446],[-61.8755,-8.8569],[-62.1335,-8.7685],[-62.1712,-8.611],[-62.3068,-8.5716],[-62.3734,-8.3835],[-62.5402,-8.3627],[-62.7237,-8.0631],[-62.9042,-8.0083],[-63.5383,-8.0005],[-63.5929,-8.1655],[-63.7257,-8.1922],[-63.7506,-8.2848],[-63.9179,-8.3343],[-63.9928,-8.4399],[-63.9215,-8.535],[-63.9987,-8.6797],[-64.138,-8.7133],[-64.117,-8.938],[-64.4748,-8.9518],[-64.5975,-9.0259],[-64.7527,-8.9849],[-64.8419,-9.0221],[-64.9254,-9.1204],[-64.9042,-9.2145],[-65.0371,-9.3998],[-65.1435,-9.4163],[-65.2234,-9.2565],[-65.4195,-9.3902],[-65.6328,-9.4488],[-65.6762,-9.5325],[-65.7679,-9.5664],[-65.9306,-9.4142],[-66.3967,-9.4053],[-66.4037,-9.5242],[-66.5042,-9.6349],[-66.7436,-9.7487],[-66.8305,-9.838],[-66.6489,-9.9159],[-66.4529,-9.8887],[-66.1907,-9.8008],[-65.8744,-9.7813],[-65.7886,-9.733],[-65.584,-9.8372],[-65.4518,-9.6814],[-65.3705,-9.7106],[-65.3044,-9.8257],[-65.3333,-9.9268],[-65.2881,-10.2162],[-65.3946,-10.3921]]]}},{"type":"Feature","properties":{"sourceId":"1159307909","regionId":"region.a6492a3b-b62f-4057-b941-e8779387d1f8","countryId":"country.1mxwn59"},"geometry":{"type":"Polygon","coordinates":[[[-60.7256,-13.6628],[-60.4653,-13.8166],[-60.3897,-13.9749],[-60.4735,-14.1172],[-60.4643,-14.2784],[-60.3999,-14.3408],[-60.2917,-14.6301],[-60.275,-15.0951],[-60.5295,-15.1437],[-60.2605,-15.4561],[-60.238,-15.5027],[-60.1798,-16.222],[-60.1298,-16.2731],[-59.1082,-16.3087],[-58.4647,-16.3312],[-58.3396,-16.2893],[-58.3561,-16.5095],[-58.4803,-16.6837],[-58.4663,-16.8873],[-58.3812,-17.2672],[-58.2316,-17.3297],[-58.0102,-17.4968],[-57.8541,-17.5085],[-57.7908,-17.5558],[-57.7779,-17.6955],[-57.7245,-17.7366],[-57.6023,-17.8181],[-57.4182,-17.8641],[-57.1313,-17.7866],[-56.9789,-17.6568],[-56.9687,-17.5774],[-56.8521,-17.4852],[-56.8387,-17.397],[-56.7563,-17.3182],[-56.3289,-17.2864],[-56.2487,-17.2186],[-56.1026,-17.1874],[-55.7875,-17.3515],[-55.6086,-17.3933],[-55.536,-17.5015],[-55.3391,-17.5846],[-55.1805,-17.6858],[-54.8987,-17.6496],[-54.6971,-17.5167],[-54.5261,-17.5136],[-54.4205,-17.5809],[-54.3931,-17.6722],[-54.1436,-17.6273],[-53.951,-17.4579],[-53.8215,-17.3061],[-53.6816,-17.2566],[-53.7506,-17.6428],[-53.8586,-17.689],[-53.9888,-17.9022],[-53.7282,-18.008],[-53.3076,-17.9975],[-53.1466,-18.0316],[-53.0538,-18.0166],[-53.1486,-17.7787],[-53.231,-17.6521],[-53.2433,-17.5633],[-53.1896,-17.3626],[-53.2033,-17.282],[-53.0468,-17.0578],[-53.0194,-16.8679],[-52.8093,-16.7454],[-52.6324,-16.5289],[-52.6155,-16.4261],[-52.6695,-16.2913],[-52.5469,-16.2411],[-52.5391,-16.1695],[-52.3286,-16.0381],[-52.2501,-15.9133],[-52.053,-15.8748],[-51.9668,-15.8007],[-51.8827,-15.8048],[-51.7739,-15.6106],[-51.6792,-15.3789],[-51.6574,-15.2097],[-51.5137,-15.0627],[-51.3507,-14.9814],[-51.2552,-15.0154],[-51.1003,-14.8879],[-51.0335,-14.6471],[-50.9699,-14.5185],[-50.9977,-14.3995],[-50.9596,-14.2358],[-50.8562,-14.1035],[-50.8461,-13.8596],[-50.8633,-13.7119],[-50.7958,-13.6759],[-50.7581,-13.5411],[-50.6631,-13.4236],[-50.569,-13.2284],[-50.5879,-13.0786],[-50.4955,-12.9509],[-50.484,-12.8448],[-50.5953,-12.8075],[-50.6657,-12.6312],[-50.6122,-12.4311],[-50.6254,-12.2725],[-50.6726,-12.192],[-50.6774,-11.8627],[-50.7072,-11.7116],[-50.6499,-11.6082],[-50.7427,-11.5016],[-50.6709,-11.2593],[-50.6644,-11.1429],[-50.6129,-11.0312],[-50.6351,-10.9361],[-50.5863,-10.7116],[-50.4816,-10.4008],[-50.426,-10.341],[-50.3778,-10.1049],[-50.304,-10.0208],[-50.2357,-9.844],[-51.2977,-9.7894],[-55.0927,-9.5651],[-56.4616,-9.4669],[-56.6782,-9.3773],[-56.7701,-9.3979],[-56.8371,-9.2731],[-57.0455,-9.2304],[-57.1031,-9.0513],[-57.2978,-8.9575],[-57.4819,-8.7927],[-57.5796,-8.7563],[-57.6806,-8.4358],[-57.6403,-8.2294],[-57.7812,-8.0464],[-57.8937,-7.6926],[-58.059,-7.411],[-58.1355,-7.3391],[-58.2084,-7.4176],[-58.2098,-7.5909],[-58.3786,-7.8181],[-58.3079,-8.1161],[-58.3412,-8.2562],[-58.4371,-8.4126],[-58.4187,-8.5415],[-58.4721,-8.6896],[-58.5452,-8.7483],[-61.6113,-8.7686],[-61.486,-8.9143],[-61.5565,-9.1294],[-61.5308,-9.2246],[-61.6113,-9.3201],[-61.562,-9.3746],[-61.4814,-9.6381],[-61.5421,-9.7584],[-61.5203,-9.8618],[-61.5705,-10.0606],[-61.5632,-10.2616],[-61.471,-10.4348],[-61.52,-10.7904],[-61.5218,-10.9525],[-61.4703,-10.9968],[-60.4412,-11.0035],[-60.3825,-11.1016],[-60.2783,-11.081],[-60.0016,-11.1443],[-59.9112,-11.3841],[-60.1014,-11.5998],[-60.1013,-11.7446],[-60.0601,-11.9049],[-59.9834,-11.9167],[-59.8872,-12.1297],[-59.8895,-12.2436],[-59.8241,-12.3866],[-59.9091,-12.6184],[-60.002,-12.7294],[-60.0834,-12.9285],[-60.1952,-12.972],[-60.2706,-13.0688],[-60.3512,-13.2721],[-60.3838,-13.4203],[-60.6607,-13.6016],[-60.7256,-13.6628]]]}},{"type":"Feature","properties":{"sourceId":"1159307935","regionId":"region.de60dfa0-2e79-4e43-810f-584a04d886d9","countryId":"country.1mxwn59"},"geometry":{"type":"MultiPolygon","coordinates":[[[[-46.0846,-1.2104],[-46.2012,-1.4841],[-46.2012,-1.6793],[-46.314,-1.7319],[-46.2153,-1.8066],[-46.2142,-1.9291],[-46.2803,-2.1407],[-46.4476,-2.3611],[-46.4269,-2.5105],[-46.509,-2.615],[-46.6667,-2.7385],[-46.5984,-2.8341],[-46.646,-2.8923],[-46.6667,-3.0942],[-46.818,-3.3191],[-46.9446,-3.3982],[-46.9683,-3.5255],[-47.0229,-3.5597],[-47.0658,-3.8417],[-47.2632,-4.0531],[-47.3109,-4.0668],[-47.3814,-4.2749],[-47.4563,-4.3385],[-47.5814,-4.5471],[-47.6544,-4.6056],[-47.8007,-4.5958],[-48.2535,-4.9527],[-48.7326,-5.3386],[-48.723,-5.3553],[-48.5818,-5.3007],[-48.4981,-5.1865],[-48.3378,-5.1638],[-48.1533,-5.2574],[-47.9996,-5.2324],[-47.8649,-5.2809],[-47.8385,-5.3832],[-47.7231,-5.3915],[-47.5369,-5.4788],[-47.4686,-5.5887],[-47.4829,-5.743],[-47.414,-5.8699],[-47.4255,-6.1038],[-47.373,-6.2336],[-47.4102,-6.3498],[-47.4072,-6.4794],[-47.4876,-6.6984],[-47.4824,-6.8883],[-47.5138,-7.0088],[-47.6399,-7.1584],[-47.6604,-7.2635],[-47.5127,-7.2805],[-47.4754,-7.34],[-47.5149,-7.4447],[-47.3135,-7.6408],[-47.2083,-7.8139],[-47.079,-7.9759],[-46.9833,-8.0403],[-46.8704,-7.9598],[-46.5739,-7.9069],[-46.4914,-7.9641],[-46.4663,-8.0688],[-46.543,-8.3184],[-46.6601,-8.3973],[-46.7911,-8.4363],[-46.8817,-8.5817],[-46.9219,-8.7426],[-46.905,-8.831],[-47.0639,-8.9768],[-47.0575,-9.0562],[-46.9408,-9.0706],[-46.8457,-9.1678],[-46.8295,-9.3084],[-46.7527,-9.4108],[-46.5589,-9.4975],[-46.5361,-9.5552],[-46.6601,-9.758],[-46.5076,-9.8576],[-46.4703,-10.0043],[-46.3476,-10.1696],[-46.0873,-10.2084],[-45.9461,-10.3177],[-45.9491,-10.1634],[-45.8602,-10.0011],[-45.8371,-9.5334],[-45.7964,-9.4612],[-45.8958,-9.3284],[-45.9057,-9.1794],[-45.9814,-8.9296],[-45.9283,-8.7888],[-45.7663,-8.6059],[-45.735,-8.4327],[-45.6551,-8.2556],[-45.5774,-8.1515],[-45.5569,-7.9619],[-45.4724,-7.6742],[-45.2984,-7.5578],[-45.0251,-7.4928],[-44.8164,-7.3639],[-44.714,-7.398],[-44.6557,-7.3204],[-44.4505,-7.1477],[-44.3062,-7.11],[-44.1616,-6.8867],[-44.0381,-6.7675],[-43.8155,-6.7101],[-43.6748,-6.701],[-43.4613,-6.8416],[-43.1984,-6.7546],[-43.0179,-6.7674],[-42.9263,-6.6863],[-42.879,-6.5611],[-42.85,-6.2541],[-42.9642,-6.1874],[-43.076,-6.0548],[-43.1079,-5.771],[-43.1019,-5.6233],[-43.0232,-5.5667],[-42.9115,-5.3901],[-42.8323,-5.3135],[-42.805,-5.1608],[-42.8533,-4.9364],[-42.9466,-4.7943],[-42.863,-4.4987],[-42.9657,-4.3725],[-42.9906,-4.2401],[-42.891,-4.1425],[-42.85,-4.0407],[-42.7334,-3.9234],[-42.6651,-3.7868],[-42.6752,-3.6988],[-42.5006,-3.4511],[-42.4554,-3.4782],[-42.2166,-3.4338],[-42.0045,-3.2331],[-41.8427,-3.034],[-41.8153,-2.9365],[-41.8679,-2.8536],[-41.8428,-2.7653],[-41.9956,-2.7214],[-42.004,-2.8126],[-42.2222,-2.8124],[-42.2643,-2.759],[-42.453,-2.7522],[-42.6305,-2.6423],[-42.7099,-2.5603],[-43.3118,-2.3465],[-43.4544,-2.3414],[-43.477,-2.5377],[-43.622,-2.5053],[-43.7386,-2.5172],[-44.0141,-2.6347],[-44.0629,-2.777],[-44.2554,-2.7653],[-44.1372,-2.6702],[-44.0327,-2.5133],[-44.073,-2.3995],[-44.3681,-2.5496],[-44.371,-2.6676],[-44.433,-2.9503],[-44.6136,-3.112],[-44.6936,-2.9949],[-44.6462,-2.7682],[-44.4739,-2.4021],[-44.3954,-2.4021],[-44.3625,-2.3103],[-44.3988,-2.1974],[-44.4973,-2.1479],[-44.554,-2.2164],[-44.6554,-2.2311],[-44.4902,-1.9954],[-44.5217,-1.8473],[-44.7079,-1.8132],[-44.725,-1.7234],[-44.9198,-1.5803],[-44.8854,-1.5046],[-45.0914,-1.4641],[-45.2475,-1.5793],[-45.2279,-1.683],[-45.3656,-1.6847],[-45.3402,-1.5832],[-45.4013,-1.4379],[-45.4962,-1.4809],[-45.5155,-1.3122],[-45.598,-1.2719],[-45.696,-1.1606],[-45.8098,-1.2751],[-45.8918,-1.1721],[-45.9557,-1.22],[-46.0846,-1.2104]]],[[[-43.6273,-2.252],[-43.7366,-2.3341],[-43.6348,-2.3999],[-43.6273,-2.252]]]]}},{"type":"Feature","properties":{"sourceId":"1159307921","regionId":"region.62f7c762-0000-4225-9da3-797e91cd2118","countryId":"country.1mxwn59"},"geometry":{"type":"Polygon","coordinates":[[[-41.8428,-2.7653],[-41.8679,-2.8536],[-41.8153,-2.9365],[-41.8427,-3.034],[-42.0045,-3.2331],[-42.2166,-3.4338],[-42.4554,-3.4782],[-42.5006,-3.4511],[-42.6752,-3.6988],[-42.6651,-3.7868],[-42.7334,-3.9234],[-42.85,-4.0407],[-42.891,-4.1425],[-42.9906,-4.2401],[-42.9657,-4.3725],[-42.863,-4.4987],[-42.9466,-4.7943],[-42.8533,-4.9364],[-42.805,-5.1608],[-42.8323,-5.3135],[-42.9115,-5.3901],[-43.0232,-5.5667],[-43.1019,-5.6233],[-43.1079,-5.771],[-43.076,-6.0548],[-42.9642,-6.1874],[-42.85,-6.2541],[-42.879,-6.5611],[-42.9263,-6.6863],[-43.0179,-6.7674],[-43.1984,-6.7546],[-43.4613,-6.8416],[-43.6748,-6.701],[-43.8155,-6.7101],[-44.0381,-6.7675],[-44.1616,-6.8867],[-44.3062,-7.11],[-44.4505,-7.1477],[-44.6557,-7.3204],[-44.714,-7.398],[-44.8164,-7.3639],[-45.0251,-7.4928],[-45.2984,-7.5578],[-45.4724,-7.6742],[-45.5569,-7.9619],[-45.5774,-8.1515],[-45.6551,-8.2556],[-45.735,-8.4327],[-45.7663,-8.6059],[-45.9283,-8.7888],[-45.9814,-8.9296],[-45.9057,-9.1794],[-45.8958,-9.3284],[-45.7964,-9.4612],[-45.8371,-9.5334],[-45.8602,-10.0011],[-45.9491,-10.1634],[-45.9461,-10.3177],[-45.7577,-10.3308],[-45.6034,-10.3316],[-45.4711,-10.4864],[-45.4381,-10.6204],[-45.3153,-10.7816],[-45.044,-10.8962],[-44.7837,-10.8568],[-44.7527,-10.7827],[-44.6473,-10.7353],[-44.538,-10.6296],[-44.4193,-10.5903],[-44.2173,-10.6296],[-44.119,-10.589],[-43.9918,-10.453],[-43.9146,-10.4305],[-43.7018,-10.0367],[-43.6828,-9.8021],[-43.7248,-9.7492],[-43.813,-9.4291],[-43.6958,-9.446],[-43.6582,-9.3648],[-43.5363,-9.3606],[-43.45,-9.304],[-43.3796,-9.4126],[-43.1286,-9.3733],[-42.942,-9.4485],[-42.8505,-9.5489],[-42.7528,-9.5218],[-42.6135,-9.5606],[-42.4877,-9.5],[-42.4316,-9.409],[-42.3098,-9.3084],[-42.1496,-9.2951],[-42.0426,-9.2078],[-41.8501,-9.2526],[-41.7327,-9.1333],[-41.7425,-8.9886],[-41.5,-8.9355],[-41.3708,-8.7119],[-41.2109,-8.635],[-41.0822,-8.5245],[-41.0164,-8.4205],[-40.9232,-8.4342],[-40.7489,-8.2454],[-40.5905,-8.1242],[-40.5441,-8.0294],[-40.5453,-7.8323],[-40.6605,-7.7602],[-40.6209,-7.638],[-40.6882,-7.5135],[-40.6899,-7.4296],[-40.5377,-7.3902],[-40.5811,-7.1953],[-40.4163,-6.8107],[-40.4783,-6.7353],[-40.6165,-6.709],[-40.7208,-6.6397],[-40.772,-6.4937],[-40.805,-6.2555],[-40.8911,-6.0112],[-40.9485,-5.4166],[-41.0703,-5.3071],[-41.0556,-5.2065],[-41.1227,-5.0076],[-41.1855,-4.9154],[-41.2274,-4.7248],[-41.2357,-4.5384],[-41.0736,-4.3263],[-41.1205,-4.1769],[-41.2295,-4.0441],[-41.2839,-3.8096],[-41.3552,-3.709],[-41.4494,-3.4368],[-41.4264,-3.3195],[-41.2555,-3.0771],[-41.2481,-3.0121],[-41.3431,-2.9203],[-41.675,-2.8796],[-41.6941,-2.8329],[-41.8428,-2.7653]]]}},{"type":"Feature","properties":{"sourceId":"1159307917","regionId":"region.fa32f8d0-99f4-4396-8227-8ca401cd0b57","countryId":"country.1mxwn59"},"geometry":{"type":"Polygon","coordinates":[[[-41.2481,-3.0121],[-41.2555,-3.0771],[-41.4264,-3.3195],[-41.4494,-3.4368],[-41.3552,-3.709],[-41.2839,-3.8096],[-41.2295,-4.0441],[-41.1205,-4.1769],[-41.0736,-4.3263],[-41.2357,-4.5384],[-41.2274,-4.7248],[-41.1855,-4.9154],[-41.1227,-5.0076],[-41.0556,-5.2065],[-41.0703,-5.3071],[-40.9485,-5.4166],[-40.8911,-6.0112],[-40.805,-6.2555],[-40.772,-6.4937],[-40.7208,-6.6397],[-40.6165,-6.709],[-40.4783,-6.7353],[-40.4163,-6.8107],[-40.5811,-7.1953],[-40.5377,-7.3902],[-40.0636,-7.4074],[-39.8475,-7.3491],[-39.6542,-7.3733],[-39.5352,-7.4745],[-39.3512,-7.5475],[-39.246,-7.6808],[-39.1092,-7.7529],[-39.0735,-7.854],[-38.968,-7.8479],[-38.8188,-7.6661],[-38.6971,-7.6202],[-38.5318,-7.2944],[-38.6765,-7.1575],[-38.7275,-6.8903],[-38.6187,-6.7584],[-38.6487,-6.6924],[-38.5258,-6.3816],[-38.587,-6.2855],[-38.4934,-6.1264],[-38.4157,-6.0617],[-38.2997,-6.0742],[-38.139,-5.8947],[-38.0475,-5.614],[-37.9152,-5.4635],[-37.7213,-5.0629],[-37.5409,-4.9301],[-37.2364,-4.8299],[-37.3248,-4.6965],[-37.6072,-4.6081],[-37.7108,-4.5154],[-37.7686,-4.3964],[-37.8542,-4.3759],[-38.1067,-4.1579],[-38.2513,-3.9618],[-38.378,-3.8697],[-38.4573,-3.7184],[-38.6597,-3.6764],[-38.8075,-3.5473],[-38.9163,-3.5051],[-38.9852,-3.3959],[-39.0806,-3.377],[-39.3583,-3.1835],[-39.4855,-3.1458],[-39.9857,-2.8484],[-40.4996,-2.7863],[-40.5816,-2.8273],[-41.1378,-2.8858],[-41.2569,-2.8752],[-41.2481,-3.0121]]]}},{"type":"Feature","properties":{"sourceId":"1159307975","regionId":"region.c468eb5a-3629-4abf-b927-1c6a60bad6a8","countryId":"country.1mxwn59"},"geometry":{"type":"Polygon","coordinates":[[[-37.2364,-4.8299],[-37.5409,-4.9301],[-37.7213,-5.0629],[-37.9152,-5.4635],[-38.0475,-5.614],[-38.139,-5.8947],[-38.2997,-6.0742],[-38.4157,-6.0617],[-38.4934,-6.1264],[-38.587,-6.2855],[-38.5258,-6.3816],[-38.2822,-6.5054],[-38.1303,-6.5198],[-37.7923,-6.2916],[-37.7585,-6.1758],[-37.4741,-6.0856],[-37.4245,-6.0975],[-37.2607,-6.0248],[-37.1754,-6.1168],[-37.3952,-6.3909],[-37.4302,-6.5179],[-37.507,-6.5537],[-37.5154,-6.6805],[-37.3356,-6.6994],[-37.219,-6.824],[-37.0438,-6.7544],[-36.791,-6.7686],[-36.7426,-6.8245],[-36.7714,-6.9309],[-36.7114,-6.976],[-36.5752,-6.9267],[-36.5015,-6.7832],[-36.535,-6.6383],[-36.4428,-6.6228],[-36.5151,-6.4801],[-36.5078,-6.4059],[-36.3835,-6.3028],[-36.277,-6.3278],[-36.252,-6.4137],[-35.9251,-6.4658],[-35.67,-6.4259],[-35.4664,-6.4644],[-35.306,-6.5284],[-35.2569,-6.5063],[-35.0478,-6.536],[-34.9633,-6.5033],[-35.0382,-6.2365],[-35.0928,-6.1858],[-35.1051,-5.9955],[-35.1474,-5.9211],[-35.1957,-5.6895],[-35.2623,-5.4833],[-35.4205,-5.2115],[-35.5106,-5.1437],[-35.9972,-5.0475],[-36.1312,-5.0959],[-36.4224,-5.081],[-36.59,-5.103],[-36.7909,-5.0512],[-36.8988,-4.9382],[-37.1349,-4.9314],[-37.2364,-4.8299]]]}},{"type":"Feature","properties":{"sourceId":"1159307931","regionId":"region.8db90db9-fcb8-4fa0-8bcc-2d0eec21ff8e","countryId":"country.1mxwn59"},"geometry":{"type":"Polygon","coordinates":[[[-34.9633,-6.5033],[-35.0478,-6.536],[-35.2569,-6.5063],[-35.306,-6.5284],[-35.4664,-6.4644],[-35.67,-6.4259],[-35.9251,-6.4658],[-36.252,-6.4137],[-36.277,-6.3278],[-36.3835,-6.3028],[-36.5078,-6.4059],[-36.5151,-6.4801],[-36.4428,-6.6228],[-36.535,-6.6383],[-36.5015,-6.7832],[-36.5752,-6.9267],[-36.7114,-6.976],[-36.7714,-6.9309],[-36.7426,-6.8245],[-36.791,-6.7686],[-37.0438,-6.7544],[-37.219,-6.824],[-37.3356,-6.6994],[-37.5154,-6.6805],[-37.507,-6.5537],[-37.4302,-6.5179],[-37.3952,-6.3909],[-37.1754,-6.1168],[-37.2607,-6.0248],[-37.4245,-6.0975],[-37.4741,-6.0856],[-37.7585,-6.1758],[-37.7923,-6.2916],[-38.1303,-6.5198],[-38.2822,-6.5054],[-38.5258,-6.3816],[-38.6487,-6.6924],[-38.6187,-6.7584],[-38.7275,-6.8903],[-38.6765,-7.1575],[-38.5318,-7.2944],[-38.6971,-7.6202],[-38.5256,-7.7677],[-38.354,-7.6997],[-38.2553,-7.8496],[-38.0639,-7.759],[-37.9779,-7.773],[-37.8974,-7.6843],[-37.791,-7.6372],[-37.7074,-7.5488],[-37.5521,-7.4779],[-37.4362,-7.3465],[-37.2544,-7.2698],[-37.0228,-7.3944],[-37.0141,-7.5073],[-37.197,-7.5731],[-37.2143,-7.6468],[-37.1664,-7.7632],[-37.341,-7.9999],[-37.1502,-7.978],[-37.1286,-8.1651],[-36.9627,-8.2835],[-36.782,-8.2225],[-36.6288,-8.083],[-36.6532,-7.999],[-36.5685,-7.9246],[-36.4475,-7.9093],[-36.4243,-7.8261],[-36.266,-7.8249],[-36.1222,-7.7821],[-36.0557,-7.8305],[-35.556,-7.6539],[-35.4984,-7.4562],[-35.3741,-7.4582],[-35.27,-7.381],[-35.0641,-7.4084],[-34.9784,-7.5109],[-34.8934,-7.5429],[-34.8155,-7.5426],[-34.7974,-7.1585],[-34.8594,-7.0715],[-34.8601,-6.9146],[-34.9042,-6.8873],[-34.97,-6.6173],[-34.9633,-6.5033]]]}},{"type":"Feature","properties":{"sourceId":"1159309901","regionId":"region.defbc05b-20b6-4d58-b76e-1f4b3db4ac57","countryId":"country.1mxwn59"},"geometry":{"type":"Polygon","coordinates":[[[-34.8934,-7.5429],[-34.9784,-7.5109],[-35.0641,-7.4084],[-35.27,-7.381],[-35.3741,-7.4582],[-35.4984,-7.4562],[-35.556,-7.6539],[-36.0557,-7.8305],[-36.1222,-7.7821],[-36.266,-7.8249],[-36.4243,-7.8261],[-36.4475,-7.9093],[-36.5685,-7.9246],[-36.6532,-7.999],[-36.6288,-8.083],[-36.782,-8.2225],[-36.9627,-8.2835],[-37.1286,-8.1651],[-37.1502,-7.978],[-37.341,-7.9999],[-37.1664,-7.7632],[-37.2143,-7.6468],[-37.197,-7.5731],[-37.0141,-7.5073],[-37.0228,-7.3944],[-37.2544,-7.2698],[-37.4362,-7.3465],[-37.5521,-7.4779],[-37.7074,-7.5488],[-37.791,-7.6372],[-37.8974,-7.6843],[-37.9779,-7.773],[-38.0639,-7.759],[-38.2553,-7.8496],[-38.354,-7.6997],[-38.5256,-7.7677],[-38.6971,-7.6202],[-38.8188,-7.6661],[-38.968,-7.8479],[-39.0735,-7.854],[-39.1092,-7.7529],[-39.246,-7.6808],[-39.3512,-7.5475],[-39.5352,-7.4745],[-39.6542,-7.3733],[-39.8475,-7.3491],[-40.0636,-7.4074],[-40.5377,-7.3902],[-40.6899,-7.4296],[-40.6882,-7.5135],[-40.6209,-7.638],[-40.6605,-7.7602],[-40.5453,-7.8323],[-40.5441,-8.0294],[-40.5905,-8.1242],[-40.7489,-8.2454],[-40.9232,-8.4342],[-41.0164,-8.4205],[-41.0822,-8.5245],[-41.2109,-8.635],[-41.3708,-8.7119],[-41.1597,-8.7086],[-41.1011,-8.7738],[-40.997,-8.7749],[-40.8891,-8.8569],[-40.893,-9.0362],[-40.8531,-9.1518],[-40.705,-9.217],[-40.6939,-9.3531],[-40.7424,-9.4224],[-40.6215,-9.4863],[-40.4067,-9.3575],[-40.3282,-9.3513],[-40.273,-9.104],[-40.2115,-9.0633],[-40.1139,-9.1034],[-39.9685,-9.0429],[-39.8962,-8.9746],[-39.8962,-8.8306],[-39.69,-8.7824],[-39.6907,-8.6586],[-39.6054,-8.6418],[-39.4032,-8.5341],[-39.2724,-8.5767],[-39.2212,-8.6774],[-39.0287,-8.7332],[-38.9677,-8.7894],[-38.8553,-8.7685],[-38.7061,-8.8412],[-38.6564,-8.9665],[-38.5278,-8.8192],[-38.5121,-8.9466],[-38.4097,-9.034],[-38.2874,-9.0135],[-38.3141,-9.1316],[-38.2352,-9.3304],[-38.0906,-9.1848],[-37.9682,-9.1425],[-37.8142,-8.9775],[-37.7487,-8.8621],[-37.6819,-8.9777],[-37.5191,-8.9437],[-37.1816,-9.2418],[-36.9984,-9.3064],[-36.831,-9.264],[-36.5787,-9.293],[-36.4384,-9.2088],[-36.3458,-9.201],[-36.2374,-9.0866],[-36.1218,-9.015],[-36.0142,-8.8945],[-35.8011,-8.8702],[-35.7404,-8.9165],[-35.4725,-8.8341],[-35.392,-8.8836],[-35.1483,-8.9136],[-35.1273,-8.8062],[-34.9399,-8.3508],[-34.9321,-8.2421],[-34.8512,-8.0686],[-34.8116,-7.9059],[-34.8935,-7.8049],[-34.9,-7.718],[-34.8053,-7.6227],[-34.8934,-7.5429]]]}},{"type":"Feature","properties":{"sourceId":"1159307923","regionId":"region.8e99dbde-96ea-493e-afad-166cd59ed130","countryId":"country.1mxwn59"},"geometry":{"type":"Polygon","coordinates":[[[-35.1483,-8.9136],[-35.392,-8.8836],[-35.4725,-8.8341],[-35.7404,-8.9165],[-35.8011,-8.8702],[-36.0142,-8.8945],[-36.1218,-9.015],[-36.2374,-9.0866],[-36.3458,-9.201],[-36.4384,-9.2088],[-36.5787,-9.293],[-36.831,-9.264],[-36.9984,-9.3064],[-37.1816,-9.2418],[-37.5191,-8.9437],[-37.6819,-8.9777],[-37.7487,-8.8621],[-37.8142,-8.9775],[-37.9682,-9.1425],[-38.0906,-9.1848],[-38.2352,-9.3304],[-38.1979,-9.4128],[-38.0124,-9.478],[-37.9971,-9.5268],[-37.7695,-9.6317],[-37.6763,-9.6461],[-37.5661,-9.7275],[-37.4699,-9.7349],[-37.297,-9.8047],[-37.2151,-9.8966],[-36.983,-9.9667],[-36.9361,-10.1014],[-36.8239,-10.2138],[-36.6871,-10.2742],[-36.6204,-10.2536],[-36.5587,-10.3519],[-36.4632,-10.4065],[-36.4081,-10.5021],[-36.292,-10.352],[-36.251,-10.2482],[-36.0363,-10.0641],[-35.8827,-9.8556],[-35.8532,-9.7312],[-35.5826,-9.5329],[-35.482,-9.3679],[-35.3051,-9.193],[-35.1483,-8.9136]]]}},{"type":"Feature","properties":{"sourceId":"1159307933","regionId":"region.192e3599-fb18-4ef2-8fdc-0f19b01738f7","countryId":"country.1mxwn59"},"geometry":{"type":"Polygon","coordinates":[[[-36.4081,-10.5021],[-36.4632,-10.4065],[-36.5587,-10.3519],[-36.6204,-10.2536],[-36.6871,-10.2742],[-36.8239,-10.2138],[-36.9361,-10.1014],[-36.983,-9.9667],[-37.2151,-9.8966],[-37.297,-9.8047],[-37.4699,-9.7349],[-37.5661,-9.7275],[-37.6763,-9.6461],[-37.7695,-9.6317],[-37.9971,-9.5268],[-38.0451,-9.6059],[-38.03,-9.7265],[-37.9639,-9.8736],[-37.7808,-10.0808],[-37.7839,-10.305],[-37.8362,-10.4229],[-37.8157,-10.6779],[-37.971,-10.7532],[-38.1912,-10.7159],[-38.2331,-10.8975],[-38.1094,-11.0281],[-38.0693,-11.1586],[-37.9808,-11.2378],[-38.006,-11.3574],[-37.8492,-11.4409],[-37.7959,-11.5237],[-37.6595,-11.5591],[-37.4828,-11.5183],[-37.316,-11.4064],[-37.2858,-11.3171],[-37.1725,-11.2035],[-37.0397,-10.9492],[-36.9031,-10.7729],[-36.5766,-10.5505],[-36.4081,-10.5021]]]}},{"type":"Feature","properties":{"sourceId":"1159307841","regionId":"region.4b733824-e4e0-4920-b387-79fefd2917a0","countryId":"country.1mxwn59"},"geometry":{"type":"Polygon","coordinates":[[[-37.4828,-11.5183],[-37.6595,-11.5591],[-37.7959,-11.5237],[-37.8492,-11.4409],[-38.006,-11.3574],[-37.9808,-11.2378],[-38.0693,-11.1586],[-38.1094,-11.0281],[-38.2331,-10.8975],[-38.1912,-10.7159],[-37.971,-10.7532],[-37.8157,-10.6779],[-37.8362,-10.4229],[-37.7839,-10.305],[-37.7808,-10.0808],[-37.9639,-9.8736],[-38.03,-9.7265],[-38.0451,-9.6059],[-37.9971,-9.5268],[-38.0124,-9.478],[-38.1979,-9.4128],[-38.2352,-9.3304],[-38.3141,-9.1316],[-38.2874,-9.0135],[-38.4097,-9.034],[-38.5121,-8.9466],[-38.5278,-8.8192],[-38.6564,-8.9665],[-38.7061,-8.8412],[-38.8553,-8.7685],[-38.9677,-8.7894],[-39.0287,-8.7332],[-39.2212,-8.6774],[-39.2724,-8.5767],[-39.4032,-8.5341],[-39.6054,-8.6418],[-39.6907,-8.6586],[-39.69,-8.7824],[-39.8962,-8.8306],[-39.8962,-8.9746],[-39.9685,-9.0429],[-40.1139,-9.1034],[-40.2115,-9.0633],[-40.273,-9.104],[-40.3282,-9.3513],[-40.4067,-9.3575],[-40.6215,-9.4863],[-40.7424,-9.4224],[-40.6939,-9.3531],[-40.705,-9.217],[-40.8531,-9.1518],[-40.893,-9.0362],[-40.8891,-8.8569],[-40.997,-8.7749],[-41.1011,-8.7738],[-41.1597,-8.7086],[-41.3708,-8.7119],[-41.5,-8.9355],[-41.7425,-8.9886],[-41.7327,-9.1333],[-41.8501,-9.2526],[-42.0426,-9.2078],[-42.1496,-9.2951],[-42.3098,-9.3084],[-42.4316,-9.409],[-42.4877,-9.5],[-42.6135,-9.5606],[-42.7528,-9.5218],[-42.8505,-9.5489],[-42.942,-9.4485],[-43.1286,-9.3733],[-43.3796,-9.4126],[-43.45,-9.304],[-43.5363,-9.3606],[-43.6582,-9.3648],[-43.6958,-9.446],[-43.813,-9.4291],[-43.7248,-9.7492],[-43.6828,-9.8021],[-43.7018,-10.0367],[-43.9146,-10.4305],[-43.9918,-10.453],[-44.119,-10.589],[-44.2173,-10.6296],[-44.4193,-10.5903],[-44.538,-10.6296],[-44.6473,-10.7353],[-44.7527,-10.7827],[-44.7837,-10.8568],[-45.044,-10.8962],[-45.3153,-10.7816],[-45.4381,-10.6204],[-45.4711,-10.4864],[-45.6034,-10.3316],[-45.7577,-10.3308],[-45.858,-10.4682],[-46.0888,-10.5857],[-46.3024,-10.7583],[-46.2343,-10.8823],[-46.3703,-10.9698],[-46.4637,-11.1793],[-46.5707,-11.3161],[-46.4274,-11.4999],[-46.1908,-11.5448],[-46.0852,-11.601],[-46.1048,-11.6661],[-46.2446,-11.726],[-46.25,-11.8437],[-46.1571,-11.8357],[-46.0768,-11.9281],[-46.2143,-12.0006],[-46.3391,-12.1302],[-46.3452,-12.342],[-46.3171,-12.4236],[-46.1596,-12.503],[-46.1601,-12.6026],[-46.234,-12.7122],[-46.2335,-12.7966],[-46.0872,-12.9163],[-46.1509,-13.0278],[-46.1755,-13.216],[-46.0832,-13.2516],[-46.0979,-13.3503],[-46.1866,-13.4048],[-46.2724,-13.6569],[-46.2597,-13.8686],[-46.223,-13.9977],[-46.1285,-14.1839],[-45.9205,-14.3508],[-45.9636,-14.5352],[-45.9125,-14.6914],[-46.023,-14.8688],[-45.9773,-14.9838],[-46.0381,-15.1473],[-45.7146,-15.1247],[-45.5533,-14.9357],[-45.4619,-14.9399],[-45.3205,-14.8558],[-45.2243,-14.7404],[-45.1021,-14.719],[-44.8817,-14.5983],[-44.8363,-14.519],[-44.5628,-14.3455],[-44.3208,-14.2457],[-43.8377,-14.3158],[-43.8238,-14.3944],[-43.8828,-14.5617],[-43.8665,-14.6596],[-43.7064,-14.7364],[-43.4924,-14.7886],[-43.3858,-14.7012],[-43.2283,-14.6372],[-42.953,-14.6795],[-42.8909,-14.7495],[-42.6308,-14.9391],[-42.5804,-14.9312],[-42.4296,-15.0325],[-42.2601,-15.1078],[-42.177,-15.1059],[-42.0873,-15.1818],[-41.9383,-15.171],[-41.8014,-15.1096],[-41.3606,-15.4952],[-41.331,-15.7168],[-41.1576,-15.7811],[-40.9449,-15.6735],[-40.8308,-15.6823],[-40.7618,-15.738],[-40.6694,-15.7166],[-40.5355,-15.7977],[-40.2369,-15.8182],[-40.0047,-15.9938],[-39.935,-16.0011],[-39.8656,-16.111],[-39.9406,-16.3132],[-40.0572,-16.395],[-40.1374,-16.5443],[-40.2526,-16.5654],[-40.2954,-16.8792],[-40.4708,-16.8691],[-40.5252,-16.9305],[-40.5741,-17.1345],[-40.5632,-17.2618],[-40.4913,-17.5487],[-40.207,-17.7658],[-40.2068,-17.9785],[-40.1845,-18.0093],[-39.6726,-18.3232],[-39.625,-18.1926],[-39.4991,-18.0056],[-39.3824,-17.9033],[-39.2751,-17.8669],[-39.1371,-17.6796],[-39.1837,-17.6008],[-39.2174,-17.2951],[-39.2086,-17.1622],[-39.1236,-16.8979],[-39.136,-16.8002],[-39.0541,-16.4365],[-38.8644,-15.8434],[-38.9239,-15.7156],[-39.0018,-15.232],[-39.0227,-14.8159],[-39.0671,-14.675],[-38.9852,-14.3126],[-38.9892,-14.2123],[-38.9237,-14.0041],[-38.9299,-13.8976],[-39.0112,-13.8325],[-38.9678,-13.674],[-39.0625,-13.4],[-38.8418,-13.1612],[-38.8893,-13.0698],[-38.8009,-13.024],[-38.7363,-12.8827],[-38.8275,-12.867],[-38.7381,-12.7366],[-38.6262,-12.7024],[-38.5089,-12.7229],[-38.4757,-12.8517],[-38.5097,-13.0214],[-38.3204,-12.9352],[-38.0509,-12.641],[-37.7867,-12.2646],[-37.6547,-12.0497],[-37.4347,-11.5693],[-37.4828,-11.5183]]]}},{"type":"Feature","properties":{"sourceId":"1159307929","regionId":"region.9a7c9b0f-4162-4cdc-a021-ba3e80980b36","countryId":"country.1mxwn59"},"geometry":{"type":"Polygon","coordinates":[[[-39.6726,-18.3232],[-40.1845,-18.0093],[-40.2068,-17.9785],[-40.4272,-17.8939],[-40.6662,-17.9565],[-40.9111,-17.9718],[-40.7772,-18.0936],[-40.9126,-18.1028],[-41.0589,-18.1788],[-41.143,-18.2969],[-41.0024,-18.4527],[-41.0287,-18.6382],[-40.9269,-18.6934],[-40.9319,-18.8074],[-41.0908,-18.8294],[-41.0297,-18.969],[-41.0508,-19.0343],[-40.9431,-19.1457],[-40.9259,-19.2957],[-40.9571,-19.4602],[-41.1568,-19.6605],[-41.1853,-19.8651],[-41.305,-19.9536],[-41.3662,-20.1868],[-41.4055,-20.2129],[-41.7159,-20.2077],[-41.8559,-20.3583],[-41.7963,-20.4269],[-41.8115,-20.6473],[-41.8644,-20.7769],[-41.7417,-20.8218],[-41.7254,-21.0842],[-41.5663,-21.166],[-41.2647,-21.2319],[-41.0679,-21.2141],[-40.9651,-21.274],[-40.8146,-21.0366],[-40.8011,-20.931],[-40.7317,-20.8438],[-40.5834,-20.802],[-40.4836,-20.6482],[-40.3487,-20.5001],[-40.2825,-20.3142],[-40.191,-20.1899],[-40.1465,-20.023],[-40.0268,-19.7644],[-39.8349,-19.6572],[-39.7098,-19.4161],[-39.6981,-19.2399],[-39.7411,-18.9021],[-39.7449,-18.6817],[-39.6726,-18.3232]]]}},{"type":"Feature","properties":{"sourceId":"1159307777","regionId":"region.2e10757d-167f-4c5e-a550-b68fc6636174","countryId":"country.1mxwn59"},"geometry":{"type":"MultiPolygon","coordinates":[[[[-40.9651,-21.274],[-41.0679,-21.2141],[-41.2647,-21.2319],[-41.5663,-21.166],[-41.7254,-21.0842],[-41.7417,-20.8218],[-41.8644,-20.7769],[-41.9617,-20.9085],[-42.0961,-20.9225],[-42.0953,-21.0012],[-42.1811,-21.1631],[-42.2208,-21.3371],[-42.2954,-21.4061],[-42.3666,-21.5937],[-42.2803,-21.7136],[-42.8871,-21.9598],[-42.9515,-22.0059],[-43.1313,-22.0278],[-43.3431,-22.0015],[-43.4623,-22.0561],[-43.8138,-22.0641],[-44.0935,-22.1722],[-44.2173,-22.2498],[-44.4433,-22.2552],[-44.8313,-22.4061],[-44.7717,-22.4232],[-44.6371,-22.5994],[-44.5404,-22.6212],[-44.2155,-22.5906],[-44.1663,-22.6671],[-44.2736,-22.8203],[-44.3591,-22.8576],[-44.5856,-22.8772],[-44.7953,-22.9881],[-44.805,-23.1371],[-44.8622,-23.2052],[-44.7276,-23.3521],[-44.5838,-23.3532],[-44.5106,-23.2734],[-44.7141,-23.1866],[-44.6732,-23.0593],[-44.4357,-22.9968],[-44.3026,-22.9953],[-44.191,-23.0488],[-44.0562,-22.9395],[-43.8644,-22.8962],[-43.734,-22.9395],[-43.5422,-23.0494],[-43.2201,-22.9953],[-43.1621,-22.8957],[-43.2406,-22.8439],[-43.2702,-22.747],[-43.0756,-22.6657],[-43.0345,-22.7756],[-43.1214,-22.9299],[-43.0314,-22.9743],[-42.6957,-22.9669],[-42.6243,-22.9395],[-42.0582,-22.9538],[-41.9896,-22.8263],[-41.9663,-22.5354],[-41.6665,-22.2818],[-41.4657,-22.2026],[-41.2437,-22.1452],[-40.9953,-22.0143],[-40.9673,-21.9475],[-41.0247,-21.7192],[-41.0185,-21.6081],[-41.0719,-21.5233],[-40.9635,-21.3645],[-40.9651,-21.274]]],[[[-44.1009,-23.149],[-44.2412,-23.0698],[-44.2308,-23.1935],[-44.1009,-23.149]]]]}},{"type":"Feature","properties":{"sourceId":"1159309727","regionId":"region.e1f46bb2-e096-47b1-bf85-86e3f6840f8d","countryId":"country.1mxwn59"},"geometry":{"type":"MultiPolygon","coordinates":[[[[-44.7276,-23.3521],[-44.8622,-23.2052],[-44.805,-23.1371],[-44.7953,-22.9881],[-44.5856,-22.8772],[-44.3591,-22.8576],[-44.2736,-22.8203],[-44.1663,-22.6671],[-44.2155,-22.5906],[-44.5404,-22.6212],[-44.6371,-22.5994],[-44.7717,-22.4232],[-44.8313,-22.4061],[-45.0575,-22.4659],[-45.411,-22.6477],[-45.5831,-22.6168],[-45.804,-22.7001],[-45.7254,-22.7505],[-45.7804,-22.846],[-45.9631,-22.8338],[-46.1224,-22.8929],[-46.3599,-22.8442],[-46.4129,-22.5567],[-46.6414,-22.4109],[-46.698,-22.3225],[-46.6007,-22.1326],[-46.691,-22.06],[-46.6183,-21.9846],[-46.6685,-21.8125],[-46.5604,-21.6739],[-46.4924,-21.5248],[-46.5076,-21.4589],[-46.8139,-21.3597],[-46.8935,-21.4058],[-46.9947,-21.3447],[-47.0555,-21.1968],[-47.1249,-21.1308],[-47.1475,-20.9764],[-47.2209,-20.9144],[-47.2105,-20.8078],[-47.1101,-20.6322],[-47.1534,-20.5249],[-47.287,-20.4457],[-47.2346,-20.2059],[-47.3041,-20.1203],[-47.4386,-20.036],[-47.4686,-19.9589],[-47.6526,-20.0292],[-47.7152,-19.9751],[-47.8416,-19.9794],[-48.0834,-20.1484],[-48.1681,-20.1029],[-48.6203,-20.153],[-48.8439,-20.164],[-48.8885,-20.2608],[-48.867,-20.4073],[-48.9694,-20.4005],[-48.9709,-20.2305],[-49.0417,-20.1434],[-49.1493,-20.2952],[-49.2164,-20.2941],[-49.2916,-20.1647],[-49.273,-19.9684],[-49.3848,-19.98],[-49.5467,-19.9299],[-49.8822,-19.9311],[-50.3384,-19.8693],[-50.4255,-19.7919],[-50.5575,-19.8079],[-50.6556,-19.9154],[-50.8714,-19.9944],[-50.994,-20.1017],[-51.0291,-20.1893],[-51.1372,-20.2973],[-51.3264,-20.3624],[-51.6202,-20.6998],[-51.632,-20.877],[-51.8749,-21.1717],[-51.8516,-21.2986],[-51.9652,-21.4666],[-52.0705,-21.4803],[-52.1063,-21.5503],[-52.0436,-21.6661],[-52.1527,-21.7393],[-52.2083,-21.8535],[-52.3137,-21.9401],[-52.3693,-22.0989],[-52.5189,-22.2233],[-52.6762,-22.2938],[-52.8426,-22.4206],[-52.967,-22.4589],[-53.168,-22.7017],[-52.9472,-22.5708],[-52.6939,-22.6037],[-52.6147,-22.5695],[-52.2171,-22.6438],[-52.0667,-22.5217],[-51.8749,-22.6104],[-51.7445,-22.6179],[-51.547,-22.6853],[-51.3551,-22.6501],[-51.1107,-22.7672],[-50.8801,-22.8221],[-50.7855,-22.9436],[-50.6278,-22.9216],[-50.2913,-22.9533],[-49.97,-22.9121],[-49.9085,-23.0358],[-49.7697,-23.0963],[-49.6381,-23.2593],[-49.6153,-23.4082],[-49.6544,-23.5062],[-49.5526,-23.7117],[-49.6018,-23.8644],[-49.4103,-24.0859],[-49.2278,-24.3385],[-49.3006,-24.5919],[-49.2181,-24.6898],[-48.8293,-24.6623],[-48.7808,-24.6955],[-48.6132,-24.6804],[-48.4876,-24.7457],[-48.5435,-24.8102],[-48.5662,-25.0577],[-48.5111,-25.0835],[-48.4142,-24.9599],[-48.2302,-25.0136],[-48.1495,-25.2226],[-48.0821,-25.3073],[-47.9518,-25.2013],[-47.8871,-25.0573],[-47.8933,-24.9611],[-47.8256,-24.8941],[-47.5408,-24.7034],[-47.442,-24.6804],[-47.1814,-24.5334],[-47.0498,-24.4278],[-46.9665,-24.2991],[-46.5934,-24.0895],[-46.4067,-24.009],[-46.3638,-23.8942],[-46.2341,-23.986],[-46.0797,-23.8278],[-45.8644,-23.7564],[-45.7175,-23.7708],[-45.5093,-23.8376],[-45.4066,-23.8204],[-45.4335,-23.6647],[-45.0802,-23.4977],[-44.9193,-23.3488],[-44.8445,-23.3852],[-44.7276,-23.3521]]],[[[-45.2137,-23.9065],[-45.2281,-23.7724],[-45.3247,-23.7253],[-45.4474,-23.8772],[-45.3857,-23.9381],[-45.2137,-23.9065]]]]}},{"type":"Feature","properties":{"sourceId":"1159309897","regionId":"region.2680fff8-09fa-4962-8228-8129e0342955","countryId":"country.1mxwn59"},"geometry":{"type":"Polygon","coordinates":[[[-46.2335,-12.7966],[-46.4341,-12.8455],[-46.6465,-12.9248],[-46.8277,-13.0693],[-47.0922,-13.0955],[-47.4417,-13.2491],[-47.5556,-13.2432],[-47.6403,-13.1136],[-47.7209,-13.1528],[-47.6813,-13.3542],[-48.0025,-13.2493],[-48.1732,-13.1721],[-48.2251,-13.0941],[-48.3668,-13.188],[-48.6566,-13.1776],[-48.6846,-13.3375],[-48.7732,-13.352],[-48.768,-13.0972],[-48.824,-12.8736],[-49.0612,-12.6801],[-49.1378,-12.7349],[-49.2965,-13.0028],[-49.3835,-13.2481],[-49.6845,-13.1758],[-50.2395,-12.9332],[-50.2751,-12.7877],[-50.2006,-12.6546],[-50.2032,-12.5717],[-50.1369,-12.478],[-50.1503,-12.3999],[-50.3512,-12.5424],[-50.4465,-12.7004],[-50.484,-12.8448],[-50.4955,-12.9509],[-50.5879,-13.0786],[-50.569,-13.2284],[-50.6631,-13.4236],[-50.7581,-13.5411],[-50.7958,-13.6759],[-50.8633,-13.7119],[-50.8461,-13.8596],[-50.8562,-14.1035],[-50.9596,-14.2358],[-50.9977,-14.3995],[-50.9699,-14.5185],[-51.0335,-14.6471],[-51.1003,-14.8879],[-51.2552,-15.0154],[-51.3507,-14.9814],[-51.5137,-15.0627],[-51.6574,-15.2097],[-51.6792,-15.3789],[-51.7739,-15.6106],[-51.8827,-15.8048],[-51.9668,-15.8007],[-52.053,-15.8748],[-52.2501,-15.9133],[-52.3286,-16.0381],[-52.5391,-16.1695],[-52.5469,-16.2411],[-52.6695,-16.2913],[-52.6155,-16.4261],[-52.6324,-16.5289],[-52.8093,-16.7454],[-53.0194,-16.8679],[-53.0468,-17.0578],[-53.2033,-17.282],[-53.1896,-17.3626],[-53.2433,-17.5633],[-53.231,-17.6521],[-53.1486,-17.7787],[-53.0538,-18.0166],[-53.0567,-18.2931],[-52.9876,-18.3879],[-52.9094,-18.3461],[-52.7834,-18.3916],[-52.7865,-18.462],[-52.8929,-18.6378],[-52.8696,-18.6805],[-52.6156,-18.7226],[-52.4964,-18.7051],[-52.3658,-18.8038],[-52.1736,-18.8488],[-52.0598,-18.9447],[-51.913,-18.9883],[-51.8421,-19.0481],[-51.6431,-19.1288],[-51.4067,-19.1692],[-51.3108,-19.2529],[-51.1382,-19.2844],[-50.9612,-19.4735],[-50.8812,-19.4109],[-50.844,-19.2948],[-50.6538,-19.1103],[-50.5454,-19.1092],[-50.4931,-19.0389],[-50.5021,-18.9306],[-50.3235,-18.7146],[-49.9916,-18.6138],[-49.7978,-18.6228],[-49.4888,-18.4996],[-49.3615,-18.6244],[-49.1319,-18.4072],[-48.9523,-18.3263],[-48.818,-18.352],[-48.6142,-18.3408],[-48.2162,-18.3598],[-48.1287,-18.408],[-47.8991,-18.4491],[-47.6502,-18.3211],[-47.5521,-18.2078],[-47.4327,-18.1658],[-47.2777,-18.0599],[-47.3473,-17.8805],[-47.3265,-17.7439],[-47.2703,-17.6705],[-47.2882,-17.5481],[-47.5305,-17.4549],[-47.5001,-17.3298],[-47.3127,-17.1431],[-47.2105,-17.0757],[-47.1512,-16.9775],[-47.2665,-16.6618],[-47.4041,-16.569],[-47.4531,-16.4926],[-47.3488,-16.3014],[-47.3025,-16.0401],[-48.1824,-16.0395],[-48.2779,-15.8394],[-48.1794,-15.4899],[-47.423,-15.4983],[-47.3071,-15.5902],[-47.3588,-15.9838],[-47.3025,-16.0401],[-47.2297,-16.0327],[-47.1293,-15.9213],[-47.0781,-15.9376],[-46.8629,-15.8812],[-46.8319,-15.8439],[-46.8679,-15.5907],[-46.9305,-15.5457],[-46.9366,-15.4318],[-46.8548,-15.3238],[-46.9299,-15.2286],[-46.8909,-15.0495],[-46.7351,-15.0188],[-46.6367,-15.069],[-46.5477,-15.0392],[-46.581,-14.7956],[-46.5168,-14.7133],[-46.3871,-14.7729],[-46.2965,-14.9094],[-46.0774,-14.9225],[-46.023,-14.8688],[-45.9125,-14.6914],[-45.9636,-14.5352],[-45.9205,-14.3508],[-46.1285,-14.1839],[-46.223,-13.9977],[-46.2597,-13.8686],[-46.2724,-13.6569],[-46.1866,-13.4048],[-46.0979,-13.3503],[-46.0832,-13.2516],[-46.1755,-13.216],[-46.1509,-13.0278],[-46.0872,-12.9163],[-46.2335,-12.7966]]]}},{"type":"Feature","properties":{"sourceId":"1159307927","regionId":"region.15446349-9fc6-4952-9150-208467bae5cb","countryId":"country.1mxwn59"},"geometry":{"type":"Polygon","coordinates":[[[-47.3025,-16.0401],[-47.3588,-15.9838],[-47.3071,-15.5902],[-47.423,-15.4983],[-48.1794,-15.4899],[-48.2779,-15.8394],[-48.1824,-16.0395],[-47.3025,-16.0401]]]}},{"type":"Feature","properties":{"sourceId":"1159307907","regionId":"region.15563181-ce18-4bbc-8fa8-ee4d823c868f","countryId":"country.1mxwn59"},"geometry":{"type":"Polygon","coordinates":[[[-46.023,-14.8688],[-46.0774,-14.9225],[-46.2965,-14.9094],[-46.3871,-14.7729],[-46.5168,-14.7133],[-46.581,-14.7956],[-46.5477,-15.0392],[-46.6367,-15.069],[-46.7351,-15.0188],[-46.8909,-15.0495],[-46.9299,-15.2286],[-46.8548,-15.3238],[-46.9366,-15.4318],[-46.9305,-15.5457],[-46.8679,-15.5907],[-46.8319,-15.8439],[-46.8629,-15.8812],[-47.0781,-15.9376],[-47.1293,-15.9213],[-47.2297,-16.0327],[-47.3025,-16.0401],[-47.3488,-16.3014],[-47.4531,-16.4926],[-47.4041,-16.569],[-47.2665,-16.6618],[-47.1512,-16.9775],[-47.2105,-17.0757],[-47.3127,-17.1431],[-47.5001,-17.3298],[-47.5305,-17.4549],[-47.2882,-17.5481],[-47.2703,-17.6705],[-47.3265,-17.7439],[-47.3473,-17.8805],[-47.2777,-18.0599],[-47.4327,-18.1658],[-47.5521,-18.2078],[-47.6502,-18.3211],[-47.8991,-18.4491],[-48.1287,-18.408],[-48.2162,-18.3598],[-48.6142,-18.3408],[-48.818,-18.352],[-48.9523,-18.3263],[-49.1319,-18.4072],[-49.3615,-18.6244],[-49.4888,-18.4996],[-49.7978,-18.6228],[-49.9916,-18.6138],[-50.3235,-18.7146],[-50.5021,-18.9306],[-50.4931,-19.0389],[-50.5454,-19.1092],[-50.6538,-19.1103],[-50.844,-19.2948],[-50.8812,-19.4109],[-50.9612,-19.4735],[-51.0276,-19.7541],[-50.994,-20.1017],[-50.8714,-19.9944],[-50.6556,-19.9154],[-50.5575,-19.8079],[-50.4255,-19.7919],[-50.3384,-19.8693],[-49.8822,-19.9311],[-49.5467,-19.9299],[-49.3848,-19.98],[-49.273,-19.9684],[-49.2916,-20.1647],[-49.2164,-20.2941],[-49.1493,-20.2952],[-49.0417,-20.1434],[-48.9709,-20.2305],[-48.9694,-20.4005],[-48.867,-20.4073],[-48.8885,-20.2608],[-48.8439,-20.164],[-48.6203,-20.153],[-48.1681,-20.1029],[-48.0834,-20.1484],[-47.8416,-19.9794],[-47.7152,-19.9751],[-47.6526,-20.0292],[-47.4686,-19.9589],[-47.4386,-20.036],[-47.3041,-20.1203],[-47.2346,-20.2059],[-47.287,-20.4457],[-47.1534,-20.5249],[-47.1101,-20.6322],[-47.2105,-20.8078],[-47.2209,-20.9144],[-47.1475,-20.9764],[-47.1249,-21.1308],[-47.0555,-21.1968],[-46.9947,-21.3447],[-46.8935,-21.4058],[-46.8139,-21.3597],[-46.5076,-21.4589],[-46.4924,-21.5248],[-46.5604,-21.6739],[-46.6685,-21.8125],[-46.6183,-21.9846],[-46.691,-22.06],[-46.6007,-22.1326],[-46.698,-22.3225],[-46.6414,-22.4109],[-46.4129,-22.5567],[-46.3599,-22.8442],[-46.1224,-22.8929],[-45.9631,-22.8338],[-45.7804,-22.846],[-45.7254,-22.7505],[-45.804,-22.7001],[-45.5831,-22.6168],[-45.411,-22.6477],[-45.0575,-22.4659],[-44.8313,-22.4061],[-44.4433,-22.2552],[-44.2173,-22.2498],[-44.0935,-22.1722],[-43.8138,-22.0641],[-43.4623,-22.0561],[-43.3431,-22.0015],[-43.1313,-22.0278],[-42.9515,-22.0059],[-42.8871,-21.9598],[-42.2803,-21.7136],[-42.3666,-21.5937],[-42.2954,-21.4061],[-42.2208,-21.3371],[-42.1811,-21.1631],[-42.0953,-21.0012],[-42.0961,-20.9225],[-41.9617,-20.9085],[-41.8644,-20.7769],[-41.8115,-20.6473],[-41.7963,-20.4269],[-41.8559,-20.3583],[-41.7159,-20.2077],[-41.4055,-20.2129],[-41.3662,-20.1868],[-41.305,-19.9536],[-41.1853,-19.8651],[-41.1568,-19.6605],[-40.9571,-19.4602],[-40.9259,-19.2957],[-40.9431,-19.1457],[-41.0508,-19.0343],[-41.0297,-18.969],[-41.0908,-18.8294],[-40.9319,-18.8074],[-40.9269,-18.6934],[-41.0287,-18.6382],[-41.0024,-18.4527],[-41.143,-18.2969],[-41.0589,-18.1788],[-40.9126,-18.1028],[-40.7772,-18.0936],[-40.9111,-17.9718],[-40.6662,-17.9565],[-40.4272,-17.8939],[-40.2068,-17.9785],[-40.207,-17.7658],[-40.4913,-17.5487],[-40.5632,-17.2618],[-40.5741,-17.1345],[-40.5252,-16.9305],[-40.4708,-16.8691],[-40.2954,-16.8792],[-40.2526,-16.5654],[-40.1374,-16.5443],[-40.0572,-16.395],[-39.9406,-16.3132],[-39.8656,-16.111],[-39.935,-16.0011],[-40.0047,-15.9938],[-40.2369,-15.8182],[-40.5355,-15.7977],[-40.6694,-15.7166],[-40.7618,-15.738],[-40.8308,-15.6823],[-40.9449,-15.6735],[-41.1576,-15.7811],[-41.331,-15.7168],[-41.3606,-15.4952],[-41.8014,-15.1096],[-41.9383,-15.171],[-42.0873,-15.1818],[-42.177,-15.1059],[-42.2601,-15.1078],[-42.4296,-15.0325],[-42.5804,-14.9312],[-42.6308,-14.9391],[-42.8909,-14.7495],[-42.953,-14.6795],[-43.2283,-14.6372],[-43.3858,-14.7012],[-43.4924,-14.7886],[-43.7064,-14.7364],[-43.8665,-14.6596],[-43.8828,-14.5617],[-43.8238,-14.3944],[-43.8377,-14.3158],[-44.3208,-14.2457],[-44.5628,-14.3455],[-44.8363,-14.519],[-44.8817,-14.5983],[-45.1021,-14.719],[-45.2243,-14.7404],[-45.3205,-14.8558],[-45.4619,-14.9399],[-45.5533,-14.9357],[-45.7146,-15.1247],[-46.0381,-15.1473],[-45.9773,-14.9838],[-46.023,-14.8688]]]}},{"type":"Feature","properties":{"sourceId":"1159307925","regionId":"region.5d8cfad7-2fcd-4cd1-8957-f226356f4582","countryId":"country.1mxwn59"},"geometry":{"type":"Polygon","coordinates":[[[-45.7577,-10.3308],[-45.9461,-10.3177],[-46.0873,-10.2084],[-46.3476,-10.1696],[-46.4703,-10.0043],[-46.5076,-9.8576],[-46.6601,-9.758],[-46.5361,-9.5552],[-46.5589,-9.4975],[-46.7527,-9.4108],[-46.8295,-9.3084],[-46.8457,-9.1678],[-46.9408,-9.0706],[-47.0575,-9.0562],[-47.0639,-8.9768],[-46.905,-8.831],[-46.9219,-8.7426],[-46.8817,-8.5817],[-46.7911,-8.4363],[-46.6601,-8.3973],[-46.543,-8.3184],[-46.4663,-8.0688],[-46.4914,-7.9641],[-46.5739,-7.9069],[-46.8704,-7.9598],[-46.9833,-8.0403],[-47.079,-7.9759],[-47.2083,-7.8139],[-47.3135,-7.6408],[-47.5149,-7.4447],[-47.4754,-7.34],[-47.5127,-7.2805],[-47.6604,-7.2635],[-47.6399,-7.1584],[-47.5138,-7.0088],[-47.4824,-6.8883],[-47.4876,-6.6984],[-47.4072,-6.4794],[-47.4102,-6.3498],[-47.373,-6.2336],[-47.4255,-6.1038],[-47.414,-5.8699],[-47.4829,-5.743],[-47.4686,-5.5887],[-47.5369,-5.4788],[-47.7231,-5.3915],[-47.8385,-5.3832],[-47.8649,-5.2809],[-47.9996,-5.2324],[-48.1533,-5.2574],[-48.3378,-5.1638],[-48.4981,-5.1865],[-48.5818,-5.3007],[-48.723,-5.3553],[-48.5556,-5.4129],[-48.3971,-5.3901],[-48.2705,-5.5341],[-48.2092,-5.5385],[-48.1424,-5.6461],[-48.2886,-5.7272],[-48.2968,-5.807],[-48.2227,-5.9143],[-48.3334,-5.9762],[-48.2842,-6.0976],[-48.4288,-6.1713],[-48.3899,-6.3624],[-48.5008,-6.3511],[-48.6063,-6.435],[-48.6678,-6.5415],[-48.6834,-6.6627],[-49.0105,-6.7807],[-49.1985,-6.9026],[-49.2211,-6.9642],[-49.185,-7.2253],[-49.2183,-7.3093],[-49.3749,-7.5001],[-49.3906,-7.5976],[-49.3096,-7.7136],[-49.1634,-7.8036],[-49.1986,-8.0586],[-49.3105,-8.3822],[-49.3808,-8.4368],[-49.5813,-8.8307],[-49.7551,-8.923],[-49.8182,-9.0282],[-50.0537,-9.3191],[-50.1502,-9.7004],[-50.2357,-9.844],[-50.304,-10.0208],[-50.3778,-10.1049],[-50.426,-10.341],[-50.4816,-10.4008],[-50.5863,-10.7116],[-50.6351,-10.9361],[-50.6129,-11.0312],[-50.6644,-11.1429],[-50.6709,-11.2593],[-50.7427,-11.5016],[-50.6499,-11.6082],[-50.7072,-11.7116],[-50.6774,-11.8627],[-50.6726,-12.192],[-50.6254,-12.2725],[-50.6122,-12.4311],[-50.6657,-12.6312],[-50.5953,-12.8075],[-50.484,-12.8448],[-50.4465,-12.7004],[-50.3512,-12.5424],[-50.1503,-12.3999],[-50.1369,-12.478],[-50.2032,-12.5717],[-50.2006,-12.6546],[-50.2751,-12.7877],[-50.2395,-12.9332],[-49.6845,-13.1758],[-49.3835,-13.2481],[-49.2965,-13.0028],[-49.1378,-12.7349],[-49.0612,-12.6801],[-48.824,-12.8736],[-48.768,-13.0972],[-48.7732,-13.352],[-48.6846,-13.3375],[-48.6566,-13.1776],[-48.3668,-13.188],[-48.2251,-13.0941],[-48.1732,-13.1721],[-48.0025,-13.2493],[-47.6813,-13.3542],[-47.7209,-13.1528],[-47.6403,-13.1136],[-47.5556,-13.2432],[-47.4417,-13.2491],[-47.0922,-13.0955],[-46.8277,-13.0693],[-46.6465,-12.9248],[-46.4341,-12.8455],[-46.2335,-12.7966],[-46.234,-12.7122],[-46.1601,-12.6026],[-46.1596,-12.503],[-46.3171,-12.4236],[-46.3452,-12.342],[-46.3391,-12.1302],[-46.2143,-12.0006],[-46.0768,-11.9281],[-46.1571,-11.8357],[-46.25,-11.8437],[-46.2446,-11.726],[-46.1048,-11.6661],[-46.0852,-11.601],[-46.1908,-11.5448],[-46.4274,-11.4999],[-46.5707,-11.3161],[-46.4637,-11.1793],[-46.3703,-10.9698],[-46.2343,-10.8823],[-46.3024,-10.7583],[-46.0888,-10.5857],[-45.858,-10.4682],[-45.7577,-10.3308]]]}}]}