{"type":"FeatureCollection","features":[{"type":"Feature","properties":{"sourceId":"1159314013","regionId":"region.71c93861-b91d-497e-bf4b-9943ea678cac","countryId":"country.1powv0y"},"geometry":{"type":"Polygon","coordinates":[[[-8.6824,27.2854],[-8.6808,26.0131],[-8.7072,25.995],[-9.2957,25.995],[-10.2023,25.995],[-11.411,25.995],[-12.0153,25.9949],[-12.0153,24.9366],[-12.0153,24.1051],[-12.0153,23.4952],[-12.3539,23.3225],[-12.6194,23.2708],[-13.0152,23.018],[-13.1199,22.8835],[-13.1655,22.7527],[-13.0933,22.4955],[-13.0321,21.5819],[-12.378,21.3516],[-10.7878,21.52],[-6.5063,24.276],[-6.5931,24.9941],[-5.9288,24.9944],[-4.8216,24.9951],[-5.6615,25.5089],[-6.3075,25.8888],[-7.297,26.4707],[-8.0886,26.9362],[-8.6824,27.2854]]]}},{"type":"Feature","properties":{"sourceId":"1159313977","regionId":"region.2374b444-1f3b-4615-82a8-386b4e32db8f","countryId":"country.1powv0y"},"geometry":{"type":"Polygon","coordinates":[[[-17.0569,20.7669],[-17.0044,20.9324],[-17.0159,21.0312],[-16.9312,21.1515],[-16.7454,20.8686],[-16.665,20.6706],[-16.5525,20.5764],[-16.4808,20.6751],[-16.3912,20.5695],[-16.2951,20.3306],[-16.1997,20.2152],[-16.2611,20.1357],[-16.214,20.0333],[-16.298,19.9225],[-16.2338,19.7936],[-16.3846,19.5739],[-16.3232,19.4579],[-16.2273,19.5915],[-15.5784,20.7374],[-15.8398,21.1508],[-14.1732,21.1445],[-14.2956,21.3332],[-15.0023,21.3332],[-16.2677,21.3329],[-16.9588,21.3329],[-17.0812,20.8747],[-17.0569,20.7669]]]}},{"type":"Feature","properties":{"sourceId":"1159314031","regionId":"region.1bdf5e7c-d248-410a-ac26-b2bc0809ef86","countryId":"country.1powv0y"},"geometry":{"type":"Polygon","coordinates":[[[-14.2956,21.3332],[-14.1732,21.1445],[-14.1545,21.1181],[-14.2197,19.4285],[-14.2218,19.0005],[-13.2442,19.0005],[-12.6691,18.557],[-12.3421,18.8996],[-11.6779,19.3198],[-11.4506,19.2031],[-11.4225,19.4088],[-11.0348,19.7114],[-7.9877,19.7254],[-6.3716,23.124],[-6.5063,24.276],[-10.7878,21.52],[-12.378,21.3516],[-13.0321,21.5819],[-13.0152,21.3334],[-14.2956,21.3332]]]}},{"type":"Feature","properties":{"sourceId":"1159314015","regionId":"region.36eacc5f-5723-4dc4-802b-f83e73c90c89","countryId":"country.1powv0y"},"geometry":{"type":"Polygon","coordinates":[[[-14.9489,16.6706],[-14.597,16.6292],[-14.4066,16.6608],[-14.3433,16.6367],[-14.0156,16.3559],[-13.9641,16.2301],[-13.8113,16.1221],[-13.7183,16.1593],[-13.5899,16.3079],[-13.1816,16.414],[-13.1101,16.5759],[-12.9315,16.6164],[-12.823,16.8583],[-12.7995,16.9675],[-12.7279,17.0471],[-12.5179,17.1212],[-12.4915,17.1681],[-12.3102,17.2754],[-12.5448,17.4919],[-12.4787,18.2742],[-12.6691,18.557],[-13.7337,17.8],[-13.9587,17.6035],[-14.3202,17.0881],[-14.6202,16.8556],[-14.8348,16.7518],[-14.9489,16.6706]]]}},{"type":"Feature","properties":{"sourceId":"1159314023","regionId":"region.69e727fc-b1f2-4fb0-956a-5eb7207304aa","countryId":"country.1powv0y"},"geometry":{"type":"Polygon","coordinates":[[[-14.9489,16.6706],[-14.8348,16.7518],[-14.6202,16.8556],[-14.3202,17.0881],[-13.9587,17.6035],[-13.7337,17.8],[-12.6691,18.557],[-13.2442,19.0005],[-14.2218,19.0005],[-16.2104,18.9959],[-16.132,18.6286],[-16.0601,18.3909],[-15.7811,18.3931],[-15.7815,17.8866],[-16.0321,17.8864],[-16.049,17.6672],[-16.1726,17.2624],[-16.3431,16.9423],[-16.4592,16.6439],[-16.4672,16.4929],[-16.5392,16.2672],[-16.5273,15.9774],[-16.5423,15.8088],[-16.466,16.1741],[-16.3811,16.2467],[-16.3274,16.4746],[-16.1323,16.5548],[-16.0538,16.4954],[-15.813,16.5138],[-15.6722,16.4814],[-15.4909,16.5645],[-15.1251,16.5827],[-14.9489,16.6706]]]}},{"type":"Feature","properties":{"sourceId":"1159314029","regionId":"region.735192c2-4521-4b6f-8214-1381026ec698","countryId":"country.1powv0y"},"geometry":{"type":"Polygon","coordinates":[[[-13.7196,16.1356],[-13.6759,16.1069],[-13.4849,16.155],[-13.3137,15.9221],[-13.2378,15.6234],[-13.1222,15.6035],[-13.0896,15.497],[-12.9643,15.5092],[-12.8568,15.222],[-12.7466,15.1311],[-12.7054,15.2709],[-12.5877,15.4739],[-12.4941,15.5682],[-12.4631,15.6585],[-12.2375,15.8806],[-12.0049,15.9394],[-12.0103,16.0521],[-12.2222,16.1218],[-12.2402,16.2205],[-12.3884,16.209],[-12.4294,16.4428],[-12.6576,16.4851],[-12.8315,16.6737],[-12.823,16.8583],[-12.9315,16.6164],[-13.1101,16.5759],[-13.1816,16.414],[-13.5899,16.3079],[-13.7183,16.1593],[-13.7196,16.1356]]]}},{"type":"Feature","properties":{"sourceId":"1159314027","regionId":"region.50f16815-727c-424d-ba40-aed1b9c9b868","countryId":"country.1powv0y"},"geometry":{"type":"Polygon","coordinates":[[[-12.7466,15.1311],[-12.6896,15.0925],[-12.6229,15.1023],[-12.4715,14.998],[-12.3825,14.846],[-12.2641,14.7749],[-11.974,14.7798],[-11.8371,14.8931],[-11.8609,15.049],[-11.8169,15.2961],[-11.7017,15.5374],[-11.651,15.7264],[-11.5611,15.9048],[-11.6772,16.0311],[-11.821,16.0396],[-11.8342,15.9091],[-12.0049,15.9394],[-12.2375,15.8806],[-12.4631,15.6585],[-12.4941,15.5682],[-12.5877,15.4739],[-12.7054,15.2709],[-12.7466,15.1311]]]}},{"type":"Feature","properties":{"sourceId":"1159314033","regionId":"region.9e493ec4-5dc7-4c52-b51f-f81c05a570c0","countryId":"country.1powv0y"},"geometry":{"type":"Polygon","coordinates":[[[-6.3716,23.124],[-7.9877,19.7254],[-9.1497,17.2823],[-8.5983,17.3506],[-8.2892,17.023],[-8.7504,16.5317],[-8.8938,16.3917],[-8.869,16.3216],[-9.0675,16.0622],[-8.9695,15.857],[-8.9594,15.5391],[-9.0032,15.4955],[-8.0178,15.4951],[-6.8372,15.4947],[-6.3201,15.4945],[-5.516,15.4942],[-5.5088,15.5069],[-5.3533,16.312],[-5.6233,16.5278],[-5.7565,17.741],[-5.8575,18.6608],[-5.9635,19.6206],[-6.1137,20.9196],[-6.2194,21.8229],[-6.3716,23.124]]]}},{"type":"Feature","properties":{"sourceId":"1159314035","regionId":"region.3a8d6fa3-b766-4664-9dbb-7b75e23bf22c","countryId":"country.1powv0y"},"geometry":{"type":"Polygon","coordinates":[[[-9.0032,15.4955],[-8.9594,15.5391],[-8.9695,15.857],[-9.0675,16.0622],[-8.869,16.3216],[-8.8938,16.3917],[-8.7504,16.5317],[-8.2892,17.023],[-8.5983,17.3506],[-9.1497,17.2823],[-9.7227,17.5563],[-10.3325,17.5182],[-11.0795,17.7228],[-11.0586,17.524],[-10.9914,17.3914],[-11.0106,17.1608],[-10.9797,17.0998],[-10.9904,16.8164],[-10.8978,16.7402],[-10.8387,16.6141],[-10.7363,16.5664],[-10.8096,16.4227],[-10.8371,16.2483],[-10.7599,16.1851],[-10.7787,16.0449],[-10.6669,15.9381],[-10.5847,15.4281],[-10.3087,15.4352],[-10.1316,15.3726],[-9.8356,15.3711],[-9.6721,15.4307],[-9.4239,15.4405],[-9.4518,15.5592],[-9.3324,15.6876],[-9.3492,15.4956],[-9.1414,15.4956],[-9.0032,15.4955]]]}},{"type":"Feature","properties":{"sourceId":"1159314025","regionId":"region.87c97e2a-b10e-430a-acca-8db6b1714539","countryId":"country.1powv0y"},"geometry":{"type":"Polygon","coordinates":[[[-11.7017,15.5374],[-11.5243,15.6003],[-11.4096,15.6022],[-11.2982,15.451],[-11.0454,15.2702],[-10.9152,15.1029],[-10.7364,15.4226],[-10.5847,15.4281],[-10.6669,15.9381],[-10.7787,16.0449],[-10.7599,16.1851],[-10.8371,16.2483],[-10.8096,16.4227],[-10.7363,16.5664],[-10.8387,16.6141],[-10.8978,16.7402],[-10.9904,16.8164],[-10.9797,17.0998],[-11.0106,17.1608],[-10.9914,17.3914],[-11.0586,17.524],[-11.0795,17.7228],[-10.9707,18.3109],[-11.1039,18.2632],[-11.1942,18.1852],[-11.2125,18.0964],[-11.3234,18.0645],[-11.5479,18.0505],[-11.5743,17.9367],[-11.4916,17.7549],[-11.425,17.675],[-11.5185,17.3824],[-11.5271,17.1772],[-11.5704,17.1239],[-11.7525,17.1391],[-11.9099,17.0862],[-12.2136,17.1868],[-12.3102,17.2754],[-12.4915,17.1681],[-12.5179,17.1212],[-12.7279,17.0471],[-12.7995,16.9675],[-12.823,16.8583],[-12.8315,16.6737],[-12.6576,16.4851],[-12.4294,16.4428],[-12.3884,16.209],[-12.2402,16.2205],[-12.2222,16.1218],[-12.0103,16.0521],[-12.0049,15.9394],[-11.8342,15.9091],[-11.821,16.0396],[-11.6772,16.0311],[-11.5611,15.9048],[-11.651,15.7264],[-11.7017,15.5374]]]}},{"type":"Feature","properties":{"sourceId":"1159314017","regionId":"region.774d1e3e-baab-4970-b44b-8b32a6fd0d88","countryId":"country.1powv0y"},"geometry":{"type":"Polygon","coordinates":[[[-16.2104,18.9959],[-14.2218,19.0005],[-14.2197,19.4285],[-14.1545,21.1181],[-14.1732,21.1445],[-15.8398,21.1508],[-15.5784,20.7374],[-16.2273,19.5915],[-16.3232,19.4579],[-16.4078,19.3892],[-16.5218,19.3964],[-16.4746,19.2708],[-16.3683,19.2215],[-16.2104,18.9959]]]}},{"type":"Feature","properties":{"sourceId":"1159314019","regionId":"region.8d7f1cb7-6f7d-4081-b242-33143d310415","countryId":"country.1powv0y"},"geometry":{"type":"Polygon","coordinates":[[[-16.0321,17.8864],[-15.7815,17.8866],[-15.7811,18.3931],[-16.0601,18.3909],[-16.0242,17.9602],[-16.0321,17.8864]]]}},{"type":"Feature","properties":{"sourceId":"1159314037","regionId":"region.fb42b3aa-b16e-4255-90e9-525908e30d5b","countryId":"country.1powv0y"},"geometry":{"type":"Polygon","coordinates":[[[-7.9877,19.7254],[-11.0348,19.7114],[-11.4225,19.4088],[-11.4506,19.2031],[-11.6779,19.3198],[-12.3421,18.8996],[-12.6691,18.557],[-12.4787,18.2742],[-12.5448,17.4919],[-12.3102,17.2754],[-12.2136,17.1868],[-11.9099,17.0862],[-11.7525,17.1391],[-11.5704,17.1239],[-11.5271,17.1772],[-11.5185,17.3824],[-11.425,17.675],[-11.4916,17.7549],[-11.5743,17.9367],[-11.5479,18.0505],[-11.3234,18.0645],[-11.2125,18.0964],[-11.1942,18.1852],[-11.1039,18.2632],[-10.9707,18.3109],[-11.0795,17.7228],[-10.3325,17.5182],[-9.7227,17.5563],[-9.1497,17.2823],[-7.9877,19.7254]]]}}]}