{"type":"FeatureCollection","features":[{"type":"Feature","properties":{"sourceId":"1159310545","regionId":"region.a1f9ec8a-7f99-4b63-9847-8c6da0b50156","countryId":"country.f5u1ei"},"geometry":{"type":"Polygon","coordinates":[[[76.7774,35.6461],[76.5708,35.7513],[76.5653,35.8655],[76.312,35.8097],[76.166,35.8062],[76.0614,35.9916],[75.9223,36.0317],[75.8943,36.0974],[76.0144,36.2304],[75.9688,36.302],[75.9766,36.4626],[75.7905,36.6878],[75.5705,36.7667],[75.4105,36.7473],[75.3513,36.9158],[75.1001,36.9941],[74.9105,36.9626],[74.6625,37.0545],[74.5424,37.0217],[74.394,36.994],[74.0943,36.8312],[73.9469,36.8309],[73.7118,36.8941],[73.869,36.785],[73.6734,36.7045],[73.416,36.7521],[73.0782,36.7008],[73.0945,36.6033],[72.9808,36.4709],[72.6924,36.2711],[72.5649,36.2301],[72.5292,36.1026],[72.5882,36.0128],[72.5156,35.904],[72.7924,35.8376],[72.8722,35.8743],[73.0853,35.8765],[73.1496,35.8319],[73.1353,35.715],[73.5048,35.5339],[73.7584,35.527],[73.6889,35.3067],[73.7763,35.2351],[73.9243,35.1989],[74.1247,35.0992],[74.5207,35.106],[74.6338,34.9405],[74.9276,34.8134],[75.1614,34.862],[75.2319,34.7946],[75.2245,34.6386],[75.3481,34.5572],[75.6116,34.4984],[75.7771,34.5038],[76.0234,34.6772],[76.262,34.6847],[76.3999,34.7507],[76.5532,34.7258],[76.7439,34.8193],[76.782,34.9309],[76.9211,34.9207],[77.0131,34.9864],[77.049,35.1104],[76.7774,35.6461]]]}},{"type":"Feature","properties":{"sourceId":"1159309353","regionId":"region.a06f63e3-874f-40e8-a06a-d12016eff350","countryId":"country.f5u1ei"},"geometry":{"type":"Polygon","coordinates":[[[73.7118,36.8941],[73.1918,36.877],[72.8677,36.8304],[72.5652,36.8206],[72.4541,36.758],[72.2136,36.7264],[72.1716,36.6536],[72.0504,36.6186],[71.7363,36.3959],[71.6291,36.4595],[71.3824,36.2186],[71.2231,36.1254],[71.1699,36.0308],[71.3416,35.9473],[71.5198,35.6838],[71.4833,35.6266],[71.5935,35.5494],[71.5934,35.4642],[71.6111,35.3955],[71.5298,35.3009],[71.6337,35.2031],[71.5089,35.072],[71.4452,34.9378],[71.599,34.7788],[71.7837,34.781],[71.7573,34.6602],[71.6403,34.5369],[71.6526,34.3907],[71.3765,34.1194],[71.3763,33.9916],[71.4271,33.872],[71.5981,33.7366],[71.729,33.84],[71.8529,33.7532],[71.8397,33.6331],[71.6527,33.5495],[71.6029,33.6401],[71.333,33.6337],[71.201,33.7233],[71.1001,33.5942],[70.9921,33.5559],[70.7538,33.5812],[70.7303,33.4957],[70.5078,33.4303],[70.5845,33.2834],[70.871,33.1824],[70.7915,33.102],[70.6325,33.0425],[70.5431,33.0497],[70.3767,32.8296],[70.3745,32.7236],[70.5786,32.513],[70.4636,32.502],[70.4265,32.4254],[70.2836,32.3053],[70.2181,32.3055],[70.0743,32.1814],[70.211,31.8857],[70.2076,31.8096],[70.4006,31.2471],[70.5705,31.3257],[70.7781,31.2942],[70.8706,31.4247],[70.8546,31.5524],[70.8995,31.7097],[70.9931,31.898],[71.1175,32.0812],[71.229,32.1819],[71.3499,32.5018],[71.1644,32.6072],[71.1338,32.8111],[71.1796,32.9631],[71.4674,33.06],[71.4108,33.2111],[71.5384,33.2255],[71.7004,33.0616],[71.7514,33.2055],[71.7035,33.2567],[71.741,33.3757],[71.842,33.4023],[71.9533,33.5265],[72.0221,33.7463],[72.0876,33.79],[72.2344,33.7661],[72.2406,33.9381],[72.5255,34.0212],[72.6159,33.8852],[72.7607,33.9435],[72.8416,33.8773],[72.8447,33.7571],[72.9275,33.7275],[73.1262,33.8043],[73.3119,33.8676],[73.3824,33.9701],[73.5186,34.0078],[73.4741,34.2692],[73.4002,34.3755],[73.4471,34.558],[73.6389,34.5855],[73.6479,34.6678],[73.7584,34.7925],[74.0121,34.8762],[74.1247,35.0992],[73.9243,35.1989],[73.7763,35.2351],[73.6889,35.3067],[73.7584,35.527],[73.5048,35.5339],[73.1353,35.715],[73.1496,35.8319],[73.0853,35.8765],[72.8722,35.8743],[72.7924,35.8376],[72.5156,35.904],[72.5882,36.0128],[72.5292,36.1026],[72.5649,36.2301],[72.6924,36.2711],[72.9808,36.4709],[73.0945,36.6033],[73.0782,36.7008],[73.416,36.7521],[73.6734,36.7045],[73.869,36.785],[73.7118,36.8941]]]}},{"type":"Feature","properties":{"sourceId":"1159309347","regionId":"region.1916bf4c-8526-4707-b2c0-3caaf1fc73e0","countryId":"country.f5u1ei"},"geometry":{"type":"Polygon","coordinates":[[[71.4452,34.9378],[71.2895,34.875],[71.2031,34.7482],[71.0806,34.6729],[71.0658,34.5585],[70.9834,34.5553],[70.9708,34.4689],[71.122,34.3568],[71.1018,34.1518],[71.0467,34.0419],[70.8622,33.9648],[70.522,33.9387],[70.3282,33.9573],[70.0028,34.0438],[69.9054,34.0358],[69.8411,33.9418],[69.9965,33.7421],[70.1082,33.7273],[70.1702,33.6387],[70.155,33.5066],[70.2857,33.3829],[70.2944,33.3189],[70.1248,33.199],[69.8809,33.0892],[69.7718,33.1148],[69.5475,33.075],[69.4781,33.0114],[69.4773,32.8568],[69.3872,32.7853],[69.4291,32.6674],[69.282,32.5328],[69.228,32.4213],[69.2644,32.3224],[69.251,32.1307],[69.3012,31.9413],[69.57,31.9487],[69.7081,32.0469],[69.8217,32.0576],[69.8445,31.8712],[69.9295,31.798],[69.9148,31.5154],[70.0731,31.414],[70.2577,31.3925],[70.2391,31.0728],[70.2642,31.1551],[70.4006,31.2471],[70.2076,31.8096],[70.211,31.8857],[70.0743,32.1814],[70.2181,32.3055],[70.2836,32.3053],[70.4265,32.4254],[70.4636,32.502],[70.5786,32.513],[70.3745,32.7236],[70.3767,32.8296],[70.5431,33.0497],[70.6325,33.0425],[70.7915,33.102],[70.871,33.1824],[70.5845,33.2834],[70.5078,33.4303],[70.7303,33.4957],[70.7538,33.5812],[70.9921,33.5559],[71.1001,33.5942],[71.201,33.7233],[71.333,33.6337],[71.6029,33.6401],[71.6527,33.5495],[71.8397,33.6331],[71.8529,33.7532],[71.729,33.84],[71.5981,33.7366],[71.4271,33.872],[71.3763,33.9916],[71.3765,34.1194],[71.6526,34.3907],[71.6403,34.5369],[71.7573,34.6602],[71.7837,34.781],[71.599,34.7788],[71.4452,34.9378]]]}},{"type":"Feature","properties":{"sourceId":"1159310539","regionId":"region.7a1ca950-c285-4093-ba7f-ef5f23ea8a7b","countryId":"country.f5u1ei"},"geometry":{"type":"Polygon","coordinates":[[[69.3012,31.9413],[69.1143,31.7378],[69.004,31.6511],[68.7773,31.6186],[68.6758,31.7747],[68.5275,31.823],[68.3561,31.7625],[68.1591,31.8259],[68.0983,31.7591],[67.9552,31.6332],[67.8427,31.6235],[67.7483,31.5444],[67.569,31.5299],[67.597,31.4257],[67.7704,31.3947],[67.7494,31.328],[67.3462,31.2078],[67.0229,31.2394],[66.9433,31.3147],[66.697,31.1958],[66.6631,31.0831],[66.55,30.977],[66.3663,30.9229],[66.268,30.6014],[66.3218,30.4374],[66.3009,30.2256],[66.2252,30.0444],[66.3405,29.9566],[66.1956,29.8353],[65.0364,29.5402],[64.8203,29.5679],[64.4995,29.5702],[64.2077,29.5],[64.0861,29.3866],[63.972,29.4296],[63.5686,29.4975],[62.6026,29.4181],[62.3745,29.4249],[61.6134,29.6385],[60.8444,29.8582],[61.2792,29.4066],[61.3423,29.2545],[61.4878,29.0807],[61.5665,28.871],[61.653,28.7563],[61.8928,28.5426],[62.0491,28.4863],[62.3628,28.4189],[62.5756,28.229],[62.7393,28.2583],[62.7664,28.2115],[62.7357,27.995],[62.7803,27.8297],[62.8147,27.495],[62.756,27.3481],[62.8006,27.2252],[62.9196,27.2149],[63.167,27.2587],[63.2515,27.219],[63.2299,27.0541],[63.2649,26.89],[63.1823,26.8303],[63.1413,26.6254],[62.7536,26.6442],[62.5953,26.5807],[62.428,26.5648],[62.292,26.5012],[62.2434,26.3506],[61.8571,26.2424],[61.8099,26.1674],[61.7601,25.8376],[61.6604,25.7692],[61.62,25.2855],[61.5882,25.2021],[61.7801,25.1625],[61.7201,25.0374],[61.8352,25.0384],[61.8811,25.103],[62.0756,25.1007],[62.08,25.1972],[62.2542,25.212],[62.3659,25.1794],[62.4772,25.2591],[62.7705,25.2619],[63.0278,25.2204],[63.1785,25.258],[63.5005,25.1937],[63.4852,25.2843],[63.5725,25.365],[63.8049,25.375],[63.9441,25.3349],[64.0667,25.3463],[64.3607,25.283],[64.5184,25.2756],[64.6628,25.2291],[64.7185,25.3144],[64.8073,25.3285],[65.1553,25.2961],[65.2323,25.3707],[65.3954,25.3923],[65.6716,25.3474],[65.8584,25.4175],[66.2518,25.4729],[66.437,25.5977],[66.5871,25.4262],[66.5479,25.3656],[66.7175,25.2312],[66.6813,24.9105],[66.7044,24.892],[66.8622,25.0094],[66.9663,25.043],[67.0272,25.1617],[67.1376,25.2765],[67.1701,25.4172],[67.3737,25.6727],[67.4399,25.8617],[67.4373,26.1112],[67.1809,26.5393],[67.153,26.7355],[67.1428,27.3335],[67.1858,27.5126],[67.4021,27.8639],[67.6835,27.9258],[67.9251,28.0231],[67.9993,28.1142],[68.438,28.4293],[68.6043,28.475],[68.7757,28.465],[69.3852,28.4866],[69.3329,28.5587],[69.4713,28.6932],[69.531,28.8254],[69.5203,28.9381],[69.7075,29.1298],[69.7427,29.2803],[69.6671,29.3919],[69.5694,29.4482],[69.63,29.6863],[69.727,29.7086],[69.8478,29.8272],[70.0391,30.248],[69.9298,30.2895],[69.9789,30.4541],[70.2257,30.8745],[70.2391,31.0728],[70.2577,31.3925],[70.0731,31.414],[69.9148,31.5154],[69.9295,31.798],[69.8445,31.8712],[69.8217,32.0576],[69.7081,32.0469],[69.57,31.9487],[69.3012,31.9413]]]}},{"type":"Feature","properties":{"sourceId":"1159309349","regionId":"region.1a9c88a2-fb82-4163-8a3a-3482b5f80d4b","countryId":"country.f5u1ei"},"geometry":{"type":"Polygon","coordinates":[[[75.2984,32.3324],[75.0237,32.4663],[74.725,32.4608],[74.6296,32.5881],[74.6497,32.7231],[74.317,32.8231],[73.983,32.9691],[73.8224,33.0132],[73.6225,33.1245],[73.5738,33.3874],[73.6276,33.4521],[73.6252,33.5755],[73.5672,33.8034],[73.5798,33.9105],[73.5186,34.0078],[73.3824,33.9701],[73.3119,33.8676],[73.1262,33.8043],[73.3205,33.6871],[73.1825,33.4963],[73.0463,33.628],[72.9018,33.5751],[72.8328,33.686],[72.9275,33.7275],[72.8447,33.7571],[72.8416,33.8773],[72.7607,33.9435],[72.6159,33.8852],[72.5255,34.0212],[72.2406,33.9381],[72.2344,33.7661],[72.0876,33.79],[72.0221,33.7463],[71.9533,33.5265],[71.842,33.4023],[71.741,33.3757],[71.7035,33.2567],[71.7514,33.2055],[71.7004,33.0616],[71.5384,33.2255],[71.4108,33.2111],[71.4674,33.06],[71.1796,32.9631],[71.1338,32.8111],[71.1644,32.6072],[71.3499,32.5018],[71.229,32.1819],[71.1175,32.0812],[70.9931,31.898],[70.8995,31.7097],[70.8546,31.5524],[70.8706,31.4247],[70.7781,31.2942],[70.5705,31.3257],[70.4006,31.2471],[70.2642,31.1551],[70.2391,31.0728],[70.2257,30.8745],[69.9789,30.4541],[69.9298,30.2895],[70.0391,30.248],[69.8478,29.8272],[69.727,29.7086],[69.63,29.6863],[69.5694,29.4482],[69.6671,29.3919],[69.7427,29.2803],[69.7075,29.1298],[69.5203,28.9381],[69.531,28.8254],[69.4713,28.6932],[69.3329,28.5587],[69.3852,28.4866],[69.4914,28.5273],[69.7324,28.4662],[69.7995,28.3952],[69.8994,28.1114],[69.9772,28.0019],[70.189,27.8918],[70.3419,28.0115],[70.4562,28.0398],[70.6332,27.9316],[70.7104,27.7412],[70.8316,27.7015],[71.1507,27.8224],[71.3114,27.8617],[71.5607,27.8685],[71.8609,27.9502],[71.8916,28.0971],[71.9882,28.2281],[72.1499,28.3538],[72.2565,28.6456],[72.3822,28.784],[72.9015,29.0226],[73.0509,29.2282],[73.2329,29.5366],[73.3703,29.9273],[73.5578,30.0125],[73.7397,30.0485],[73.9468,30.2041],[73.8518,30.3727],[73.9391,30.4261],[74.0571,30.5916],[74.1637,30.6649],[74.3298,30.8996],[74.5193,30.9625],[74.601,31.0566],[74.5064,31.1754],[74.5322,31.3032],[74.6119,31.4402],[74.4894,31.7112],[74.5656,31.8405],[74.8286,32.0254],[74.9557,32.0322],[75.2947,32.1489],[75.359,32.2617],[75.2984,32.3324]]]}},{"type":"Feature","properties":{"sourceId":"1159309351","regionId":"region.6c196ac4-1a35-4887-b1e1-3873fd163295","countryId":"country.f5u1ei"},"geometry":{"type":"Polygon","coordinates":[[[70.189,27.8918],[69.9772,28.0019],[69.8994,28.1114],[69.7995,28.3952],[69.7324,28.4662],[69.4914,28.5273],[69.3852,28.4866],[68.7757,28.465],[68.6043,28.475],[68.438,28.4293],[67.9993,28.1142],[67.9251,28.0231],[67.6835,27.9258],[67.4021,27.8639],[67.1858,27.5126],[67.1428,27.3335],[67.153,26.7355],[67.1809,26.5393],[67.4373,26.1112],[67.4399,25.8617],[67.3737,25.6727],[67.1701,25.4172],[67.1376,25.2765],[67.0272,25.1617],[66.9663,25.043],[66.8622,25.0094],[66.7044,24.892],[66.7796,24.851],[66.9651,24.8436],[67.176,24.7577],[67.1496,24.6351],[67.2468,24.468],[67.3003,24.1863],[67.354,24.0709],[67.4407,24.0703],[67.5205,23.9071],[67.6316,23.8035],[67.8026,23.8128],[67.8645,23.8658],[68.1022,23.7338],[68.183,23.8421],[68.2519,23.9048],[68.4316,23.9671],[68.7245,23.9652],[68.7259,24.2892],[68.8903,24.3195],[68.9808,24.2554],[69.2808,24.2837],[69.5631,24.2768],[69.6706,24.1887],[69.972,24.1652],[70.0521,24.2021],[70.1097,24.3049],[70.4164,24.4019],[70.5629,24.4241],[70.5602,24.2873],[70.7555,24.2314],[70.9177,24.3617],[70.9967,24.3566],[70.9548,24.5845],[71.0566,24.6928],[70.8933,25.0019],[70.8599,25.1394],[70.7231,25.2873],[70.6466,25.4314],[70.6575,25.6336],[70.5923,25.7088],[70.4772,25.6763],[70.2646,25.6973],[70.0646,25.9803],[70.132,26.1805],[70.1581,26.5301],[70.0561,26.5891],[69.8156,26.5803],[69.6594,26.6777],[69.5042,26.7352],[69.4651,26.8078],[69.5076,27.0501],[69.5756,27.1884],[69.848,27.4104],[70.0169,27.6006],[70.0907,27.7936],[70.189,27.8918]]]}},{"type":"Feature","properties":{"sourceId":"1159310503","regionId":"region.94e8605a-b5e4-4e71-9bdb-25f08e9beb92","countryId":"country.f5u1ei"},"geometry":{"type":"Polygon","coordinates":[[[75.2245,34.6386],[75.2319,34.7946],[75.1614,34.862],[74.9276,34.8134],[74.6338,34.9405],[74.5207,35.106],[74.1247,35.0992],[74.0121,34.8762],[73.7584,34.7925],[73.6479,34.6678],[73.6389,34.5855],[73.4471,34.558],[73.4002,34.3755],[73.4741,34.2692],[73.5186,34.0078],[73.5798,33.9105],[73.5672,33.8034],[73.6252,33.5755],[73.6276,33.4521],[73.5738,33.3874],[73.6225,33.1245],[73.8224,33.0132],[73.983,32.9691],[74.317,32.8231],[74.322,32.972],[74.1539,33.0402],[74.0023,33.1777],[74.0017,33.2702],[74.1055,33.3452],[74.1416,33.5494],[73.9767,33.6484],[74.0346,33.8286],[74.2395,33.901],[74.2284,34.0129],[73.9458,34.0098],[73.8844,34.0842],[73.9983,34.1968],[73.9377,34.3042],[73.7749,34.371],[73.9622,34.6682],[74.1209,34.6909],[74.2858,34.7689],[74.4121,34.7645],[74.6649,34.6883],[75.0178,34.6297],[75.2245,34.6386]]]}},{"type":"Feature","properties":{"sourceId":"1159310541","regionId":"region.47a6e340-4b46-4173-a791-c021bfc8e511","countryId":"country.f5u1ei"},"geometry":{"type":"Polygon","coordinates":[[[72.9275,33.7275],[72.8328,33.686],[72.9018,33.5751],[73.0463,33.628],[73.1825,33.4963],[73.3205,33.6871],[73.1262,33.8043],[72.9275,33.7275]]]}}]}