{"type":"FeatureCollection","features":[{"type":"Feature","properties":{"sourceId":"1159315665","regionId":"region.e956a7ca-e71e-4aca-922b-d7fbcf739e29","countryId":"country.19iew1b"},"geometry":{"type":"Polygon","coordinates":[[[35.7576,32.7443],[35.7697,32.7481],[35.8468,32.8358],[35.9238,32.9677],[35.8771,32.9926],[35.9106,33.1354],[35.843,33.3228],[35.8701,33.4312],[35.8451,33.4187],[35.8211,33.4067],[35.8036,33.2485],[35.8881,32.9449],[35.7576,32.7443]]]}},{"type":"Feature","properties":{"sourceId":"1159308435","regionId":"region.65d8ffcc-19f8-4c12-85db-212ea8a3c313","countryId":"country.19iew1b"},"geometry":{"type":"Polygon","coordinates":[[[36.1121,34.6295],[36.3889,34.5962],[36.3299,34.4986],[36.4197,34.4983],[36.6036,34.2001],[36.8701,34.2279],[37.0346,34.0356],[37.2555,33.942],[37.3205,33.8458],[37.5468,33.6754],[37.648,33.5279],[37.9082,33.4047],[38.3157,33.1312],[38.7745,33.3717],[39.438,33.7041],[40.1731,34.0723],[39.4445,34.9364],[39.3744,35.1492],[39.242,35.2493],[38.6842,35.3723],[38.3017,35.3823],[38.3,35.2536],[38.2326,35.0861],[38.0528,35.0024],[37.986,34.8985],[37.7368,35.1186],[37.5683,35.0826],[37.4512,34.9874],[37.1069,34.9277],[36.9728,34.8609],[36.8736,34.9783],[36.4194,34.8516],[36.3132,34.9009],[36.1865,34.7687],[36.1121,34.6295]]]}},{"type":"Feature","properties":{"sourceId":"1159308427","regionId":"region.2b01b0e0-91ce-4d83-beab-d3de615d2888","countryId":"country.19iew1b"},"geometry":{"type":"Polygon","coordinates":[[[35.9699,34.6498],[36.1121,34.6295],[36.1865,34.7687],[36.3132,34.9009],[36.2601,34.9663],[36.253,35.2234],[36.0256,35.2195],[35.9312,35.2615],[35.8669,34.9242],[35.9699,34.6498]]]}},{"type":"Feature","properties":{"sourceId":"1159308447","regionId":"region.c718a9cb-8155-4904-b8a3-d56be3162349","countryId":"country.19iew1b"},"geometry":{"type":"Polygon","coordinates":[[[36.6036,34.2001],[36.3911,34.0447],[36.2672,33.9104],[36.0504,33.8164],[35.9216,33.6403],[36.0129,33.608],[35.8701,33.4312],[35.843,33.3228],[35.9617,33.2048],[35.9997,33.1792],[36.2134,33.2263],[36.3425,33.2059],[36.5032,33.2945],[36.5709,33.194],[36.8238,33.2247],[36.9846,33.0637],[37.2748,32.9181],[37.2839,32.8626],[37.4946,32.6901],[38.3157,33.1312],[37.9082,33.4047],[37.648,33.5279],[37.5468,33.6754],[37.3205,33.8458],[37.2555,33.942],[37.0346,34.0356],[36.8701,34.2279],[36.6036,34.2001]],[[36.3166,33.4607],[36.2216,33.5495],[36.3511,33.5439],[36.3166,33.4607]]]}},{"type":"Feature","properties":{"sourceId":"1159308439","regionId":"region.8494cfa0-74a3-477a-96a6-00ed98ccb76d","countryId":"country.19iew1b"},"geometry":{"type":"Polygon","coordinates":[[[42.3572,37.11],[42.3532,37.227],[42.1785,37.3063],[42.0092,37.1756],[41.8964,37.1543],[41.4798,37.0756],[41.2013,37.065],[40.8964,37.1227],[40.709,37.1005],[40.4352,37.0106],[40.2614,36.9228],[39.9798,36.807],[39.7653,36.7422],[39.4417,36.6924],[39.5248,36.5668],[39.6283,36.5599],[39.8045,36.4637],[39.9007,36.3243],[40.775,35.6263],[40.9995,35.5692],[41.3085,35.5522],[41.3635,35.6552],[41.3437,35.8577],[41.2406,36.043],[41.277,36.3548],[41.4149,36.5274],[41.7899,36.5893],[41.8438,36.6179],[42.3768,37.062],[42.3572,37.11]]]}},{"type":"Feature","properties":{"sourceId":"1159308429","regionId":"region.77c9bb8f-7587-46be-b75a-703582de571c","countryId":"country.19iew1b"},"geometry":{"type":"Polygon","coordinates":[[[39.4417,36.6924],[39.1859,36.6595],[39.0322,36.7012],[38.7954,36.6867],[38.6352,36.744],[38.671,36.6253],[38.6314,36.4294],[38.4252,36.292],[38.1946,36.263],[38.066,36.1477],[38.085,36.0543],[38.1752,35.973],[38.0799,35.8249],[38.0208,35.643],[38.2348,35.4359],[38.3017,35.3823],[38.6842,35.3723],[39.242,35.2493],[39.6666,35.7576],[39.6414,35.8643],[39.8045,36.4637],[39.6283,36.5599],[39.5248,36.5668],[39.4417,36.6924]]]}},{"type":"Feature","properties":{"sourceId":"1159308431","regionId":"region.68b5afa4-7087-48f7-a6a0-b42813b14d44","countryId":"country.19iew1b"},"geometry":{"type":"Polygon","coordinates":[[[38.6352,36.744],[38.5294,36.8337],[38.1901,36.9055],[38.026,36.835],[37.5221,36.6736],[37.4461,36.6342],[37.2419,36.6586],[37.0145,36.6423],[36.9647,36.7538],[36.6596,36.8272],[36.6033,36.747],[36.5355,36.494],[36.5878,36.3248],[36.6488,36.3057],[36.7694,36.33],[36.8404,36.2263],[36.7262,36.1265],[36.8809,36.0307],[37.1293,35.5916],[37.2164,35.5515],[37.3534,35.5022],[37.5759,35.5113],[37.8085,35.4349],[38.2348,35.4359],[38.0208,35.643],[38.0799,35.8249],[38.1752,35.973],[38.085,36.0543],[38.066,36.1477],[38.1946,36.263],[38.4252,36.292],[38.6314,36.4294],[38.671,36.6253],[38.6352,36.744]]]}},{"type":"Feature","properties":{"sourceId":"1159308437","regionId":"region.f1af0fa3-7de8-43a9-a334-ff5f9e1b6e7c","countryId":"country.19iew1b"},"geometry":{"type":"Polygon","coordinates":[[[36.6488,36.3057],[36.6643,36.229],[36.4986,36.2279],[36.3605,36.1817],[36.3555,36.0224],[36.1969,35.9517],[36.1553,35.8222],[36.2548,35.7559],[36.4138,35.6984],[36.3929,35.5001],[36.4261,35.4366],[36.6994,35.3901],[36.8198,35.417],[36.904,35.3584],[37.0795,35.408],[37.2164,35.5515],[37.1293,35.5916],[36.8809,36.0307],[36.7262,36.1265],[36.8404,36.2263],[36.7694,36.33],[36.6488,36.3057]]]}},{"type":"Feature","properties":{"sourceId":"1159308425","regionId":"region.79da57b0-7194-4aeb-8ec5-880b9c1e895a","countryId":"country.19iew1b"},"geometry":{"type":"Polygon","coordinates":[[[36.1553,35.8222],[35.9113,35.9178],[35.8119,35.8354],[35.8386,35.7421],[35.7766,35.6751],[35.7781,35.5412],[35.9089,35.4257],[35.9312,35.2615],[36.0256,35.2195],[36.253,35.2234],[36.2013,35.4252],[36.2548,35.7559],[36.1553,35.8222]]]}},{"type":"Feature","properties":{"sourceId":"1159308445","regionId":"region.794a629a-abb2-4f6a-9584-c402754bfaac","countryId":"country.19iew1b"},"geometry":{"type":"Polygon","coordinates":[[[37.4946,32.6901],[37.2839,32.8626],[37.2748,32.9181],[36.9846,33.0637],[36.8238,33.2247],[36.5709,33.194],[36.4711,33.152],[36.4959,33.0542],[36.3412,32.9439],[36.3628,32.6971],[36.4022,32.5767],[36.495,32.5662],[36.5167,32.357],[36.8194,32.3168],[37.4946,32.6901]]]}},{"type":"Feature","properties":{"sourceId":"1159308451","regionId":"region.9c47e2f3-6653-45e8-bb02-54b70c70e461","countryId":"country.19iew1b"},"geometry":{"type":"Polygon","coordinates":[[[35.7697,32.7481],[35.8957,32.7133],[36.0819,32.5163],[36.1774,32.5273],[36.3731,32.3864],[36.5167,32.357],[36.495,32.5662],[36.4022,32.5767],[36.3628,32.6971],[36.3412,32.9439],[36.4959,33.0542],[36.4711,33.152],[36.5709,33.194],[36.5032,33.2945],[36.3425,33.2059],[36.2134,33.2263],[35.9997,33.1792],[35.9617,33.2048],[35.98,33.1261],[35.9367,32.9068],[35.8468,32.8358],[35.7697,32.7481]]]}},{"type":"Feature","properties":{"sourceId":"1159308443","regionId":"region.994ce599-ac20-4e55-b1a5-2074d8aad90f","countryId":"country.19iew1b"},"geometry":{"type":"Polygon","coordinates":[[[41.3085,35.5522],[40.9995,35.5692],[40.775,35.6263],[39.9007,36.3243],[39.8045,36.4637],[39.6414,35.8643],[39.6666,35.7576],[39.242,35.2493],[39.3744,35.1492],[39.4445,34.9364],[40.1731,34.0723],[40.6905,34.3315],[40.936,34.3861],[40.988,34.4285],[41.1957,34.7685],[41.1923,35.1589],[41.2613,35.4943],[41.3085,35.5522]]]}},{"type":"Feature","properties":{"sourceId":"1159308449","regionId":"region.77036d08-3082-42d5-9d86-0ad59e97f0f7","countryId":"country.19iew1b"},"geometry":{"type":"Polygon","coordinates":[[[35.8468,32.8358],[35.9367,32.9068],[35.98,33.1261],[35.9617,33.2048],[35.843,33.3228],[35.9106,33.1354],[35.8771,32.9926],[35.9238,32.9677],[35.8468,32.8358]]]}},{"type":"Feature","properties":{"sourceId":"1159308433","regionId":"region.5def1d08-3cf9-4f2f-8365-33c71b84769a","countryId":"country.19iew1b"},"geometry":{"type":"Polygon","coordinates":[[[37.2164,35.5515],[37.0795,35.408],[36.904,35.3584],[36.8198,35.417],[36.6994,35.3901],[36.4261,35.4366],[36.3929,35.5001],[36.4138,35.6984],[36.2548,35.7559],[36.2013,35.4252],[36.253,35.2234],[36.2601,34.9663],[36.3132,34.9009],[36.4194,34.8516],[36.8736,34.9783],[36.9728,34.8609],[37.1069,34.9277],[37.4512,34.9874],[37.5683,35.0826],[37.7368,35.1186],[37.986,34.8985],[38.0528,35.0024],[38.2326,35.0861],[38.3,35.2536],[38.3017,35.3823],[38.2348,35.4359],[37.8085,35.4349],[37.5759,35.5113],[37.3534,35.5022],[37.2164,35.5515]]]}},{"type":"Feature","properties":{"sourceId":"1159315915","regionId":"region.bdd11365-c8ed-4c05-943a-074910e6f016","countryId":"country.19iew1b"},"geometry":{"type":"Polygon","coordinates":[[[36.3166,33.4607],[36.3511,33.5439],[36.2216,33.5495],[36.3166,33.4607]]]}}]}