{"type":"FeatureCollection","features":[{"type":"Feature","properties":{"sourceId":"1159315099","regionId":"region.ad30b05b-6bd6-4b4b-991d-83d2a3f4128f","countryId":"country.ukura0"},"geometry":{"type":"Polygon","coordinates":[[[-8.1524,9.95],[-8.1235,9.8449],[-8.1616,9.5756],[-8.0704,9.3975],[-7.8654,9.4099],[-7.9296,9.1839],[-7.7482,9.0754],[-7.6664,8.9546],[-7.3719,8.7089],[-7.1865,8.5236],[-7.2203,8.6423],[-7.1908,8.796],[-7.23,8.8702],[-7.1345,9.0051],[-6.9052,8.955],[-6.8973,9.0523],[-6.7466,9.1178],[-6.7369,9.2706],[-6.7977,9.5653],[-6.7429,9.6969],[-6.7336,9.8443],[-6.8028,9.9519],[-6.9298,9.9478],[-6.8553,10.1309],[-6.6719,10.1169],[-6.5835,10.1672],[-6.6683,10.3658],[-6.8039,10.3709],[-6.9731,10.3323],[-6.9594,10.1855],[-7.0405,10.1401],[-7.1064,10.2073],[-7.347,10.2479],[-7.4444,10.3342],[-7.4662,10.4295],[-7.6437,10.4405],[-7.7086,10.4025],[-7.829,10.2117],[-7.9897,10.162],[-8.1088,10.0542],[-8.1524,9.95]]]}},{"type":"Feature","properties":{"sourceId":"1159315103","regionId":"region.0454af22-6bc0-4124-8322-0ae89ef463fe","countryId":"country.ukura0"},"geometry":{"type":"Polygon","coordinates":[[[-7.7482,9.0754],[-7.9167,9.0123],[-7.9589,8.782],[-7.8037,8.7491],[-7.6916,8.6061],[-7.6896,8.4387],[-7.771,8.3865],[-7.8986,8.4263],[-7.9705,8.497],[-8.2003,8.4918],[-8.266,8.246],[-8.0855,8.162],[-7.9656,8.0269],[-7.8555,7.9997],[-7.7767,7.8955],[-7.6685,7.8428],[-7.5631,7.8668],[-7.4969,7.935],[-7.5122,8.081],[-7.4497,8.1668],[-7.2823,8.0675],[-7.2395,7.9948],[-7.0838,7.9893],[-7.1265,8.3036],[-7.1865,8.5236],[-7.3719,8.7089],[-7.6664,8.9546],[-7.7482,9.0754]]]}},{"type":"Feature","properties":{"sourceId":"1159315105","regionId":"region.6e315e82-80e4-46ee-8c01-76019a05148b","countryId":"country.ukura0"},"geometry":{"type":"Polygon","coordinates":[[[-7.9656,8.0269],[-8.0672,8.0208],[-8.1289,7.8826],[-8.1274,7.713],[-8.229,7.5443],[-8.3032,7.5893],[-8.4854,7.558],[-8.4436,7.5371],[-8.3877,7.315],[-8.3026,7.1376],[-8.2841,7.0179],[-8.3166,6.8363],[-8.4416,6.6553],[-8.3203,6.586],[-8.0921,6.8048],[-8.0762,6.9166],[-7.9639,6.9574],[-7.8335,6.8462],[-7.6221,6.847],[-7.6038,6.9293],[-7.3013,6.9643],[-7.0627,6.9295],[-7.0407,7.0791],[-7.0791,7.1708],[-7.0853,7.366],[-7.0059,7.4455],[-7.0716,7.7195],[-7.0838,7.9893],[-7.2395,7.9948],[-7.2823,8.0675],[-7.4497,8.1668],[-7.5122,8.081],[-7.4969,7.935],[-7.5631,7.8668],[-7.6685,7.8428],[-7.7767,7.8955],[-7.8555,7.9997],[-7.9656,8.0269]]]}},{"type":"Feature","properties":{"sourceId":"1159315121","regionId":"region.800c2b1f-61b8-47ef-bb4c-992ecd30a714","countryId":"country.ukura0"},"geometry":{"type":"Polygon","coordinates":[[[-2.6892,9.4887],[-2.7637,9.3919],[-2.9102,9.5427],[-2.99,9.7084],[-3.0946,9.7339],[-3.2026,9.9082],[-3.2779,9.8435],[-3.3892,9.9132],[-3.6063,9.9182],[-3.6617,9.9489],[-3.8916,9.8939],[-4.0599,9.7963],[-4.133,9.8204],[-4.2703,9.7439],[-4.3225,9.609],[-4.1964,9.4446],[-4.1737,9.2333],[-4.0905,9.2675],[-3.9565,9.2015],[-3.872,9.1036],[-3.882,8.9221],[-3.8202,8.7809],[-3.9317,8.6139],[-3.9787,8.5098],[-3.9437,8.4382],[-4.0199,8.1838],[-4.0101,8.0283],[-3.9766,7.913],[-3.8799,7.885],[-3.8167,7.74],[-3.5414,7.4956],[-3.535,7.3379],[-3.4206,7.3188],[-3.3417,7.2495],[-3.2351,7.2247],[-3.1395,7.1525],[-3.0966,7.0545],[-2.9817,7.1955],[-2.9905,7.2707],[-2.9415,7.5772],[-2.84,7.8202],[-2.6194,8.1231],[-2.5063,8.2093],[-2.6031,8.7852],[-2.6608,9.0149],[-2.7748,9.055],[-2.7594,9.1348],[-2.6598,9.2729],[-2.6892,9.4887]]]}},{"type":"Feature","properties":{"sourceId":"1159315133","regionId":"region.9e11b614-5e81-4fdb-9b39-0df0184575cc","countryId":"country.ukura0"},"geometry":{"type":"Polygon","coordinates":[[[-3.0966,7.0545],[-3.1395,7.1525],[-3.2351,7.2247],[-3.3417,7.2495],[-3.4206,7.3188],[-3.535,7.3379],[-3.5823,7.2748],[-3.6188,7.082],[-3.7516,7.0001],[-3.7297,6.912],[-3.7963,6.7599],[-3.7749,6.6271],[-3.678,6.6235],[-3.6113,6.3558],[-3.5424,6.3763],[-3.3956,6.1628],[-3.4677,5.8376],[-3.4341,5.7803],[-3.309,5.9188],[-3.1717,6.2496],[-3.2625,6.6171],[-3.2104,6.716],[-3.2249,6.8494],[-3.0973,7.0541],[-3.0966,7.0545]]]}},{"type":"Feature","properties":{"sourceId":"1159315093","regionId":"region.d4331e27-0b2b-4f23-b8c6-da9e7b6b8ce8","countryId":"country.ukura0"},"geometry":{"type":"Polygon","coordinates":[[[-3.1717,6.2496],[-3.309,5.9188],[-3.4341,5.7803],[-3.4082,5.5235],[-3.437,5.2832],[-3.5388,5.1573],[-3.3122,5.1199],[-3.2302,5.3586],[-3.1344,5.3668],[-3.2051,5.2187],[-3.1391,5.1423],[-2.9467,5.1771],[-2.8437,5.1491],[-2.7809,5.1509],[-2.7896,5.3469],[-2.7327,5.3557],[-2.7818,5.5789],[-2.8775,5.6368],[-2.9695,5.6214],[-3.0298,5.7043],[-3.02,5.8184],[-3.0878,5.9967],[-3.1181,6.1635],[-3.1717,6.2496]]]}},{"type":"Feature","properties":{"sourceId":"1159315097","regionId":"region.c2675486-ef19-4a13-864f-e04cacb72a63","countryId":"country.ukura0"},"geometry":{"type":"Polygon","coordinates":[[[-5.5226,10.4255],[-5.594,10.4539],[-5.8063,10.4135],[-5.9048,10.3483],[-6.0159,10.1899],[-6.1809,10.2158],[-6.2433,10.289],[-6.1839,10.3589],[-6.1858,10.4813],[-6.2562,10.5372],[-6.2078,10.6375],[-6.28,10.7233],[-6.434,10.6679],[-6.4215,10.5566],[-6.5214,10.5642],[-6.6679,10.6509],[-6.6975,10.4883],[-6.6683,10.3658],[-6.5835,10.1672],[-6.6719,10.1169],[-6.8553,10.1309],[-6.9298,9.9478],[-6.8028,9.9519],[-6.7336,9.8443],[-6.7429,9.6969],[-6.7977,9.5653],[-6.7369,9.2706],[-6.7466,9.1178],[-6.606,9.0673],[-6.534,9.157],[-6.4602,9.0755],[-6.3466,9.1983],[-6.2153,9.134],[-6.2245,9],[-6.1087,8.877],[-5.9563,8.6406],[-5.6104,8.5292],[-5.7017,8.6317],[-5.6916,8.8411],[-5.4667,8.868],[-5.4972,9.0633],[-5.3381,9.3848],[-5.2163,9.3131],[-5.0191,9.2933],[-4.9733,9.1607],[-4.8828,9.0921],[-4.936,8.909],[-4.5711,8.8973],[-4.4045,8.8466],[-4.3452,8.7268],[-4.2107,8.6392],[-3.9317,8.6139],[-3.8202,8.7809],[-3.882,8.9221],[-3.872,9.1036],[-3.9565,9.2015],[-4.0905,9.2675],[-4.1737,9.2333],[-4.1964,9.4446],[-4.3225,9.609],[-4.5017,9.655],[-4.604,9.7272],[-4.7055,9.7021],[-4.8385,9.8695],[-4.9661,9.901],[-4.9745,10.0555],[-5.0483,10.0854],[-5.1199,10.294],[-5.2176,10.3199],[-5.4025,10.3006],[-5.5226,10.4255]]]}},{"type":"Feature","properties":{"sourceId":"1159315131","regionId":"region.a7ac69aa-82b2-413b-9233-22960bb6fbec","countryId":"country.ukura0"},"geometry":{"type":"Polygon","coordinates":[[[-8.4416,6.6553],[-8.6187,6.4928],[-8.5156,6.4376],[-8.4051,6.4363],[-8.3888,6.3551],[-8.1706,6.274],[-8.0601,6.3011],[-7.9349,6.2714],[-7.8441,6.184],[-7.7996,5.9745],[-7.6805,5.9409],[-7.5591,5.8399],[-7.4465,5.8459],[-7.418,5.6278],[-7.0941,5.6906],[-7.0816,5.9992],[-7.1103,6.491],[-6.9974,6.5579],[-6.9699,6.6967],[-7.0627,6.9295],[-7.3013,6.9643],[-7.6038,6.9293],[-7.6221,6.847],[-7.8335,6.8462],[-7.9639,6.9574],[-8.0762,6.9166],[-8.0921,6.8048],[-8.3203,6.586],[-8.4416,6.6553]]]}},{"type":"Feature","properties":{"sourceId":"1159315117","regionId":"region.9c688ef0-a527-44f0-8f1b-1fb510663a41","countryId":"country.ukura0"},"geometry":{"type":"Polygon","coordinates":[[[-7.418,5.6278],[-7.4099,5.5134],[-7.45,5.4228],[-7.3969,5.3664],[-7.4682,5.2735],[-7.4889,5.1407],[-7.5782,5.0547],[-7.5553,4.9484],[-7.606,4.8174],[-7.5769,4.7753],[-7.5738,4.3754],[-7.5407,4.3528],[-7.4568,4.3441],[-7.1735,4.5188],[-7.0582,4.539],[-6.9142,4.6557],[-6.6268,4.7246],[-6.5839,4.7604],[-6.1386,4.9152],[-5.8587,5.0277],[-5.873,5.1297],[-5.744,5.2759],[-5.8288,5.5595],[-5.9696,5.5148],[-6.0516,5.6782],[-6.1375,5.7949],[-6.2186,5.7781],[-6.3873,6.1508],[-6.3999,6.3048],[-6.4859,6.2758],[-6.59,6.311],[-6.6848,6.2475],[-6.8542,6.2595],[-6.9698,6.398],[-6.9974,6.5579],[-7.1103,6.491],[-7.0816,5.9992],[-7.0941,5.6906],[-7.418,5.6278]]]}},{"type":"Feature","properties":{"sourceId":"1159315115","regionId":"region.88e4fcf0-45a1-41bd-b35c-5304b9a27161","countryId":"country.ukura0"},"geometry":{"type":"Polygon","coordinates":[[[-5.4283,5.0989],[-5.4429,5.2334],[-5.3245,5.1908],[-5.2341,5.2231],[-5.0881,5.2315],[-4.9716,5.5836],[-4.9931,5.6532],[-4.9377,5.7957],[-4.9872,5.8893],[-5.0078,6.1108],[-5.1761,6.1535],[-5.2444,6.2181],[-5.3126,6.2339],[-5.5052,6.1668],[-5.7288,6.1962],[-5.7814,5.9636],[-5.8671,5.895],[-6.0516,5.6782],[-5.9696,5.5148],[-5.8288,5.5595],[-5.744,5.2759],[-5.873,5.1297],[-5.8587,5.0277],[-5.4283,5.0989]]]}},{"type":"Feature","properties":{"sourceId":"1159315129","regionId":"region.40c22a60-f18b-448f-89fb-61c12b8141fd","countryId":"country.ukura0"},"geometry":{"type":"MultiPolygon","coordinates":[[[[-5.3245,5.1908],[-5.4429,5.2334],[-5.4283,5.0989],[-5.0024,5.1286],[-5.0332,5.1833],[-5.2355,5.1613],[-5.3245,5.1908]]],[[[-3.5388,5.1573],[-3.437,5.2832],[-3.4082,5.5235],[-3.4341,5.7803],[-3.4677,5.8376],[-3.7184,5.9062],[-3.9246,5.7579],[-3.9313,5.6216],[-4.3075,5.6012],[-4.4164,5.6418],[-4.4617,5.7311],[-4.6591,5.8581],[-4.463,6.224],[-4.7015,6.282],[-4.7491,6.243],[-5.025,6.2519],[-5.1787,6.377],[-5.2153,6.3668],[-5.2444,6.2181],[-5.1761,6.1535],[-5.0078,6.1108],[-4.9872,5.8893],[-4.9377,5.7957],[-4.9931,5.6532],[-4.9716,5.5836],[-5.0881,5.2315],[-5.2341,5.2231],[-5.1123,5.1833],[-5.0098,5.2161],[-4.9691,5.1374],[-4.7847,5.1439],[-4.6205,5.1807],[-3.9958,5.2317],[-4.1838,5.2802],[-4.4416,5.225],[-4.4777,5.2913],[-4.1255,5.3074],[-3.8409,5.2012],[-3.5388,5.1573]]]]}},{"type":"Feature","properties":{"sourceId":"1159315113","regionId":"region.4877e177-2d56-4425-b509-05d5b8493f4b","countryId":"country.ukura0"},"geometry":{"type":"Polygon","coordinates":[[[-7.0716,7.7195],[-7.0059,7.4455],[-7.0853,7.366],[-7.0791,7.1708],[-7.0407,7.0791],[-7.0627,6.9295],[-6.9699,6.6967],[-6.9974,6.5579],[-6.9698,6.398],[-6.8542,6.2595],[-6.6848,6.2475],[-6.59,6.311],[-6.4859,6.2758],[-6.3999,6.3048],[-6.0986,6.3737],[-6.0408,6.5198],[-6.1651,6.7276],[-6.2199,6.9318],[-6.1984,7.0138],[-5.9319,7.1654],[-6.2205,7.2851],[-6.2329,7.218],[-6.4458,7.2548],[-6.3008,7.5112],[-6.1057,7.6184],[-6.2048,7.6782],[-6.2488,7.7767],[-6.4817,7.7427],[-6.6304,7.7856],[-6.9972,7.7641],[-7.0716,7.7195]]]}},{"type":"Feature","properties":{"sourceId":"1159315125","regionId":"region.019b1e58-45b8-4667-99f6-649e1f5377b8","countryId":"country.ukura0"},"geometry":{"type":"Polygon","coordinates":[[[-3.7749,6.6271],[-4.0887,6.4835],[-4.1554,6.3731],[-4.1466,6.2342],[-4.2482,6.1854],[-4.4321,6.2761],[-4.463,6.224],[-4.6591,5.8581],[-4.4617,5.7311],[-4.4164,5.6418],[-4.3075,5.6012],[-3.9313,5.6216],[-3.9246,5.7579],[-3.7184,5.9062],[-3.4677,5.8376],[-3.3956,6.1628],[-3.5424,6.3763],[-3.6113,6.3558],[-3.678,6.6235],[-3.7749,6.6271]]]}},{"type":"Feature","properties":{"sourceId":"1159315127","regionId":"region.3a9e447d-bfe7-40e4-8649-5a4691107ad2","countryId":"country.ukura0"},"geometry":{"type":"Polygon","coordinates":[[[-3.7749,6.6271],[-3.7963,6.7599],[-3.7297,6.912],[-3.7516,7.0001],[-3.6188,7.082],[-3.5823,7.2748],[-3.535,7.3379],[-3.5414,7.4956],[-3.8167,7.74],[-3.8799,7.885],[-3.9766,7.913],[-4.0101,8.0283],[-4.1571,7.9991],[-4.2896,7.8719],[-4.4252,7.8004],[-4.5272,7.7998],[-4.5141,7.6101],[-4.661,7.5162],[-4.7258,7.4268],[-4.7084,7.2692],[-4.8175,6.9992],[-4.8036,6.8824],[-4.954,6.8214],[-4.9716,6.7482],[-4.9271,6.6078],[-4.809,6.6262],[-4.7938,6.4888],[-4.702,6.3973],[-4.7015,6.282],[-4.463,6.224],[-4.4321,6.2761],[-4.2482,6.1854],[-4.1466,6.2342],[-4.1554,6.3731],[-4.0887,6.4835],[-3.7749,6.6271]]]}},{"type":"Feature","properties":{"sourceId":"1159315109","regionId":"region.bc5163f1-9c3b-4678-a290-16aba6c0faf3","countryId":"country.ukura0"},"geometry":{"type":"Polygon","coordinates":[[[-5.4134,6.6401],[-5.4371,6.7667],[-5.5288,6.8779],[-5.4898,7.0475],[-5.6622,7.257],[-5.7277,7.3714],[-5.714,7.507],[-5.7861,7.624],[-5.7957,7.7439],[-5.9063,7.7067],[-6.0079,7.7377],[-6.1057,7.6184],[-6.3008,7.5112],[-6.4458,7.2548],[-6.2329,7.218],[-6.2205,7.2851],[-5.9319,7.1654],[-6.1984,7.0138],[-6.2199,6.9318],[-6.1651,6.7276],[-6.0408,6.5198],[-5.7399,6.4886],[-5.5121,6.6292],[-5.4134,6.6401]]]}},{"type":"Feature","properties":{"sourceId":"1159315111","regionId":"region.d2eab0de-7ae0-4fa4-b053-9f1a730fc61e","countryId":"country.ukura0"},"geometry":{"type":"Polygon","coordinates":[[[-5.4134,6.6401],[-5.5121,6.6292],[-5.7399,6.4886],[-6.0408,6.5198],[-6.0986,6.3737],[-6.3999,6.3048],[-6.3873,6.1508],[-6.2186,5.7781],[-6.1375,5.7949],[-6.0516,5.6782],[-5.8671,5.895],[-5.7814,5.9636],[-5.7288,6.1962],[-5.5052,6.1668],[-5.3126,6.2339],[-5.2444,6.2181],[-5.2153,6.3668],[-5.3244,6.461],[-5.3085,6.5892],[-5.4134,6.6401]]]}},{"type":"Feature","properties":{"sourceId":"1159315123","regionId":"region.abc0abee-311f-470d-b5c6-c49d18c17367","countryId":"country.ukura0"},"geometry":{"type":"Polygon","coordinates":[[[-4.0101,8.0283],[-4.0199,8.1838],[-3.9437,8.4382],[-3.9787,8.5098],[-3.9317,8.6139],[-4.2107,8.6392],[-4.3452,8.7268],[-4.4045,8.8466],[-4.5711,8.8973],[-4.936,8.909],[-4.8828,9.0921],[-4.9733,9.1607],[-5.0191,9.2933],[-5.2163,9.3131],[-5.3381,9.3848],[-5.4972,9.0633],[-5.4667,8.868],[-5.6916,8.8411],[-5.7017,8.6317],[-5.6104,8.5292],[-5.523,8.4662],[-5.547,8.3836],[-5.407,8.3228],[-5.3474,8.2115],[-5.4214,8.1025],[-5.5375,8.095],[-5.6039,8.0211],[-5.7401,8],[-5.7601,7.7915],[-5.7957,7.7439],[-5.7861,7.624],[-5.714,7.507],[-5.7277,7.3714],[-5.6622,7.257],[-5.4599,7.2995],[-5.3694,7.2279],[-5.281,7.2412],[-5.0747,7.3849],[-4.906,7.5358],[-4.661,7.5162],[-4.5141,7.6101],[-4.5272,7.7998],[-4.4252,7.8004],[-4.2896,7.8719],[-4.1571,7.9991],[-4.0101,8.0283]]]}},{"type":"Feature","properties":{"sourceId":"1159315135","regionId":"region.816597f0-5c14-435a-98a9-f3736ac7cd08","countryId":"country.ukura0"},"geometry":{"type":"Polygon","coordinates":[[[-4.7015,6.282],[-4.702,6.3973],[-4.7938,6.4888],[-4.809,6.6262],[-4.9271,6.6078],[-4.9716,6.7482],[-4.954,6.8214],[-4.8036,6.8824],[-4.8175,6.9992],[-4.7084,7.2692],[-4.7258,7.4268],[-4.661,7.5162],[-4.906,7.5358],[-5.0747,7.3849],[-5.281,7.2412],[-5.3694,7.2279],[-5.4599,7.2995],[-5.6622,7.257],[-5.4898,7.0475],[-5.5288,6.8779],[-5.4371,6.7667],[-5.4134,6.6401],[-5.3085,6.5892],[-5.3244,6.461],[-5.2153,6.3668],[-5.1787,6.377],[-5.025,6.2519],[-4.7491,6.243],[-4.7015,6.282]]]}},{"type":"Feature","properties":{"sourceId":"1159315107","regionId":"region.f590a0dd-8b27-4a4e-a9d5-66098b06eae8","countryId":"country.ukura0"},"geometry":{"type":"Polygon","coordinates":[[[-6.1057,7.6184],[-6.0079,7.7377],[-5.9063,7.7067],[-5.7957,7.7439],[-5.7601,7.7915],[-5.7401,8],[-5.6039,8.0211],[-5.5375,8.095],[-5.4214,8.1025],[-5.3474,8.2115],[-5.407,8.3228],[-5.547,8.3836],[-5.523,8.4662],[-5.6104,8.5292],[-5.9563,8.6406],[-6.1087,8.877],[-6.2245,9],[-6.2153,9.134],[-6.3466,9.1983],[-6.4602,9.0755],[-6.534,9.157],[-6.606,9.0673],[-6.7466,9.1178],[-6.8973,9.0523],[-6.9052,8.955],[-7.1345,9.0051],[-7.23,8.8702],[-7.1908,8.796],[-7.2203,8.6423],[-7.1865,8.5236],[-7.1265,8.3036],[-7.0838,7.9893],[-7.0716,7.7195],[-6.9972,7.7641],[-6.6304,7.7856],[-6.4817,7.7427],[-6.2488,7.7767],[-6.2048,7.6782],[-6.1057,7.6184]]]}}]}