{"type":"FeatureCollection","features":[{"type":"Feature","properties":{"sourceId":"1159311155","regionId":"region.311692a3-20e7-4387-b50d-8cbd7cebd060","countryId":"country.zaf4y3"},"geometry":{"type":"Polygon","coordinates":[[[32.1139,-26.84],[32.3522,-26.8603],[32.8931,-26.8461],[32.9295,-26.266],[32.8688,-26.2194],[32.6808,-26.1882],[32.6507,-26.0934],[32.5166,-25.95],[32.5527,-25.8658],[32.6588,-25.9106],[32.7695,-25.6817],[32.8727,-25.5439],[33.132,-25.3792],[33.122,-25.2365],[33.0081,-25.207],[32.9869,-25.0641],[32.927,-25.0374],[32.9383,-24.7938],[32.8358,-24.7218],[32.7154,-24.5333],[32.7055,-24.405],[32.478,-24.3512],[32.3912,-24.2781],[32.0672,-24.2116],[31.9263,-24.2767],[31.9866,-24.4231],[31.9887,-25.3726],[31.9664,-25.4797],[31.9916,-25.6502],[31.9119,-25.7853],[31.9492,-25.9581],[32.0575,-26.0412],[32.0814,-26.1488],[32.0399,-26.2837],[32.1174,-26.5823],[32.1139,-26.84]]]}},{"type":"Feature","properties":{"sourceId":"1159309839","regionId":"region.9896c5d5-24e5-42e5-b6f7-00d457536d4c","countryId":"country.zaf4y3"},"geometry":{"type":"Polygon","coordinates":[[[40.4369,-10.4748],[40.0081,-10.8111],[39.7605,-10.9431],[39.4827,-10.9992],[39.2866,-11.1541],[39.1262,-11.1397],[38.8963,-11.1677],[38.7597,-11.2632],[38.6542,-11.2758],[38.4923,-11.4135],[38.4022,-11.6441],[38.4446,-11.8135],[38.4269,-11.9371],[38.3316,-12.1226],[38.2095,-12.2144],[38.1752,-12.3527],[38.0318,-12.4919],[38.0427,-12.7213],[37.987,-13.0864],[38.2148,-13.1513],[38.1426,-13.3171],[38.043,-13.4198],[38.1125,-13.4828],[38.1802,-13.7482],[38.2798,-13.953],[38.4204,-14.1269],[38.7073,-14.1439],[38.8414,-14.1064],[39.1014,-13.9419],[39.208,-13.9535],[39.4528,-13.8304],[39.4844,-13.7837],[39.7418,-13.6742],[39.8488,-13.675],[40.0209,-13.5122],[40.1156,-13.4559],[40.2525,-13.488],[40.4204,-13.4561],[40.527,-13.5106],[40.5679,-13.3666],[40.561,-13.0991],[40.5892,-12.9579],[40.5601,-12.8139],[40.6468,-12.7553],[40.4803,-12.4843],[40.5321,-12.3907],[40.4922,-12.2501],[40.5369,-11.9968],[40.4295,-11.6415],[40.4714,-11.4168],[40.3488,-11.3171],[40.5065,-11.1874],[40.552,-11.0743],[40.4961,-10.9557],[40.6021,-10.8205],[40.4854,-10.7621],[40.5698,-10.6967],[40.5321,-10.5095],[40.4369,-10.4748]]]}},{"type":"Feature","properties":{"sourceId":"1159309841","regionId":"region.bf10808c-0e27-46e2-90e8-5e66c565faf7","countryId":"country.zaf4y3"},"geometry":{"type":"Polygon","coordinates":[[[38.4923,-11.4135],[38.3477,-11.3588],[38.2566,-11.2771],[38.0934,-11.2563],[37.8752,-11.3191],[37.7837,-11.5589],[37.6478,-11.636],[37.4278,-11.7226],[37.3314,-11.6816],[37.2266,-11.6938],[37.0444,-11.5957],[36.8201,-11.5736],[36.747,-11.6665],[36.563,-11.7313],[36.4949,-11.6809],[36.1997,-11.7015],[36.1681,-11.5787],[35.9397,-11.4341],[35.8264,-11.4135],[35.6956,-11.4946],[35.6548,-11.5783],[34.9646,-11.5736],[34.6512,-11.57],[34.5638,-11.8309],[34.3801,-12.1039],[34.3556,-12.2049],[34.4945,-12.6874],[34.5493,-13.1591],[34.5453,-13.3257],[34.5828,-13.4036],[34.6406,-13.4924],[34.8639,-13.5163],[35.0841,-13.7042],[35.4557,-14.137],[35.5228,-14.2627],[35.7505,-14.5431],[35.853,-14.6675],[35.8633,-14.8767],[35.9043,-14.8869],[35.7908,-15.1468],[35.7886,-15.2114],[35.8376,-15.4583],[36.1971,-15.4556],[36.279,-15.4944],[36.3681,-15.3103],[36.5672,-15.2366],[36.712,-15.0609],[36.7147,-15.0041],[36.8902,-14.775],[37.1706,-14.5945],[37.3419,-14.5487],[37.4951,-14.3944],[37.5739,-14.3944],[37.6763,-14.2709],[37.8562,-14.2303],[37.9364,-14.3051],[38.1697,-14.2307],[38.2637,-14.1614],[38.4204,-14.1269],[38.2798,-13.953],[38.1802,-13.7482],[38.1125,-13.4828],[38.043,-13.4198],[38.1426,-13.3171],[38.2148,-13.1513],[37.987,-13.0864],[38.0427,-12.7213],[38.0318,-12.4919],[38.1752,-12.3527],[38.2095,-12.2144],[38.3316,-12.1226],[38.4269,-11.9371],[38.4446,-11.8135],[38.4022,-11.6441],[38.4923,-11.4135]],[[34.6941,-12.0004],[34.7542,-12.0201],[34.7325,-12.109],[34.6562,-12.0972],[34.6941,-12.0004]]]}},{"type":"Feature","properties":{"sourceId":"1159309835","regionId":"region.254d7a2d-b36d-482b-8c74-59dde4f0096b","countryId":"country.zaf4y3"},"geometry":{"type":"Polygon","coordinates":[[[30.3963,-15.636],[30.4026,-16.0012],[30.8574,-15.9981],[30.9731,-16.062],[31.1141,-15.9969],[31.26,-16.0235],[31.4046,-16.1623],[31.6861,-16.2072],[31.8601,-16.3408],[31.9103,-16.4289],[32.2905,-16.4518],[32.6718,-16.5998],[32.731,-16.7087],[32.8934,-16.7124],[32.9334,-16.8158],[32.8288,-16.9351],[32.9541,-17.1672],[32.9691,-17.2661],[33.0117,-17.384],[33.0928,-17.2168],[33.1087,-17.0894],[33.2344,-16.9981],[33.3209,-16.7409],[33.4427,-16.6017],[33.4426,-16.521],[33.5901,-16.4172],[33.8227,-16.4228],[33.9156,-16.5545],[34.0174,-16.6289],[34.136,-16.6408],[34.2203,-16.6989],[34.408,-16.7312],[34.5962,-16.8302],[34.7707,-16.9018],[34.8609,-16.9747],[35.0856,-17.4921],[35.1056,-17.5676],[35.32,-17.7237],[35.3363,-17.3683],[35.2917,-17.1294],[35.0813,-17.1241],[35.0365,-17.0359],[35.1134,-16.9603],[35.0958,-16.8173],[35.0045,-16.8146],[34.8866,-16.7008],[34.7321,-16.5292],[34.655,-16.4894],[34.5247,-16.3008],[34.446,-16.2932],[34.3852,-16.1865],[34.3877,-16.037],[34.2332,-15.8898],[34.2471,-15.7941],[34.3422,-15.7303],[34.4191,-15.5753],[34.4101,-15.4813],[34.5691,-15.2712],[34.5591,-15.2002],[34.5487,-15.0576],[34.5842,-14.9845],[34.5058,-14.7003],[34.5018,-14.5757],[34.3804,-14.4136],[34.3441,-14.3874],[34.0775,-14.4547],[34.0508,-14.4952],[33.8889,-14.4882],[33.7742,-14.53],[33.7204,-14.4897],[33.6184,-14.5618],[33.4392,-14.3807],[33.3571,-14.2306],[33.2906,-14.1569],[33.2802,-14.0608],[33.2027,-14.0139],[32.2274,-14.339],[31.6584,-14.5196],[31.4109,-14.6336],[30.8158,-14.7682],[30.4856,-14.886],[30.3184,-14.967],[30.2144,-14.982],[30.2258,-15.1063],[30.2879,-15.2789],[30.3692,-15.3747],[30.3963,-15.636]]]}},{"type":"Feature","properties":{"sourceId":"1159309837","regionId":"region.95cec687-7b0e-44a9-9e23-9eae96717d82","countryId":"country.zaf4y3"},"geometry":{"type":"Polygon","coordinates":[[[33.0117,-17.384],[32.9366,-17.4983],[33.0066,-17.581],[32.9991,-17.7943],[32.957,-17.818],[32.9371,-18.0471],[32.9523,-18.233],[33.035,-18.3329],[32.9964,-18.4671],[32.8707,-18.5358],[32.9202,-18.7262],[32.8852,-18.7878],[32.6914,-18.8342],[32.6911,-19.0143],[32.82,-19.0283],[32.8623,-19.1181],[32.8287,-19.2846],[32.7688,-19.3636],[32.8254,-19.4792],[32.8163,-19.6521],[33.0328,-19.7842],[33.002,-19.927],[32.8853,-20.103],[32.8452,-20.2867],[32.6465,-20.558],[32.5131,-20.5646],[32.4691,-20.6868],[32.4972,-20.8981],[32.4677,-20.9802],[32.3398,-21.1341],[32.4458,-21.309],[32.5609,-21.384],[32.6846,-21.3998],[32.7973,-21.4811],[32.9206,-21.4871],[33.0701,-21.5964],[33.2002,-21.49],[33.277,-21.5046],[33.5674,-21.396],[33.8902,-21.4083],[34.0157,-21.3116],[34.0287,-21.2142],[34.1111,-21.0525],[34.0104,-20.9792],[33.8955,-20.9529],[33.8743,-20.714],[33.7413,-20.6665],[33.4909,-20.4198],[33.5087,-20.2917],[33.4127,-20.0783],[33.5241,-19.9869],[33.6671,-19.9353],[33.7792,-19.9597],[33.9549,-19.8507],[33.8751,-19.7776],[33.8512,-19.5946],[33.9246,-19.5749],[33.9272,-19.3083],[34.0276,-18.9544],[33.8515,-18.7617],[33.7252,-18.7181],[33.7256,-18.6467],[33.8715,-18.4877],[33.8161,-18.2858],[33.9223,-18.1934],[34.0192,-18.1683],[34.1305,-18.2626],[34.2273,-18.2173],[34.2802,-18.0835],[34.2784,-17.9382],[34.1583,-17.8715],[34.1302,-17.5959],[34.1743,-17.4894],[34.2248,-17.1891],[34.2841,-17.0709],[34.4679,-16.9877],[34.5962,-16.8302],[34.408,-16.7312],[34.2203,-16.6989],[34.136,-16.6408],[34.0174,-16.6289],[33.9156,-16.5545],[33.8227,-16.4228],[33.5901,-16.4172],[33.4426,-16.521],[33.4427,-16.6017],[33.3209,-16.7409],[33.2344,-16.9981],[33.1087,-17.0894],[33.0928,-17.2168],[33.0117,-17.384]]]}},{"type":"Feature","properties":{"sourceId":"1159309847","regionId":"region.08a902a7-c29b-4091-802e-15489a4e1fdd","countryId":"country.zaf4y3"},"geometry":{"type":"Polygon","coordinates":[[[32.4458,-21.309],[32.4085,-21.2903],[31.9576,-21.7588],[31.4338,-22.302],[31.2889,-22.3973],[31.2791,-22.4153],[31.5363,-23.157],[31.5215,-23.4156],[31.6423,-23.5879],[31.7412,-23.8368],[31.8565,-23.963],[31.8695,-24.1638],[31.9263,-24.2767],[32.0672,-24.2116],[32.3912,-24.2781],[32.478,-24.3512],[32.7055,-24.405],[32.7154,-24.5333],[32.8358,-24.7218],[32.9383,-24.7938],[32.927,-25.0374],[32.9869,-25.0641],[33.0081,-25.207],[33.122,-25.2365],[33.132,-25.3792],[33.4647,-25.2131],[33.7292,-25.1051],[34.4802,-24.8522],[34.3237,-24.7858],[34.2976,-24.7107],[34.4612,-24.6269],[34.3826,-24.4689],[34.1263,-24.5278],[34.0034,-24.3327],[33.9924,-24.0864],[33.9241,-24.0844],[33.9496,-23.588],[33.8469,-23.3803],[33.8431,-23.1949],[33.6844,-23.0263],[33.5579,-22.8341],[33.4443,-22.7539],[33.3095,-22.582],[33.3186,-22.4024],[33.3726,-22.3683],[33.3722,-22.1088],[33.3315,-21.9999],[33.1611,-21.8293],[33.1465,-21.71],[33.277,-21.5046],[33.2002,-21.49],[33.0701,-21.5964],[32.9206,-21.4871],[32.7973,-21.4811],[32.6846,-21.3998],[32.5609,-21.384],[32.4458,-21.309]]]}},{"type":"Feature","properties":{"sourceId":"1159311173","regionId":"region.575c5d7a-fab3-4078-ae54-5e735bb3c7a0","countryId":"country.zaf4y3"},"geometry":{"type":"Polygon","coordinates":[[[35.8376,-15.4592],[35.7966,-15.9332],[35.77,-16.0588],[35.6976,-16.1075],[35.3746,-16.141],[35.2992,-16.2087],[35.2373,-16.3991],[35.1319,-16.5376],[35.1743,-16.6255],[35.2782,-16.7007],[35.2917,-17.1294],[35.3363,-17.3683],[35.32,-17.7237],[35.4405,-17.8889],[35.5935,-18.0281],[35.7449,-18.0616],[35.9131,-18.2633],[36.0879,-18.3685],[36.1495,-18.5212],[36.1189,-18.6152],[36.1331,-18.8086],[36.2443,-18.8832],[36.2954,-18.7802],[36.4162,-18.775],[36.4175,-18.6887],[36.552,-18.486],[36.6317,-18.4377],[36.8874,-18.1891],[37.0864,-17.8691],[37.2124,-17.745],[37.3609,-17.65],[37.9089,-17.3552],[38.0399,-17.3278],[38.5955,-17.0944],[38.8755,-17.0456],[39.0905,-16.9838],[39.1291,-16.8718],[39.1278,-16.8239],[38.9843,-16.5628],[39.0364,-16.443],[38.921,-16.2086],[38.9379,-16.1148],[38.8109,-15.8294],[38.6819,-15.6845],[38.5498,-15.6295],[38.3727,-15.4714],[38.1951,-15.4355],[38.1386,-15.3467],[37.8896,-15.2351],[37.8413,-15.1877],[37.6785,-15.2399],[37.5249,-15.1311],[37.3794,-15.2175],[37.2149,-15.0115],[36.7147,-15.0041],[36.712,-15.0609],[36.5672,-15.2366],[36.3681,-15.3103],[36.279,-15.4944],[36.1971,-15.4556],[35.8376,-15.4583],[35.8376,-15.4592]]]}},{"type":"Feature","properties":{"sourceId":"1159317833","regionId":"region.311692a3-20e7-4387-b50d-8cbd7cebd060","countryId":"country.zaf4y3"},"geometry":{"type":"Polygon","coordinates":[[[32.6588,-25.9106],[32.5527,-25.8658],[32.5166,-25.95],[32.6588,-25.9106]]]}},{"type":"Feature","properties":{"sourceId":"1159311161","regionId":"region.dc5b6707-b02b-4d3d-8cf3-445664f1570e","countryId":"country.zaf4y3"},"geometry":{"type":"Polygon","coordinates":[[[35.1125,-20.9527],[34.875,-21.0237],[34.7293,-21.1308],[34.6752,-21.0929],[34.463,-21.1711],[34.3627,-21.2912],[34.2437,-21.2685],[34.1722,-21.3219],[34.0157,-21.3116],[33.8902,-21.4083],[33.5674,-21.396],[33.277,-21.5046],[33.1465,-21.71],[33.1611,-21.8293],[33.3315,-21.9999],[33.3722,-22.1088],[33.3726,-22.3683],[33.3186,-22.4024],[33.3095,-22.582],[33.4443,-22.7539],[33.5579,-22.8341],[33.6844,-23.0263],[33.8431,-23.1949],[33.8469,-23.3803],[33.9496,-23.588],[33.9241,-24.0844],[33.9924,-24.0864],[34.0034,-24.3327],[34.1263,-24.5278],[34.3826,-24.4689],[34.4612,-24.6269],[34.2976,-24.7107],[34.3237,-24.7858],[34.4802,-24.8522],[34.6489,-24.8128],[35.1065,-24.5979],[35.3044,-24.3757],[35.4935,-24.1105],[35.5432,-23.8632],[35.3948,-23.8419],[35.4241,-23.4806],[35.4822,-23.3173],[35.4785,-23.1769],[35.6009,-22.9436],[35.5208,-22.9076],[35.4927,-22.5649],[35.5422,-22.4099],[35.4968,-22.1415],[35.4199,-22.1672],[35.3604,-22.4399],[35.3059,-22.346],[35.3358,-22.0891],[35.271,-21.6441],[35.1516,-21.4539],[35.058,-21.1376],[35.1125,-20.9527]]]}},{"type":"Feature","properties":{"sourceId":"1159311171","regionId":"region.cd0a8f40-7789-4b02-8dd7-cda1f3c47d73","countryId":"country.zaf4y3"},"geometry":{"type":"Polygon","coordinates":[[[36.1331,-18.8086],[36.1189,-18.6152],[36.1495,-18.5212],[36.0879,-18.3685],[35.9131,-18.2633],[35.7449,-18.0616],[35.5935,-18.0281],[35.4405,-17.8889],[35.32,-17.7237],[35.1056,-17.5676],[35.0856,-17.4921],[34.8609,-16.9747],[34.7707,-16.9018],[34.5962,-16.8302],[34.4679,-16.9877],[34.2841,-17.0709],[34.2248,-17.1891],[34.1743,-17.4894],[34.1302,-17.5959],[34.1583,-17.8715],[34.2784,-17.9382],[34.2802,-18.0835],[34.2273,-18.2173],[34.1305,-18.2626],[34.0192,-18.1683],[33.9223,-18.1934],[33.8161,-18.2858],[33.8715,-18.4877],[33.7256,-18.6467],[33.7252,-18.7181],[33.8515,-18.7617],[34.0276,-18.9544],[33.9272,-19.3083],[33.9246,-19.5749],[33.8512,-19.5946],[33.8751,-19.7776],[33.9549,-19.8507],[33.7792,-19.9597],[33.6671,-19.9353],[33.5241,-19.9869],[33.4127,-20.0783],[33.5087,-20.2917],[33.4909,-20.4198],[33.7413,-20.6665],[33.8743,-20.714],[33.8955,-20.9529],[34.0104,-20.9792],[34.1111,-21.0525],[34.0287,-21.2142],[34.0157,-21.3116],[34.1722,-21.3219],[34.2437,-21.2685],[34.3627,-21.2912],[34.463,-21.1711],[34.6752,-21.0929],[34.7293,-21.1308],[34.875,-21.0237],[35.1125,-20.9527],[35.0034,-20.8255],[34.9933,-20.7302],[34.8518,-20.6708],[34.7424,-20.5502],[34.6799,-20.3469],[34.7769,-20.135],[34.7576,-19.8691],[34.8801,-19.8634],[35.1268,-19.705],[35.3399,-19.5207],[35.5773,-19.2664],[35.6623,-19.133],[36.1331,-18.8086]]]}},{"type":"Feature","properties":{"sourceId":"1159309843","regionId":"region.d88c310a-fbeb-4bf5-a555-4062d6626eee","countryId":"country.zaf4y3"},"geometry":{"type":"Polygon","coordinates":[[[40.527,-13.5106],[40.4204,-13.4561],[40.2525,-13.488],[40.1156,-13.4559],[40.0209,-13.5122],[39.8488,-13.675],[39.7418,-13.6742],[39.4844,-13.7837],[39.4528,-13.8304],[39.208,-13.9535],[39.1014,-13.9419],[38.8414,-14.1064],[38.7073,-14.1439],[38.4204,-14.1269],[38.2637,-14.1614],[38.1697,-14.2307],[37.9364,-14.3051],[37.8562,-14.2303],[37.6763,-14.2709],[37.5739,-14.3944],[37.4951,-14.3944],[37.3419,-14.5487],[37.1706,-14.5945],[36.8902,-14.775],[36.7147,-15.0041],[37.2149,-15.0115],[37.3794,-15.2175],[37.5249,-15.1311],[37.6785,-15.2399],[37.8413,-15.1877],[37.8896,-15.2351],[38.1386,-15.3467],[38.1951,-15.4355],[38.3727,-15.4714],[38.5498,-15.6295],[38.6819,-15.6845],[38.8109,-15.8294],[38.9379,-16.1148],[38.921,-16.2086],[39.0364,-16.443],[38.9843,-16.5628],[39.1278,-16.8239],[39.1291,-16.8718],[39.3562,-16.7239],[39.6983,-16.5322],[39.8006,-16.3683],[39.8133,-16.277],[39.9924,-16.2224],[40.1047,-16.0641],[40.1646,-15.9156],[40.3636,-15.7148],[40.4258,-15.615],[40.5733,-15.505],[40.6817,-15.233],[40.5809,-15.2032],[40.5332,-15.1207],[40.7119,-15.0729],[40.6709,-14.9767],[40.8355,-14.8023],[40.8114,-14.613],[40.8425,-14.4645],[40.7608,-14.4037],[40.7461,-14.2709],[40.6096,-14.1386],[40.6506,-14.0319],[40.5427,-13.6589],[40.5833,-13.587],[40.527,-13.5106]]]}}]}