{"type":"FeatureCollection","features":[{"type":"Feature","properties":{"sourceId":"1730014023","regionId":"region.196d44f9-faf7-4aca-b24f-4dd4b1f203cf","countryId":"country.12rbtu0"},"geometry":{"type":"Polygon","coordinates":[[[77.8003,35.4954],[77.049,35.1104],[77.0131,34.9864],[76.9211,34.9207],[76.782,34.9309],[76.7439,34.8193],[76.5532,34.7258],[76.3999,34.7507],[76.262,34.6847],[76.0234,34.6772],[75.7771,34.5038],[75.6116,34.4984],[75.3481,34.5572],[75.3745,34.371],[75.5846,34.2101],[75.6634,34.1992],[75.7417,34.0664],[75.8796,33.9637],[76.0244,33.9821],[76.1664,33.8732],[76.2358,33.7288],[76.2461,33.5741],[76.488,33.5022],[76.6466,33.3521],[76.7398,33.1974],[76.9561,33.0251],[77.1358,32.9268],[77.3487,32.8672],[77.539,32.9184],[77.7211,33.0126],[77.8579,32.873],[78.0089,32.6103],[78.2539,32.6979],[78.381,32.528],[78.6302,32.578],[78.7133,32.6375],[78.7715,32.4617],[78.9434,32.3464],[79.0917,32.3906],[79.1129,32.4724],[79.2874,32.5326],[79.4435,32.5348],[79.6207,32.7287],[79.4141,32.9721],[79.3732,33.1121],[79.4561,33.2504],[79.2601,33.2918],[79.098,33.2877],[78.965,33.3443],[78.8243,33.4611],[78.7814,33.5528],[78.7941,33.7439],[78.7211,33.9944],[78.7301,34.0793],[78.9762,34.2172],[78.9569,34.34],[78.6073,34.5465],[78.3794,34.5787],[78.2732,34.6589],[78.13,35.0554],[78.0012,35.2689],[78.0556,35.4529],[77.8831,35.4311],[77.8003,35.4954]]]}},{"type":"Feature","properties":{"sourceId":"1159315223","regionId":"region.643d1f0e-2a1d-465d-8c21-727eeb5c8c67","countryId":"country.12rbtu0"},"geometry":{"type":"Polygon","coordinates":[[[97.3235,28.2175],[97.1156,28.3666],[96.934,28.3366],[96.7169,28.4365],[96.5615,28.4473],[96.3696,28.3781],[96.3365,28.4797],[96.598,28.7099],[96.5767,28.8085],[96.4576,28.9946],[96.3666,29.0365],[96.1953,28.9411],[96.1746,29.1088],[96.3164,29.1719],[96.2054,29.2569],[96.142,29.3685],[95.7448,29.3404],[95.7172,29.2183],[95.5923,29.2497],[95.5153,29.2094],[95.4876,29.069],[95.3674,29.0365],[95.2249,29.0594],[95.0477,29.1408],[94.7766,29.1667],[94.7042,29.2847],[94.6304,29.3195],[94.5286,29.2312],[94.3964,29.2071],[94.2708,29.0979],[94.3473,29.0243],[94.2502,28.9331],[93.992,28.8446],[93.9278,28.6828],[93.8631,28.7049],[93.6255,28.6724],[93.4462,28.6719],[93.3172,28.6035],[93.1863,28.432],[93.2078,28.3405],[92.9749,28.2823],[92.8503,28.192],[92.7792,28.1959],[92.6548,28.1058],[92.7364,27.9859],[92.575,27.8478],[92.4044,27.8538],[92.3039,27.7862],[92.2396,27.8653],[92.0649,27.7617],[91.8649,27.73],[91.8266,27.8076],[91.6283,27.8527],[91.5951,27.5464],[91.7271,27.4599],[91.9751,27.4724],[92.0848,27.3042],[92.0058,27.1761],[91.9877,27.104],[92.0804,26.9216],[92.2103,26.9123],[92.6262,27.0181],[92.6988,27.0659],[92.8148,27.0508],[93.0203,26.953],[93.375,26.9888],[93.4607,26.9472],[93.6947,27.0059],[93.8266,27.096],[93.8466,27.1989],[93.9825,27.3277],[94.3529,27.5931],[94.4746,27.5939],[94.7985,27.7012],[94.9481,27.7695],[95.3132,27.8958],[95.4084,27.8708],[95.5436,27.9021],[95.7168,27.9902],[95.9641,27.9933],[95.9007,27.8654],[95.7759,27.7173],[95.8043,27.6194],[95.8868,27.557],[95.8796,27.4626],[95.9783,27.4497],[96.0072,27.3651],[95.9037,27.2761],[95.7996,27.2859],[95.6438,27.2303],[95.5459,27.2739],[95.4238,27.1413],[95.1764,27.0332],[95.2254,26.9742],[95.2022,26.8667],[95.2469,26.6489],[95.3927,26.6918],[95.4898,26.8107],[95.5913,26.8237],[95.778,26.9951],[95.8889,27.027],[96.0132,27.1908],[96.1426,27.2575],[96.5109,27.2925],[96.5869,27.3536],[96.7589,27.3417],[96.8596,27.2407],[96.8653,27.1716],[97.0588,27.0921],[97.1348,27.1273],[96.9051,27.4084],[96.8702,27.6191],[97.0604,27.7505],[97.2229,27.8997],[97.3335,27.8942],[97.3551,28.023],[97.3065,28.0697],[97.3235,28.2175]]]}},{"type":"Feature","properties":{"sourceId":"1159314169","regionId":"region.d3018cc6-73a8-41eb-98c9-7b87f40b5139","countryId":"country.12rbtu0"},"geometry":{"type":"Polygon","coordinates":[[[88.8923,27.3155],[88.7736,27.4085],[88.741,27.5457],[88.8057,27.6551],[88.8539,27.8437],[88.8177,27.9947],[88.6105,28.1058],[88.3788,27.9826],[88.1267,27.9504],[88.1182,27.8609],[88.1597,27.7741],[88.0233,27.4949],[88.0351,27.3226],[88.0047,27.2492],[88.1182,27.1385],[88.3574,27.0851],[88.518,27.1762],[88.7331,27.149],[88.7759,27.2409],[88.8761,27.2805],[88.8923,27.3155]]]}},{"type":"Feature","properties":{"sourceId":"1159313981","regionId":"region.95ab705b-fd04-4c80-887d-f92781d62ade","countryId":"country.12rbtu0"},"geometry":{"type":"Polygon","coordinates":[[[88.7331,27.149],[88.518,27.1762],[88.3574,27.0851],[88.1182,27.1385],[88.0047,27.2492],[87.9707,27.1027],[88.0769,26.9918],[88.1553,26.8456],[88.1691,26.744],[88.0871,26.5391],[88.2823,26.4284],[88.2972,26.3362],[88.1805,26.2855],[87.9794,26.1458],[87.8314,26.0106],[87.8054,25.8737],[88.0464,25.6689],[88.0431,25.5471],[87.9558,25.5341],[87.768,25.4363],[87.8381,25.2778],[87.7837,25.2141],[87.781,25.0899],[87.8775,24.9389],[87.8533,24.7584],[87.8954,24.6703],[87.7206,24.3178],[87.6315,24.2694],[87.6616,24.1862],[87.4887,24.0469],[87.3381,24.0018],[87.2412,23.8508],[87.0797,23.8152],[86.8772,23.9131],[86.7998,23.7255],[86.4585,23.6386],[86.3365,23.5084],[86.2143,23.4492],[85.9964,23.5115],[85.8948,23.4165],[85.8298,23.2608],[85.8884,23.1631],[86.0202,23.1526],[86.1425,23.0283],[86.4505,23.0042],[86.3991,22.785],[86.5869,22.6807],[86.6114,22.6043],[86.7494,22.5448],[86.7899,22.4156],[86.7803,22.2867],[86.6865,22.218],[86.8339,22.1218],[86.9874,22.0666],[86.9937,21.9725],[87.1907,21.9562],[87.275,21.814],[87.4085,21.7861],[87.4774,21.6136],[87.7038,21.6555],[87.9705,21.8365],[88.0508,21.985],[88.1406,22.0601],[88.1541,21.8881],[88.2038,21.8054],[88.1809,21.685],[88.2493,21.5583],[88.3931,21.6002],[88.5781,21.5717],[88.6234,21.7103],[88.5671,21.8508],[88.69,21.946],[88.6849,21.6972],[88.7625,21.5559],[88.8816,21.672],[89.0003,21.6034],[89.0827,21.6173],[88.993,21.9127],[89.0609,21.9385],[89.0604,22.1299],[89.0623,22.2116],[88.9896,22.3869],[88.9081,22.7408],[88.9445,22.848],[88.8428,22.9646],[88.8513,23.0751],[88.9547,23.1838],[88.6859,23.2933],[88.7194,23.4681],[88.5401,23.65],[88.5936,23.8669],[88.7142,23.9252],[88.6741,24.0826],[88.7315,24.1898],[88.7375,24.2871],[88.4754,24.3155],[88.1388,24.4953],[88.0218,24.6456],[88.2025,24.9453],[88.3228,24.8747],[88.4258,25.0511],[88.4315,25.173],[88.5991,25.1931],[88.8986,25.1693],[88.9753,25.3026],[88.842,25.3328],[88.7723,25.502],[88.6454,25.4673],[88.5303,25.5002],[88.4194,25.6538],[88.2275,25.8043],[88.1277,25.7749],[88.0744,25.9081],[88.1638,26.1405],[88.3087,26.2061],[88.3668,26.3134],[88.4955,26.3781],[88.4611,26.4539],[88.3536,26.4846],[88.3528,26.5787],[88.6563,26.4151],[88.808,26.2334],[88.9027,26.2729],[88.8919,26.3688],[88.9502,26.4369],[89.0437,26.3811],[89.1316,26.1338],[89.3515,25.9969],[89.4806,25.9992],[89.6029,26.0553],[89.5628,26.1426],[89.6578,26.1872],[89.7273,26.2062],[89.8289,26.3279],[89.8885,26.5329],[89.8587,26.7221],[89.7547,26.701],[89.3689,26.8374],[89.1846,26.8106],[88.9545,26.9126],[88.8276,27.0979],[88.7331,27.149]]]}},{"type":"Feature","properties":{"sourceId":"1159311865","regionId":"region.848dd71b-5079-4930-b2a7-cbd7e8cea7bb","countryId":"country.12rbtu0"},"geometry":{"type":"Polygon","coordinates":[[[89.8587,26.7221],[89.8885,26.5329],[89.8289,26.3279],[89.7273,26.2062],[89.6578,26.1872],[89.7065,26.1542],[89.8301,25.908],[89.7831,25.8144],[89.8344,25.6348],[89.8086,25.4395],[89.8973,25.5414],[90.0021,25.5868],[89.9423,25.6915],[89.9742,25.8016],[90.1356,25.9598],[90.4845,26.0119],[90.6177,25.9698],[90.9745,25.9436],[91.0968,25.8399],[91.1789,25.8696],[91.251,25.7376],[91.3606,25.8433],[91.4747,25.8962],[91.5823,26.0269],[91.7182,25.9677],[91.8253,26.0893],[91.9225,26.0382],[92.1641,26.0884],[92.2147,25.9195],[92.1655,25.8092],[92.1673,25.6895],[92.3824,25.7643],[92.5934,25.5867],[92.5883,25.4988],[92.7896,25.3489],[92.8055,25.2277],[92.5649,25.1524],[92.3849,25.0048],[92.4838,24.9282],[92.3807,24.8367],[92.2522,24.903],[92.2338,24.7775],[92.15,24.5422],[92.2578,24.396],[92.2202,24.2643],[92.2985,24.2377],[92.4162,24.2395],[92.4895,24.1325],[92.6245,24.2385],[92.7463,24.4711],[92.8287,24.3773],[93.0184,24.3991],[93.0871,24.707],[93.1892,24.8108],[93.3943,25.235],[93.4492,25.3021],[93.4585,25.3807],[93.3359,25.538],[93.5243,25.6893],[93.7089,25.8701],[93.7521,25.9591],[93.9042,25.8568],[93.9892,25.9462],[94.0077,26.1844],[94.1774,26.3724],[94.2072,26.4837],[94.3582,26.4984],[94.4866,26.6767],[94.6905,26.741],[94.7989,26.8144],[94.9171,26.9512],[95.0312,26.9335],[95.1764,27.0332],[95.4238,27.1413],[95.5459,27.2739],[95.6438,27.2303],[95.7996,27.2859],[95.9037,27.2761],[96.0072,27.3651],[95.9783,27.4497],[95.8796,27.4626],[95.8868,27.557],[95.8043,27.6194],[95.7759,27.7173],[95.9007,27.8654],[95.9641,27.9933],[95.7168,27.9902],[95.5436,27.9021],[95.4084,27.8708],[95.3132,27.8958],[94.9481,27.7695],[94.7985,27.7012],[94.4746,27.5939],[94.3529,27.5931],[93.9825,27.3277],[93.8466,27.1989],[93.8266,27.096],[93.6947,27.0059],[93.4607,26.9472],[93.375,26.9888],[93.0203,26.953],[92.8148,27.0508],[92.6988,27.0659],[92.6262,27.0181],[92.2103,26.9123],[92.0804,26.9216],[92.0359,26.8548],[91.7953,26.8535],[91.7021,26.8035],[91.5206,26.7976],[91.4063,26.8695],[91.276,26.7741],[91.1982,26.8023],[91.0128,26.7843],[90.9445,26.7789],[90.5878,26.7801],[90.3826,26.8918],[90.1774,26.8321],[90.0892,26.7417],[89.8587,26.7221]]]}},{"type":"Feature","properties":{"sourceId":"1159314161","regionId":"region.aab7428f-193d-442f-b418-bd8cb25df897","countryId":"country.12rbtu0"},"geometry":{"type":"Polygon","coordinates":[[[80.996,30.197],[80.976,30.2552],[80.7817,30.321],[80.7231,30.392],[80.2528,30.565],[80.1669,30.6619],[80.1693,30.7853],[80.0625,30.7848],[79.8335,30.9615],[79.739,30.9792],[79.5296,30.9536],[79.395,31.0367],[79.3022,31.1635],[79.2383,31.3297],[79.0702,31.4614],[78.9888,31.3433],[78.8926,31.2818],[78.9933,31.1634],[78.8695,31.122],[78.7927,31.207],[78.501,31.2196],[78.2842,31.2903],[78.0397,31.1722],[77.9411,31.1729],[77.806,31.0505],[77.7891,30.9306],[77.7058,30.7915],[77.813,30.5211],[77.5851,30.3829],[77.6615,30.3949],[77.9289,30.2443],[77.7464,29.9773],[77.747,29.878],[77.8315,29.6599],[77.9828,29.7188],[78.1072,29.6545],[78.1891,29.7067],[78.155,29.9254],[78.2283,29.9474],[78.3806,29.7616],[78.4787,29.722],[78.6431,29.5376],[78.9069,29.3884],[78.7215,29.284],[78.8677,29.2152],[78.9504,29.127],[79.0559,29.1518],[79.2964,28.9716],[79.3712,28.9699],[79.4437,28.8496],[79.5262,28.8784],[79.6994,28.8504],[80.0006,28.7373],[80.0731,28.8209],[80.0339,28.9159],[80.0994,28.9773],[80.1326,29.1102],[80.2331,29.1393],[80.2787,29.2681],[80.2137,29.4169],[80.3852,29.6048],[80.369,29.7579],[80.4762,29.8061],[80.5713,29.9469],[80.6541,29.9706],[80.8298,30.1171],[80.8364,30.17],[80.996,30.197]]]}},{"type":"Feature","properties":{"sourceId":"1159311869","regionId":"region.47e60892-d9ad-48e5-a837-662ae80db653","countryId":"country.12rbtu0"},"geometry":{"type":"Polygon","coordinates":[[[95.2469,26.6489],[95.2022,26.8667],[95.2254,26.9742],[95.1764,27.0332],[95.0312,26.9335],[94.9171,26.9512],[94.7989,26.8144],[94.6905,26.741],[94.4866,26.6767],[94.3582,26.4984],[94.2072,26.4837],[94.1774,26.3724],[94.0077,26.1844],[93.9892,25.9462],[93.9042,25.8568],[93.7521,25.9591],[93.7089,25.8701],[93.5243,25.6893],[93.3359,25.538],[93.4585,25.3807],[93.4492,25.3021],[93.6055,25.2058],[93.6791,25.3283],[93.8086,25.4461],[93.8032,25.5436],[94.0267,25.5538],[94.2094,25.4955],[94.3253,25.512],[94.5647,25.6842],[94.5528,25.4903],[94.6504,25.4467],[94.8508,25.5628],[95.0088,25.7371],[95.0006,25.922],[95.1395,26.0299],[95.0463,26.248],[95.0406,26.4756],[95.1191,26.6042],[95.2469,26.6489]]]}},{"type":"Feature","properties":{"sourceId":"1159311867","regionId":"region.7e3c1223-89ce-4d41-90b5-efac8ea91e95","countryId":"country.12rbtu0"},"geometry":{"type":"Polygon","coordinates":[[[94.6504,25.4467],[94.5528,25.4903],[94.5647,25.6842],[94.3253,25.512],[94.2094,25.4955],[94.0267,25.5538],[93.8032,25.5436],[93.8086,25.4461],[93.6791,25.3283],[93.6055,25.2058],[93.4492,25.3021],[93.3943,25.235],[93.1892,24.8108],[93.0871,24.707],[93.0184,24.3991],[92.9955,24.0953],[93.1057,24.0449],[93.3026,24.0358],[93.3683,24.0785],[93.4567,23.96],[93.6124,24.0091],[93.743,23.9953],[93.8037,23.9361],[93.9979,23.917],[94.1289,23.8539],[94.1903,23.9953],[94.29,24.3168],[94.5163,24.705],[94.5895,24.7473],[94.7086,25.0259],[94.6891,25.1385],[94.5769,25.1736],[94.5501,25.2453],[94.6504,25.4467]]]}},{"type":"Feature","properties":{"sourceId":"1159315237","regionId":"region.b5801560-76da-4a17-b7d0-46835af93d5c","countryId":"country.12rbtu0"},"geometry":{"type":"Polygon","coordinates":[[[93.3026,24.0358],[93.1057,24.0449],[92.9955,24.0953],[93.0184,24.3991],[92.8287,24.3773],[92.7463,24.4711],[92.6245,24.2385],[92.4895,24.1325],[92.4162,24.2395],[92.2985,24.2377],[92.3254,24.1883],[92.3186,23.8505],[92.2597,23.7026],[92.2528,23.6093],[92.3569,23.2891],[92.3276,23.1714],[92.3787,22.9004],[92.4959,22.6956],[92.577,22.1687],[92.5373,22.1286],[92.5759,21.9776],[92.6509,22.0192],[92.7081,22.148],[92.8539,22.0241],[92.9672,22.0627],[93.169,22.2469],[93.1659,22.3866],[93.0992,22.512],[93.0795,22.7727],[93.1755,22.8817],[93.1382,23.0053],[93.1965,23.0538],[93.2988,23.018],[93.3749,23.1297],[93.3842,23.3131],[93.4324,23.6473],[93.3748,23.739],[93.356,23.907],[93.3026,24.0358]]]}},{"type":"Feature","properties":{"sourceId":"1159315239","regionId":"region.cb7f5983-ccbf-4fcd-8807-2cbce59a2fee","countryId":"country.12rbtu0"},"geometry":{"type":"Polygon","coordinates":[[[92.2597,23.7026],[92.3186,23.8505],[92.3254,24.1883],[92.2985,24.2377],[92.2202,24.2643],[92.2578,24.396],[92.15,24.5422],[92.1076,24.406],[91.95,24.3754],[91.9059,24.2606],[91.5965,24.105],[91.363,24.0998],[91.3084,23.9925],[91.2163,23.9084],[91.1408,23.6121],[91.2273,23.4688],[91.3005,23.1423],[91.4636,23.1841],[91.5366,22.9819],[91.6947,22.9881],[91.7956,23.0895],[91.7437,23.2723],[91.7916,23.3683],[91.9408,23.4952],[91.9144,23.6883],[92.0035,23.6474],[92.1508,23.7317],[92.2597,23.7026]]]}},{"type":"Feature","properties":{"sourceId":"1159311871","regionId":"region.ad0fe365-9777-4068-9068-17d8188f7919","countryId":"country.12rbtu0"},"geometry":{"type":"Polygon","coordinates":[[[92.3849,25.0048],[92.5649,25.1524],[92.8055,25.2277],[92.7896,25.3489],[92.5883,25.4988],[92.5934,25.5867],[92.3824,25.7643],[92.1673,25.6895],[92.1655,25.8092],[92.2147,25.9195],[92.1641,26.0884],[91.9225,26.0382],[91.8253,26.0893],[91.7182,25.9677],[91.5823,26.0269],[91.4747,25.8962],[91.3606,25.8433],[91.251,25.7376],[91.1789,25.8696],[91.0968,25.8399],[90.9745,25.9436],[90.6177,25.9698],[90.4845,26.0119],[90.1356,25.9598],[89.9742,25.8016],[89.9423,25.6915],[90.0021,25.5868],[89.8973,25.5414],[89.8086,25.4395],[89.7992,25.4029],[89.8074,25.3045],[89.9081,25.2969],[90.1301,25.2116],[90.3646,25.15],[90.5014,25.1688],[90.9348,25.1564],[91.2357,25.2019],[91.471,25.1339],[91.5661,25.16],[92.0018,25.183],[92.3035,25.0743],[92.3849,25.0048]]]}},{"type":"Feature","properties":{"sourceId":"1159314155","regionId":"region.084d1be9-a36c-4e63-bd66-0565d791c821","countryId":"country.12rbtu0"},"geometry":{"type":"Polygon","coordinates":[[[75.2984,32.3324],[75.359,32.2617],[75.2947,32.1489],[74.9557,32.0322],[74.8286,32.0254],[74.5656,31.8405],[74.4894,31.7112],[74.6119,31.4402],[74.5322,31.3032],[74.5064,31.1754],[74.601,31.0566],[74.5193,30.9625],[74.3298,30.8996],[74.1637,30.6649],[74.0571,30.5916],[73.9391,30.4261],[73.8518,30.3727],[73.9468,30.2041],[73.9697,30.1374],[73.9159,29.9799],[74.5165,29.9472],[74.6507,29.9141],[74.8234,29.985],[75.2382,29.7488],[75.1721,29.6882],[75.2346,29.5618],[75.4458,29.8062],[75.6044,29.7647],[75.786,29.831],[75.9569,29.7386],[76.2256,29.8691],[76.1781,29.9547],[76.2667,30.1137],[76.4296,30.1404],[76.5314,30.084],[76.6248,30.1428],[76.6056,30.2744],[76.7143,30.3371],[76.7529,30.4305],[76.9049,30.3841],[76.8866,30.6338],[76.8273,30.6807],[76.7756,30.6774],[76.7038,30.7814],[76.8146,30.7891],[76.7682,30.9076],[76.6452,30.9993],[76.5611,31.2767],[76.4335,31.3178],[76.3736,31.4192],[76.2754,31.3104],[76.1585,31.3386],[76.0705,31.5642],[75.9233,31.8063],[75.9643,31.8488],[75.8797,31.9724],[75.7065,32.0498],[75.6394,32.1468],[75.6927,32.2723],[75.9117,32.4314],[75.8474,32.5167],[75.5024,32.3006],[75.2984,32.3324]]]}},{"type":"Feature","properties":{"sourceId":"1159314157","regionId":"region.ed0d3df1-4377-49e5-a518-976e0a6edec7","countryId":"country.12rbtu0"},"geometry":{"type":"Polygon","coordinates":[[[73.9468,30.2041],[73.7397,30.0485],[73.5578,30.0125],[73.3703,29.9273],[73.2329,29.5366],[73.0509,29.2282],[72.9015,29.0226],[72.3822,28.784],[72.2565,28.6456],[72.1499,28.3538],[71.9882,28.2281],[71.8916,28.0971],[71.8609,27.9502],[71.5607,27.8685],[71.3114,27.8617],[71.1507,27.8224],[70.8316,27.7015],[70.7104,27.7412],[70.6332,27.9316],[70.4562,28.0398],[70.3419,28.0115],[70.189,27.8918],[70.0907,27.7936],[70.0169,27.6006],[69.848,27.4104],[69.5756,27.1884],[69.5076,27.0501],[69.4651,26.8078],[69.5042,26.7352],[69.6594,26.6777],[69.8156,26.5803],[70.0561,26.5891],[70.1581,26.5301],[70.132,26.1805],[70.0646,25.9803],[70.2646,25.6973],[70.4772,25.6763],[70.5923,25.7088],[70.6575,25.6336],[70.6466,25.4314],[70.7231,25.2873],[70.8599,25.1394],[70.8933,25.0019],[71.0566,24.6928],[71.2515,24.6368],[71.5458,24.6881],[71.9479,24.6626],[72.0509,24.7084],[72.2752,24.5684],[72.6676,24.4609],[72.747,24.3807],[72.8974,24.3606],[72.9997,24.4933],[73.095,24.5036],[73.1372,24.3359],[73.0793,24.2043],[73.2456,24.0155],[73.3541,24.1047],[73.4239,23.9409],[73.3617,23.7842],[73.6206,23.5826],[73.6188,23.4519],[73.8119,23.4346],[73.9595,23.3588],[74.2333,23.1559],[74.3235,23.0361],[74.4761,23.0624],[74.7159,23.1792],[74.5364,23.2509],[74.5695,23.3679],[74.823,23.5001],[74.939,23.6874],[74.9083,23.8967],[74.9682,24.0328],[74.87,24.2361],[74.7593,24.2567],[74.7664,24.3587],[74.8468,24.4355],[74.7119,24.5239],[74.8065,24.7358],[74.8697,24.6656],[74.9654,24.694],[74.9743,24.7857],[74.8378,24.7971],[74.8153,24.9165],[74.9814,24.863],[75.0844,24.8889],[75.1333,25.04],[75.2351,25.0402],[75.3179,24.9552],[75.172,24.7625],[75.2037,24.725],[75.448,24.7031],[75.7588,24.7774],[75.8694,24.5994],[75.8749,24.5143],[75.7344,24.424],[75.7948,24.2516],[75.805,24.1191],[75.73,24.0007],[75.5389,24.0414],[75.4903,23.9399],[75.5971,23.8179],[75.6998,23.7932],[75.7765,23.8831],[75.9979,23.9839],[75.999,24.0511],[76.1166,24.134],[76.1327,24.3294],[76.2303,24.2779],[76.5725,24.2732],[76.7666,24.1603],[76.8916,24.2409],[76.8146,24.3601],[76.8062,24.5558],[76.9429,24.5002],[77.0352,24.5384],[77.0374,24.6703],[76.9668,24.7375],[76.8481,24.7597],[76.7806,24.8371],[76.8832,24.897],[76.861,25.0338],[77.1874,25.1275],[77.3413,25.114],[77.3989,25.2122],[77.3586,25.4071],[77.2555,25.4335],[77.2016,25.3556],[76.9135,25.3093],[76.6523,25.3792],[76.5514,25.4601],[76.4784,25.7198],[76.546,25.8483],[76.727,25.9163],[76.908,26.0986],[77.2097,26.242],[77.3234,26.352],[77.4313,26.3737],[77.6168,26.483],[77.8315,26.5758],[77.9028,26.664],[78.0794,26.6829],[78.1012,26.7951],[78.2001,26.8236],[78.2231,26.9371],[78.1069,26.9473],[77.9766,26.9044],[77.7046,26.9298],[77.5105,26.8333],[77.4608,26.9042],[77.6285,26.9732],[77.5134,27.1092],[77.6573,27.2027],[77.6061,27.3236],[77.4598,27.3851],[77.3456,27.5419],[77.2807,27.8094],[77.0408,27.8073],[76.973,27.6793],[76.9009,27.7344],[76.9406,27.8521],[76.9406,28.123],[76.8566,28.229],[76.6468,28.0855],[76.5531,27.9712],[76.4535,28.1628],[76.1633,28.0579],[76.215,27.8415],[75.9999,27.8427],[75.9315,27.9181],[75.9928,28.0507],[75.9619,28.1395],[76.0262,28.2622],[75.8871,28.4038],[75.6986,28.5206],[75.5936,28.6427],[75.4521,29.0239],[75.3929,29.106],[75.3915,29.2527],[75.3284,29.2962],[75.1066,29.2382],[74.9696,29.2843],[74.9072,29.3785],[74.8214,29.4029],[74.6128,29.3328],[74.5748,29.5897],[74.6027,29.7264],[74.4665,29.7989],[74.547,29.8608],[74.5165,29.9472],[73.9159,29.9799],[73.9697,30.1374],[73.9468,30.2041]]]}},{"type":"Feature","properties":{"sourceId":"1159314179","regionId":"region.5b35ba70-63e6-4440-a1c8-5d40657d5644","countryId":"country.12rbtu0"},"geometry":{"type":"Polygon","coordinates":[[[71.0566,24.6928],[70.9548,24.5845],[70.9967,24.3566],[70.9177,24.3617],[70.7555,24.2314],[70.5602,24.2873],[70.5629,24.4241],[70.4164,24.4019],[70.1097,24.3049],[70.0521,24.2021],[69.972,24.1652],[69.6706,24.1887],[69.5631,24.2768],[69.2808,24.2837],[68.9808,24.2554],[68.8903,24.3195],[68.7259,24.2892],[68.7245,23.9652],[68.4316,23.9671],[68.2519,23.9048],[68.183,23.8421],[68.1637,23.7577],[68.3273,23.5869],[68.4108,23.7005],[68.4237,23.4458],[68.561,23.3639],[68.5523,23.2597],[68.6913,23.1305],[68.8662,23.02],[69.2388,22.8419],[69.5857,22.7612],[69.7158,22.7469],[69.8332,22.8585],[70.2693,22.9586],[70.3988,22.9455],[70.3988,23.069],[70.5272,23.0236],[70.3753,22.9027],[70.1785,22.562],[69.9621,22.5353],[69.7887,22.4232],[69.7422,22.473],[69.6161,22.3559],[69.3599,22.3292],[69.2121,22.2739],[69.2057,22.3987],[68.9744,22.4047],[68.9446,22.2951],[68.9942,22.2039],[69.1984,21.9797],[69.4785,21.7526],[69.8147,21.4337],[70.0544,21.1532],[70.3367,20.9271],[70.5415,20.8078],[70.8402,20.7019],[70.973,20.7096],[71.006,20.7366],[71.1406,20.7657],[71.3186,20.8493],[71.4623,20.8853],[71.7176,21.0321],[72.1047,21.2051],[72.1045,21.315],[72.2422,21.4808],[72.2957,21.6539],[72.166,21.7939],[72.1281,21.9835],[72.2577,22.0122],[72.3172,22.1849],[72.5531,22.2825],[72.5071,21.9623],[72.5628,21.8394],[72.5321,21.7139],[72.7981,21.6735],[72.7512,21.5651],[72.6196,21.4874],[72.5737,21.3901],[72.6061,21.2666],[72.7996,21.1288],[72.7839,21.0404],[72.945,20.77],[72.847,20.4683],[72.8181,20.3788],[72.7482,20.2803],[72.7081,20.0726],[72.9472,20.1274],[72.8967,20.2215],[73.0499,20.3303],[73.1122,20.2549],[73.0418,20.1577],[73.1663,20.1149],[73.2718,20.1934],[73.3638,20.1783],[73.3941,20.2704],[73.3607,20.3694],[73.4587,20.538],[73.4758,20.6787],[73.6998,20.5624],[73.7923,20.6062],[73.909,20.7757],[73.8683,20.9748],[73.6952,21.1226],[73.8001,21.2809],[73.9186,21.2916],[73.9602,21.3944],[74.1087,21.4516],[74.1916,21.5455],[73.9959,21.5553],[73.8208,21.5083],[73.7516,21.611],[73.8286,21.6509],[73.8094,21.8365],[74.1288,21.9518],[74.1419,22.0628],[74.0564,22.2942],[74.2243,22.3492],[74.0257,22.4796],[74.1612,22.5167],[74.3764,22.651],[74.4581,22.8041],[74.365,22.875],[74.3235,23.0361],[74.2333,23.1559],[73.9595,23.3588],[73.8119,23.4346],[73.6188,23.4519],[73.6206,23.5826],[73.3617,23.7842],[73.4239,23.9409],[73.3541,24.1047],[73.2456,24.0155],[73.0793,24.2043],[73.1372,24.3359],[73.095,24.5036],[72.9997,24.4933],[72.8974,24.3606],[72.747,24.3807],[72.6676,24.4609],[72.2752,24.5684],[72.0509,24.7084],[71.9479,24.6626],[71.5458,24.6881],[71.2515,24.6368],[71.0566,24.6928]]]}},{"type":"Feature","properties":{"sourceId":"1159311877","regionId":"region.48ff16f2-f2fb-4e76-b74f-a9cb0b27a5fe","countryId":"country.12rbtu0"},"geometry":{"type":"Polygon","coordinates":[[[78.381,32.528],[78.2539,32.6979],[78.0089,32.6103],[77.8579,32.873],[77.7211,33.0126],[77.539,32.9184],[77.3487,32.8672],[77.1358,32.9268],[76.9561,33.0251],[76.7398,33.1974],[76.5586,33.2315],[76.2943,33.1479],[76.2159,33.0511],[76.1008,33.0131],[75.9724,32.911],[75.8049,32.8986],[75.9093,32.7727],[75.9226,32.6173],[75.8474,32.5167],[75.9117,32.4314],[75.6927,32.2723],[75.6394,32.1468],[75.7065,32.0498],[75.8797,31.9724],[75.9643,31.8488],[75.9233,31.8063],[76.0705,31.5642],[76.1585,31.3386],[76.2754,31.3104],[76.3736,31.4192],[76.4335,31.3178],[76.5611,31.2767],[76.6452,30.9993],[76.7682,30.9076],[76.9057,30.8993],[77.0015,30.7773],[77.1151,30.7221],[77.1478,30.5387],[77.3034,30.4603],[77.5851,30.3829],[77.813,30.5211],[77.7058,30.7915],[77.7891,30.9306],[77.806,31.0505],[77.9411,31.1729],[78.0397,31.1722],[78.2842,31.2903],[78.501,31.2196],[78.7927,31.207],[78.8695,31.122],[78.9933,31.1634],[78.8926,31.2818],[78.7385,31.335],[78.7626,31.4451],[78.6995,31.51],[78.8189,31.6074],[78.6709,31.7705],[78.7446,31.9642],[78.6493,32.0364],[78.5131,32.2076],[78.458,32.2297],[78.4488,32.4268],[78.381,32.528]]]}},{"type":"Feature","properties":{"sourceId":"1159311911","regionId":"region.95fee91f-e93f-46b2-bc6f-a5d4106a859f","countryId":"country.12rbtu0"},"geometry":{"type":"Polygon","coordinates":[[[74.317,32.8231],[74.6497,32.7231],[74.6296,32.5881],[74.725,32.4608],[75.0237,32.4663],[75.2984,32.3324],[75.5024,32.3006],[75.8474,32.5167],[75.9226,32.6173],[75.9093,32.7727],[75.8049,32.8986],[75.9724,32.911],[76.1008,33.0131],[76.2159,33.0511],[76.2943,33.1479],[76.5586,33.2315],[76.7398,33.1974],[76.6466,33.3521],[76.488,33.5022],[76.2461,33.5741],[76.2358,33.7288],[76.1664,33.8732],[76.0244,33.9821],[75.8796,33.9637],[75.7417,34.0664],[75.6634,34.1992],[75.5846,34.2101],[75.3745,34.371],[75.3481,34.5572],[75.2245,34.6386],[75.0178,34.6297],[74.6649,34.6883],[74.4121,34.7645],[74.2858,34.7689],[74.1209,34.6909],[73.9622,34.6682],[73.7749,34.371],[73.9377,34.3042],[73.9983,34.1968],[73.8844,34.0842],[73.9458,34.0098],[74.2284,34.0129],[74.2395,33.901],[74.0346,33.8286],[73.9767,33.6484],[74.1416,33.5494],[74.1055,33.3452],[74.0017,33.2702],[74.0023,33.1777],[74.1539,33.0402],[74.322,32.972],[74.317,32.8231]]]}},{"type":"Feature","properties":{"sourceId":"1159314167","regionId":"region.5705ce5d-4945-4677-9271-085165730d41","countryId":"country.12rbtu0"},"geometry":{"type":"Polygon","coordinates":[[[87.6487,26.41],[87.587,26.378],[87.3842,26.4186],[87.3262,26.3533],[87.0833,26.4321],[87.0413,26.5802],[86.9352,26.5203],[86.7136,26.4146],[86.2844,26.612],[86.1464,26.6014],[86.0114,26.6544],[85.8216,26.5717],[85.7129,26.6532],[85.6878,26.8119],[85.5986,26.8544],[85.3554,26.7599],[85.1949,26.7589],[85.162,26.851],[85.044,26.8437],[84.924,26.9557],[84.8019,27.0138],[84.6402,27.0284],[84.6577,27.2034],[84.577,27.329],[84.2894,27.3761],[84.0796,27.5095],[83.922,27.4497],[83.8533,27.3462],[83.9424,27.2225],[84.0706,26.9236],[84.2408,26.8742],[84.2464,26.757],[84.383,26.6417],[84.0992,26.6496],[84.054,26.5648],[83.9201,26.5327],[84.1776,26.4043],[84.1872,26.2928],[83.9927,26.2411],[84.0649,26.1035],[84.1503,26.066],[84.2615,25.9313],[84.3743,25.9403],[84.5316,25.8621],[84.6007,25.747],[84.4867,25.7007],[84.3728,25.7651],[84.3242,25.6589],[84.2389,25.648],[84.1434,25.7362],[83.9043,25.5295],[83.7749,25.445],[83.3841,25.2359],[83.3343,25.1726],[83.3602,24.8633],[83.5088,24.7621],[83.5231,24.5297],[83.6959,24.5063],[83.9184,24.5438],[84.0439,24.6239],[84.0956,24.5041],[84.3054,24.5308],[84.3119,24.4511],[84.472,24.3074],[84.5883,24.3944],[84.7985,24.4966],[84.889,24.3728],[84.9615,24.3484],[85.2806,24.4873],[85.5264,24.5016],[85.6624,24.5689],[85.6473,24.6486],[85.746,24.77],[85.9116,24.6985],[86.0977,24.6905],[86.1549,24.5561],[86.2905,24.5516],[86.2764,24.4348],[86.4387,24.3404],[86.4944,24.4798],[86.5857,24.5614],[86.7554,24.5881],[86.8899,24.5316],[86.9255,24.6136],[87.05,24.597],[87.1192,24.8511],[87.1173,24.9709],[87.1855,25.062],[87.2659,25.0722],[87.2919,25.1743],[87.4067,25.181],[87.5235,25.3238],[87.5987,25.2667],[87.7837,25.2141],[87.8381,25.2778],[87.768,25.4363],[87.9558,25.5341],[88.0431,25.5471],[88.0464,25.6689],[87.8054,25.8737],[87.8314,26.0106],[87.9794,26.1458],[88.1805,26.2855],[88.2972,26.3362],[88.2823,26.4284],[88.0871,26.5391],[88.0066,26.3699],[87.8707,26.4607],[87.6487,26.41]]]}},{"type":"Feature","properties":{"sourceId":"1159314159","regionId":"region.f6975009-fc47-4d58-93a3-33043cb0e264","countryId":"country.12rbtu0"},"geometry":{"type":"Polygon","coordinates":[[[82.6739,27.6965],[82.4019,27.6772],[82.0502,27.9056],[81.8557,27.8509],[81.6889,27.9632],[81.4582,28.0773],[81.396,28.1606],[81.3071,28.1238],[81.1904,28.3381],[81.0471,28.3891],[80.8867,28.4528],[80.5344,28.6796],[80.3498,28.6202],[80.2333,28.7327],[80.0731,28.8209],[80.0006,28.7373],[79.6994,28.8504],[79.5262,28.8784],[79.4437,28.8496],[79.3712,28.9699],[79.2964,28.9716],[79.0559,29.1518],[78.9504,29.127],[78.8677,29.2152],[78.7215,29.284],[78.9069,29.3884],[78.6431,29.5376],[78.4787,29.722],[78.3806,29.7616],[78.2283,29.9474],[78.155,29.9254],[78.1891,29.7067],[78.1072,29.6545],[77.9828,29.7188],[77.8315,29.6599],[77.747,29.878],[77.7464,29.9773],[77.9289,30.2443],[77.6615,30.3949],[77.5851,30.3829],[77.5701,30.2782],[77.2299,29.9766],[77.1804,29.8043],[77.0647,29.5695],[77.1498,29.4034],[77.1414,29.1303],[77.1957,28.9976],[77.2008,28.8768],[77.3069,28.7206],[77.3274,28.5197],[77.497,28.3933],[77.5289,28.2535],[77.4681,28.0468],[77.5265,27.9745],[77.2807,27.8094],[77.3456,27.5419],[77.4598,27.3851],[77.6061,27.3236],[77.6573,27.2027],[77.5134,27.1092],[77.6285,26.9732],[77.4608,26.9042],[77.5105,26.8333],[77.7046,26.9298],[77.9766,26.9044],[78.1069,26.9473],[78.2231,26.9371],[78.2001,26.8236],[78.3715,26.851],[78.5635,26.7585],[78.6932,26.7979],[78.9358,26.6944],[79.0281,26.4976],[79.0608,26.3551],[78.9633,26.2781],[78.9541,26.11],[78.8083,25.8416],[78.7398,25.7898],[78.7145,25.6259],[78.5584,25.5755],[78.3705,25.5527],[78.2619,25.4117],[78.3663,25.186],[78.3365,25.023],[78.1691,24.8655],[78.2613,24.6927],[78.2288,24.5327],[78.3505,24.408],[78.4894,24.4108],[78.6559,24.2946],[78.8258,24.2301],[78.955,24.3925],[78.8787,24.6132],[78.7504,24.6298],[78.7321,24.8149],[78.6402,24.9641],[78.6098,25.1363],[78.5159,25.2662],[78.5971,25.414],[78.7275,25.3464],[78.7488,25.4261],[78.9549,25.3857],[78.885,25.2655],[79.4682,25.1038],[79.5416,25.1766],[79.6611,25.1481],[79.8633,25.1532],[79.8521,25.2478],[80.0153,25.3309],[80.2836,25.4145],[80.3265,25.2823],[80.422,25.1807],[80.2653,25.0638],[80.2883,25.0162],[80.4584,25.0151],[80.5795,25.1479],[80.7179,25.082],[80.8061,25.2122],[80.8589,25.1876],[80.7787,24.9715],[80.9988,24.9657],[81.0981,24.9086],[81.1848,24.9729],[81.2432,25.1695],[81.3605,25.157],[81.537,25.1998],[81.5852,25.0796],[81.8172,25.0358],[81.8811,24.9215],[82.0332,24.8595],[82.4236,24.6475],[82.4271,24.7186],[82.7721,24.6683],[82.7344,24.5516],[82.767,24.386],[82.7329,24.2141],[82.6794,24.1668],[82.8009,23.9987],[82.9644,23.9139],[83.2063,23.944],[83.3371,24.1402],[83.454,24.3616],[83.4017,24.4983],[83.5231,24.5297],[83.5088,24.7621],[83.3602,24.8633],[83.3343,25.1726],[83.3841,25.2359],[83.7749,25.445],[83.9043,25.5295],[84.1434,25.7362],[84.2389,25.648],[84.3242,25.6589],[84.3728,25.7651],[84.4867,25.7007],[84.6007,25.747],[84.5316,25.8621],[84.3743,25.9403],[84.2615,25.9313],[84.1503,26.066],[84.0649,26.1035],[83.9927,26.2411],[84.1872,26.2928],[84.1776,26.4043],[83.9201,26.5327],[84.054,26.5648],[84.0992,26.6496],[84.383,26.6417],[84.2464,26.757],[84.2408,26.8742],[84.0706,26.9236],[83.9424,27.2225],[83.8533,27.3462],[83.5904,27.4566],[83.361,27.4622],[83.3049,27.3319],[83.1328,27.4442],[83.0105,27.4434],[82.7521,27.495],[82.6739,27.6965]]]}},{"type":"Feature","properties":{"sourceId":"1159311629","regionId":"region.4c89f645-a680-491f-a80d-dd705b0e567b","countryId":"country.12rbtu0"},"geometry":{"type":"Polygon","coordinates":[[[80.2777,13.5125],[80.2881,13.5271],[80.221,13.697],[80.2372,13.8397],[80.1639,13.988],[80.1211,14.242],[80.175,14.3446],[80.197,14.565],[80.1107,14.7048],[80.0545,15.0141],[80.0906,15.3049],[80.1729,15.4383],[80.2632,15.6745],[80.3596,15.7758],[80.4691,15.8347],[80.6904,15.9007],[80.7761,15.8843],[80.8303,15.7476],[80.91,15.8527],[80.9989,15.8467],[81.1554,15.9855],[81.2485,16.3201],[81.3174,16.3675],[81.763,16.3226],[81.9927,16.4084],[82.3074,16.5798],[82.3656,16.8116],[82.2679,16.8675],[82.2993,17.0303],[82.4749,17.206],[82.7185,17.3486],[82.8968,17.4093],[83.0882,17.5307],[83.2389,17.593],[83.4177,17.8062],[83.4312,17.8542],[83.6139,18.0452],[83.7752,18.1396],[84.0774,18.2716],[84.2817,18.5256],[84.4237,18.6365],[84.6309,18.9157],[84.7411,19.0281],[84.7778,19.1162],[84.6945,19.1606],[84.5252,19.033],[84.3178,18.8092],[84.1531,18.7877],[84.0714,18.8179],[83.9024,18.8056],[83.8018,19],[83.7064,19.0014],[83.6128,19.1298],[83.4901,19.0516],[83.3942,18.8694],[83.2017,18.7416],[83.1265,18.7582],[83.0281,18.6409],[83.0835,18.5253],[83.0392,18.3904],[82.9041,18.3553],[82.8784,18.4091],[82.5867,18.2444],[82.5974,18.3252],[82.4491,18.5221],[82.3682,18.414],[82.3299,18.044],[82.2401,17.9929],[82.0424,18.0433],[81.759,17.9089],[81.7758,17.8332],[81.6286,17.7634],[81.5352,17.6377],[81.4695,17.4205],[81.4083,17.3706],[81.2143,17.3236],[81.1442,17.2495],[80.9905,17.2182],[80.8931,17.1556],[80.8295,17.046],[80.6697,17.0799],[80.5909,17.1398],[80.5018,17.108],[80.3843,16.976],[80.5862,16.9339],[80.5061,16.7925],[80.351,16.8621],[80.2806,16.9974],[80.2205,17.0333],[80.0776,16.9726],[80.0024,16.871],[80.0733,16.8229],[79.9581,16.6304],[79.8823,16.7032],[79.5043,16.6419],[79.4063,16.5872],[79.2656,16.5696],[79.2135,16.4932],[79.2334,16.3305],[79.1606,16.2193],[79.0217,16.2471],[78.7341,16.0303],[78.4998,16.0938],[78.4,16.0834],[78.256,16.0057],[78.2353,15.9505],[78.0875,15.833],[77.888,15.9191],[77.6412,15.9007],[77.4465,15.953],[77.2264,15.9764],[77.0341,15.8737],[77.0253,15.7813],[77.0849,15.6673],[76.9997,15.6138],[77.0259,15.3515],[77.1049,15.3082],[77.1281,15.1323],[77.0804,15.0367],[76.948,15.0216],[76.7643,15.0941],[76.7195,14.9897],[76.8222,14.921],[76.7619,14.7637],[76.7529,14.5656],[76.83,14.4787],[76.9316,14.4576],[76.8624,14.3472],[76.9082,14.2579],[77.0455,14.2317],[77.1113,14.3296],[77.2568,14.334],[77.4678,14.1924],[77.3685,14.1634],[77.2893,14.0107],[77.1123,14.0051],[76.9953,14.0664],[76.9359,14.0109],[77.0104,13.905],[76.9585,13.7816],[77.0323,13.7462],[77.1332,13.7848],[77.1522,13.9036],[77.384,13.8467],[77.4425,13.702],[77.7349,13.8242],[77.8788,13.9166],[77.9207,13.8305],[78.0327,13.8847],[78.0968,13.809],[78.0682,13.6987],[78.1841,13.6015],[78.3747,13.5796],[78.3502,13.3761],[78.3809,13.3228],[78.5684,13.2748],[78.5165,13.0891],[78.4158,12.9482],[78.2296,12.7599],[78.3528,12.6415],[78.4191,12.6326],[78.5826,12.7782],[78.6447,12.992],[78.7362,13.061],[78.9442,13.0934],[79.0776,13.0356],[79.1616,13.0449],[79.2508,13.1478],[79.3149,13.132],[79.4202,13.22],[79.4495,13.3312],[79.5717,13.2841],[79.6679,13.2913],[79.7849,13.224],[79.8163,13.2949],[80.0976,13.4638],[80.2602,13.4685],[80.1194,13.5007],[80.0565,13.5952],[80.0913,13.6591],[80.1973,13.6436],[80.2777,13.5125]]]}},{"type":"Feature","properties":{"sourceId":"1159311885","regionId":"region.784e4a00-3cc3-42fc-8ba1-fc35771ca798","countryId":"country.12rbtu0"},"geometry":{"type":"Polygon","coordinates":[[[87.4774,21.6136],[87.4085,21.7861],[87.275,21.814],[87.1907,21.9562],[86.9937,21.9725],[86.9874,22.0666],[86.8339,22.1218],[86.6865,22.218],[86.4866,22.3369],[86.366,22.3301],[86.268,22.4224],[86.0398,22.5567],[85.9388,22.5005],[85.9865,22.3936],[85.9741,22.1046],[85.9162,22.0221],[85.7847,22.0119],[85.6791,22.0759],[85.4252,22.1645],[85.3241,22.1267],[85.232,22.0353],[85.1092,22.1085],[84.9852,22.1128],[85.0878,22.2802],[85.0655,22.5032],[84.9083,22.422],[84.5301,22.423],[84.4208,22.331],[84.311,22.324],[84.1478,22.3868],[84.067,22.4996],[83.9702,22.5393],[83.9965,22.4405],[83.9458,22.3712],[83.8414,22.3486],[83.6054,22.196],[83.5153,21.9639],[83.5571,21.8349],[83.4732,21.8072],[83.3277,21.4992],[83.3812,21.3995],[83.2794,21.3588],[83.1983,21.1726],[83.0782,21.1146],[82.9646,21.1785],[82.6682,21.1555],[82.5621,20.9545],[82.4535,20.8469],[82.342,20.8608],[82.3667,20.6571],[82.3402,20.5563],[82.4219,20.428],[82.4337,20.159],[82.4156,20.067],[82.6112,19.9881],[82.695,20.0005],[82.6823,19.8227],[82.3814,19.8859],[82.2903,19.8361],[82.2284,19.9587],[82.0962,20.0506],[82.0461,20.0179],[81.9396,20.1047],[81.8678,20.0467],[81.8242,19.9133],[82.0291,19.7765],[82.029,19.5179],[82.1687,19.3866],[82.1454,19.2442],[82.225,19.0152],[82.1389,18.7473],[81.969,18.6857],[81.9133,18.5449],[81.7406,18.3579],[81.5425,18.2625],[81.4442,17.8797],[81.394,17.8067],[81.5784,17.797],[81.759,17.9089],[82.0424,18.0433],[82.2401,17.9929],[82.3299,18.044],[82.3682,18.414],[82.4491,18.5221],[82.5974,18.3252],[82.5867,18.2444],[82.8784,18.4091],[82.9041,18.3553],[83.0392,18.3904],[83.0835,18.5253],[83.0281,18.6409],[83.1265,18.7582],[83.2017,18.7416],[83.3942,18.8694],[83.4901,19.0516],[83.6128,19.1298],[83.7064,19.0014],[83.8018,19],[83.9024,18.8056],[84.0714,18.8179],[84.1531,18.7877],[84.3178,18.8092],[84.5252,19.033],[84.6945,19.1606],[84.7778,19.1162],[84.8721,19.2199],[85.1804,19.475],[85.1045,19.5149],[85.221,19.736],[85.4636,19.9029],[85.5703,19.8756],[85.5492,19.6906],[85.7444,19.7657],[86.2686,19.9103],[86.3724,19.965],[86.4951,20.1841],[86.7017,20.2847],[86.7339,20.4622],[86.9232,20.6217],[87.0036,20.6571],[86.9522,20.8491],[86.844,21.0822],[86.8373,21.1747],[86.9177,21.3274],[87.0637,21.475],[87.2009,21.552],[87.3418,21.5624],[87.4774,21.6136]]]}},{"type":"Feature","properties":{"sourceId":"1159311887","regionId":"region.629123e1-d2fe-42ef-99a9-26f12a3f4e4c","countryId":"country.12rbtu0"},"geometry":{"type":"Polygon","coordinates":[[[73.1663,20.1149],[73.0418,20.1577],[73.1122,20.2549],[73.0499,20.3303],[72.8967,20.2215],[72.9472,20.1274],[72.9972,20.0398],[73.1609,20.0475],[73.1663,20.1149]]]}},{"type":"Feature","properties":{"sourceId":"1159311891","regionId":"region.23808d27-dd90-437f-81c0-f39f31d00589","countryId":"country.12rbtu0"},"geometry":{"type":"Polygon","coordinates":[[[73.7009,15.7232],[73.8131,15.7719],[73.9084,15.7212],[73.9428,15.6325],[74.1006,15.6403],[74.3311,15.7619],[74.3545,15.8726],[74.4696,16.1098],[74.4519,16.2539],[74.3662,16.2929],[74.2924,16.5284],[74.43,16.6443],[74.5574,16.5517],[74.6658,16.6062],[74.6849,16.7084],[74.8667,16.7762],[74.8446,16.852],[74.96,16.9511],[75.0434,16.9528],[75.1665,16.8679],[75.256,16.9592],[75.4534,16.9641],[75.6468,17.0914],[75.6221,17.2209],[75.5528,17.3659],[75.6131,17.4716],[75.7839,17.3748],[75.87,17.4161],[75.9365,17.3259],[76.2104,17.3889],[76.3438,17.3519],[76.3222,17.6177],[76.3906,17.6368],[76.513,17.7728],[76.676,17.7069],[76.8851,17.9745],[76.8929,18.1443],[77.0877,18.1971],[77.2311,18.3338],[77.3466,18.3515],[77.4615,18.2819],[77.5512,18.3079],[77.5026,18.3816],[77.5923,18.5481],[77.6799,18.57],[77.7034,18.6691],[77.7811,18.7038],[77.8393,18.8096],[77.9121,18.8354],[77.752,19.0459],[77.8336,19.1214],[77.92,19.3317],[78.0639,19.2641],[78.1679,19.2641],[78.1744,19.3747],[78.3026,19.4828],[78.3334,19.6433],[78.3836,19.6845],[78.3218,19.8633],[78.4777,19.7991],[78.5337,19.8247],[78.8475,19.7245],[78.8725,19.6501],[79.0243,19.5415],[79.1977,19.4619],[79.266,19.5896],[79.4204,19.5364],[79.5389,19.5338],[79.7354,19.6034],[79.9311,19.4825],[79.9655,19.4019],[79.9306,19.2119],[79.8618,19.0811],[79.9336,19.0531],[79.9603,18.8671],[80.0905,18.6975],[80.2704,18.7137],[80.3442,18.8507],[80.2718,18.9794],[80.3666,19.1174],[80.3971,19.2342],[80.576,19.392],[80.7167,19.2627],[80.8322,19.3454],[80.8939,19.4844],[80.7129,19.5926],[80.6757,19.6766],[80.5656,19.7398],[80.5311,19.9207],[80.5572,20.0483],[80.5306,20.1349],[80.4263,20.1462],[80.4244,20.2341],[80.6224,20.3259],[80.6224,20.6009],[80.573,20.6976],[80.5521,20.9193],[80.4353,20.9992],[80.4845,21.1677],[80.6256,21.2427],[80.679,21.3512],[80.6256,21.3265],[80.4176,21.4468],[80.3102,21.5802],[80.1867,21.6395],[80.0053,21.5483],[79.8403,21.5343],[79.7984,21.5878],[79.5516,21.55],[79.5331,21.6193],[79.4131,21.6898],[79.2401,21.7128],[79.2158,21.6546],[78.9219,21.5723],[78.9042,21.5093],[78.696,21.4748],[78.5137,21.5266],[78.4133,21.6063],[78.1927,21.5511],[78.0292,21.4377],[77.8715,21.3981],[77.578,21.3845],[77.4818,21.4239],[77.4568,21.5485],[77.5552,21.5425],[77.5518,21.6968],[77.4607,21.77],[77.333,21.7745],[77.219,21.7008],[77.1155,21.724],[76.7937,21.577],[76.7295,21.413],[76.6334,21.341],[76.6141,21.2025],[76.4983,21.1804],[76.4366,21.1078],[76.1868,21.0858],[76.0829,21.3681],[75.8778,21.3998],[75.5347,21.3718],[75.3119,21.3815],[75.1299,21.4377],[75.048,21.5541],[74.8941,21.612],[74.7081,21.6112],[74.5125,21.7269],[74.4856,21.946],[74.4077,22.023],[74.2844,21.9449],[74.1288,21.9518],[73.8094,21.8365],[73.8286,21.6509],[73.7516,21.611],[73.8208,21.5083],[73.9959,21.5553],[74.1916,21.5455],[74.1087,21.4516],[73.9602,21.3944],[73.9186,21.2916],[73.8001,21.2809],[73.6952,21.1226],[73.8683,20.9748],[73.909,20.7757],[73.7923,20.6062],[73.6998,20.5624],[73.4758,20.6787],[73.4587,20.538],[73.3607,20.3694],[73.3941,20.2704],[73.3638,20.1783],[73.2718,20.1934],[73.1663,20.1149],[73.1609,20.0475],[72.9972,20.0398],[72.9472,20.1274],[72.7081,20.0726],[72.6501,19.842],[72.714,19.7458],[72.718,19.6067],[72.7959,19.5268],[72.7468,19.468],[72.8242,19.0535],[72.8914,18.9918],[72.9269,18.8266],[72.8524,18.7699],[72.9212,18.5549],[72.8897,18.4413],[72.9774,18.2951],[72.981,18.0806],[73.1232,17.7233],[73.1317,17.5394],[73.2347,17.3023],[73.2894,16.9838],[73.2747,16.8488],[73.3216,16.6925],[73.3192,16.5098],[73.447,16.0689],[73.5876,15.9029],[73.6436,15.7491],[73.7009,15.7232]]]}},{"type":"Feature","properties":{"sourceId":"1159314181","regionId":"region.597a16c3-3f62-4942-9901-f35ceebc8761","countryId":"country.12rbtu0"},"geometry":{"type":"Polygon","coordinates":[[[74.0912,14.8876],[74.2412,14.956],[74.3042,15.2892],[74.2365,15.4725],[74.2268,15.6298],[74.1006,15.6403],[73.9428,15.6325],[73.9084,15.7212],[73.8131,15.7719],[73.7009,15.7232],[73.6979,15.6628],[73.7952,15.4608],[73.8859,15.4352],[73.9473,15.1608],[73.9131,15.0789],[74.0313,14.9953],[74.0912,14.8876]]]}},{"type":"Feature","properties":{"sourceId":"1159311889","regionId":"region.a49eb260-d80b-4009-a286-1e185b157750","countryId":"country.12rbtu0"},"geometry":{"type":"Polygon","coordinates":[[[74.8543,12.7653],[75.1021,12.6789],[75.312,12.4695],[75.3893,12.2947],[75.6292,12.1021],[75.7611,12.0687],[75.846,11.9511],[75.9606,11.9286],[76.0558,11.9637],[76.4159,11.6668],[76.5322,11.7091],[76.6054,11.6312],[76.8208,11.6256],[76.9077,11.8002],[76.9974,11.8259],[77.0826,11.7568],[77.2592,11.8169],[77.4339,11.8115],[77.4898,11.9261],[77.6708,11.9713],[77.7687,12.12],[77.6678,12.2039],[77.4921,12.2055],[77.4719,12.2742],[77.5608,12.3397],[77.6189,12.4666],[77.5687,12.5596],[77.6094,12.6728],[77.7653,12.7187],[77.8013,12.8566],[77.895,12.8728],[78.0021,12.8072],[78.0562,12.8459],[78.2296,12.7599],[78.4158,12.9482],[78.5165,13.0891],[78.5684,13.2748],[78.3809,13.3228],[78.3502,13.3761],[78.3747,13.5796],[78.1841,13.6015],[78.0682,13.6987],[78.0968,13.809],[78.0327,13.8847],[77.9207,13.8305],[77.8788,13.9166],[77.7349,13.8242],[77.4425,13.702],[77.384,13.8467],[77.1522,13.9036],[77.1332,13.7848],[77.0323,13.7462],[76.9585,13.7816],[77.0104,13.905],[76.9359,14.0109],[76.9953,14.0664],[77.1123,14.0051],[77.2893,14.0107],[77.3685,14.1634],[77.4678,14.1924],[77.2568,14.334],[77.1113,14.3296],[77.0455,14.2317],[76.9082,14.2579],[76.8624,14.3472],[76.9316,14.4576],[76.83,14.4787],[76.7529,14.5656],[76.7619,14.7637],[76.8222,14.921],[76.7195,14.9897],[76.7643,15.0941],[76.948,15.0216],[77.0804,15.0367],[77.1281,15.1323],[77.1049,15.3082],[77.0259,15.3515],[76.9997,15.6138],[77.0849,15.6673],[77.0253,15.7813],[77.0341,15.8737],[77.2264,15.9764],[77.4465,15.953],[77.4837,16.0021],[77.4908,16.2616],[77.5332,16.361],[77.2937,16.4065],[77.2574,16.4494],[77.432,16.5936],[77.4109,16.7206],[77.4652,17.0426],[77.3744,17.2226],[77.5993,17.4869],[77.5826,17.5788],[77.4115,17.6308],[77.5254,17.7463],[77.5003,17.8123],[77.6198,17.9257],[77.5629,18.0708],[77.5999,18.1148],[77.5512,18.3079],[77.4615,18.2819],[77.3466,18.3515],[77.2311,18.3338],[77.0877,18.1971],[76.8929,18.1443],[76.8851,17.9745],[76.676,17.7069],[76.513,17.7728],[76.3906,17.6368],[76.3222,17.6177],[76.3438,17.3519],[76.2104,17.3889],[75.9365,17.3259],[75.87,17.4161],[75.7839,17.3748],[75.6131,17.4716],[75.5528,17.3659],[75.6221,17.2209],[75.6468,17.0914],[75.4534,16.9641],[75.256,16.9592],[75.1665,16.8679],[75.0434,16.9528],[74.96,16.9511],[74.8446,16.852],[74.8667,16.7762],[74.6849,16.7084],[74.6658,16.6062],[74.5574,16.5517],[74.43,16.6443],[74.2924,16.5284],[74.3662,16.2929],[74.4519,16.2539],[74.4696,16.1098],[74.3545,15.8726],[74.3311,15.7619],[74.1006,15.6403],[74.2268,15.6298],[74.2365,15.4725],[74.3042,15.2892],[74.2412,14.956],[74.0912,14.8876],[74.1113,14.7803],[74.2632,14.7016],[74.3098,14.5194],[74.3942,14.4108],[74.5047,14.0102],[74.6146,13.8355],[74.7151,13.331],[74.8176,12.8618],[74.8543,12.7653]]]}},{"type":"Feature","properties":{"sourceId":"1159311883","regionId":"region.30622bdc-c1e8-404d-9082-7bf7dfca85f3","countryId":"country.12rbtu0"},"geometry":{"type":"Polygon","coordinates":[[[75.2222,12.022],[75.2229,12.1002],[75.2762,12.101],[75.3042,12.0432],[75.3246,11.8991],[75.5308,11.6937],[75.6165,11.4736],[75.6952,11.42],[75.8328,11.0978],[75.922,10.7656],[76.0524,10.514],[76.1775,10.1706],[76.2451,10.1022],[76.2782,9.9779],[76.3592,9.9154],[76.3118,9.493],[76.363,9.3252],[76.544,8.9125],[76.9959,8.3681],[77.1103,8.2852],[77.2788,8.5264],[77.1789,8.6952],[77.2493,8.8591],[77.1649,9.001],[77.2545,9.1221],[77.3986,9.5],[77.3406,9.58],[77.1877,9.6128],[77.2354,9.7647],[77.2602,9.9622],[77.2243,10.0578],[77.277,10.2101],[77.1915,10.3513],[76.928,10.2356],[76.8415,10.3107],[76.8086,10.4371],[76.8211,10.6332],[76.8897,10.78],[76.8198,10.876],[76.6904,10.9334],[76.7192,11.1387],[76.6412,11.2086],[76.4663,11.2052],[76.5338,11.3131],[76.4091,11.4368],[76.2563,11.4784],[76.2408,11.604],[76.3392,11.5915],[76.4159,11.6668],[76.0558,11.9637],[75.9606,11.9286],[75.846,11.9511],[75.7611,12.0687],[75.6292,12.1021],[75.3893,12.2947],[75.312,12.4695],[75.1021,12.6789],[74.8543,12.7653],[74.9553,12.5373],[75.2222,12.022]]]}},{"type":"Feature","properties":{"sourceId":"1159314175","regionId":"region.42d9e50f-ba53-4bb1-9b30-b7ee57e043d6","countryId":"country.12rbtu0"},"geometry":{"type":"MultiPolygon","coordinates":[[[[75.3042,12.0432],[75.2762,12.101],[75.2229,12.1002],[75.2222,12.022],[75.3042,12.0432]]],[[[79.8467,10.9798],[79.7375,10.9862],[79.7055,10.9104],[79.8473,10.8096],[79.8467,10.9798]]]]}},{"type":"Feature","properties":{"sourceId":"1159314177","regionId":"region.1b9f3f3f-da3c-4605-9a18-fef11ad47bd2","countryId":"country.12rbtu0"},"geometry":{"type":"Polygon","coordinates":[[[79.8473,10.8096],[79.7055,10.9104],[79.7375,10.9862],[79.8467,10.9798],[79.8553,11.1599],[79.822,11.3911],[79.752,11.577],[79.8109,11.833],[79.8496,11.9552],[79.8618,12.022],[80.156,12.4745],[80.2287,12.675],[80.2858,13.0676],[80.3478,13.3491],[80.2602,13.4685],[80.0976,13.4638],[79.8163,13.2949],[79.7849,13.224],[79.6679,13.2913],[79.5717,13.2841],[79.4495,13.3312],[79.4202,13.22],[79.3149,13.132],[79.2508,13.1478],[79.1616,13.0449],[79.0776,13.0356],[78.9442,13.0934],[78.7362,13.061],[78.6447,12.992],[78.5826,12.7782],[78.4191,12.6326],[78.3528,12.6415],[78.2296,12.7599],[78.0562,12.8459],[78.0021,12.8072],[77.895,12.8728],[77.8013,12.8566],[77.7653,12.7187],[77.6094,12.6728],[77.5687,12.5596],[77.6189,12.4666],[77.5608,12.3397],[77.4719,12.2742],[77.4921,12.2055],[77.6678,12.2039],[77.7687,12.12],[77.6708,11.9713],[77.4898,11.9261],[77.4339,11.8115],[77.2592,11.8169],[77.0826,11.7568],[76.9974,11.8259],[76.9077,11.8002],[76.8208,11.6256],[76.6054,11.6312],[76.5322,11.7091],[76.4159,11.6668],[76.3392,11.5915],[76.2408,11.604],[76.2563,11.4784],[76.4091,11.4368],[76.5338,11.3131],[76.4663,11.2052],[76.6412,11.2086],[76.7192,11.1387],[76.6904,10.9334],[76.8198,10.876],[76.8897,10.78],[76.8211,10.6332],[76.8086,10.4371],[76.8415,10.3107],[76.928,10.2356],[77.1915,10.3513],[77.277,10.2101],[77.2243,10.0578],[77.2602,9.9622],[77.2354,9.7647],[77.1877,9.6128],[77.3406,9.58],[77.3986,9.5],[77.2545,9.1221],[77.1649,9.001],[77.2493,8.8591],[77.1789,8.6952],[77.2788,8.5264],[77.1103,8.2852],[77.3156,8.1278],[77.5109,8.076],[78.0628,8.3732],[78.1283,8.488],[78.1367,8.6699],[78.1779,8.8611],[78.2398,8.9656],[78.4499,9.1166],[78.6188,9.1405],[78.9568,9.2748],[78.9133,9.4743],[78.9808,9.6672],[79.2004,9.9703],[79.2791,10.0358],[79.2363,10.1666],[79.3049,10.2681],[79.3981,10.3247],[79.5322,10.3232],[79.7598,10.2582],[79.8513,10.2822],[79.8638,10.3787],[79.8473,10.8096]]]}},{"type":"Feature","properties":{"sourceId":"1159311385","regionId":"region.719f8a74-aa2f-4575-8da2-d19dd4b22d83","countryId":"country.12rbtu0"},"geometry":{"type":"Polygon","coordinates":[[[73.0772,8.3153],[73.073,8.2954],[73.0632,8.2795],[73.0484,8.2676],[73.0293,8.26],[73.0327,8.2495],[73.0447,8.2524],[73.0661,8.2705],[73.084,8.3085],[73.0772,8.3153]]]}},{"type":"Feature","properties":{"sourceId":"1159311381","regionId":"region.dbf46d2d-076d-42ee-abb1-c4a026ae7248","countryId":"country.12rbtu0"},"geometry":{"type":"MultiPolygon","coordinates":[[[[93.9203,7.0243],[93.865,7.2007],[93.814,7.2418],[93.6764,7.1819],[93.6492,7.0131],[93.7175,6.9926],[93.8137,6.8083],[93.8899,6.801],[93.9203,7.0243]]],[[[92.5851,10.7713],[92.5276,10.8955],[92.3757,10.775],[92.4026,10.5752],[92.513,10.508],[92.5742,10.5806],[92.5851,10.7713]]],[[[93.0527,13.2839],[93.0425,13.5712],[92.9585,13.5502],[92.8474,13.3449],[92.8542,13.1461],[92.808,13.0201],[92.8003,12.8578],[92.7375,12.8072],[92.76,12.6511],[92.7217,12.5994],[92.7178,12.3625],[92.7927,12.2077],[92.6401,12.1361],[92.6419,12.0363],[92.5397,11.8944],[92.5603,11.7414],[92.6336,11.5826],[92.7267,11.5062],[92.7969,11.8651],[92.7375,11.9612],[92.7688,12.0847],[92.8926,12.2145],[92.9387,12.4381],[92.9906,12.5192],[92.964,12.8649],[92.9053,12.9822],[93.0195,13.0336],[93.0527,13.2839]]]]}},{"type":"Feature","properties":{"sourceId":"1159314163","regionId":"region.f32df487-f2f8-4a93-9317-f6d23ecb3fad","countryId":"country.12rbtu0"},"geometry":{"type":"Polygon","coordinates":[[[83.3371,24.1402],[83.5218,24.0659],[83.5568,23.9358],[83.6966,23.8187],[83.7208,23.6762],[83.7809,23.5865],[84.0145,23.554],[83.9522,23.4749],[83.9469,23.37],[84.0386,23.3094],[84.0289,23.1461],[84.115,22.9989],[84.2917,22.9972],[84.3522,22.8856],[84.2283,22.7831],[84.191,22.7009],[83.9962,22.5927],[83.9702,22.5393],[84.067,22.4996],[84.1478,22.3868],[84.311,22.324],[84.4208,22.331],[84.5301,22.423],[84.9083,22.422],[85.0655,22.5032],[85.0878,22.2802],[84.9852,22.1128],[85.1092,22.1085],[85.232,22.0353],[85.3241,22.1267],[85.4252,22.1645],[85.6791,22.0759],[85.7847,22.0119],[85.9162,22.0221],[85.9741,22.1046],[85.9865,22.3936],[85.9388,22.5005],[86.0398,22.5567],[86.268,22.4224],[86.366,22.3301],[86.4866,22.3369],[86.6865,22.218],[86.7803,22.2867],[86.7899,22.4156],[86.7494,22.5448],[86.6114,22.6043],[86.5869,22.6807],[86.3991,22.785],[86.4505,23.0042],[86.1425,23.0283],[86.0202,23.1526],[85.8884,23.1631],[85.8298,23.2608],[85.8948,23.4165],[85.9964,23.5115],[86.2143,23.4492],[86.3365,23.5084],[86.4585,23.6386],[86.7998,23.7255],[86.8772,23.9131],[87.0797,23.8152],[87.2412,23.8508],[87.3381,24.0018],[87.4887,24.0469],[87.6616,24.1862],[87.6315,24.2694],[87.7206,24.3178],[87.8954,24.6703],[87.8533,24.7584],[87.8775,24.9389],[87.781,25.0899],[87.7837,25.2141],[87.5987,25.2667],[87.5235,25.3238],[87.4067,25.181],[87.2919,25.1743],[87.2659,25.0722],[87.1855,25.062],[87.1173,24.9709],[87.1192,24.8511],[87.05,24.597],[86.9255,24.6136],[86.8899,24.5316],[86.7554,24.5881],[86.5857,24.5614],[86.4944,24.4798],[86.4387,24.3404],[86.2764,24.4348],[86.2905,24.5516],[86.1549,24.5561],[86.0977,24.6905],[85.9116,24.6985],[85.746,24.77],[85.6473,24.6486],[85.6624,24.5689],[85.5264,24.5016],[85.2806,24.4873],[84.9615,24.3484],[84.889,24.3728],[84.7985,24.4966],[84.5883,24.3944],[84.472,24.3074],[84.3119,24.4511],[84.3054,24.5308],[84.0956,24.5041],[84.0439,24.6239],[83.9184,24.5438],[83.6959,24.5063],[83.5231,24.5297],[83.4017,24.4983],[83.454,24.3616],[83.3371,24.1402]]]}},{"type":"Feature","properties":{"sourceId":"1159311875","regionId":"region.ba39fba0-7304-44f0-92ac-1c1413f0e0b9","countryId":"country.12rbtu0"},"geometry":{"type":"Polygon","coordinates":[[[77.2008,28.8768],[77.068,28.8821],[76.9365,28.8147],[76.9473,28.6962],[76.8369,28.5872],[76.8727,28.5194],[77.0709,28.5286],[77.1936,28.4326],[77.3274,28.5197],[77.3069,28.7206],[77.2008,28.8768]]]}},{"type":"Feature","properties":{"sourceId":"1159311873","regionId":"region.1d9b1b88-bcf0-4d4e-b79d-7468aa8eb976","countryId":"country.12rbtu0"},"geometry":{"type":"Polygon","coordinates":[[[76.8146,30.7891],[76.7038,30.7814],[76.7756,30.6774],[76.8273,30.6807],[76.8146,30.7891]]]}},{"type":"Feature","properties":{"sourceId":"1159314173","regionId":"region.9b0e5edf-be9e-4122-81d2-8602739dd1c1","countryId":"country.12rbtu0"},"geometry":{"type":"Polygon","coordinates":[[[82.8009,23.9987],[82.6794,24.1668],[82.7329,24.2141],[82.767,24.386],[82.7344,24.5516],[82.7721,24.6683],[82.4271,24.7186],[82.4236,24.6475],[82.0332,24.8595],[81.8811,24.9215],[81.8172,25.0358],[81.5852,25.0796],[81.537,25.1998],[81.3605,25.157],[81.2432,25.1695],[81.1848,24.9729],[81.0981,24.9086],[80.9988,24.9657],[80.7787,24.9715],[80.8589,25.1876],[80.8061,25.2122],[80.7179,25.082],[80.5795,25.1479],[80.4584,25.0151],[80.2883,25.0162],[80.2653,25.0638],[80.422,25.1807],[80.3265,25.2823],[80.2836,25.4145],[80.0153,25.3309],[79.8521,25.2478],[79.8633,25.1532],[79.6611,25.1481],[79.5416,25.1766],[79.4682,25.1038],[78.885,25.2655],[78.9549,25.3857],[78.7488,25.4261],[78.7275,25.3464],[78.5971,25.414],[78.5159,25.2662],[78.6098,25.1363],[78.6402,24.9641],[78.7321,24.8149],[78.7504,24.6298],[78.8787,24.6132],[78.955,24.3925],[78.8258,24.2301],[78.6559,24.2946],[78.4894,24.4108],[78.3505,24.408],[78.2288,24.5327],[78.2613,24.6927],[78.1691,24.8655],[78.3365,25.023],[78.3663,25.186],[78.2619,25.4117],[78.3705,25.5527],[78.5584,25.5755],[78.7145,25.6259],[78.7398,25.7898],[78.8083,25.8416],[78.9541,26.11],[78.9633,26.2781],[79.0608,26.3551],[79.0281,26.4976],[78.9358,26.6944],[78.6932,26.7979],[78.5635,26.7585],[78.3715,26.851],[78.2001,26.8236],[78.1012,26.7951],[78.0794,26.6829],[77.9028,26.664],[77.8315,26.5758],[77.6168,26.483],[77.4313,26.3737],[77.3234,26.352],[77.2097,26.242],[76.908,26.0986],[76.727,25.9163],[76.546,25.8483],[76.4784,25.7198],[76.5514,25.4601],[76.6523,25.3792],[76.9135,25.3093],[77.2016,25.3556],[77.2555,25.4335],[77.3586,25.4071],[77.3989,25.2122],[77.3413,25.114],[77.1874,25.1275],[76.861,25.0338],[76.8832,24.897],[76.7806,24.8371],[76.8481,24.7597],[76.9668,24.7375],[77.0374,24.6703],[77.0352,24.5384],[76.9429,24.5002],[76.8062,24.5558],[76.8146,24.3601],[76.8916,24.2409],[76.7666,24.1603],[76.5725,24.2732],[76.2303,24.2779],[76.1327,24.3294],[76.1166,24.134],[75.999,24.0511],[75.9979,23.9839],[75.7765,23.8831],[75.6998,23.7932],[75.5971,23.8179],[75.4903,23.9399],[75.5389,24.0414],[75.73,24.0007],[75.805,24.1191],[75.7948,24.2516],[75.7344,24.424],[75.8749,24.5143],[75.8694,24.5994],[75.7588,24.7774],[75.448,24.7031],[75.2037,24.725],[75.172,24.7625],[75.3179,24.9552],[75.2351,25.0402],[75.1333,25.04],[75.0844,24.8889],[74.9814,24.863],[74.8153,24.9165],[74.8378,24.7971],[74.9743,24.7857],[74.9654,24.694],[74.8697,24.6656],[74.8065,24.7358],[74.7119,24.5239],[74.8468,24.4355],[74.7664,24.3587],[74.7593,24.2567],[74.87,24.2361],[74.9682,24.0328],[74.9083,23.8967],[74.939,23.6874],[74.823,23.5001],[74.5695,23.3679],[74.5364,23.2509],[74.7159,23.1792],[74.4761,23.0624],[74.3235,23.0361],[74.365,22.875],[74.4581,22.8041],[74.3764,22.651],[74.1612,22.5167],[74.0257,22.4796],[74.2243,22.3492],[74.0564,22.2942],[74.1419,22.0628],[74.1288,21.9518],[74.2844,21.9449],[74.4077,22.023],[74.4856,21.946],[74.5125,21.7269],[74.7081,21.6112],[74.8941,21.612],[75.048,21.5541],[75.1299,21.4377],[75.3119,21.3815],[75.5347,21.3718],[75.8778,21.3998],[76.0829,21.3681],[76.1868,21.0858],[76.4366,21.1078],[76.4983,21.1804],[76.6141,21.2025],[76.6334,21.341],[76.7295,21.413],[76.7937,21.577],[77.1155,21.724],[77.219,21.7008],[77.333,21.7745],[77.4607,21.77],[77.5518,21.6968],[77.5552,21.5425],[77.4568,21.5485],[77.4818,21.4239],[77.578,21.3845],[77.8715,21.3981],[78.0292,21.4377],[78.1927,21.5511],[78.4133,21.6063],[78.5137,21.5266],[78.696,21.4748],[78.9042,21.5093],[78.9219,21.5723],[79.2158,21.6546],[79.2401,21.7128],[79.4131,21.6898],[79.5331,21.6193],[79.5516,21.55],[79.7984,21.5878],[79.8403,21.5343],[80.0053,21.5483],[80.1867,21.6395],[80.3102,21.5802],[80.4176,21.4468],[80.6256,21.3265],[80.679,21.3512],[80.7214,21.4732],[80.7305,21.7143],[80.8379,21.8461],[80.8351,21.951],[80.919,22.0975],[81.1189,22.2946],[81.1225,22.4005],[81.3726,22.4927],[81.4178,22.4375],[81.6423,22.5508],[81.7664,22.664],[81.7885,22.8529],[81.9402,22.9458],[81.9461,23.043],[82.1294,23.0965],[82.1897,23.2887],[82.0982,23.3717],[81.9914,23.4005],[81.9072,23.5052],[81.7446,23.5426],[81.6441,23.4821],[81.5914,23.5612],[81.6862,23.6903],[81.622,23.8338],[81.6819,23.8851],[81.7782,23.8019],[81.9369,23.8407],[82.0774,23.8014],[82.5317,23.7754],[82.7681,23.929],[82.8009,23.9987]]]}},{"type":"Feature","properties":{"sourceId":"1159314171","regionId":"region.cddefdcd-8bf0-4381-b55b-bc1ffab70e2c","countryId":"country.12rbtu0"},"geometry":{"type":"Polygon","coordinates":[[[83.3371,24.1402],[83.2063,23.944],[82.9644,23.9139],[82.8009,23.9987],[82.7681,23.929],[82.5317,23.7754],[82.0774,23.8014],[81.9369,23.8407],[81.7782,23.8019],[81.6819,23.8851],[81.622,23.8338],[81.6862,23.6903],[81.5914,23.5612],[81.6441,23.4821],[81.7446,23.5426],[81.9072,23.5052],[81.9914,23.4005],[82.0982,23.3717],[82.1897,23.2887],[82.1294,23.0965],[81.9461,23.043],[81.9402,22.9458],[81.7885,22.8529],[81.7664,22.664],[81.6423,22.5508],[81.4178,22.4375],[81.3726,22.4927],[81.1225,22.4005],[81.1189,22.2946],[80.919,22.0975],[80.8351,21.951],[80.8379,21.8461],[80.7305,21.7143],[80.7214,21.4732],[80.679,21.3512],[80.6256,21.2427],[80.4845,21.1677],[80.4353,20.9992],[80.5521,20.9193],[80.573,20.6976],[80.6224,20.6009],[80.6224,20.3259],[80.4244,20.2341],[80.4263,20.1462],[80.5306,20.1349],[80.5572,20.0483],[80.5311,19.9207],[80.5656,19.7398],[80.6757,19.6766],[80.7129,19.5926],[80.8939,19.4844],[80.8322,19.3454],[80.7167,19.2627],[80.576,19.392],[80.3971,19.2342],[80.3666,19.1174],[80.2718,18.9794],[80.3442,18.8507],[80.2704,18.7137],[80.4091,18.5889],[80.5026,18.6],[80.6962,18.4123],[80.7723,18.2327],[80.8524,18.1964],[80.9375,18.0863],[80.9856,17.8405],[81.0449,17.7761],[81.1477,17.8366],[81.394,17.8067],[81.4442,17.8797],[81.5425,18.2625],[81.7406,18.3579],[81.9133,18.5449],[81.969,18.6857],[82.1389,18.7473],[82.225,19.0152],[82.1454,19.2442],[82.1687,19.3866],[82.029,19.5179],[82.0291,19.7765],[81.8242,19.9133],[81.8678,20.0467],[81.9396,20.1047],[82.0461,20.0179],[82.0962,20.0506],[82.2284,19.9587],[82.2903,19.8361],[82.3814,19.8859],[82.6823,19.8227],[82.695,20.0005],[82.6112,19.9881],[82.4156,20.067],[82.4337,20.159],[82.4219,20.428],[82.3402,20.5563],[82.3667,20.6571],[82.342,20.8608],[82.4535,20.8469],[82.5621,20.9545],[82.6682,21.1555],[82.9646,21.1785],[83.0782,21.1146],[83.1983,21.1726],[83.2794,21.3588],[83.3812,21.3995],[83.3277,21.4992],[83.4732,21.8072],[83.5571,21.8349],[83.5153,21.9639],[83.6054,22.196],[83.8414,22.3486],[83.9458,22.3712],[83.9965,22.4405],[83.9702,22.5393],[83.9962,22.5927],[84.191,22.7009],[84.2283,22.7831],[84.3522,22.8856],[84.2917,22.9972],[84.115,22.9989],[84.0289,23.1461],[84.0386,23.3094],[83.9469,23.37],[83.9522,23.4749],[84.0145,23.554],[83.7809,23.5865],[83.7208,23.6762],[83.6966,23.8187],[83.5568,23.9358],[83.5218,24.0659],[83.3371,24.1402]]]}},{"type":"Feature","properties":{"sourceId":"1159311881","regionId":"region.cdbd5a6d-4a72-4e95-95e7-b80e89f18187","countryId":"country.12rbtu0"},"geometry":{"type":"Polygon","coordinates":[[[77.5851,30.3829],[77.3034,30.4603],[77.1478,30.5387],[77.1151,30.7221],[77.0015,30.7773],[76.9057,30.8993],[76.7682,30.9076],[76.8146,30.7891],[76.8273,30.6807],[76.8866,30.6338],[76.9049,30.3841],[76.7529,30.4305],[76.7143,30.3371],[76.6056,30.2744],[76.6248,30.1428],[76.5314,30.084],[76.4296,30.1404],[76.2667,30.1137],[76.1781,29.9547],[76.2256,29.8691],[75.9569,29.7386],[75.786,29.831],[75.6044,29.7647],[75.4458,29.8062],[75.2346,29.5618],[75.1721,29.6882],[75.2382,29.7488],[74.8234,29.985],[74.6507,29.9141],[74.5165,29.9472],[74.547,29.8608],[74.4665,29.7989],[74.6027,29.7264],[74.5748,29.5897],[74.6128,29.3328],[74.8214,29.4029],[74.9072,29.3785],[74.9696,29.2843],[75.1066,29.2382],[75.3284,29.2962],[75.3915,29.2527],[75.3929,29.106],[75.4521,29.0239],[75.5936,28.6427],[75.6986,28.5206],[75.8871,28.4038],[76.0262,28.2622],[75.9619,28.1395],[75.9928,28.0507],[75.9315,27.9181],[75.9999,27.8427],[76.215,27.8415],[76.1633,28.0579],[76.4535,28.1628],[76.5531,27.9712],[76.6468,28.0855],[76.8566,28.229],[76.9406,28.123],[76.9406,27.8521],[76.9009,27.7344],[76.973,27.6793],[77.0408,27.8073],[77.2807,27.8094],[77.5265,27.9745],[77.4681,28.0468],[77.5289,28.2535],[77.497,28.3933],[77.3274,28.5197],[77.1936,28.4326],[77.0709,28.5286],[76.8727,28.5194],[76.8369,28.5872],[76.9473,28.6962],[76.9365,28.8147],[77.068,28.8821],[77.2008,28.8768],[77.1957,28.9976],[77.1414,29.1303],[77.1498,29.4034],[77.0647,29.5695],[77.1804,29.8043],[77.2299,29.9766],[77.5701,30.2782],[77.5851,30.3829]]]}},{"type":"Feature","properties":{"sourceId":"1730011373","regionId":"region.a9d4e502-2714-42ed-b664-dc34fbd9e7e6","countryId":"country.12rbtu0"},"geometry":{"type":"Polygon","coordinates":[[[77.5512,18.3079],[77.5999,18.1148],[77.5629,18.0708],[77.6198,17.9257],[77.5003,17.8123],[77.5254,17.7463],[77.4115,17.6308],[77.5826,17.5788],[77.5993,17.4869],[77.3744,17.2226],[77.4652,17.0426],[77.4109,16.7206],[77.432,16.5936],[77.2574,16.4494],[77.2937,16.4065],[77.5332,16.361],[77.4908,16.2616],[77.4837,16.0021],[77.4465,15.953],[77.6412,15.9007],[77.888,15.9191],[78.0875,15.833],[78.2353,15.9505],[78.256,16.0057],[78.4,16.0834],[78.4998,16.0938],[78.7341,16.0303],[79.0217,16.2471],[79.1606,16.2193],[79.2334,16.3305],[79.2135,16.4932],[79.2656,16.5696],[79.4063,16.5872],[79.5043,16.6419],[79.8823,16.7032],[79.9581,16.6304],[80.0733,16.8229],[80.0024,16.871],[80.0776,16.9726],[80.2205,17.0333],[80.2806,16.9974],[80.351,16.8621],[80.5061,16.7925],[80.5862,16.9339],[80.3843,16.976],[80.5018,17.108],[80.5909,17.1398],[80.6697,17.0799],[80.8295,17.046],[80.8931,17.1556],[80.9905,17.2182],[81.1442,17.2495],[81.2143,17.3236],[81.4083,17.3706],[81.4695,17.4205],[81.5352,17.6377],[81.6286,17.7634],[81.7758,17.8332],[81.759,17.9089],[81.5784,17.797],[81.394,17.8067],[81.1477,17.8366],[81.0449,17.7761],[80.9856,17.8405],[80.9375,18.0863],[80.8524,18.1964],[80.7723,18.2327],[80.6962,18.4123],[80.5026,18.6],[80.4091,18.5889],[80.2704,18.7137],[80.0905,18.6975],[79.9603,18.8671],[79.9336,19.0531],[79.8618,19.0811],[79.9306,19.2119],[79.9655,19.4019],[79.9311,19.4825],[79.7354,19.6034],[79.5389,19.5338],[79.4204,19.5364],[79.266,19.5896],[79.1977,19.4619],[79.0243,19.5415],[78.8725,19.6501],[78.8475,19.7245],[78.5337,19.8247],[78.4777,19.7991],[78.3218,19.8633],[78.3836,19.6845],[78.3334,19.6433],[78.3026,19.4828],[78.1744,19.3747],[78.1679,19.2641],[78.0639,19.2641],[77.92,19.3317],[77.8336,19.1214],[77.752,19.0459],[77.9121,18.8354],[77.8393,18.8096],[77.7811,18.7038],[77.7034,18.6691],[77.6799,18.57],[77.5923,18.5481],[77.5026,18.3816],[77.5512,18.3079]]]}}]}