{"type":"FeatureCollection","features":[{"type":"Feature","properties":{"sourceId":"1159308013","regionId":"region.b018267f-2b70-4a71-8213-4f10e34ab53e","countryId":"country.qdlh80"},"geometry":{"type":"MultiPolygon","coordinates":[[[[-60.021,8.558],[-60.1978,8.6238],[-60.3719,8.6354],[-60.4616,8.5344],[-60.6063,8.5511],[-60.6925,8.6047],[-60.9848,8.5705],[-60.9924,8.5122],[-61.181,8.4934],[-61.284,8.3972],[-61.3491,8.4793],[-61.4342,8.4792],[-61.5231,8.5966],[-61.2095,8.609],[-61.1268,8.8145],[-61.0997,8.9604],[-61.0066,9.0488],[-60.984,9.1674],[-60.8219,9.2728],[-60.7838,9.3386],[-60.8623,9.4561],[-61.0532,9.5813],[-61.1301,9.5725],[-61.3378,9.7121],[-61.4392,9.8184],[-61.5829,9.8722],[-61.5925,9.782],[-61.7901,9.8307],[-61.8768,9.8237],[-62.0254,9.9574],[-62.1965,10.0197],[-62.2577,9.9378],[-62.243,9.8428],[-62.3254,9.7189],[-62.4402,9.541],[-62.3205,9.3573],[-62.3047,9.1966],[-62.2021,9.071],[-62.0531,9.0454],[-62.0842,8.9448],[-62.0126,8.8552],[-62.0874,8.7251],[-62.4359,8.5138],[-62.5265,8.5134],[-62.5976,8.448],[-62.2472,8.3138],[-61.6352,8.287],[-61.6092,8.1185],[-61.3941,7.8775],[-61.3192,7.8206],[-61.0245,7.9407],[-60.9397,7.921],[-60.797,7.757],[-60.5391,7.9169],[-60.268,7.9213],[-60.1292,8.0288],[-60.0195,8.0603],[-59.9933,8.1685],[-59.8485,8.2277],[-59.8156,8.2878],[-60.021,8.558]]],[[[-60.9514,8.8278],[-61.06,8.7982],[-61.1671,8.6994],[-61.0939,8.6337],[-60.8466,8.6377],[-60.686,8.789],[-60.7376,8.8666],[-60.8617,8.8702],[-60.9514,8.8278]]]]}},{"type":"Feature","properties":{"sourceId":"1159308109","regionId":"region.9032db4a-6614-4017-a170-66061235de08","countryId":"country.qdlh80"},"geometry":{"type":"Polygon","coordinates":[[[-60.268,7.9213],[-60.5391,7.9169],[-60.797,7.757],[-60.9397,7.921],[-61.0245,7.9407],[-61.3192,7.8206],[-61.3941,7.8775],[-61.6092,8.1185],[-61.6352,8.287],[-62.2472,8.3138],[-62.5976,8.448],[-62.6858,8.3857],[-62.7577,8.3798],[-62.8791,8.2741],[-62.9769,8.3095],[-63.1746,8.3134],[-63.3308,8.2139],[-63.4158,8.213],[-63.4916,8.1456],[-63.6829,8.1582],[-63.8399,8.1104],[-63.961,7.9736],[-64.1386,7.9744],[-64.2316,8.0714],[-64.3524,8.009],[-64.5236,7.9963],[-64.5232,7.7737],[-64.6203,7.7744],[-64.8573,7.6598],[-65.1037,7.8344],[-65.3567,7.8694],[-65.6482,7.8999],[-65.7466,7.8547],[-65.9395,7.6792],[-66.1309,7.6838],[-66.2157,7.6413],[-66.3305,7.6484],[-66.4405,7.5804],[-66.5957,7.3396],[-66.9952,7.1568],[-67.0898,7.0657],[-67.0344,6.9131],[-67.0495,6.7553],[-67.1034,6.7015],[-67.1702,6.4294],[-67.275,6.3675],[-67.3223,6.2725],[-67.451,6.198],[-67.4563,6.1932],[-67.3962,6.1248],[-67.1895,6.1109],[-67.1446,5.9743],[-67.1996,5.7136],[-67.0925,5.7193],[-66.9773,5.6223],[-66.8176,5.6943],[-66.6949,5.6991],[-66.5353,5.7531],[-66.3455,5.9222],[-66.2205,5.7316],[-66.1173,5.7853],[-65.9935,5.7963],[-65.8271,6.1102],[-65.6333,6.1474],[-65.5803,6.0806],[-65.6383,5.8543],[-65.6089,5.7149],[-65.4711,5.7684],[-65.2659,5.7739],[-65.253,5.6292],[-65.133,5.5131],[-65.1753,5.4213],[-65.1357,5.3114],[-65.2884,5.2489],[-65.2222,5.1439],[-65.1841,4.9998],[-65.0851,4.7992],[-64.942,4.6252],[-64.7022,4.5877],[-64.6601,4.5419],[-64.6292,4.2882],[-64.648,4.2079],[-64.5897,4.1189],[-64.365,4.1519],[-64.2406,4.142],[-64.1251,4.0885],[-64.0638,3.9116],[-63.9964,3.8808],[-63.8751,3.9498],[-63.6228,3.9352],[-63.5107,3.8545],[-63.4254,3.9684],[-63.286,3.9208],[-62.9971,3.5991],[-62.8894,3.5608],[-62.7496,3.6604],[-62.7888,3.8994],[-62.7662,4.0207],[-62.561,4.0378],[-62.537,4.1254],[-62.3842,4.1735],[-62.1927,4.0947],[-62.035,4.1599],[-61.9315,4.1464],[-61.7189,4.2547],[-61.5421,4.263],[-61.4582,4.4191],[-61.3332,4.4239],[-61.2973,4.5237],[-61.1512,4.4921],[-61.012,4.5183],[-60.9478,4.5736],[-60.9034,4.6996],[-60.7637,4.7551],[-60.6126,4.9006],[-60.5987,4.9969],[-60.6643,5.1703],[-60.7399,5.2021],[-61.3796,5.9053],[-61.2694,6.1072],[-61.1216,6.1867],[-61.1609,6.3424],[-61.139,6.4248],[-61.2048,6.5958],[-61.1298,6.7158],[-60.9338,6.7317],[-60.7935,6.7938],[-60.7215,6.7597],[-60.6207,6.8459],[-60.421,6.9422],[-60.3134,7.0402],[-60.3483,7.1527],[-60.4753,7.1885],[-60.548,7.1255],[-60.6431,7.2209],[-60.6018,7.3301],[-60.7306,7.5254],[-60.6013,7.6339],[-60.5821,7.7363],[-60.5033,7.8209],[-60.3748,7.8236],[-60.268,7.9213]]]}},{"type":"Feature","properties":{"sourceId":"1159308107","regionId":"region.a5a4778c-8135-4e22-b1aa-e7d85ecf16ab","countryId":"country.qdlh80"},"geometry":{"type":"Polygon","coordinates":[[[-64.648,4.2079],[-64.6292,4.2882],[-64.6601,4.5419],[-64.7022,4.5877],[-64.942,4.6252],[-65.0851,4.7992],[-65.1841,4.9998],[-65.2222,5.1439],[-65.2884,5.2489],[-65.1357,5.3114],[-65.1753,5.4213],[-65.133,5.5131],[-65.253,5.6292],[-65.2659,5.7739],[-65.4711,5.7684],[-65.6089,5.7149],[-65.6383,5.8543],[-65.5803,6.0806],[-65.6333,6.1474],[-65.8271,6.1102],[-65.9935,5.7963],[-66.1173,5.7853],[-66.2205,5.7316],[-66.3455,5.9222],[-66.5353,5.7531],[-66.6949,5.6991],[-66.8176,5.6943],[-66.9773,5.6223],[-67.0925,5.7193],[-67.1996,5.7136],[-67.1446,5.9743],[-67.1895,6.1109],[-67.3962,6.1248],[-67.4563,6.1932],[-67.4912,6.1145],[-67.4286,6.0385],[-67.6012,5.8206],[-67.6491,5.6561],[-67.6143,5.5537],[-67.647,5.4834],[-67.8098,5.3788],[-67.8437,5.2972],[-67.7931,5.0633],[-67.8651,4.5121],[-67.782,4.3389],[-67.7862,4.173],[-67.7169,4.0399],[-67.6318,3.7619],[-67.4714,3.6801],[-67.4039,3.5045],[-67.3046,3.4257],[-67.3958,3.2666],[-67.4522,3.2437],[-67.8386,2.8861],[-67.6266,2.8134],[-67.5756,2.6911],[-67.4852,2.6619],[-67.3254,2.4746],[-67.1976,2.402],[-67.2177,2.2845],[-67.1351,2.0033],[-67.0668,1.8941],[-66.8825,1.326],[-66.8751,1.2225],[-66.4071,0.8021],[-66.3462,0.7594],[-66.1563,0.733],[-65.9741,0.807],[-65.872,0.909],[-65.7454,0.9742],[-65.5829,0.9777],[-65.517,0.8628],[-65.5873,0.7391],[-65.5605,0.656],[-65.4512,0.6901],[-65.3272,0.9103],[-65.203,0.9238],[-65.1368,1.1269],[-65.0225,1.14],[-64.8393,1.2708],[-64.7309,1.2476],[-64.6042,1.3313],[-64.5512,1.4195],[-64.409,1.5075],[-64.3015,1.4467],[-64.1297,1.5781],[-64.0809,1.6474],[-64.0536,1.8937],[-63.995,1.958],[-63.7626,1.9857],[-63.6175,2.1012],[-63.4118,2.1494],[-63.3865,2.2359],[-63.3848,2.4206],[-63.8313,2.4286],[-64.048,2.4713],[-63.9979,2.706],[-64.106,2.9472],[-64.2229,3.124],[-64.2456,3.4189],[-64.203,3.5947],[-64.3242,3.7241],[-64.5314,3.8535],[-64.6629,3.997],[-64.7271,4.1408],[-64.8013,4.1885],[-64.7916,4.2844],[-64.648,4.2079]]]}},{"type":"Feature","properties":{"sourceId":"1159308093","regionId":"region.de703d38-81f5-40ca-ae08-03a281ce2783","countryId":"country.qdlh80"},"geometry":{"type":"MultiPolygon","coordinates":[[[[-71.3275,11.85],[-71.4495,11.7955],[-71.9711,11.6619],[-72.0079,11.6246],[-72.2566,11.1678],[-72.4815,11.1325],[-72.5765,10.9574],[-72.7061,10.8113],[-72.7544,10.6749],[-72.9152,10.4282],[-72.9356,10.1752],[-72.9877,9.9994],[-72.9776,9.8381],[-73.1236,9.5613],[-73.1784,9.523],[-73.3636,9.165],[-73.1762,9.1909],[-73.0097,9.2954],[-72.9364,9.0992],[-72.8267,9.1417],[-72.7831,9.0599],[-72.6754,8.6515],[-72.4563,8.4039],[-72.4156,8.3827],[-72.3448,8.4918],[-72.2407,8.4299],[-72.0486,8.4833],[-71.9449,8.6114],[-71.8488,8.6711],[-71.7213,8.622],[-71.6735,8.7188],[-71.2256,9.0484],[-71.1474,9.1278],[-71.2185,9.187],[-71.2735,9.1351],[-71.5148,9.049],[-71.6861,9.062],[-71.7589,9.1201],[-71.7304,9.3554],[-71.9675,9.4982],[-71.9989,9.6547],[-72.1244,9.8261],[-72.0437,9.9296],[-71.9825,10.0883],[-71.8977,10.1392],[-71.779,10.3417],[-71.6295,10.454],[-71.5763,10.7211],[-71.6936,10.8371],[-71.7698,11.1064],[-71.8569,11.217],[-71.9393,11.3808],[-71.9605,11.5913],[-71.6744,11.6847],[-71.3782,11.7585],[-71.3275,11.85]]],[[[-71.0624,9.6174],[-70.8596,9.5995],[-70.6413,9.792],[-70.6612,9.9045],[-70.8068,9.9839],[-70.8482,10.0998],[-70.7108,10.1942],[-70.6581,10.3048],[-70.7377,10.3444],[-70.7787,10.4536],[-70.9031,10.4429],[-71.0221,10.5277],[-71.081,10.6386],[-71.0884,10.767],[-71.2561,10.9264],[-71.282,10.9914],[-71.4583,10.9749],[-71.4459,10.7962],[-71.5314,10.7527],[-71.5265,10.5447],[-71.3639,10.22],[-71.2678,10.1519],[-71.2069,9.9806],[-71.0724,9.8579],[-71.0419,9.7609],[-71.0624,9.6174]]]]}},{"type":"Feature","properties":{"sourceId":"1159308089","regionId":"region.3a071ab7-928f-44cb-9018-756ac26e372f","countryId":"country.qdlh80"},"geometry":{"type":"Polygon","coordinates":[[[-72.4156,8.3827],[-72.3358,8.1039],[-72.4878,7.9492],[-72.4518,7.8328],[-72.482,7.508],[-72.3958,7.4075],[-72.1885,7.4498],[-72.0688,7.375],[-71.875,7.4215],[-71.8416,7.4948],[-71.6676,7.5475],[-71.3829,7.4898],[-71.4909,7.6298],[-71.4836,7.6845],[-71.5315,7.7527],[-71.5077,8.0054],[-71.5889,8.0573],[-71.7209,8.054],[-71.7962,8.1517],[-71.8925,8.1717],[-71.778,8.4594],[-71.8231,8.5903],[-71.9449,8.6114],[-72.0486,8.4833],[-72.2407,8.4299],[-72.3448,8.4918],[-72.4156,8.3827]]]}},{"type":"Feature","properties":{"sourceId":"1159308083","regionId":"region.87d1a04a-ae84-4832-b58d-7c9c86b3310a","countryId":"country.qdlh80"},"geometry":{"type":"Polygon","coordinates":[[[-72.3958,7.4075],[-72.2062,7.3819],[-72.1533,7.1926],[-72.081,7.0666],[-71.9938,7.0129],[-71.964,7.0059],[-71.8326,6.9864],[-71.6543,7.0534],[-71.2835,7.0188],[-71.184,6.9626],[-70.9613,7.0094],[-70.9034,7.0632],[-70.7033,7.0999],[-70.5786,7.0858],[-70.5209,7.0156],[-70.3191,6.9383],[-70.1578,6.9795],[-70.0966,6.9444],[-69.4436,6.1222],[-69.432,6.1222],[-69.3113,6.1462],[-69.2461,6.0807],[-69.0611,6.2178],[-68.8291,6.1878],[-68.6353,6.1359],[-68.449,6.195],[-68.3042,6.177],[-68.1465,6.2238],[-67.9241,6.2346],[-67.8391,6.3075],[-67.574,6.2662],[-67.451,6.198],[-67.3223,6.2725],[-67.275,6.3675],[-67.1702,6.4294],[-67.1034,6.7015],[-67.0495,6.7553],[-67.0344,6.9131],[-67.0898,7.0657],[-66.9952,7.1568],[-66.5957,7.3396],[-66.4405,7.5804],[-66.3305,7.6484],[-66.3301,7.7035],[-66.552,7.7938],[-66.7648,7.7551],[-67.0568,7.7975],[-67.2265,7.7985],[-67.3379,7.8891],[-67.5381,7.917],[-67.5442,7.9588],[-67.6053,7.9994],[-68.0544,8.0485],[-68.2566,7.9565],[-68.3862,7.9916],[-68.4613,7.9473],[-68.6502,7.9659],[-68.7298,7.9158],[-68.8867,7.9113],[-68.9703,7.9994],[-69.0543,7.9802],[-69.2126,8.0758],[-69.4409,8.0717],[-69.7337,7.8444],[-70.0866,7.7107],[-70.1335,7.6293],[-70.2995,7.5904],[-70.3683,7.4505],[-70.4602,7.4231],[-70.5478,7.3337],[-70.6669,7.2874],[-70.9468,7.308],[-71.02,7.3619],[-71.1892,7.4042],[-71.2488,7.4545],[-71.4722,7.4628],[-71.6396,7.4323],[-71.8416,7.4948],[-71.875,7.4215],[-72.0688,7.375],[-72.1885,7.4498],[-72.3958,7.4075]]]}},{"type":"Feature","properties":{"sourceId":"1159308087","regionId":"region.940e4a04-c9ef-4773-acf7-315d843c8e6f","countryId":"country.qdlh80"},"geometry":{"type":"Polygon","coordinates":[[[-71.2185,9.187],[-71.1474,9.1278],[-71.2256,9.0484],[-71.6735,8.7188],[-71.7213,8.622],[-71.8488,8.6711],[-71.9449,8.6114],[-71.8231,8.5903],[-71.778,8.4594],[-71.8925,8.1717],[-71.7962,8.1517],[-71.7209,8.054],[-71.5889,8.0573],[-71.5077,8.0054],[-71.5315,7.7527],[-71.4836,7.6845],[-71.4621,7.7695],[-71.0905,8.0675],[-71.0118,8.2067],[-71.0775,8.3763],[-70.8377,8.7255],[-70.7686,8.7815],[-70.5775,8.8567],[-70.5347,8.9553],[-70.58,9.0402],[-70.6773,8.9859],[-70.8544,9.1287],[-70.9177,9.3029],[-71.0587,9.3379],[-71.1517,9.2885],[-71.2185,9.187]]]}},{"type":"Feature","properties":{"sourceId":"1159308091","regionId":"region.fb7fa071-5957-4b62-8500-2f995a398859","countryId":"country.qdlh80"},"geometry":{"type":"Polygon","coordinates":[[[-71.0587,9.3379],[-70.9177,9.3029],[-70.8544,9.1287],[-70.6773,8.9859],[-70.58,9.0402],[-70.5347,8.9553],[-70.4267,9.0225],[-70.1825,9.0079],[-70.1134,9.0315],[-70.0594,9.2368],[-70.1311,9.2746],[-70.033,9.4303],[-70.1093,9.5171],[-70.1308,9.6241],[-70.0217,9.7097],[-70.2177,9.8467],[-70.4025,9.9211],[-70.5304,9.9397],[-70.6086,10.0316],[-70.6612,9.9045],[-70.6413,9.792],[-70.8596,9.5995],[-71.0624,9.6174],[-71.0902,9.5554],[-71.0587,9.3379]]]}},{"type":"Feature","properties":{"sourceId":"1159308079","regionId":"region.f7e2f7f7-df76-4e51-9ee4-2466c886aa84","countryId":"country.qdlh80"},"geometry":{"type":"Polygon","coordinates":[[[-71.282,10.9914],[-71.2561,10.9264],[-71.0884,10.767],[-71.081,10.6386],[-71.0221,10.5277],[-70.9031,10.4429],[-70.7787,10.4536],[-70.7377,10.3444],[-70.6581,10.3048],[-70.5354,10.363],[-70.4923,10.4474],[-70.3303,10.5581],[-70.2472,10.5584],[-70.1575,10.6517],[-70.0472,10.6453],[-69.9693,10.6905],[-69.7899,10.7014],[-69.6639,10.7647],[-69.4261,10.7119],[-69.0843,10.6805],[-68.9241,10.6973],[-68.8855,10.6595],[-68.7766,10.7294],[-68.6336,10.7329],[-68.5194,10.6386],[-68.2738,10.6342],[-68.3266,10.8493],[-68.2627,10.9031],[-68.4176,11.1791],[-68.6557,11.3479],[-68.8632,11.4529],[-69.0619,11.4535],[-69.2704,11.536],[-69.3767,11.494],[-69.5001,11.5087],[-69.6236,11.4678],[-69.7003,11.5402],[-69.8086,11.8036],[-69.8353,12.0152],[-69.9254,12.1596],[-70.0177,12.1989],[-70.2058,12.112],[-70.2968,11.8719],[-70.2058,11.7347],[-70.1865,11.6027],[-69.8495,11.6937],[-69.7914,11.6453],[-69.7471,11.4808],[-69.8141,11.4256],[-69.946,11.5198],[-70.0505,11.5211],[-70.18,11.3764],[-70.288,11.3571],[-70.5139,11.2532],[-70.6856,11.248],[-70.8697,11.1963],[-71.282,10.9914]]]}},{"type":"Feature","properties":{"sourceId":"1159308105","regionId":"region.fcfb94ed-5484-4cbf-9606-4e4c3048352f","countryId":"country.qdlh80"},"geometry":{"type":"Polygon","coordinates":[[[-68.2738,10.6342],[-68.5194,10.6386],[-68.6336,10.7329],[-68.7766,10.7294],[-68.8855,10.6595],[-68.9011,10.598],[-69.0317,10.538],[-69.0684,10.4246],[-69.015,10.2484],[-69.2275,10.1101],[-69.1409,9.945],[-68.9791,10.0098],[-68.9249,9.9308],[-68.9777,9.8573],[-68.8589,9.8532],[-68.8043,9.9609],[-68.6697,9.9688],[-68.4872,9.9093],[-68.3705,9.99],[-68.4199,10.1876],[-68.3616,10.2609],[-68.3895,10.4935],[-68.2517,10.5951],[-68.2738,10.6342]]]}},{"type":"Feature","properties":{"sourceId":"1159308097","regionId":"region.874706c6-52e0-4558-b17b-f77271a21457","countryId":"country.qdlh80"},"geometry":{"type":"Polygon","coordinates":[[[-68.2517,10.5951],[-68.3895,10.4935],[-68.3616,10.2609],[-68.4199,10.1876],[-68.3705,9.99],[-68.2339,10.1231],[-68.2166,9.963],[-68.0653,9.8554],[-67.7888,9.827],[-67.5914,9.8664],[-67.5341,9.9515],[-67.6622,10.0329],[-67.672,10.3244],[-67.8187,10.3224],[-67.8692,10.4613],[-68.1295,10.4877],[-68.2517,10.5951]]]}},{"type":"Feature","properties":{"sourceId":"1159308113","regionId":"region.bae99013-d08f-417b-b4ed-026d75c51e66","countryId":"country.qdlh80"},"geometry":{"type":"Polygon","coordinates":[[[-67.8692,10.4613],[-67.8187,10.3224],[-67.672,10.3244],[-67.6622,10.0329],[-67.5341,9.9515],[-67.4281,9.9874],[-67.3406,9.9264],[-67.1813,9.9198],[-67.1016,9.7995],[-66.8587,9.6723],[-66.8816,9.4599],[-66.6797,9.3935],[-66.5755,9.4095],[-66.5441,9.6112],[-66.6113,9.6969],[-66.5848,9.8253],[-66.6127,9.9664],[-66.8215,10.0154],[-66.9299,10.0131],[-67.1191,10.1115],[-67.1087,10.2649],[-67.1865,10.313],[-67.2202,10.4167],[-67.3419,10.3999],[-67.3918,10.5431],[-67.7776,10.496],[-67.8692,10.4613]]]}},{"type":"Feature","properties":{"sourceId":"1159308115","regionId":"region.d3f5b30f-3a52-4deb-9e67-bed34c414859","countryId":"country.qdlh80"},"geometry":{"type":"Polygon","coordinates":[[[-67.3918,10.5431],[-67.3419,10.3999],[-67.2202,10.4167],[-67.1532,10.4407],[-67.0533,10.4788],[-67.0042,10.575],[-66.8738,10.547],[-66.3543,10.5453],[-66.3136,10.6295],[-66.5416,10.6327],[-67.0124,10.6112],[-67.17,10.556],[-67.3918,10.5431]]]}},{"type":"Feature","properties":{"sourceId":"1159308123","regionId":"region.6db13156-32d6-401d-af37-2f62f9ce793e","countryId":"country.qdlh80"},"geometry":{"type":"Polygon","coordinates":[[[-66.3136,10.6295],[-66.3543,10.5453],[-66.8738,10.547],[-66.8974,10.4162],[-67.0515,10.3945],[-67.1532,10.4407],[-67.2202,10.4167],[-67.1865,10.313],[-67.1087,10.2649],[-67.1191,10.1115],[-66.9299,10.0131],[-66.8215,10.0154],[-66.6127,9.9664],[-66.3834,10.0186],[-66.1905,9.9487],[-65.971,9.9289],[-65.6966,9.9534],[-65.4489,10.0796],[-65.4258,10.1434],[-65.5804,10.1855],[-65.8685,10.3096],[-66.1183,10.498],[-66.1246,10.602],[-66.3136,10.6295]]]}},{"type":"Feature","properties":{"sourceId":"1159308111","regionId":"region.5e18dd35-5198-434a-baff-6b2e92d6902d","countryId":"country.qdlh80"},"geometry":{"type":"Polygon","coordinates":[[[-65.4258,10.1434],[-65.4489,10.0796],[-65.6966,9.9534],[-65.665,9.774],[-65.6941,9.6806],[-65.4888,9.5692],[-65.387,9.5719],[-65.2182,9.5068],[-65.2688,9.3936],[-65.2637,9.2898],[-65.1649,9.1786],[-65.0852,9.1758],[-64.9637,9.099],[-64.933,9],[-64.7899,8.8781],[-64.8641,8.741],[-65.1378,8.7391],[-65.1501,8.5566],[-65.2066,8.3694],[-65.4805,8.0239],[-65.4925,7.9436],[-65.3567,7.8694],[-65.1037,7.8344],[-64.8573,7.6598],[-64.6203,7.7744],[-64.5232,7.7737],[-64.5236,7.9963],[-64.3524,8.009],[-64.2316,8.0714],[-64.1386,7.9744],[-63.961,7.9736],[-63.8399,8.1104],[-63.6829,8.1582],[-63.4916,8.1456],[-63.4158,8.213],[-63.3308,8.2139],[-63.1746,8.3134],[-62.9769,8.3095],[-62.8791,8.2741],[-62.7577,8.3798],[-62.6858,8.3857],[-62.7428,8.4734],[-62.9883,8.5526],[-63.057,8.7039],[-62.9758,8.7948],[-63.2695,8.775],[-63.3402,8.809],[-63.4181,9.0083],[-63.6277,9.1631],[-63.7719,9.2363],[-63.9083,9.2092],[-63.9732,9.3239],[-63.9666,9.4167],[-63.8466,9.5506],[-63.9656,9.7683],[-63.9252,9.8747],[-64.0425,9.9397],[-64.061,10.0454],[-63.9488,10.0826],[-64.0453,10.1283],[-64.1538,10.0793],[-64.3473,10.0946],[-64.5361,10.2523],[-64.6314,10.2481],[-64.7481,10.1069],[-64.9635,10.0973],[-65.084,10.0475],[-65.1695,10.0973],[-65.4258,10.1434]]]}},{"type":"Feature","properties":{"sourceId":"1159308031","regionId":"region.17d694a9-4293-41b9-a630-78560a2ef464","countryId":"country.qdlh80"},"geometry":{"type":"Polygon","coordinates":[[[-64.5361,10.2523],[-64.3473,10.0946],[-64.1538,10.0793],[-64.0453,10.1283],[-63.9488,10.0826],[-63.8008,10.1278],[-63.7396,10.2012],[-63.555,10.2296],[-63.4759,10.3128],[-63.3712,10.2417],[-63.1798,10.1716],[-63.0635,10.1873],[-63.0131,10.0974],[-62.6566,10.0822],[-62.6266,10.1308],[-62.675,10.2934],[-62.7364,10.3785],[-62.8311,10.4068],[-62.857,10.5316],[-62.6623,10.567],[-62.3349,10.5302],[-62.2399,10.6379],[-61.9625,10.6522],[-61.9823,10.7347],[-62.1542,10.6863],[-62.7196,10.76],[-62.9043,10.7022],[-63.1713,10.7316],[-63.2409,10.6851],[-63.4662,10.6676],[-63.5316,10.631],[-63.7569,10.6656],[-63.9151,10.631],[-64.1312,10.6197],[-64.2747,10.6506],[-64.2491,10.5205],[-64.1555,10.5727],[-63.9667,10.5814],[-63.8468,10.556],[-63.8204,10.4476],[-64.0284,10.4461],[-64.1435,10.4801],[-64.3392,10.3907],[-64.4684,10.2486],[-64.5361,10.2523]]]}},{"type":"Feature","properties":{"sourceId":"1159308021","regionId":"region.2c0ae2c9-b880-434f-8b24-f3a1536c53a3","countryId":"country.qdlh80"},"geometry":{"type":"Polygon","coordinates":[[[-63.0131,10.0974],[-63.0635,10.1873],[-63.1798,10.1716],[-63.3712,10.2417],[-63.4759,10.3128],[-63.555,10.2296],[-63.7396,10.2012],[-63.8008,10.1278],[-63.9488,10.0826],[-64.061,10.0454],[-64.0425,9.9397],[-63.9252,9.8747],[-63.9656,9.7683],[-63.8466,9.5506],[-63.9666,9.4167],[-63.9732,9.3239],[-63.9083,9.2092],[-63.7719,9.2363],[-63.6277,9.1631],[-63.4181,9.0083],[-63.3402,8.809],[-63.2695,8.775],[-62.9758,8.7948],[-63.057,8.7039],[-62.9883,8.5526],[-62.7428,8.4734],[-62.6858,8.3857],[-62.5976,8.448],[-62.5265,8.5134],[-62.4359,8.5138],[-62.0874,8.7251],[-62.0126,8.8552],[-62.0842,8.9448],[-62.0531,9.0454],[-62.2021,9.071],[-62.3047,9.1966],[-62.3205,9.3573],[-62.4402,9.541],[-62.3254,9.7189],[-62.5176,10.1841],[-62.6266,10.1963],[-62.6185,10.0916],[-62.7774,10.0185],[-63.0131,10.0974]]]}},{"type":"Feature","properties":{"sourceId":"1159308037","regionId":"region.4b65a546-1844-4483-8acf-0b06cdcf5250","countryId":"country.qdlh80"},"geometry":{"type":"Polygon","coordinates":[[[-63.8468,11.1354],[-63.9858,11.1093],[-64.0491,10.9907],[-64.1816,11.0341],[-64.1983,11.0876],[-64.3706,11.0625],[-64.4086,10.9675],[-64.2244,10.9394],[-64.1759,10.9675],[-64.0426,10.8685],[-63.8981,10.885],[-63.7934,11.0011],[-63.8468,11.1354]]]}},{"type":"Feature","properties":{"sourceId":"1159308071","regionId":"region.d10337c5-a671-4311-b319-77a94dc562f5","countryId":"country.qdlh80"},"geometry":{"type":"Polygon","coordinates":[[[-65.2276,10.9538],[-65.3063,10.9765],[-65.4118,10.9248],[-65.2446,10.885],[-65.2276,10.9538]]]}},{"type":"Feature","properties":{"sourceId":"1159315543","regionId":"region.f60263f0-24af-4553-bc5a-7b9a1dd2d855","countryId":"country.qdlh80"},"geometry":{"type":"Polygon","coordinates":[[[-63.6399,15.696],[-63.6346,15.7006],[-63.6396,15.7029],[-63.6399,15.696]]]}},{"type":"Feature","properties":{"sourceId":"1159308121","regionId":"region.7e9f3263-7dbb-48f5-86af-bfd3a663858f","countryId":"country.qdlh80"},"geometry":{"type":"Polygon","coordinates":[[[-65.6966,9.9534],[-65.971,9.9289],[-66.1905,9.9487],[-66.3834,10.0186],[-66.6127,9.9664],[-66.5848,9.8253],[-66.6113,9.6969],[-66.5441,9.6112],[-66.5755,9.4095],[-66.6797,9.3935],[-66.8816,9.4599],[-66.8587,9.6723],[-67.1016,9.7995],[-67.1813,9.9198],[-67.3406,9.9264],[-67.4281,9.9874],[-67.5341,9.9515],[-67.5914,9.8664],[-67.7888,9.827],[-67.7579,9.7098],[-67.8992,9.6301],[-67.9558,9.5539],[-67.9167,9.4497],[-67.94,9.3054],[-67.854,9.0852],[-67.9634,8.9151],[-68.0127,8.7496],[-68.0365,8.5385],[-67.7719,8.2429],[-67.6774,8.2095],[-67.5802,8.0663],[-67.5442,7.9588],[-67.5381,7.917],[-67.3379,7.8891],[-67.2265,7.7985],[-67.0568,7.7975],[-66.7648,7.7551],[-66.552,7.7938],[-66.3301,7.7035],[-66.3305,7.6484],[-66.2157,7.6413],[-66.1309,7.6838],[-65.9395,7.6792],[-65.7466,7.8547],[-65.6482,7.8999],[-65.3567,7.8694],[-65.4925,7.9436],[-65.4805,8.0239],[-65.2066,8.3694],[-65.1501,8.5566],[-65.1378,8.7391],[-64.8641,8.741],[-64.7899,8.8781],[-64.933,9],[-64.9637,9.099],[-65.0852,9.1758],[-65.1649,9.1786],[-65.2637,9.2898],[-65.2688,9.3936],[-65.2182,9.5068],[-65.387,9.5719],[-65.4888,9.5692],[-65.6941,9.6806],[-65.665,9.774],[-65.6966,9.9534]]]}},{"type":"Feature","properties":{"sourceId":"1159308095","regionId":"region.f537e86b-1126-4daa-9d37-ca8d8643d0ff","countryId":"country.qdlh80"},"geometry":{"type":"Polygon","coordinates":[[[-67.7888,9.827],[-68.0653,9.8554],[-68.2166,9.963],[-68.2339,10.1231],[-68.3705,9.99],[-68.4872,9.9093],[-68.6697,9.9688],[-68.8043,9.9609],[-68.8589,9.8532],[-68.9777,9.8573],[-68.9808,9.7823],[-68.9751,9.7105],[-68.8721,9.4395],[-68.6109,9.2436],[-68.6507,8.9554],[-68.5916,8.8681],[-68.6979,8.7613],[-68.5735,8.6354],[-68.4231,8.6037],[-68.1461,8.6047],[-68.0365,8.5385],[-68.0127,8.7496],[-67.9634,8.9151],[-67.854,9.0852],[-67.94,9.3054],[-67.9167,9.4497],[-67.9558,9.5539],[-67.8992,9.6301],[-67.7579,9.7098],[-67.7888,9.827]]]}},{"type":"Feature","properties":{"sourceId":"1159308119","regionId":"region.676dd5ad-f25b-4631-9a9f-ef158dc95860","countryId":"country.qdlh80"},"geometry":{"type":"Polygon","coordinates":[[[-66.8738,10.547],[-67.0042,10.575],[-67.0533,10.4788],[-67.1532,10.4407],[-67.0515,10.3945],[-66.8974,10.4162],[-66.8738,10.547]]]}},{"type":"Feature","properties":{"sourceId":"1159308085","regionId":"region.6eb6f033-8db9-42d5-88a6-0ec31ec5d639","countryId":"country.qdlh80"},"geometry":{"type":"Polygon","coordinates":[[[-68.0365,8.5385],[-68.1461,8.6047],[-68.4231,8.6037],[-68.5735,8.6354],[-68.6036,8.4998],[-68.6785,8.3925],[-68.7831,8.3316],[-68.8415,8.1125],[-69.1276,8.351],[-69.1756,8.5005],[-69.2864,8.639],[-69.4669,8.6704],[-69.6345,8.7731],[-69.7054,8.7238],[-69.8196,8.7513],[-70.0041,8.8471],[-70.1825,9.0079],[-70.4267,9.0225],[-70.5347,8.9553],[-70.5775,8.8567],[-70.7686,8.7815],[-70.8377,8.7255],[-71.0775,8.3763],[-71.0118,8.2067],[-71.0905,8.0675],[-71.4621,7.7695],[-71.4836,7.6845],[-71.4909,7.6298],[-71.3829,7.4898],[-71.6676,7.5475],[-71.8416,7.4948],[-71.6396,7.4323],[-71.4722,7.4628],[-71.2488,7.4545],[-71.1892,7.4042],[-71.02,7.3619],[-70.9468,7.308],[-70.6669,7.2874],[-70.5478,7.3337],[-70.4602,7.4231],[-70.3683,7.4505],[-70.2995,7.5904],[-70.1335,7.6293],[-70.0866,7.7107],[-69.7337,7.8444],[-69.4409,8.0717],[-69.2126,8.0758],[-69.0543,7.9802],[-68.9703,7.9994],[-68.8867,7.9113],[-68.7298,7.9158],[-68.6502,7.9659],[-68.4613,7.9473],[-68.3862,7.9916],[-68.2566,7.9565],[-68.0544,8.0485],[-67.6053,7.9994],[-67.5442,7.9588],[-67.5802,8.0663],[-67.6774,8.2095],[-67.7719,8.2429],[-68.0365,8.5385]]]}},{"type":"Feature","properties":{"sourceId":"1159308101","regionId":"region.b069b15b-a2b7-49e0-a4fe-0fd133537927","countryId":"country.qdlh80"},"geometry":{"type":"Polygon","coordinates":[[[-68.9777,9.8573],[-68.9249,9.9308],[-68.9791,10.0098],[-69.1409,9.945],[-69.2275,10.1101],[-69.015,10.2484],[-69.0684,10.4246],[-69.0317,10.538],[-68.9011,10.598],[-68.8855,10.6595],[-68.9241,10.6973],[-69.0843,10.6805],[-69.4261,10.7119],[-69.6639,10.7647],[-69.7899,10.7014],[-69.9693,10.6905],[-70.0472,10.6453],[-70.1575,10.6517],[-70.2472,10.5584],[-70.3303,10.5581],[-70.4923,10.4474],[-70.5354,10.363],[-70.6581,10.3048],[-70.7108,10.1942],[-70.8482,10.0998],[-70.8068,9.9839],[-70.6612,9.9045],[-70.6086,10.0316],[-70.5304,9.9397],[-70.4025,9.9211],[-70.2177,9.8467],[-70.0217,9.7097],[-70.1308,9.6241],[-70.1093,9.5171],[-70.033,9.4303],[-69.9433,9.5646],[-69.7909,9.539],[-69.8513,9.4123],[-69.7069,9.3957],[-69.6279,9.4265],[-69.5919,9.6182],[-69.3784,9.6579],[-69.3372,9.7686],[-69.2122,9.6892],[-69.0668,9.7099],[-68.9808,9.7823],[-68.9777,9.8573]]]}},{"type":"Feature","properties":{"sourceId":"1159308103","regionId":"region.b52b1780-cb48-4728-8cd5-55d2c4cd8724","countryId":"country.qdlh80"},"geometry":{"type":"Polygon","coordinates":[[[-68.9808,9.7823],[-69.0668,9.7099],[-69.2122,9.6892],[-69.3372,9.7686],[-69.3784,9.6579],[-69.5919,9.6182],[-69.6279,9.4265],[-69.7069,9.3957],[-69.8513,9.4123],[-69.7909,9.539],[-69.9433,9.5646],[-70.033,9.4303],[-70.1311,9.2746],[-70.0594,9.2368],[-70.1134,9.0315],[-70.1825,9.0079],[-70.0041,8.8471],[-69.8196,8.7513],[-69.7054,8.7238],[-69.6345,8.7731],[-69.4669,8.6704],[-69.2864,8.639],[-69.1756,8.5005],[-69.1276,8.351],[-68.8415,8.1125],[-68.7831,8.3316],[-68.6785,8.3925],[-68.6036,8.4998],[-68.5735,8.6354],[-68.6979,8.7613],[-68.5916,8.8681],[-68.6507,8.9554],[-68.6109,9.2436],[-68.8721,9.4395],[-68.9751,9.7105],[-68.9808,9.7823]]]}}]}