{"type":"FeatureCollection","features":[{"type":"Feature","properties":{"sourceId":"1159308467","regionId":"region.08917826-5e1e-40f9-a35c-ee25b3997f78","countryId":"country.c55i8p"},"geometry":{"type":"MultiPolygon","coordinates":[[[[72.0132,40.2621],[71.9567,40.3157],[72.0993,40.4264],[72.2283,40.4596],[72.2217,40.5604],[71.869,40.6244],[71.8115,40.6853],[71.5818,40.7743],[71.4103,40.7166],[71.271,40.6169],[71.1155,40.686],[71.127,40.7623],[70.9315,40.7747],[70.7563,40.6956],[70.3538,40.4561],[70.3714,40.3649],[70.5019,40.3508],[70.5818,40.2217],[70.7072,40.2002],[70.959,40.2384],[71.3651,40.2941],[71.6731,40.1479],[71.8365,40.2492],[72.0132,40.2621]]],[[[71.0086,40.1578],[70.953,40.0792],[71.1137,39.8745],[71.2211,39.9317],[71.0086,40.1578]]]]}},{"type":"Feature","properties":{"sourceId":"1159308535","regionId":"region.f38c68e3-63f9-4ecb-a7d8-05431a30a95e","countryId":"country.c55i8p"},"geometry":{"type":"Polygon","coordinates":[[[71.2499,42.1984],[71.0776,42.2812],[70.9478,42.2481],[70.7343,42.1973],[70.6102,42.0274],[70.4554,42.0937],[70.3151,42.0346],[70.1364,41.8481],[69.8709,41.6996],[69.6246,41.6683],[69.3938,41.545],[69.3907,41.4697],[69.2171,41.4601],[69.0444,41.3792],[69.0392,41.2203],[68.7463,41.0638],[68.6495,40.9517],[69.0538,40.6583],[69.124,40.4595],[69.0736,40.2169],[69.2853,40.2186],[69.3063,40.365],[69.198,40.5458],[69.3135,40.6094],[69.3142,40.7293],[69.4358,40.8027],[69.6601,40.6387],[70.0097,40.758],[70.2804,40.8777],[70.3635,41.0324],[70.458,41.0157],[70.4588,41.1352],[70.4014,41.3194],[70.4708,41.4049],[70.3444,41.4938],[70.2034,41.5056],[70.1693,41.5783],[70.4537,41.7121],[70.5501,41.8241],[70.8251,41.9363],[70.8455,42.0304],[70.9771,42.0442],[71.2499,42.1984]],[[69.2434,41.2192],[69.1559,41.2883],[69.2232,41.4033],[69.3482,41.3702],[69.2434,41.2192]]]}},{"type":"Feature","properties":{"sourceId":"1159308527","regionId":"region.0e13fb19-5ac2-448d-a38f-25a56dc433c6","countryId":"country.c55i8p"},"geometry":{"type":"Polygon","coordinates":[[[70.4708,41.4049],[70.4014,41.3194],[70.4588,41.1352],[70.458,41.0157],[70.6969,40.8162],[70.7563,40.6956],[70.9315,40.7747],[71.127,40.7623],[71.1155,40.686],[71.271,40.6169],[71.4103,40.7166],[71.5818,40.7743],[71.6442,40.89],[71.9076,40.9166],[72.1659,40.9069],[72.1955,41.0064],[72.1699,41.1687],[72.0338,41.1566],[71.8716,41.1945],[71.863,41.3122],[71.6841,41.5341],[71.5855,41.3235],[71.4126,41.3347],[71.4215,41.1621],[71.2761,41.1132],[71.0247,41.1898],[70.9142,41.193],[70.7563,41.2696],[70.7597,41.3725],[70.6338,41.4675],[70.4708,41.4049]]]}},{"type":"Feature","properties":{"sourceId":"1159308525","regionId":"region.978bc5a7-f577-4006-86ec-8e6b16c9d154","countryId":"country.c55i8p"},"geometry":{"type":"Polygon","coordinates":[[[73.135,40.8353],[73.0034,40.8702],[72.6195,40.8801],[72.4767,41.0118],[72.1955,41.0064],[72.1659,40.9069],[71.9076,40.9166],[71.6442,40.89],[71.5818,40.7743],[71.8115,40.6853],[71.869,40.6244],[72.2217,40.5604],[72.2283,40.4596],[72.3705,40.3857],[72.4479,40.5605],[72.5858,40.5087],[72.7484,40.5751],[72.7839,40.6697],[73.118,40.7829],[73.135,40.8353]]]}},{"type":"Feature","properties":{"sourceId":"1159308533","regionId":"region.45ce7f4d-d012-41bf-8eab-af124cec88d0","countryId":"country.c55i8p"},"geometry":{"type":"MultiPolygon","coordinates":[[[[69.0736,40.2169],[69.124,40.4595],[69.0538,40.6583],[68.6495,40.9517],[68.5497,40.835],[68.6274,40.6671],[68.593,40.5995],[68.4617,40.5847],[68.2665,40.6627],[68.1702,40.5922],[68.2167,40.5162],[68.0986,40.3093],[68.1097,40.2329],[68.3644,40.2257],[68.6641,40.2825],[68.6427,40.1837],[69.0192,40.2321],[69.0736,40.2169]]],[[[68.6403,39.8481],[68.7483,39.8261],[68.7894,39.994],[68.9307,40.1468],[68.6965,40.1117],[68.6383,40.0467],[68.6403,39.8481]]]]}},{"type":"Feature","properties":{"sourceId":"1159308529","regionId":"region.af24f828-f003-4329-a5bc-8eca6815a915","countryId":"country.c55i8p"},"geometry":{"type":"Polygon","coordinates":[[[68.6427,40.1837],[68.6641,40.2825],[68.3644,40.2257],[68.1097,40.2329],[68.0986,40.3093],[68.2167,40.5162],[68.1702,40.5922],[68.2665,40.6627],[68.0675,40.788],[68.1313,41.0296],[68.0212,41.0591],[67.9374,41.2004],[67.7481,41.1841],[66.8153,41.1419],[66.7579,41.1531],[66.6143,41.0842],[66.6313,40.9447],[66.7598,40.8906],[66.8012,40.7752],[66.6202,40.4951],[66.883,40.4782],[66.9123,40.2487],[67.0664,39.9991],[67.4599,39.9382],[67.5037,39.8242],[67.3735,39.7742],[67.2948,39.5956],[67.4365,39.4857],[67.5074,39.5529],[67.7645,39.6226],[68.1062,39.5541],[68.3376,39.5279],[68.5175,39.5484],[68.6058,39.6669],[68.6403,39.8481],[68.6383,40.0467],[68.6965,40.1117],[68.6427,40.1837]]]}},{"type":"Feature","properties":{"sourceId":"1159308519","regionId":"region.7835e1be-86f1-44e0-9157-a559c82be8c4","countryId":"country.c55i8p"},"geometry":{"type":"Polygon","coordinates":[[[67.4365,39.4857],[67.2948,39.5956],[67.3735,39.7742],[67.5037,39.8242],[67.4599,39.9382],[67.0664,39.9991],[66.9123,40.2487],[66.883,40.4782],[66.6202,40.4951],[66.523,40.6209],[66.2088,40.5379],[66.1983,40.2846],[66.0943,40.0512],[65.8786,40.0157],[65.5271,40.1462],[65.4548,40.0386],[65.4353,39.9057],[65.2936,39.9258],[65.1431,39.8662],[65.225,39.701],[65.1909,39.6098],[65.2556,39.4918],[65.6826,39.4834],[65.8153,39.5529],[66.0886,39.3196],[66.3888,39.3979],[66.5106,39.3401],[66.6886,39.4306],[66.8737,39.4051],[66.8947,39.3044],[67.1197,39.3372],[67.3587,39.2904],[67.4365,39.4857]]]}},{"type":"Feature","properties":{"sourceId":"1159308521","regionId":"region.40c1988d-c3e4-4170-a880-3bad8843370c","countryId":"country.c55i8p"},"geometry":{"type":"Polygon","coordinates":[[[67.3587,39.2904],[67.1197,39.3372],[66.8947,39.3044],[66.8737,39.4051],[66.6886,39.4306],[66.5106,39.3401],[66.3888,39.3979],[66.0886,39.3196],[65.8153,39.5529],[65.6826,39.4834],[65.2556,39.4918],[65.1378,39.4643],[64.9313,39.3412],[64.8409,39.238],[64.879,39.1612],[64.5213,39.0561],[64.3676,38.9404],[64.6349,38.7441],[64.9777,38.6123],[65.2053,38.4496],[65.6041,38.2374],[65.7402,38.2241],[65.8767,38.273],[66.2311,38.1488],[66.3069,38.0804],[66.5542,38.0269],[66.6365,37.9666],[66.7068,38.084],[66.8951,38.2739],[67.111,38.3763],[67.1627,38.5037],[67.3292,38.617],[67.3889,38.7081],[67.5163,38.7044],[67.5594,38.7703],[67.5158,38.944],[67.6733,39.003],[67.6786,39.1059],[67.3501,39.2198],[67.3587,39.2904]]]}},{"type":"Feature","properties":{"sourceId":"1159308523","regionId":"region.4769e5ca-8f5e-466b-8785-cef7e33b7d64","countryId":"country.c55i8p"},"geometry":{"type":"Polygon","coordinates":[[[67.6733,39.003],[67.5158,38.944],[67.5594,38.7703],[67.5163,38.7044],[67.3889,38.7081],[67.3292,38.617],[67.1627,38.5037],[67.111,38.3763],[66.8951,38.2739],[66.7068,38.084],[66.6365,37.9666],[66.5188,37.7827],[66.4935,37.5222],[66.5196,37.3642],[67.0059,37.3844],[67.2368,37.1924],[67.4824,37.2774],[67.7805,37.1889],[67.8206,37.3033],[67.8292,37.5279],[68.0796,37.8063],[68.1222,37.9083],[68.238,37.9427],[68.3607,38.1741],[68.332,38.243],[68.1837,38.3355],[68.0552,38.5363],[68.0376,38.6916],[68.1534,38.8994],[68.1009,38.9793],[67.8452,38.9738],[67.6733,39.003]]]}},{"type":"Feature","properties":{"sourceId":"1159308515","regionId":"region.a37aab15-0a85-4449-9335-ca7d82fbd38c","countryId":"country.c55i8p"},"geometry":{"type":"Polygon","coordinates":[[[59.0551,45.324],[58.5314,45.5587],[57.4783,45.3369],[56.7076,45.1619],[55.9784,44.9962],[55.9764,44.3048],[55.9768,43.6164],[55.9774,42.6985],[55.978,41.7807],[55.9784,41.3217],[56.5337,41.299],[57.0102,41.2541],[57.1538,41.3724],[57.0196,41.4659],[56.9605,41.6472],[56.9501,41.8661],[57.1155,41.9521],[57.2078,42.0706],[57.3823,42.1636],[57.6198,42.1482],[57.8505,42.1914],[57.9977,42.4934],[58.2257,42.4666],[58.3062,42.5287],[58.1457,42.5926],[58.2827,42.6889],[58.4932,42.6455],[58.6123,42.7809],[58.8944,42.5478],[59.122,42.538],[59.2096,42.4777],[59.2452,42.3653],[59.4782,42.2856],[59.8664,42.3042],[60.0282,42.1995],[59.9745,42.0992],[59.9837,41.949],[60.1411,41.8742],[60.1574,41.952],[60.2969,42.0034],[60.459,41.9666],[60.55,41.7773],[60.652,41.7569],[60.7385,41.6395],[61.0918,41.4136],[61.3572,41.2982],[61.4464,41.3863],[61.7113,41.3548],[61.8638,41.2846],[62.034,41.1427],[62.1535,40.9989],[62.2395,40.999],[62.4646,41.0947],[62.1804,41.3923],[61.7516,41.8342],[61.7648,41.8747],[61.9959,41.98],[61.8621,42.1674],[61.8816,42.3969],[61.9367,42.4922],[62.4654,43.2312],[62.1853,43.3139],[62.0283,43.4809],[61.9857,43.4933],[61.1617,44.1681],[61.0363,44.3828],[59.6758,45.0291],[59.0551,45.324]]]}},{"type":"Feature","properties":{"sourceId":"1159308517","regionId":"region.07225534-a614-47cb-8f83-c0b60cc463a1","countryId":"country.c55i8p"},"geometry":{"type":"Polygon","coordinates":[[[66.0132,42.3729],[66.0532,42.4409],[66.1013,42.9903],[65.7952,42.8772],[65.5169,43.2972],[65.2714,43.417],[64.9565,43.6974],[64.855,43.7129],[64.4267,43.547],[63.208,43.6275],[62.0283,43.4809],[62.1853,43.3139],[62.4654,43.2312],[61.9367,42.4922],[61.8816,42.3969],[61.8621,42.1674],[61.9959,41.98],[61.7648,41.8747],[61.7516,41.8342],[62.1804,41.3923],[62.5348,41.4933],[62.8437,41.2546],[62.9786,41.0746],[63.2223,41.0103],[63.6773,40.8043],[63.8542,40.758],[63.985,40.9328],[64.1017,40.9305],[64.1647,40.7975],[64.4355,40.773],[64.4884,40.8782],[64.802,40.9269],[64.8465,40.7704],[65.0144,40.7151],[65.3175,40.6991],[65.3403,40.5275],[65.2553,40.5347],[65.134,40.3361],[64.8754,40.3668],[64.857,40.219],[64.7826,40.0753],[64.6721,40.0162],[64.59,39.9078],[64.6782,39.8058],[64.9832,39.6999],[65.0214,39.5951],[65.1378,39.4643],[65.2556,39.4918],[65.1909,39.6098],[65.225,39.701],[65.1431,39.8662],[65.2936,39.9258],[65.4353,39.9057],[65.4548,40.0386],[65.5271,40.1462],[65.8786,40.0157],[66.0943,40.0512],[66.1983,40.2846],[66.2088,40.5379],[66.523,40.6209],[66.6202,40.4951],[66.8012,40.7752],[66.7598,40.8906],[66.6313,40.9447],[66.6143,41.0842],[66.7579,41.1531],[66.6882,41.1992],[66.5389,41.7408],[66.5041,41.9935],[66.0172,41.9976],[66.0132,42.3729]]]}},{"type":"Feature","properties":{"sourceId":"1159308511","regionId":"region.f887b58c-9e5b-47df-acfc-44e0d004115b","countryId":"country.c55i8p"},"geometry":{"type":"Polygon","coordinates":[[[60.1411,41.8742],[60.0492,41.7535],[60.1556,41.6033],[60.0717,41.5144],[60.0942,41.3895],[60.4145,41.2353],[60.5381,41.2132],[60.8603,41.253],[61.0043,41.2295],[61.2814,41.1573],[61.4701,41.2972],[61.6544,41.2494],[61.8779,41.125],[61.9708,41.0154],[62.0448,40.715],[62.1871,40.5055],[62.3956,40.7027],[62.4473,40.7883],[62.2395,40.999],[62.1535,40.9989],[62.034,41.1427],[61.8638,41.2846],[61.7113,41.3548],[61.4464,41.3863],[61.3572,41.2982],[61.0918,41.4136],[60.7385,41.6395],[60.652,41.7569],[60.55,41.7773],[60.459,41.9666],[60.2969,42.0034],[60.1574,41.952],[60.1411,41.8742]]]}},{"type":"Feature","properties":{"sourceId":"1159308509","regionId":"region.5a1fc6a3-f93e-497e-adb1-b64847bec291","countryId":"country.c55i8p"},"geometry":{"type":"Polygon","coordinates":[[[62.1871,40.5055],[62.3533,40.4304],[62.4397,40.1729],[62.4528,40.0092],[62.5932,39.8902],[63.4776,39.4029],[63.7093,39.1909],[64.1206,38.9617],[64.3136,38.9825],[64.3676,38.9404],[64.5213,39.0561],[64.879,39.1612],[64.8409,39.238],[64.9313,39.3412],[65.1378,39.4643],[65.0214,39.5951],[64.9832,39.6999],[64.6782,39.8058],[64.59,39.9078],[64.6721,40.0162],[64.7826,40.0753],[64.857,40.219],[64.8754,40.3668],[65.134,40.3361],[65.2553,40.5347],[65.3403,40.5275],[65.3175,40.6991],[65.0144,40.7151],[64.8465,40.7704],[64.802,40.9269],[64.4884,40.8782],[64.4355,40.773],[64.1647,40.7975],[64.1017,40.9305],[63.985,40.9328],[63.8542,40.758],[63.6773,40.8043],[63.2223,41.0103],[62.9786,41.0746],[62.8437,41.2546],[62.5348,41.4933],[62.1804,41.3923],[62.4646,41.0947],[62.2395,40.999],[62.4473,40.7883],[62.3956,40.7027],[62.1871,40.5055]]]}},{"type":"Feature","properties":{"sourceId":"1159315879","regionId":"region.70201a74-01ee-4ae8-ba9f-46be2e97a45a","countryId":"country.c55i8p"},"geometry":{"type":"Polygon","coordinates":[[[69.2434,41.2192],[69.3482,41.3702],[69.2232,41.4033],[69.1559,41.2883],[69.2434,41.2192]]]}}]}