{"type":"FeatureCollection","features":[{"type":"Feature","properties":{"sourceId":"1159314845","regionId":"region.6719b2ca-2028-4079-be2a-430c7dc70657","countryId":"country.sadyi7"},"geometry":{"type":"Polygon","coordinates":[[[28.9541,69.0273],[28.827,69.1068],[28.8648,69.2166],[29.3445,69.4644],[29.1312,69.6742],[28.4046,69.8023],[28.1674,69.8943],[27.8669,70.0753],[27.6126,70.0621],[27.3118,69.9295],[26.5007,69.9183],[26.1983,69.7154],[26.032,69.6967],[25.8867,69.5209],[25.8774,69.3708],[25.7341,69.1913],[25.8011,69.0132],[25.6516,68.8835],[25.2013,68.8126],[25.1176,68.6377],[24.8609,68.5634],[24.6634,68.6661],[24.3325,68.7086],[23.929,68.8162],[23.7348,68.7154],[23.1976,68.618],[23.0193,68.6867],[22.5965,68.7246],[21.9461,69.0657],[21.6629,69.2632],[21.3136,69.2914],[21.0336,69.1812],[21.0325,69.041],[20.7444,69.1044],[20.6232,69.0364],[20.9346,68.967],[21.4636,68.6869],[21.9192,68.5682],[22.0722,68.477],[22.6076,68.4249],[23.0522,68.2982],[23.1517,68.1303],[23.6612,67.9329],[23.4989,67.8822],[23.5535,67.587],[23.4313,67.4855],[23.7652,67.4201],[23.7354,67.2897],[23.5813,67.1531],[24.0013,66.8124],[23.8924,66.7509],[23.8819,66.5635],[23.6423,66.4363],[23.7242,66.2066],[24.0197,66.0489],[24.1631,65.8227],[24.5188,65.796],[24.6711,65.645],[24.8195,65.6622],[25.0932,65.5919],[25.3882,65.7361],[25.7623,65.7464],[26.1284,65.8139],[26.188,65.7189],[26.8418,65.7052],[27.1022,65.7508],[27.4003,65.9416],[27.6377,65.9536],[27.765,65.8293],[28.194,65.8054],[28.47,65.8386],[28.4136,65.9901],[28.722,65.9982],[28.6085,66.1181],[28.7641,66.2389],[28.5737,66.2861],[28.5709,66.3861],[28.7345,66.4844],[29.1691,66.4192],[29.5462,66.432],[29.3625,66.6266],[29.0892,66.8375],[29.1001,66.9912],[29.5198,67.2982],[29.9162,67.5081],[30.0094,67.6858],[29.6512,67.8236],[29.2987,68.0818],[28.6638,68.204],[28.4474,68.5149],[28.8015,68.8355],[28.4562,68.9001],[28.9541,69.0273]]]}},{"type":"Feature","properties":{"sourceId":"1159314839","regionId":"region.45537189-72db-4535-a741-5e913ac64fdf","countryId":"country.sadyi7"},"geometry":{"type":"Polygon","coordinates":[[[29.5462,66.432],[29.1691,66.4192],[28.7345,66.4844],[28.5709,66.3861],[28.5737,66.2861],[28.7641,66.2389],[28.6085,66.1181],[28.722,65.9982],[28.4136,65.9901],[28.47,65.8386],[28.194,65.8054],[27.765,65.8293],[27.6377,65.9536],[27.4003,65.9416],[27.1022,65.7508],[26.8418,65.7052],[26.188,65.7189],[26.1284,65.8139],[25.7623,65.7464],[25.3882,65.7361],[25.0932,65.5919],[25.3518,65.4841],[25.2825,65.1914],[25.4435,64.9668],[25.2595,64.8165],[25.0737,64.9161],[24.7731,64.8658],[24.4229,64.6756],[24.3441,64.5307],[23.9961,64.3799],[23.7065,64.1681],[24.094,64.0477],[24.2717,63.8681],[24.4083,63.8341],[24.6304,63.659],[25.0287,63.458],[25.2316,63.6009],[25.4914,63.5315],[25.7363,63.5177],[25.9121,63.4385],[26.1378,63.4563],[26.2857,63.5888],[26.238,63.8069],[26.694,64.0053],[26.8721,64.0334],[26.7733,64.2447],[26.5313,64.326],[26.296,64.4804],[26.8087,64.659],[27.1153,64.8266],[27.3602,64.8178],[27.4051,64.9317],[27.281,65.0157],[27.3634,65.0857],[27.9032,65.1065],[28.0756,65.2413],[28.5531,65.2846],[28.6818,65.396],[29.1159,65.4552],[29.2824,65.5241],[29.7315,65.4969],[29.7029,65.6294],[30.1117,65.712],[29.9002,66.1081],[29.6509,66.2879],[29.5462,66.432]]]}},{"type":"Feature","properties":{"sourceId":"1159314853","regionId":"region.b6e90478-6a27-4bba-8c9c-de2960cebbb4","countryId":"country.sadyi7"},"geometry":{"type":"Polygon","coordinates":[[[29.7315,65.4969],[29.2824,65.5241],[29.1159,65.4552],[28.6818,65.396],[28.5531,65.2846],[28.0756,65.2413],[27.9032,65.1065],[27.3634,65.0857],[27.281,65.0157],[27.4051,64.9317],[27.3602,64.8178],[27.1153,64.8266],[26.8087,64.659],[26.296,64.4804],[26.5313,64.326],[26.7733,64.2447],[26.8721,64.0334],[27.5504,63.9527],[27.7447,63.9083],[28.152,63.722],[28.3584,63.7534],[28.4655,63.8713],[28.9347,63.842],[29.6562,63.8734],[29.7359,63.7322],[29.9984,63.7471],[30.2015,63.7926],[30.5093,63.9914],[30.5864,64.0847],[30.5585,64.2197],[30.0931,64.3612],[29.9658,64.5786],[30.1705,64.6817],[30.0625,64.7842],[29.7803,64.7956],[29.5881,64.9914],[29.8205,65.0937],[29.8332,65.205],[29.5801,65.2354],[29.7201,65.3291],[29.7315,65.4969]]]}},{"type":"Feature","properties":{"sourceId":"1159314871","regionId":"region.cba54eec-4de9-4d08-99c4-d449813ec5f0","countryId":"country.sadyi7"},"geometry":{"type":"Polygon","coordinates":[[[29.9984,63.7471],[29.7359,63.7322],[29.6562,63.8734],[28.9347,63.842],[28.4655,63.8713],[28.3584,63.7534],[28.5498,63.6929],[28.6612,63.4369],[28.7532,63.3353],[28.6182,63.2088],[29.0519,62.999],[28.9241,62.782],[28.6464,62.7443],[28.6582,62.6533],[28.8098,62.6308],[29.2814,62.383],[29.4131,62.2448],[29.4591,62.0987],[29.6564,61.9731],[29.6938,61.8249],[29.564,61.7241],[30.1456,61.8505],[30.635,62.184],[30.9076,62.2929],[31.2222,62.4917],[31.4413,62.7887],[31.5695,62.9059],[31.2508,63.1155],[31.2257,63.196],[30.8209,63.3757],[30.4887,63.4621],[30.0011,63.7153],[29.9984,63.7471]]]}},{"type":"Feature","properties":{"sourceId":"1159314865","regionId":"region.2c7faef0-4eab-4e6d-ae48-f9c3dcc9849a","countryId":"country.sadyi7"},"geometry":{"type":"Polygon","coordinates":[[[30.1456,61.8505],[29.564,61.7241],[29.272,61.5721],[28.815,61.5308],[28.6532,61.4696],[28.4689,61.5092],[28.1815,61.3733],[27.5403,61.3603],[27.2024,61.3997],[27.3311,61.2528],[27.2132,61.1618],[27.143,60.9469],[27.5108,60.7978],[27.8529,60.7557],[28.0038,60.6642],[28.4809,60.9335],[28.6146,60.9619],[28.7976,61.0968],[29.2032,61.2459],[29.2771,61.3046],[29.5397,61.485],[29.7791,61.5931],[30.1456,61.8505]]]}},{"type":"Feature","properties":{"sourceId":"1159314829","regionId":"region.5454d64a-30cc-4c3f-bfdd-f11254f99c40","countryId":"country.sadyi7"},"geometry":{"type":"Polygon","coordinates":[[[28.0038,60.6642],[27.8529,60.7557],[27.5108,60.7978],[27.143,60.9469],[27.2132,61.1618],[26.9436,61.1713],[26.8719,61.2833],[26.6989,61.2142],[26.5151,61.2737],[26.3954,61.1998],[26.0521,61.1076],[26.1366,61.0249],[26.0428,60.9551],[26.2155,60.7554],[26.5533,60.5918],[26.5274,60.4399],[26.6873,60.4182],[26.9982,60.488],[27.0544,60.5468],[27.4568,60.4637],[27.7054,60.4854],[27.8079,60.553],[28.0038,60.6642]]]}},{"type":"Feature","properties":{"sourceId":"1159314827","regionId":"region.82cab927-6d72-49eb-ac4b-8240b941c356","countryId":"country.sadyi7"},"geometry":{"type":"Polygon","coordinates":[[[26.5533,60.5918],[26.2155,60.7554],[26.1261,60.6945],[25.8883,60.734],[25.6105,60.6884],[25.442,60.7926],[25.3295,60.7573],[25.1089,60.8199],[25.028,60.6784],[24.6124,60.6605],[24.3972,60.5963],[23.8967,60.6488],[23.7861,60.3926],[23.4387,60.1636],[23.2958,60.1815],[23.0213,60.1068],[23.2051,60.0497],[23.2372,59.898],[23.5619,59.9776],[23.7713,59.968],[24.2959,60.0722],[24.4681,59.9964],[24.6082,60.1012],[25.177,60.1833],[25.1975,60.2452],[25.7355,60.2473],[26.0946,60.4233],[26.324,60.383],[26.4857,60.4438],[26.5533,60.5918]]]}},{"type":"Feature","properties":{"sourceId":"1159314823","regionId":"region.cfc5c28e-2e25-4569-b617-bd548c384e54","countryId":"country.sadyi7"},"geometry":{"type":"MultiPolygon","coordinates":[[[[23.0213,60.1068],[23.2958,60.1815],[23.4387,60.1636],[23.7861,60.3926],[23.8967,60.6488],[23.7046,60.6611],[23.477,60.7465],[23.2673,60.7282],[23.1624,60.7799],[23.2958,60.9467],[23.1974,60.9999],[22.9698,61.0455],[22.5619,60.9436],[22.0056,60.8987],[21.9059,60.9846],[21.4934,61.0037],[21.4081,61.0482],[21.3259,60.8349],[21.4221,60.7591],[21.47,60.6083],[21.7739,60.6039],[22.0645,60.4363],[22.2915,60.3826],[22.6276,60.3754],[22.4495,60.2452],[22.7362,60.2382],[22.9412,60.3165],[23.0076,60.277],[22.8672,60.1837],[23.0213,60.1068]]],[[[22.8435,60.2418],[22.4665,60.1837],[22.4699,59.9975],[22.7305,60.0466],[22.8469,60.111],[22.8435,60.2418]]]]}},{"type":"Feature","properties":{"sourceId":"1159314835","regionId":"region.f01fa138-c7a3-4771-9336-5262144d73f7","countryId":"country.sadyi7"},"geometry":{"type":"Polygon","coordinates":[[[21.4081,61.0482],[21.4934,61.0037],[21.9059,60.9846],[22.0056,60.8987],[22.5619,60.9436],[22.9698,61.0455],[22.8673,61.2306],[22.6807,61.2417],[22.5805,61.3172],[22.7254,61.432],[22.6015,61.5527],[22.6561,61.6848],[22.8229,61.8228],[22.5935,62.0282],[22.7728,62.0677],[22.8383,62.2712],[22.587,62.3018],[22.3388,62.124],[21.933,61.9853],[21.6466,62.0205],[21.4258,62.0094],[21.3167,61.9392],[21.6234,61.5459],[21.5103,61.5195],[21.5435,61.2251],[21.4081,61.0482]]]}},{"type":"Feature","properties":{"sourceId":"1159314837","regionId":"region.e972b25e-267e-45b5-bd7f-296355f6a103","countryId":"country.sadyi7"},"geometry":{"type":"Polygon","coordinates":[[[21.3167,61.9392],[21.4258,62.0094],[21.6466,62.0205],[21.6905,62.2066],[21.636,62.3657],[21.5324,62.3791],[21.591,62.6008],[21.7802,62.7036],[21.7918,62.8566],[22.179,62.762],[22.4042,62.876],[22.4284,62.9567],[22.6742,63.1372],[22.5782,63.2708],[22.7664,63.3576],[23.118,63.3607],[23.3505,63.488],[23.5492,63.4654],[23.6994,63.3806],[23.6399,63.5321],[23.46,63.6272],[23.7187,63.6633],[23.5031,63.767],[23.1979,63.7238],[22.9907,63.7876],[22.8293,63.6462],[22.6753,63.7024],[22.4972,63.623],[22.4284,63.4888],[22.1956,63.4312],[22.3737,63.3214],[22.203,63.2394],[21.9055,63.1754],[21.8699,63.2594],[21.6154,63.2039],[21.4408,63.0378],[21.3828,62.8746],[21.1135,62.7812],[21.1935,62.6009],[21.1156,62.4958],[21.2051,62.3597],[21.339,62.3555],[21.2366,61.985],[21.3167,61.9392]]]}},{"type":"Feature","properties":{"sourceId":"1159314855","regionId":"region.4b1e17c2-cfb8-4368-a8a6-5592e7d8b99a","countryId":"country.sadyi7"},"geometry":{"type":"Polygon","coordinates":[[[22.9907,63.7876],[23.1979,63.7238],[23.5031,63.767],[23.7187,63.6633],[23.46,63.6272],[23.6399,63.5321],[23.6994,63.3806],[23.7994,63.3016],[24.0432,63.2631],[24.3628,63.1192],[24.7364,63.1371],[24.7834,63.3522],[25.0287,63.458],[24.6304,63.659],[24.4083,63.8341],[24.2717,63.8681],[24.094,64.0477],[23.7065,64.1681],[23.6045,64.0277],[23.3816,64.0482],[23.3709,63.9465],[23.075,63.8574],[22.9907,63.7876]]]}},{"type":"Feature","properties":{"sourceId":"1159314851","regionId":"region.bc0c2202-46a5-4224-9da8-ff0b1249f4af","countryId":"country.sadyi7"},"geometry":{"type":"Polygon","coordinates":[[[26.8721,64.0334],[26.694,64.0053],[26.238,63.8069],[26.2857,63.5888],[26.1378,63.4563],[26.0872,63.368],[26.272,63.0642],[26.2802,62.9447],[26.1741,62.8319],[26.5208,62.7364],[26.597,62.6255],[26.4818,62.5246],[26.7118,62.4513],[27.2025,62.4641],[27.3809,62.5173],[27.6694,62.3944],[27.8382,62.279],[28.0684,62.2861],[28.4149,62.5658],[28.6582,62.6533],[28.6464,62.7443],[28.9241,62.782],[29.0519,62.999],[28.6182,63.2088],[28.7532,63.3353],[28.6612,63.4369],[28.5498,63.6929],[28.3584,63.7534],[28.152,63.722],[27.7447,63.9083],[27.5504,63.9527],[26.8721,64.0334]]]}},{"type":"Feature","properties":{"sourceId":"1159314869","regionId":"region.2e757c75-105c-4141-a01e-3ea0566fd499","countryId":"country.sadyi7"},"geometry":{"type":"Polygon","coordinates":[[[28.6582,62.6533],[28.4149,62.5658],[28.0684,62.2861],[27.8382,62.279],[27.6694,62.3944],[27.3809,62.5173],[27.2025,62.4641],[26.7118,62.4513],[26.6358,62.246],[26.334,62.1973],[26.2475,62.1007],[26.3903,61.9903],[26.3341,61.8838],[26.5291,61.6864],[26.3195,61.6076],[26.2936,61.3708],[26.5151,61.2737],[26.6989,61.2142],[26.8719,61.2833],[26.9436,61.1713],[27.2132,61.1618],[27.3311,61.2528],[27.2024,61.3997],[27.5403,61.3603],[28.1815,61.3733],[28.4689,61.5092],[28.6532,61.4696],[28.815,61.5308],[29.272,61.5721],[29.564,61.7241],[29.6938,61.8249],[29.6564,61.9731],[29.4591,62.0987],[29.4131,62.2448],[29.2814,62.383],[28.8098,62.6308],[28.6582,62.6533]]]}},{"type":"Feature","properties":{"sourceId":"1159314847","regionId":"region.2f79671f-aaee-4069-9268-0eef36b74761","countryId":"country.sadyi7"},"geometry":{"type":"Polygon","coordinates":[[[26.1378,63.4563],[25.9121,63.4385],[25.7363,63.5177],[25.4914,63.5315],[25.2316,63.6009],[25.0287,63.458],[24.7834,63.3522],[24.7364,63.1371],[24.3628,63.1192],[24.2661,63.0603],[24.3652,62.8435],[24.5711,62.6606],[24.5136,62.5039],[24.1981,62.4688],[24.0203,62.364],[24.3326,62.175],[24.5649,62.1809],[24.9467,61.9177],[24.9066,61.5802],[24.9582,61.4559],[25.4033,61.4841],[25.5162,61.678],[25.7795,61.7014],[25.862,61.798],[26.3195,61.6076],[26.5291,61.6864],[26.3341,61.8838],[26.3903,61.9903],[26.2475,62.1007],[26.334,62.1973],[26.6358,62.246],[26.7118,62.4513],[26.4818,62.5246],[26.597,62.6255],[26.5208,62.7364],[26.1741,62.8319],[26.2802,62.9447],[26.272,63.0642],[26.0872,63.368],[26.1378,63.4563]]]}},{"type":"Feature","properties":{"sourceId":"1159314857","regionId":"region.96f209f8-3464-45f1-8783-6ebaf2cdf8fa","countryId":"country.sadyi7"},"geometry":{"type":"Polygon","coordinates":[[[23.6994,63.3806],[23.5492,63.4654],[23.3505,63.488],[23.118,63.3607],[22.7664,63.3576],[22.5782,63.2708],[22.6742,63.1372],[22.4284,62.9567],[22.4042,62.876],[22.179,62.762],[21.7918,62.8566],[21.7802,62.7036],[21.591,62.6008],[21.5324,62.3791],[21.636,62.3657],[21.6905,62.2066],[21.6466,62.0205],[21.933,61.9853],[22.3388,62.124],[22.587,62.3018],[22.8383,62.2712],[23.1668,62.3184],[23.8174,62.4697],[24.0203,62.364],[24.1981,62.4688],[24.5136,62.5039],[24.5711,62.6606],[24.3652,62.8435],[24.2661,63.0603],[24.3628,63.1192],[24.0432,63.2631],[23.7994,63.3016],[23.6994,63.3806]]]}},{"type":"Feature","properties":{"sourceId":"1159314863","regionId":"region.5dc75fcd-5a59-4596-b5d9-9d261dfc1215","countryId":"country.sadyi7"},"geometry":{"type":"Polygon","coordinates":[[[24.0203,62.364],[23.8174,62.4697],[23.1668,62.3184],[22.8383,62.2712],[22.7728,62.0677],[22.5935,62.0282],[22.8229,61.8228],[22.6561,61.6848],[22.6015,61.5527],[22.7254,61.432],[22.5805,61.3172],[22.6807,61.2417],[22.8673,61.2306],[22.9698,61.0455],[23.1974,60.9999],[23.4371,60.9695],[23.707,61.007],[23.798,61.0753],[24.2282,61.1583],[24.5844,61.2948],[24.8042,61.2675],[24.9183,61.3223],[24.9582,61.4559],[24.9066,61.5802],[24.9467,61.9177],[24.5649,62.1809],[24.3326,62.175],[24.0203,62.364]]]}},{"type":"Feature","properties":{"sourceId":"1159314861","regionId":"region.b4a936a0-1c15-4d45-8cbb-00e28deddc9d","countryId":"country.sadyi7"},"geometry":{"type":"Polygon","coordinates":[[[24.9183,61.3223],[24.8042,61.2675],[24.5844,61.2948],[24.2282,61.1583],[23.798,61.0753],[23.707,61.007],[23.4371,60.9695],[23.1974,60.9999],[23.2958,60.9467],[23.1624,60.7799],[23.2673,60.7282],[23.477,60.7465],[23.7046,60.6611],[23.8967,60.6488],[24.3972,60.5963],[24.6124,60.6605],[25.028,60.6784],[25.1089,60.8199],[25.2867,61.0757],[25.1877,61.24],[24.9183,61.3223]]]}},{"type":"Feature","properties":{"sourceId":"1159314859","regionId":"region.95899d9c-7803-4762-97b3-108c287656d4","countryId":"country.sadyi7"},"geometry":{"type":"Polygon","coordinates":[[[26.3195,61.6076],[25.862,61.798],[25.7795,61.7014],[25.5162,61.678],[25.4033,61.4841],[24.9582,61.4559],[24.9183,61.3223],[25.1877,61.24],[25.2867,61.0757],[25.1089,60.8199],[25.3295,60.7573],[25.442,60.7926],[25.6105,60.6884],[25.8883,60.734],[26.1261,60.6945],[26.2155,60.7554],[26.0428,60.9551],[26.1366,61.0249],[26.0521,61.1076],[26.3954,61.1998],[26.5151,61.2737],[26.2936,61.3708],[26.3195,61.6076]]]}}]}