{"type":"FeatureCollection","features":[{"type":"Feature","properties":{"sourceId":"1159311621","regionId":"region.d6d32fcf-cbf3-42f2-8f12-f7f4b67edcf9","countryId":"country.abcbf2de-3898-4bff-9a00-899fcadcc32a"},"geometry":{"type":"Polygon","coordinates":[[[-61.2541,15.3327],[-61.3082,15.3167],[-61.3566,15.2538],[-61.3557,15.2438],[-61.3464,15.2117],[-61.2541,15.3327]]]}},{"type":"Feature","properties":{"sourceId":"1159311607","regionId":"region.ad53080f-b900-4280-ac5b-1b802c6907bb","countryId":"country.abcbf2de-3898-4bff-9a00-899fcadcc32a"},"geometry":{"type":"Polygon","coordinates":[[[-61.2686,15.5099],[-61.3174,15.4449],[-61.3346,15.405],[-61.3276,15.3455],[-61.3082,15.3167],[-61.2541,15.3327],[-61.2686,15.5099]]]}},{"type":"Feature","properties":{"sourceId":"1159311605","regionId":"region.e7a5bd1c-92b4-4226-b6df-513021a19271","countryId":"country.abcbf2de-3898-4bff-9a00-899fcadcc32a"},"geometry":{"type":"Polygon","coordinates":[[[-61.4492,15.6331],[-61.4077,15.503],[-61.4057,15.4945],[-61.3174,15.4449],[-61.2686,15.5099],[-61.3077,15.5793],[-61.4492,15.6331]]]}},{"type":"Feature","properties":{"sourceId":"1159311613","regionId":"region.ebb1141c-4d71-40dc-8d9a-9142c54822db","countryId":"country.abcbf2de-3898-4bff-9a00-899fcadcc32a"},"geometry":{"type":"Polygon","coordinates":[[[-61.484,15.5296],[-61.4077,15.503],[-61.4492,15.6331],[-61.484,15.5296]]]}},{"type":"Feature","properties":{"sourceId":"1159311625","regionId":"region.07ed339e-410d-442d-8c3a-fac38d6bbcb1","countryId":"country.abcbf2de-3898-4bff-9a00-899fcadcc32a"},"geometry":{"type":"Polygon","coordinates":[[[-61.4553,15.4663],[-61.4057,15.4945],[-61.4077,15.503],[-61.484,15.5296],[-61.4553,15.4663]]]}},{"type":"Feature","properties":{"sourceId":"1159311615","regionId":"region.911de386-0533-4ffa-949f-a11a314e7038","countryId":"country.abcbf2de-3898-4bff-9a00-899fcadcc32a"},"geometry":{"type":"Polygon","coordinates":[[[-61.416,15.3901],[-61.3346,15.405],[-61.3174,15.4449],[-61.4057,15.4945],[-61.4553,15.4663],[-61.416,15.3901]]]}},{"type":"Feature","properties":{"sourceId":"1159311623","regionId":"region.5d5b7dc2-289b-48ff-96c7-d972a1ec5f93","countryId":"country.abcbf2de-3898-4bff-9a00-899fcadcc32a"},"geometry":{"type":"Polygon","coordinates":[[[-61.3936,15.3136],[-61.3276,15.3455],[-61.3346,15.405],[-61.416,15.3901],[-61.3936,15.3136]]]}},{"type":"Feature","properties":{"sourceId":"1159311611","regionId":"region.effaa501-1bb5-4e5b-b424-af2cbb42e141","countryId":"country.abcbf2de-3898-4bff-9a00-899fcadcc32a"},"geometry":{"type":"Polygon","coordinates":[[[-61.3732,15.2603],[-61.3566,15.2538],[-61.3082,15.3167],[-61.3276,15.3455],[-61.3936,15.3136],[-61.3732,15.2603]]]}},{"type":"Feature","properties":{"sourceId":"1159311617","regionId":"region.1be9d9cb-315c-44a0-b9ff-86eb5de2e968","countryId":"country.abcbf2de-3898-4bff-9a00-899fcadcc32a"},"geometry":{"type":"Polygon","coordinates":[[[-61.3728,15.2372],[-61.3557,15.2438],[-61.3566,15.2538],[-61.3732,15.2603],[-61.3728,15.2372]]]}},{"type":"Feature","properties":{"sourceId":"1159311619","regionId":"region.173c3cac-af0e-42a6-ac21-a5ac3ef31ff7","countryId":"country.abcbf2de-3898-4bff-9a00-899fcadcc32a"},"geometry":{"type":"Polygon","coordinates":[[[-61.3464,15.2117],[-61.3557,15.2438],[-61.3728,15.2372],[-61.3464,15.2117]]]}}]}