{"type":"FeatureCollection","features":[{"type":"Feature","properties":{"sourceId":"1159310253","regionId":"region.015cf112-f63b-4972-b6f2-ddf8a4468644","countryId":"country.1rbe765"},"geometry":{"type":"Polygon","coordinates":[[[43.1177,12.7079],[43.0864,12.8209],[42.9632,12.8105],[42.7739,12.8621],[42.7376,13.0177],[42.6554,13.0723],[42.5207,13.2355],[42.3794,13.2226],[42.2884,13.5746],[42.0996,13.6544],[41.981,13.8378],[41.806,13.9297],[41.6765,13.9403],[41.6209,14.0636],[41.3359,14.402],[41.3068,14.4889],[41.1561,14.6416],[40.8081,14.7028],[40.7337,14.8182],[40.5723,14.9512],[40.5757,14.7015],[40.3537,14.3352],[40.5859,14.1947],[40.8332,14.106],[41.0436,13.8725],[41.192,13.6159],[41.5307,13.3938],[41.7118,13.2479],[41.8166,13.1128],[41.9466,12.8762],[42.1373,12.7733],[42.3795,12.4659],[42.5216,12.4962],[42.6962,12.3801],[42.7923,12.4292],[42.7852,12.5172],[42.8521,12.6117],[43.1177,12.7079]]]}},{"type":"Feature","properties":{"sourceId":"1159310225","regionId":"region.1d4d68d9-5f96-4177-a1f8-4a8e863c9b65","countryId":"country.1rbe765"},"geometry":{"type":"MultiPolygon","coordinates":[[[[38.6016,18.0048],[38.4593,17.8907],[38.3437,17.6559],[38.1606,17.5573],[38.0144,17.5393],[38.0233,17.4174],[37.9931,16.8931],[38.0435,16.8314],[38.0323,16.684],[38.0858,16.626],[38.3136,16.5866],[38.403,16.3935],[38.5217,16.2064],[38.4985,16.01],[38.531,15.9497],[38.674,15.8851],[38.8089,15.8687],[38.9247,15.6981],[38.9587,15.5757],[39.0915,15.3502],[39.1979,15.2469],[39.3263,15.176],[39.723,14.5017],[39.9112,14.4234],[39.9998,14.4552],[40.1046,14.466],[40.2771,14.4046],[40.3537,14.3352],[40.5757,14.7015],[40.5723,14.9512],[40.5542,14.9902],[40.3757,14.9867],[40.3018,14.9169],[40.1594,14.9822],[40.0266,15.2372],[40.0724,15.3507],[39.8753,15.5041],[39.7734,15.3905],[39.7785,15.2976],[39.8547,15.1735],[39.8113,15.0789],[39.6983,15.1236],[39.7183,15.2639],[39.5872,15.5314],[39.4575,15.5246],[39.4828,15.6149],[39.427,15.8204],[39.3135,15.8939],[39.2356,16.1087],[39.1974,16.2986],[39.1633,16.6282],[39.0559,17.0341],[38.929,17.3971],[38.7897,17.6689],[38.6958,17.8066],[38.6016,18.0048]]],[[[40.3864,15.6413],[40.2874,15.7021],[40.1638,15.6444],[40.1389,15.7922],[40.0916,15.8498],[39.925,15.777],[40.0386,15.719],[40.0608,15.5922],[40.2874,15.573],[40.3864,15.6413]]]]}},{"type":"Feature","properties":{"sourceId":"1159310249","regionId":"region.1b8023cc-29b4-491e-9753-22ad8f5825da","countryId":"country.1rbe765"},"geometry":{"type":"Polygon","coordinates":[[[38.0144,17.5393],[37.872,17.4373],[37.7989,17.4771],[37.7204,17.3839],[37.5068,17.3185],[37.501,17.1951],[37.4034,17.0299],[37.3098,17.0553],[37.134,17.0164],[36.9734,17.0621],[36.985,16.7657],[36.9014,16.6557],[36.8773,16.5273],[36.9273,16.4354],[36.9748,16.403],[37.0699,16.1749],[37.2515,16.1202],[37.3517,16.0466],[37.4371,15.9215],[37.5511,15.8462],[37.7503,15.8484],[38.0092,15.7579],[38.1068,15.6943],[38.2786,15.7315],[38.3589,15.692],[38.5008,15.5501],[38.7863,15.5568],[38.9587,15.5757],[38.9247,15.6981],[38.8089,15.8687],[38.674,15.8851],[38.531,15.9497],[38.4985,16.01],[38.5217,16.2064],[38.403,16.3935],[38.3136,16.5866],[38.0858,16.626],[38.0323,16.684],[38.0435,16.8314],[37.9931,16.8931],[38.0233,17.4174],[38.0144,17.5393]]]}},{"type":"Feature","properties":{"sourceId":"1159310245","regionId":"region.f5829a67-698f-4952-9292-b571a2f32d70","countryId":"country.1rbe765"},"geometry":{"type":"Polygon","coordinates":[[[36.5264,14.2635],[36.7481,14.3321],[37.0727,14.2853],[37.1211,14.4208],[37.2938,14.4574],[37.394,14.3501],[37.4754,14.1996],[37.565,14.1167],[37.8915,14.8795],[38.0067,14.7244],[38.2458,14.6525],[38.2129,14.836],[38.2497,14.9304],[38.4253,15.0944],[38.7214,15.163],[38.7882,15.1556],[38.7863,15.5568],[38.5008,15.5501],[38.3589,15.692],[38.2786,15.7315],[38.1068,15.6943],[38.0092,15.7579],[37.7503,15.8484],[37.5511,15.8462],[37.4371,15.9215],[37.3517,16.0466],[37.2515,16.1202],[37.0699,16.1749],[36.9748,16.403],[36.9273,16.4354],[36.944,16.2529],[36.8859,16.1849],[36.7595,15.8375],[36.671,15.7231],[36.5249,15.2479],[36.4236,15.1115],[36.4622,14.7938],[36.5264,14.2635]]]}},{"type":"Feature","properties":{"sourceId":"1159310251","regionId":"region.d6fd9efa-6adb-4dff-8f4f-1d7166abbd9e","countryId":"country.1rbe765"},"geometry":{"type":"Polygon","coordinates":[[[38.2458,14.6525],[38.325,14.5046],[38.4268,14.4172],[38.6066,14.4365],[38.8661,14.4937],[39.0755,14.6374],[39.1585,14.5601],[39.2082,14.4402],[39.4894,14.5245],[39.723,14.5017],[39.3263,15.176],[39.2844,15.1558],[38.7882,15.1556],[38.7214,15.163],[38.4253,15.0944],[38.2497,14.9304],[38.2129,14.836],[38.2458,14.6525]]]}},{"type":"Feature","properties":{"sourceId":"1159310247","regionId":"region.f62f009c-79db-499d-9e61-1bfd34a59345","countryId":"country.1rbe765"},"geometry":{"type":"Polygon","coordinates":[[[38.7882,15.1556],[39.2844,15.1558],[39.3263,15.176],[39.1979,15.2469],[39.0915,15.3502],[38.9587,15.5757],[38.7863,15.5568],[38.7882,15.1556]]]}}]}