{"type":"FeatureCollection","features":[{"type":"Feature","properties":{"sourceId":"1159315673","regionId":"region.51546de0-768c-4b4b-85f3-673354aa6c6a","countryId":"country.2e4582fa-4432-4e61-bfc3-2083336428b4"},"geometry":{"type":"Polygon","coordinates":[[[-56.1509,46.7936],[-56.1919,46.8066],[-56.2403,46.7657],[-56.1681,46.7573],[-56.1509,46.7936]]]}},{"type":"Feature","properties":{"sourceId":"1159315961","regionId":"region.99aad9f0-b775-4313-910d-d4cb8997b1c7","countryId":"country.2e4582fa-4432-4e61-bfc3-2083336428b4"},"geometry":{"type":"Polygon","coordinates":[[[-56.2738,46.8955],[-56.3137,46.9757],[-56.2533,47.0537],[-56.3959,47.1136],[-56.3368,46.9543],[-56.2738,46.8955]]]}}]}