{"type":"FeatureCollection","features":[{"type":"Feature","properties":{"sourceId":"1159311479","regionId":"region.e47c24e8-0a57-4a13-87f9-eb8166295366","countryId":"country.n7hxdt"},"geometry":{"type":"Polygon","coordinates":[[[3.5964,11.6958],[3.5035,11.83],[3.2927,11.9187],[3.2551,12.0188],[2.9368,12.3009],[2.8443,12.3992],[2.6286,12.3008],[2.488,12.2804],[2.3612,12.2189],[2.4056,12.0467],[2.4553,12.0087],[2.3902,11.8965],[2.2911,11.6748],[2.0154,11.4316],[2.264,11.0121],[2.3562,10.9601],[2.2612,10.8425],[2.255,10.5178],[2.457,10.5423],[2.6145,10.5306],[2.775,10.5522],[2.9758,10.5209],[3.2172,10.5408],[3.4581,10.5891],[3.8372,10.6306],[3.7313,10.825],[3.7541,10.9071],[3.7056,11.1207],[3.6625,11.1431],[3.4833,11.3923],[3.5049,11.5566],[3.5964,11.6958]]]}},{"type":"Feature","properties":{"sourceId":"1159311477","regionId":"region.aa3ff9f9-0624-4195-957e-5526730fbdf1","countryId":"country.n7hxdt"},"geometry":{"type":"Polygon","coordinates":[[[3.8372,10.6306],[3.4581,10.5891],[3.2172,10.5408],[2.9758,10.5209],[2.775,10.5522],[2.6145,10.5306],[2.457,10.5423],[2.255,10.5178],[2.1838,10.4306],[2.2627,10.2384],[2.2676,10.1349],[2.1109,10.0855],[2.0919,10.0315],[2.0806,9.8054],[2.1613,9.6565],[2.1219,9.3997],[1.9755,9.3077],[1.9775,9.164],[2.0508,9.0914],[2.0252,8.9395],[2.051,8.8719],[2.1946,8.7767],[2.7229,8.7712],[2.7523,8.8123],[2.7692,9.057],[2.9831,9.0606],[3.0913,9.1264],[3.1514,9.2886],[3.1286,9.4296],[3.3386,9.6782],[3.3171,9.7817],[3.5131,9.8466],[3.5996,9.9687],[3.6648,10.1287],[3.5724,10.2857],[3.6521,10.4358],[3.7569,10.4053],[3.8372,10.6306]]]}},{"type":"Feature","properties":{"sourceId":"1159311495","regionId":"region.040b5def-8272-4608-94da-d5909679bdc1","countryId":"country.n7hxdt"},"geometry":{"type":"Polygon","coordinates":[[[2.7176,7.6585],[2.4982,7.6591],[2.4275,7.426],[2.4808,7.2171],[2.5281,7.185],[2.52,6.9932],[2.5279,6.8916],[2.5964,6.6589],[2.7188,6.5043],[2.7311,6.6418],[2.7786,6.6988],[2.7236,6.7997],[2.7151,6.9798],[2.7739,7.0508],[2.7412,7.4082],[2.7923,7.4776],[2.7176,7.6585]]]}},{"type":"Feature","properties":{"sourceId":"1159311481","regionId":"region.360dd40a-b2c7-43fc-b323-2823638b7fcb","countryId":"country.n7hxdt"},"geometry":{"type":"Polygon","coordinates":[[[2.6717,7.8934],[2.735,8.2119],[2.6971,8.3207],[2.7424,8.5275],[2.7229,8.7712],[2.1946,8.7767],[2.2117,8.5031],[2.0603,8.4894],[1.8297,8.6149],[1.6072,8.5886],[1.6404,8.4758],[1.6039,8.3675],[1.6256,8.2705],[1.6229,7.6225],[1.8447,7.6324],[2.0193,7.5416],[2.1776,7.5298],[2.4275,7.426],[2.4982,7.6591],[2.7176,7.6585],[2.7272,7.7933],[2.6717,7.8934]]]}},{"type":"Feature","properties":{"sourceId":"1159311491","regionId":"region.9cfd233b-cdb4-4d41-8357-00ada85fc679","countryId":"country.n7hxdt"},"geometry":{"type":"Polygon","coordinates":[[[2.7119,6.474],[2.7188,6.5043],[2.5964,6.6589],[2.5279,6.8916],[2.52,6.9932],[2.43,6.9908],[2.3849,6.9206],[2.4291,6.8243],[2.4676,6.3958],[2.484,6.3479],[2.7038,6.3684],[2.7119,6.474]]]}},{"type":"Feature","properties":{"sourceId":"1159311499","regionId":"region.2db26802-cc85-46ea-864b-6c6cdff58d24","countryId":"country.n7hxdt"},"geometry":{"type":"Polygon","coordinates":[[[2.0154,11.4316],[1.8798,11.4449],[1.6016,11.3887],[1.5693,11.4533],[1.4232,11.4537],[1.2684,11.2479],[1.1306,11.2476],[1.035,11.0493],[0.9015,10.9927],[0.8629,10.7961],[0.7813,10.693],[0.7688,10.3671],[0.9971,10.2165],[1.331,9.9965],[1.3439,9.9548],[1.6096,9.9469],[1.8079,10.0404],[2.0919,10.0315],[2.1109,10.0855],[2.2676,10.1349],[2.2627,10.2384],[2.1838,10.4306],[2.255,10.5178],[2.2612,10.8425],[2.3562,10.9601],[2.264,11.0121],[2.0154,11.4316]]]}},{"type":"Feature","properties":{"sourceId":"1159311503","regionId":"region.c0df8985-3eec-42cf-914d-efc4aa660376","countryId":"country.n7hxdt"},"geometry":{"type":"Polygon","coordinates":[[[1.3439,9.9548],[1.3513,9.5951],[1.4201,9.2923],[1.5673,9.1367],[1.6012,9.0495],[1.6072,8.5886],[1.8297,8.6149],[2.0603,8.4894],[2.2117,8.5031],[2.1946,8.7767],[2.051,8.8719],[2.0252,8.9395],[2.0508,9.0914],[1.9775,9.164],[1.9755,9.3077],[2.1219,9.3997],[2.1613,9.6565],[2.0806,9.8054],[2.0919,10.0315],[1.8079,10.0404],[1.6096,9.9469],[1.3439,9.9548]]]}},{"type":"Feature","properties":{"sourceId":"1159311493","regionId":"region.f8d90339-ae5b-45b5-b5c2-fad217edb41b","countryId":"country.n7hxdt"},"geometry":{"type":"Polygon","coordinates":[[[1.6233,7.5364],[1.6844,7.492],[1.7553,7.3135],[1.8579,7.1829],[1.8804,7.0927],[2.0005,6.9414],[2.084,6.9193],[2.3849,6.9206],[2.43,6.9908],[2.52,6.9932],[2.5281,7.185],[2.4808,7.2171],[2.4275,7.426],[2.1776,7.5298],[2.0193,7.5416],[1.8447,7.6324],[1.6229,7.6225],[1.6233,7.5364]]]}},{"type":"Feature","properties":{"sourceId":"1159311489","regionId":"region.1f2be9da-c91c-4286-8423-b2a8666ddb39","countryId":"country.n7hxdt"},"geometry":{"type":"Polygon","coordinates":[[[1.6233,7.5364],[1.6257,6.9968],[1.5642,6.9031],[1.5892,6.7205],[1.6868,6.69],[1.8984,6.747],[2.0236,6.7065],[2.084,6.9193],[2.0005,6.9414],[1.8804,7.0927],[1.8579,7.1829],[1.7553,7.3135],[1.6844,7.492],[1.6233,7.5364]]]}},{"type":"Feature","properties":{"sourceId":"1159311497","regionId":"region.c69e2fcb-7814-41cf-920d-ff8c1e58df35","countryId":"country.n7hxdt"},"geometry":{"type":"Polygon","coordinates":[[[1.5892,6.7205],[1.5941,6.611],[1.7441,6.4257],[1.7824,6.2773],[1.6196,6.2139],[1.9877,6.2865],[1.9578,6.3923],[2.0236,6.7065],[1.8984,6.747],[1.6868,6.69],[1.5892,6.7205]]]}},{"type":"Feature","properties":{"sourceId":"1159311485","regionId":"region.fee0284c-a291-4611-9b85-c90ee8bcdc78","countryId":"country.n7hxdt"},"geometry":{"type":"Polygon","coordinates":[[[2.3599,6.3364],[2.4676,6.3958],[2.4291,6.8243],[2.3849,6.9206],[2.084,6.9193],[2.0236,6.7065],[1.9578,6.3923],[1.9877,6.2865],[2.3599,6.3364]]]}},{"type":"Feature","properties":{"sourceId":"1159311487","regionId":"region.e75642a3-d617-4993-ab33-af432dae8602","countryId":"country.n7hxdt"},"geometry":{"type":"Polygon","coordinates":[[[2.484,6.3479],[2.4676,6.3958],[2.3599,6.3364],[2.484,6.3479]]]}}]}