{"type":"FeatureCollection","features":[{"type":"Feature","properties":{"sourceId":"1159311453","regionId":"region.bea09b1c-9695-4aea-839d-dbd9974fb900","countryId":"country.1nz4j7w"},"geometry":{"type":"Polygon","coordinates":[[[-0.1661,11.135],[-0.4059,11.1015],[-0.5165,10.9886],[-0.703,10.9942],[-1.0703,11.0139],[-1.1075,10.9943],[-1.4136,11.014],[-1.4236,11.0179],[-1.4531,10.8519],[-1.5668,10.7248],[-1.5556,10.5885],[-1.3637,10.4569],[-1.3658,10.3906],[-1.2324,10.2986],[-1.214,10.3816],[-1.1241,10.4898],[-1.0193,10.5282],[-0.8531,10.5356],[-0.7919,10.6366],[-0.7154,10.6401],[-0.6359,10.5449],[-0.5128,10.5536],[-0.4002,10.6075],[-0.0916,10.7003],[-0.0321,10.8132],[0.0162,11.0626],[-0.1661,11.135]]]}},{"type":"Feature","properties":{"sourceId":"1159311451","regionId":"region.47d1cd1a-6611-49fb-b4d8-18489fdcba8f","countryId":"country.1nz4j7w"},"geometry":{"type":"Polygon","coordinates":[[[-0.0916,10.7003],[-0.4002,10.6075],[-0.5128,10.5536],[-0.6359,10.5449],[-0.7154,10.6401],[-0.7919,10.6366],[-0.8531,10.5356],[-1.0193,10.5282],[-1.1241,10.4898],[-1.214,10.3816],[-1.2324,10.2986],[-1.3658,10.3906],[-1.4901,10.4262],[-1.6196,10.2788],[-1.6431,10.1603],[-1.5668,10.0934],[-1.6844,10.0129],[-1.6996,9.8808],[-1.7636,9.8338],[-1.941,9.8401],[-2.0712,9.8115],[-2.3297,9.812],[-2.5225,9.7705],[-2.6302,9.6687],[-2.7434,9.6533],[-2.7611,9.5662],[-2.6892,9.4887],[-2.6598,9.2729],[-2.7594,9.1348],[-2.7748,9.055],[-2.6608,9.0149],[-2.6031,8.7852],[-2.4941,8.7126],[-2.3202,8.4503],[-2.285,8.3126],[-2.1309,8.1577],[-1.956,8.1691],[-1.8916,8.2501],[-1.7853,8.2334],[-1.7703,8.3254],[-1.8777,8.3358],[-1.9132,8.4188],[-1.8787,8.5873],[-1.742,8.6177],[-1.6463,8.6779],[-1.541,8.6709],[-1.4685,8.7568],[-1.378,8.7615],[-1.1716,8.6643],[-1.1423,8.5673],[-1.2699,8.3568],[-1.2029,8.2867],[-1.0964,7.9906],[-1.013,8.0133],[-1.0217,8.1429],[-0.8166,8.3185],[-0.6904,8.3165],[-0.4829,8.1473],[-0.3949,8.1393],[-0.3538,8.2037],[-0.2301,8.2079],[-0.0716,8.3352],[0.1031,8.2404],[0.1976,8.254],[0.2081,8.394],[0.1009,8.3878],[0.0932,8.5073],[0.1926,8.7657],[0.3681,8.7615],[0.4836,8.835],[0.4931,8.9152],[0.4313,9.0276],[0.5047,9.1872],[0.5376,9.3776],[0.4304,9.4892],[0.2314,9.419],[0.2302,9.5757],[0.3546,9.5711],[0.3224,9.7607],[0.3946,10.0356],[0.3536,10.1155],[0.3666,10.3045],[0.2831,10.3968],[0.177,10.3977],[0.0203,10.588],[-0.0881,10.6335],[-0.0916,10.7003]]]}},{"type":"Feature","properties":{"sourceId":"1159311471","regionId":"region.e602e568-8d92-46d8-98eb-b82b37a58b3b","countryId":"country.1nz4j7w"},"geometry":{"type":"Polygon","coordinates":[[[0.6027,7.8931],[0.5738,8.2039],[0.7052,8.2828],[0.6163,8.4888],[0.4435,8.6069],[0.3681,8.7615],[0.1926,8.7657],[0.0932,8.5073],[0.1009,8.3878],[0.2081,8.394],[0.1976,8.254],[0.1031,8.2404],[-0.0716,8.3352],[-0.2301,8.2079],[-0.3538,8.2037],[-0.3949,8.1393],[-0.1788,8.0036],[-0.0579,7.7545],[0.0044,7.7345],[0.1049,7.5257],[0.1358,7.4006],[0.2368,7.3426],[0.2236,7.1673],[0.2015,6.9351],[0.1464,6.8562],[0.2105,6.7634],[0.1349,6.6357],[0.2165,6.4082],[0.1735,6.3008],[0.0913,6.2563],[0.0973,6.1382],[0.3171,6.051],[0.32,5.9442],[0.4016,6.0003],[0.561,5.979],[0.6736,5.7591],[0.9144,5.7771],[0.9953,5.8393],[1.0117,5.9263],[1.0988,6.047],[1.1854,6.1005],[0.9073,6.3249],[0.7668,6.4194],[0.7131,6.5339],[0.6267,6.6449],[0.6343,6.7116],[0.5193,6.8322],[0.4946,6.9731],[0.598,7.0312],[0.5977,7.1589],[0.6457,7.3236],[0.5006,7.4551],[0.4994,7.5624],[0.6123,7.6994],[0.6027,7.8931]]]}},{"type":"Feature","properties":{"sourceId":"1159311459","regionId":"region.6e3abc15-e801-44be-b4ff-60a0d6eee4ca","countryId":"country.1nz4j7w"},"geometry":{"type":"Polygon","coordinates":[[[-2.6031,8.7852],[-2.5063,8.2093],[-2.6194,8.1231],[-2.84,7.8202],[-2.9415,7.5772],[-2.9905,7.2707],[-2.9817,7.1955],[-3.0966,7.0545],[-3.0973,7.0541],[-3.0686,6.9591],[-2.8865,6.9053],[-2.8423,6.8062],[-2.8274,6.65],[-2.6356,6.5803],[-2.5212,6.419],[-2.4258,6.3867],[-2.3773,6.5451],[-2.4175,6.6452],[-2.3066,6.7002],[-2.2527,6.8514],[-2.3395,6.8605],[-2.3125,6.9892],[-2.2494,7.0581],[-2.0554,7.0404],[-1.8564,7.2341],[-1.9881,7.3153],[-2.1415,7.3544],[-2.1127,7.4587],[-1.8599,7.4692],[-1.7399,7.3386],[-1.5238,7.4066],[-1.5348,7.4758],[-1.4069,7.6038],[-1.318,7.5706],[-1.2892,7.4693],[-1.0859,7.4835],[-1.0386,7.5394],[-0.7888,7.4956],[-0.6985,7.5407],[-0.5797,7.3901],[-0.2887,7.3021],[-0.2138,7.1928],[0.2236,7.1673],[0.2368,7.3426],[0.1358,7.4006],[0.1049,7.5257],[0.0044,7.7345],[-0.0579,7.7545],[-0.1788,8.0036],[-0.3949,8.1393],[-0.4829,8.1473],[-0.6904,8.3165],[-0.8166,8.3185],[-1.0217,8.1429],[-1.013,8.0133],[-1.0964,7.9906],[-1.2029,8.2867],[-1.2699,8.3568],[-1.1423,8.5673],[-1.1716,8.6643],[-1.378,8.7615],[-1.4685,8.7568],[-1.541,8.6709],[-1.6463,8.6779],[-1.742,8.6177],[-1.8787,8.5873],[-1.9132,8.4188],[-1.8777,8.3358],[-1.7703,8.3254],[-1.7853,8.2334],[-1.8916,8.2501],[-1.956,8.1691],[-2.1309,8.1577],[-2.285,8.3126],[-2.3202,8.4503],[-2.4941,8.7126],[-2.6031,8.7852]]]}},{"type":"Feature","properties":{"sourceId":"1159311467","regionId":"region.4bc800c4-50e4-4e02-8682-68a636350d2d","countryId":"country.1nz4j7w"},"geometry":{"type":"Polygon","coordinates":[[[-3.1717,6.2496],[-3.1181,6.1635],[-3.0878,5.9967],[-3.02,5.8184],[-3.0298,5.7043],[-2.9695,5.6214],[-2.8775,5.6368],[-2.7818,5.5789],[-2.7327,5.3557],[-2.7896,5.3469],[-2.7809,5.1509],[-2.8437,5.1491],[-2.9763,5.0846],[-3.1153,5.1078],[-3.1196,5.0913],[-2.965,5.0453],[-2.6904,5.0102],[-2.3566,4.9196],[-2.0906,4.7371],[-1.9814,4.7524],[-1.9121,4.8209],[-1.7486,4.8772],[-1.5688,5.0193],[-1.5458,5.1772],[-1.4248,5.2484],[-1.6072,5.4498],[-1.6207,5.5921],[-1.8222,5.6689],[-1.794,5.7786],[-1.8502,5.9023],[-1.9124,5.9351],[-2.1678,6.217],[-2.0702,6.2977],[-2.2279,6.3821],[-2.2115,6.4666],[-2.3242,6.5102],[-2.3677,6.3772],[-2.4258,6.3867],[-2.5212,6.419],[-2.6356,6.5803],[-2.8274,6.65],[-2.8423,6.8062],[-2.8865,6.9053],[-3.0686,6.9591],[-3.0973,7.0541],[-3.2249,6.8494],[-3.2104,6.716],[-3.2625,6.6171],[-3.1717,6.2496]]]}},{"type":"Feature","properties":{"sourceId":"1159311455","regionId":"region.e2b70f5f-079d-4ae0-b3a2-ba1a2f4f8458","countryId":"country.1nz4j7w"},"geometry":{"type":"Polygon","coordinates":[[[-1.4236,11.0179],[-1.5987,10.9971],[-2.7288,10.9861],[-2.8642,10.8643],[-2.92,10.7111],[-2.9325,10.6343],[-2.8146,10.3937],[-2.8332,10.306],[-2.7584,10.2661],[-2.7885,10.0924],[-2.7368,9.8326],[-2.7953,9.72],[-2.7434,9.6533],[-2.6302,9.6687],[-2.5225,9.7705],[-2.3297,9.812],[-2.0712,9.8115],[-1.941,9.8401],[-1.7636,9.8338],[-1.6996,9.8808],[-1.6844,10.0129],[-1.5668,10.0934],[-1.6431,10.1603],[-1.6196,10.2788],[-1.4901,10.4262],[-1.3658,10.3906],[-1.3637,10.4569],[-1.5556,10.5885],[-1.5668,10.7248],[-1.4531,10.8519],[-1.4236,11.0179]]]}},{"type":"Feature","properties":{"sourceId":"1159311461","regionId":"region.d701c46e-6b0c-4587-b7e0-bcc43bed9607","countryId":"country.1nz4j7w"},"geometry":{"type":"Polygon","coordinates":[[[-0.3593,5.4987],[-0.3903,5.5874],[-0.5066,5.7259],[-0.7471,5.7341],[-1.1164,5.7784],[-1.2395,5.9153],[-1.4629,5.8857],[-1.5472,5.9224],[-1.6719,5.9133],[-1.8101,6.0204],[-1.9118,6.0138],[-2.0129,6.1282],[-2.0093,6.2768],[-2.0702,6.2977],[-2.1678,6.217],[-1.9124,5.9351],[-1.8502,5.9023],[-1.794,5.7786],[-1.8222,5.6689],[-1.6207,5.5921],[-1.6072,5.4498],[-1.4248,5.2484],[-1.5458,5.1772],[-1.5688,5.0193],[-1.2336,5.1007],[-1.0498,5.1987],[-0.7995,5.2148],[-0.6378,5.3409],[-0.5074,5.3688],[-0.3593,5.4987]]]}},{"type":"Feature","properties":{"sourceId":"1159311469","regionId":"region.57981136-4545-4780-ae3d-e4683c5dccf5","countryId":"country.1nz4j7w"},"geometry":{"type":"Polygon","coordinates":[[[0.6736,5.7591],[0.561,5.979],[0.4016,6.0003],[0.32,5.9442],[0.2425,5.8708],[0.1054,5.9924],[-0.1116,5.8844],[-0.1577,5.7871],[-0.3307,5.7386],[-0.4361,5.7913],[-0.5066,5.7259],[-0.3903,5.5874],[-0.3593,5.4987],[0.0345,5.6284],[0.1574,5.7246],[0.322,5.7792],[0.6736,5.7591]]]}},{"type":"Feature","properties":{"sourceId":"1159311457","regionId":"region.8767f851-9673-4f45-98da-c01d11eeaeb8","countryId":"country.1nz4j7w"},"geometry":{"type":"Polygon","coordinates":[[[-0.2138,7.1928],[-0.2887,7.3021],[-0.5797,7.3901],[-0.6985,7.5407],[-0.7888,7.4956],[-1.0386,7.5394],[-1.0859,7.4835],[-1.2892,7.4693],[-1.318,7.5706],[-1.4069,7.6038],[-1.5348,7.4758],[-1.5238,7.4066],[-1.7399,7.3386],[-1.8599,7.4692],[-2.1127,7.4587],[-2.1415,7.3544],[-1.9881,7.3153],[-1.8564,7.2341],[-2.0554,7.0404],[-2.2494,7.0581],[-2.3125,6.9892],[-2.3395,6.8605],[-2.2527,6.8514],[-2.3066,6.7002],[-2.4175,6.6452],[-2.3773,6.5451],[-2.4258,6.3867],[-2.3677,6.3772],[-2.3242,6.5102],[-2.2115,6.4666],[-2.2279,6.3821],[-2.0702,6.2977],[-2.0093,6.2768],[-2.0129,6.1282],[-1.9118,6.0138],[-1.8101,6.0204],[-1.6719,5.9133],[-1.5472,5.9224],[-1.4629,5.8857],[-1.2395,5.9153],[-1.2435,5.9771],[-1.1142,6.3517],[-0.8908,6.6137],[-0.9477,6.7411],[-0.7929,6.797],[-0.6132,7.047],[-0.4532,7.0623],[-0.2893,7.1762],[-0.2138,7.1928]]]}},{"type":"Feature","properties":{"sourceId":"1159311463","regionId":"region.7f71f7a5-5204-470b-aa8c-4cce8cfff71a","countryId":"country.1nz4j7w"},"geometry":{"type":"Polygon","coordinates":[[[-0.2138,7.1928],[-0.2893,7.1762],[-0.4532,7.0623],[-0.6132,7.047],[-0.7929,6.797],[-0.9477,6.7411],[-0.8908,6.6137],[-1.1142,6.3517],[-1.2435,5.9771],[-1.2395,5.9153],[-1.1164,5.7784],[-0.7471,5.7341],[-0.5066,5.7259],[-0.4361,5.7913],[-0.3307,5.7386],[-0.1577,5.7871],[-0.1116,5.8844],[0.1054,5.9924],[0.2425,5.8708],[0.32,5.9442],[0.3171,6.051],[0.0973,6.1382],[0.0913,6.2563],[0.1735,6.3008],[0.2165,6.4082],[0.1349,6.6357],[0.2105,6.7634],[0.1464,6.8562],[0.2015,6.9351],[0.2236,7.1673],[-0.2138,7.1928]]]}}]}