{"type":"FeatureCollection","features":[{"type":"Feature","properties":{"sourceId":"1159315817","regionId":"region.b994585e-8365-43bc-a5de-5f97e654084d","countryId":"country.z7gp3s"},"geometry":{"type":"Polygon","coordinates":[[[-84.885,10.9477],[-84.6765,11.0704],[-84.2084,10.861],[-84.1577,10.7884],[-84.0227,10.7872],[-83.9333,10.7181],[-83.7638,10.7737],[-83.663,10.807],[-83.6965,10.9366],[-83.7183,10.944],[-83.8956,11.1127],[-84.0096,11.0875],[-84.1744,11.1444],[-84.3276,11.2769],[-84.3775,11.362],[-84.5526,11.4524],[-84.5343,11.6521],[-84.6074,11.8625],[-84.795,11.8678],[-85.1015,11.6315],[-85.341,11.1471],[-85.3002,11.1105],[-84.885,10.9477]]]}},{"type":"Feature","properties":{"sourceId":"1159309037","regionId":"region.22e4edfc-4c0c-42a3-9387-be1c929a632b","countryId":"country.z7gp3s"},"geometry":{"type":"Polygon","coordinates":[[[-84.9999,14.742],[-85.0237,14.6025],[-84.9702,14.477],[-84.9896,14.3734],[-84.838,14.3068],[-84.864,14.0403],[-85.0518,13.7426],[-85.1569,13.7785],[-85.3651,13.6919],[-85.41,13.6116],[-85.4041,13.4893],[-85.5064,13.3706],[-85.4344,13.258],[-85.2418,13.1452],[-85.1687,13.1815],[-85.098,13.2922],[-84.9738,13.2988],[-84.8831,13.3815],[-84.7514,13.2157],[-84.2984,13.2739],[-84.1526,13.2754],[-84.1086,13.1973],[-83.9798,13.2516],[-83.8072,13.2182],[-83.8309,13.1473],[-83.6389,13.0315],[-83.5296,13.0326],[-83.5701,13.2871],[-83.4938,13.7377],[-83.4313,13.9567],[-83.2186,14.2503],[-83.1918,14.3869],[-83.2992,14.7712],[-83.4141,14.8277],[-83.3079,14.9106],[-83.1304,14.997],[-83.262,14.9832],[-83.3903,15.031],[-83.4592,14.9825],[-83.8695,14.7771],[-84.0236,14.7583],[-84.2878,14.6672],[-84.4827,14.6195],[-84.5274,14.6604],[-84.6993,14.6747],[-84.7702,14.8051],[-84.9042,14.817],[-84.9999,14.742]]]}},{"type":"Feature","properties":{"sourceId":"1159309067","regionId":"region.55aee252-7e97-4b53-b1ef-3b669623b345","countryId":"country.z7gp3s"},"geometry":{"type":"Polygon","coordinates":[[[-85.0237,14.6025],[-85.2058,14.4072],[-85.1902,14.3096],[-85.3214,14.2813],[-85.4317,14.1328],[-85.5631,14.042],[-85.6992,13.9615],[-85.7431,13.824],[-85.7831,13.7819],[-85.8313,13.5534],[-85.9201,13.4852],[-86.0597,13.4933],[-86.2129,13.3903],[-86.2479,13.1891],[-86.0995,13.047],[-85.9183,13.0175],[-85.745,13.1622],[-85.605,13.3277],[-85.5064,13.3706],[-85.4041,13.4893],[-85.41,13.6116],[-85.3651,13.6919],[-85.1569,13.7785],[-85.0518,13.7426],[-84.864,14.0403],[-84.838,14.3068],[-84.9896,14.3734],[-84.9702,14.477],[-85.0237,14.6025]]]}},{"type":"Feature","properties":{"sourceId":"1159309085","regionId":"region.5834938e-687e-4c53-a10c-cbd28ad65c40","countryId":"country.z7gp3s"},"geometry":{"type":"Polygon","coordinates":[[[-85.7431,13.824],[-85.8242,13.8477],[-86.0967,14.0441],[-86.2841,13.8457],[-86.4101,13.749],[-86.5417,13.7821],[-86.7272,13.7683],[-86.7712,13.7079],[-86.7641,13.6373],[-86.6483,13.6472],[-86.5053,13.5934],[-86.2269,13.5493],[-86.1644,13.6145],[-86.0597,13.4933],[-85.9201,13.4852],[-85.8313,13.5534],[-85.7831,13.7819],[-85.7431,13.824]]]}},{"type":"Feature","properties":{"sourceId":"1159309077","regionId":"region.fb565632-42d3-47e2-b370-6955931f202a","countryId":"country.z7gp3s"},"geometry":{"type":"Polygon","coordinates":[[[-86.7327,13.2685],[-86.8162,13.2919],[-86.9108,13.2396],[-86.9484,13.0697],[-87.0847,12.9959],[-87.314,12.9816],[-87.435,12.9224],[-87.5839,13.0573],[-87.667,12.9822],[-87.6465,12.8724],[-87.4549,12.7438],[-87.3448,12.6192],[-87.1208,12.4584],[-87.0058,12.4997],[-86.782,12.7521],[-86.67,12.7788],[-86.6639,12.9592],[-86.7207,13.0902],[-86.7149,13.2004],[-86.7327,13.2685]]]}},{"type":"Feature","properties":{"sourceId":"1159309081","regionId":"region.78bc17c6-0317-4dfd-a5fe-815609508b0d","countryId":"country.z7gp3s"},"geometry":{"type":"Polygon","coordinates":[[[-86.7327,13.2685],[-86.7149,13.2004],[-86.5628,13.3968],[-86.3094,13.4355],[-86.2129,13.3903],[-86.0597,13.4933],[-86.1644,13.6145],[-86.2269,13.5493],[-86.5053,13.5934],[-86.6483,13.6472],[-86.7641,13.6373],[-86.7019,13.3142],[-86.7327,13.2685]]]}},{"type":"Feature","properties":{"sourceId":"1159308137","regionId":"region.c6da8e86-9f6f-4bf8-965a-d695277b4f82","countryId":"country.z7gp3s"},"geometry":{"type":"Polygon","coordinates":[[[-85.2365,11.0531],[-84.9314,10.9419],[-84.885,10.9477],[-85.3002,11.1105],[-85.341,11.1471],[-85.1015,11.6315],[-85.5229,11.6805],[-85.8944,11.6821],[-86.1017,11.6108],[-86.1752,11.5195],[-86.1627,11.4845],[-85.928,11.3107],[-85.7858,11.1123],[-85.7017,11.0809],[-85.6312,11.1962],[-85.2365,11.0531]]]}},{"type":"Feature","properties":{"sourceId":"1159308989","regionId":"region.86b8e44e-744a-41cc-9994-93cc99b51a66","countryId":"country.z7gp3s"},"geometry":{"type":"Polygon","coordinates":[[[-83.5296,13.0326],[-83.6389,13.0315],[-83.8309,13.1473],[-83.8072,13.2182],[-83.9798,13.2516],[-84.1086,13.1973],[-84.1526,13.2754],[-84.2984,13.2739],[-84.7514,13.2157],[-84.8009,13.1472],[-84.7273,13.0573],[-84.7482,12.9503],[-84.84,12.9413],[-84.9582,12.8507],[-85.1313,12.8608],[-85.2268,12.7787],[-85.1792,12.6602],[-85.1177,12.7762],[-84.9982,12.7307],[-84.9685,12.6495],[-84.8453,12.4708],[-84.8522,12.3899],[-84.7842,12.2803],[-84.7727,12.15],[-84.7024,11.9827],[-84.5746,11.9225],[-84.6074,11.8625],[-84.5343,11.6521],[-84.5526,11.4524],[-84.3775,11.362],[-84.3276,11.2769],[-84.1744,11.1444],[-84.0096,11.0875],[-83.8956,11.1127],[-83.7183,10.944],[-83.8373,11.1425],[-83.868,11.3749],[-83.7944,11.444],[-83.7611,11.5571],[-83.653,11.6115],[-83.6999,11.8499],[-83.8361,11.8712],[-83.7132,12.0493],[-83.6637,12.2561],[-83.7672,12.5467],[-83.5891,12.6321],[-83.6459,12.7869],[-83.5447,12.7968],[-83.5638,12.5909],[-83.6238,12.5707],[-83.6034,12.4137],[-83.4923,12.4003],[-83.5413,12.5806],[-83.5077,12.9028],[-83.5296,13.0326]]]}},{"type":"Feature","properties":{"sourceId":"1159309069","regionId":"region.cb81ebf8-52a4-45a7-88ea-bf97211fc521","countryId":"country.z7gp3s"},"geometry":{"type":"Polygon","coordinates":[[[-86.6707,12.0005],[-86.6508,12.0753],[-86.5183,12.1311],[-86.5248,12.2897],[-86.3468,12.4691],[-86.3537,12.5824],[-86.2888,12.6365],[-86.2639,12.8485],[-86.42,12.8998],[-86.4117,13.0318],[-86.4912,13.1215],[-86.7207,13.0902],[-86.6639,12.9592],[-86.67,12.7788],[-86.782,12.7521],[-87.0058,12.4997],[-87.1208,12.4584],[-87.0714,12.3887],[-86.7975,12.2185],[-86.6707,12.0005]]]}},{"type":"Feature","properties":{"sourceId":"1159309073","regionId":"region.bfa8f6d1-d741-4c69-9cdc-9783fa200ce2","countryId":"country.z7gp3s"},"geometry":{"type":"Polygon","coordinates":[[[-86.5023,11.7668],[-86.2814,11.957],[-86.1943,11.9618],[-86.1879,12.0591],[-86.109,12.1313],[-86.0005,12.1438],[-85.8515,12.1988],[-85.8302,12.2601],[-85.9176,12.3411],[-85.9723,12.5221],[-86.1011,12.5941],[-86.2888,12.6365],[-86.3537,12.5824],[-86.3468,12.4691],[-86.5248,12.2897],[-86.5183,12.1311],[-86.6508,12.0753],[-86.6707,12.0005],[-86.5023,11.7668]]]}},{"type":"Feature","properties":{"sourceId":"1159309063","regionId":"region.c9583969-fe99-4be7-bbc5-24e41dbbff81","countryId":"country.z7gp3s"},"geometry":{"type":"Polygon","coordinates":[[[-86.1752,11.5195],[-86.1017,11.6108],[-86.1191,11.6872],[-86.0725,11.8562],[-86.2814,11.957],[-86.5023,11.7668],[-86.3365,11.6114],[-86.1752,11.5195]]]}},{"type":"Feature","properties":{"sourceId":"1159309083","regionId":"region.e76560f9-b196-402b-a64d-dfbe0a0d0ff1","countryId":"country.z7gp3s"},"geometry":{"type":"Polygon","coordinates":[[[-85.9723,12.5221],[-85.8557,12.623],[-85.5529,12.6746],[-85.4076,12.7433],[-85.2608,12.6618],[-85.1792,12.6602],[-85.2268,12.7787],[-85.1313,12.8608],[-84.9582,12.8507],[-84.84,12.9413],[-84.7482,12.9503],[-84.7273,13.0573],[-84.8009,13.1472],[-84.7514,13.2157],[-84.8831,13.3815],[-84.9738,13.2988],[-85.098,13.2922],[-85.1687,13.1815],[-85.2418,13.1452],[-85.4344,13.258],[-85.5064,13.3706],[-85.605,13.3277],[-85.745,13.1622],[-85.9183,13.0175],[-86.0995,13.047],[-86.2639,12.8485],[-86.2888,12.6365],[-86.1011,12.5941],[-85.9723,12.5221]]]}},{"type":"Feature","properties":{"sourceId":"1159309087","regionId":"region.72a441f5-dadc-4ae4-ae5b-aa6f97caabe3","countryId":"country.z7gp3s"},"geometry":{"type":"Polygon","coordinates":[[[-85.1792,12.6602],[-85.2608,12.6618],[-85.4076,12.7433],[-85.5529,12.6746],[-85.8557,12.623],[-85.9723,12.5221],[-85.9176,12.3411],[-85.8302,12.2601],[-85.8515,12.1988],[-85.7315,12.0413],[-85.6567,12.0465],[-85.5863,12.3047],[-85.5085,12.3455],[-85.275,12.3574],[-85.078,12.4409],[-84.9685,12.6495],[-84.9982,12.7307],[-85.1177,12.7762],[-85.1792,12.6602]]]}},{"type":"Feature","properties":{"sourceId":"1159309091","regionId":"region.ce37945e-9f1e-4e2d-b982-c90f45e81fa1","countryId":"country.z7gp3s"},"geometry":{"type":"Polygon","coordinates":[[[-84.9685,12.6495],[-85.078,12.4409],[-85.275,12.3574],[-85.5085,12.3455],[-85.5863,12.3047],[-85.6567,12.0465],[-85.5229,11.6805],[-85.1015,11.6315],[-84.795,11.8678],[-84.6074,11.8625],[-84.5746,11.9225],[-84.7024,11.9827],[-84.7727,12.15],[-84.7842,12.2803],[-84.8522,12.3899],[-84.8453,12.4708],[-84.9685,12.6495]]]}},{"type":"Feature","properties":{"sourceId":"1159309079","regionId":"region.1bb9534f-4d7e-4b63-9f27-95e198bfc730","countryId":"country.z7gp3s"},"geometry":{"type":"Polygon","coordinates":[[[-86.0995,13.047],[-86.2479,13.1891],[-86.2129,13.3903],[-86.3094,13.4355],[-86.5628,13.3968],[-86.7149,13.2004],[-86.7207,13.0902],[-86.4912,13.1215],[-86.4117,13.0318],[-86.42,12.8998],[-86.2639,12.8485],[-86.0995,13.047]]]}},{"type":"Feature","properties":{"sourceId":"1159309065","regionId":"region.35a3f38e-1e3f-485f-9b3f-c3023b7c29c8","countryId":"country.z7gp3s"},"geometry":{"type":"Polygon","coordinates":[[[-85.8515,12.1988],[-86.0005,12.1438],[-85.964,12.0914],[-86.0725,11.8562],[-86.1191,11.6872],[-86.1017,11.6108],[-85.8944,11.6821],[-85.5229,11.6805],[-85.6567,12.0465],[-85.7315,12.0413],[-85.8515,12.1988]]]}},{"type":"Feature","properties":{"sourceId":"1159309075","regionId":"region.59565f2e-a051-4675-8789-d67954f7f5be","countryId":"country.z7gp3s"},"geometry":{"type":"Polygon","coordinates":[[[-86.0005,12.1438],[-86.109,12.1313],[-86.1879,12.0591],[-86.1943,11.9618],[-86.2814,11.957],[-86.0725,11.8562],[-85.964,12.0914],[-86.0005,12.1438]]]}}]}