{"type":"FeatureCollection","features":[{"type":"Feature","properties":{"sourceId":"1159317925","regionId":"region.7f753ada-83b3-4bf7-a39c-7fb9905ca486","countryId":"country.xso2dg"},"geometry":{"type":"Polygon","coordinates":[[[20.065,42.5468],[20.1527,42.4934],[20.3059,42.4376],[20.4393,42.5402],[20.1039,42.6531],[20.065,42.5468]]]}},{"type":"Feature","properties":{"sourceId":"1159317929","regionId":"region.ea52c1f2-a909-44fa-99c4-e677e5fe7ef4","countryId":"country.xso2dg"},"geometry":{"type":"Polygon","coordinates":[[[20.1527,42.4934],[20.2496,42.3186],[20.4737,42.2371],[20.5807,42.297],[20.5094,42.3782],[20.541,42.5021],[20.5034,42.5248],[20.4393,42.5402],[20.3059,42.4376],[20.1527,42.4934]]]}},{"type":"Feature","properties":{"sourceId":"1159317915","regionId":"region.5d3ac19c-f0ad-4139-b35d-cadaf524124e","countryId":"country.xso2dg"},"geometry":{"type":"Polygon","coordinates":[[[20.5671,41.8732],[20.7144,41.8592],[20.7511,41.9102],[20.7514,41.9403],[20.7849,42.082],[20.6136,42.1248],[20.5522,42.0738],[20.5993,41.9479],[20.5671,41.8732]]]}},{"type":"Feature","properties":{"sourceId":"1159309481","regionId":"region.891ecdd6-4a45-41ff-9581-49b6566901bd","countryId":"country.xso2dg"},"geometry":{"type":"Polygon","coordinates":[[[20.5522,42.0738],[20.6136,42.1248],[20.7849,42.082],[20.9042,42.1167],[20.9751,42.1347],[20.856,42.2325],[20.7059,42.3274],[20.5807,42.297],[20.4737,42.2371],[20.5522,42.0738]]]}},{"type":"Feature","properties":{"sourceId":"1159309479","regionId":"region.ef9e5351-6e16-486e-88c6-af138c30de0d","countryId":"country.xso2dg"},"geometry":{"type":"Polygon","coordinates":[[[21.4815,42.2478],[21.5641,42.2463],[21.5149,42.3178],[21.619,42.4492],[21.4649,42.5582],[21.2934,42.5566],[21.2496,42.4479],[21.2752,42.4017],[21.4419,42.3582],[21.4815,42.2478]]]}},{"type":"Feature","properties":{"sourceId":"1159317907","regionId":"region.129b4223-00bf-4117-8166-472cfaa65faa","countryId":"country.xso2dg"},"geometry":{"type":"Polygon","coordinates":[[[21.4815,42.2478],[21.4419,42.3582],[21.2752,42.4017],[21.2444,42.3171],[21.3606,42.2201],[21.472,42.2391],[21.4815,42.2478]]]}},{"type":"Feature","properties":{"sourceId":"1159317939","regionId":"region.e74509ed-f416-467d-ae67-cb7a4396dc5e","countryId":"country.xso2dg"},"geometry":{"type":"Polygon","coordinates":[[[21.3606,42.2201],[21.2444,42.3171],[21.1111,42.2761],[21.0985,42.196],[21.2293,42.1038],[21.2457,42.0962],[21.3008,42.0984],[21.3606,42.2201]]]}},{"type":"Feature","properties":{"sourceId":"1159317937","regionId":"region.1fca8fe1-c800-449f-b431-8f6384dc3016","countryId":"country.xso2dg"},"geometry":{"type":"Polygon","coordinates":[[[21.0985,42.196],[21.1111,42.2761],[20.9657,42.2918],[20.856,42.2325],[20.9751,42.1347],[21.0409,42.16],[21.0985,42.196]]]}},{"type":"Feature","properties":{"sourceId":"1159317885","regionId":"region.51996652-6b5e-48cf-974f-51eff6fadb04","countryId":"country.xso2dg"},"geometry":{"type":"Polygon","coordinates":[[[20.8097,43.2596],[20.5975,43.185],[20.6438,43.0523],[20.8136,42.971],[20.9958,43.0544],[20.9934,43.1041],[20.9125,43.1388],[20.8097,43.2596]]]}},{"type":"Feature","properties":{"sourceId":"1159317901","regionId":"region.c739fcad-8827-4f47-afcd-8c8ed9697b3d","countryId":"country.xso2dg"},"geometry":{"type":"Polygon","coordinates":[[[20.9934,43.1041],[20.9958,43.0544],[21.0557,42.9227],[21.0974,42.7947],[21.1111,42.7633],[21.3034,42.8043],[21.3871,42.755],[21.4084,42.8417],[21.2324,42.9109],[21.0926,43.0907],[20.9934,43.1041]]]}},{"type":"Feature","properties":{"sourceId":"1159317895","regionId":"region.87b86bc7-b9b4-4abf-86a1-e9d9309327a8","countryId":"country.xso2dg"},"geometry":{"type":"Polygon","coordinates":[[[20.6173,43.0221],[20.4764,42.9664],[20.4944,42.8875],[20.6307,42.8231],[20.7444,42.83],[20.7906,42.8966],[20.6173,43.0221]]]}},{"type":"Feature","properties":{"sourceId":"1159309483","regionId":"region.3c2096c3-cfc3-4903-a910-23370a8828ce","countryId":"country.xso2dg"},"geometry":{"type":"Polygon","coordinates":[[[20.6173,43.0221],[20.7906,42.8966],[20.8136,42.971],[20.6438,43.0523],[20.6173,43.0221]]]}},{"type":"Feature","properties":{"sourceId":"1159317921","regionId":"region.31fba001-e40b-4fb8-96df-02b00c121b1d","countryId":"country.xso2dg"},"geometry":{"type":"Polygon","coordinates":[[[20.3454,42.8274],[20.3192,42.8241],[20.3316,42.7223],[20.4572,42.6684],[20.6237,42.6972],[20.6307,42.8231],[20.4944,42.8875],[20.3454,42.8274]]]}},{"type":"Feature","properties":{"sourceId":"1159317903","regionId":"region.e968d1d5-8e57-49ec-8a68-0974faf747ef","countryId":"country.xso2dg"},"geometry":{"type":"Polygon","coordinates":[[[21.3871,42.755],[21.3034,42.8043],[21.1111,42.7633],[21.1008,42.653],[21.0829,42.5735],[21.3265,42.5814],[21.4239,42.6171],[21.4795,42.7323],[21.3871,42.755]]]}},{"type":"Feature","properties":{"sourceId":"1159317913","regionId":"region.c9457d7e-bc71-40b3-a295-85b7118f46a5","countryId":"country.xso2dg"},"geometry":{"type":"Polygon","coordinates":[[[21.4795,42.7323],[21.4239,42.6171],[21.4649,42.5582],[21.619,42.4492],[21.7177,42.5512],[21.7443,42.6794],[21.4795,42.7323]]]}},{"type":"Feature","properties":{"sourceId":"1159309477","regionId":"region.eacc890d-ea3b-4410-aa1d-967d5b50c8f7","countryId":"country.xso2dg"},"geometry":{"type":"Polygon","coordinates":[[[20.3192,42.8241],[20.1834,42.7425],[20.0556,42.7639],[20.037,42.7074],[20.1039,42.6531],[20.4393,42.5402],[20.5034,42.5248],[20.4572,42.6684],[20.3316,42.7223],[20.3192,42.8241]]]}},{"type":"Feature","properties":{"sourceId":"1159317931","regionId":"region.a1d48fa6-56a5-40c8-97e7-2945e89829c9","countryId":"country.xso2dg"},"geometry":{"type":"Polygon","coordinates":[[[20.5807,42.297],[20.7059,42.3274],[20.7162,42.3812],[20.647,42.4761],[20.541,42.5021],[20.5094,42.3782],[20.5807,42.297]]]}},{"type":"Feature","properties":{"sourceId":"1159317893","regionId":"region.26e952a1-031e-483e-9be7-c49dd5678aad","countryId":"country.xso2dg"},"geometry":{"type":"Polygon","coordinates":[[[20.6237,42.6972],[20.7592,42.6094],[20.8221,42.6972],[20.9259,42.7108],[20.8342,42.8069],[20.7444,42.83],[20.6307,42.8231],[20.6237,42.6972]]]}},{"type":"Feature","properties":{"sourceId":"1159317923","regionId":"region.527ce13e-880f-4fb4-a953-838bb4573c7d","countryId":"country.xso2dg"},"geometry":{"type":"Polygon","coordinates":[[[20.6237,42.6972],[20.4572,42.6684],[20.5034,42.5248],[20.541,42.5021],[20.7592,42.6094],[20.6237,42.6972]]]}},{"type":"Feature","properties":{"sourceId":"1159317887","regionId":"region.6518c1d9-b253-4276-8e6e-11b29ad3c888","countryId":"country.xso2dg"},"geometry":{"type":"Polygon","coordinates":[[[20.9958,43.0544],[20.8136,42.971],[20.7906,42.8966],[20.7444,42.83],[20.8342,42.8069],[20.9726,42.9325],[21.0557,42.9227],[20.9958,43.0544]]]}},{"type":"Feature","properties":{"sourceId":"1159317897","regionId":"region.e678ced2-1cc9-4e11-ac6a-0ce1644f9ca1","countryId":"country.xso2dg"},"geometry":{"type":"Polygon","coordinates":[[[20.7592,42.6094],[20.8602,42.4971],[20.9752,42.5659],[20.9701,42.6248],[20.9707,42.6844],[20.9259,42.7108],[20.8221,42.6972],[20.7592,42.6094]]]}},{"type":"Feature","properties":{"sourceId":"1159317919","regionId":"region.6bc338a1-85b0-4bc8-92c1-fbc4e15d9356","countryId":"country.xso2dg"},"geometry":{"type":"Polygon","coordinates":[[[20.7592,42.6094],[20.541,42.5021],[20.647,42.4761],[20.7162,42.3812],[20.8521,42.4735],[20.8602,42.4971],[20.7592,42.6094]]]}},{"type":"Feature","properties":{"sourceId":"1159317917","regionId":"region.f25a428e-5cab-4ca1-a86f-2c4908696f9c","countryId":"country.xso2dg"},"geometry":{"type":"Polygon","coordinates":[[[20.7059,42.3274],[20.856,42.2325],[20.9657,42.2918],[20.947,42.3556],[20.8931,42.453],[20.8521,42.4735],[20.7162,42.3812],[20.7059,42.3274]]]}},{"type":"Feature","properties":{"sourceId":"1159317935","regionId":"region.92045fbd-ac19-4a19-a7fa-c335ccef940d","countryId":"country.xso2dg"},"geometry":{"type":"Polygon","coordinates":[[[21.1111,42.2761],[21.2444,42.3171],[21.2752,42.4017],[21.2496,42.4479],[21.0957,42.4505],[20.947,42.3556],[20.9657,42.2918],[21.1111,42.2761]]]}},{"type":"Feature","properties":{"sourceId":"1159317911","regionId":"region.b04892cc-c1cb-4c7a-95be-dff368830b9d","countryId":"country.xso2dg"},"geometry":{"type":"Polygon","coordinates":[[[21.2934,42.5566],[21.4649,42.5582],[21.4239,42.6171],[21.3265,42.5814],[21.2934,42.5566]]]}},{"type":"Feature","properties":{"sourceId":"1159317899","regionId":"region.2c2bb59e-49c5-4f5f-b0be-d7dd2572a4c0","countryId":"country.xso2dg"},"geometry":{"type":"Polygon","coordinates":[[[21.0974,42.7947],[20.9707,42.6844],[20.9701,42.6248],[21.1008,42.653],[21.1111,42.7633],[21.0974,42.7947]]]}},{"type":"Feature","properties":{"sourceId":"1159309487","regionId":"region.e519ff29-582f-4dfa-b2e6-d3c12ab4754d","countryId":"country.xso2dg"},"geometry":{"type":"Polygon","coordinates":[[[21.1008,42.653],[20.9701,42.6248],[20.9752,42.5659],[21.0829,42.5735],[21.1008,42.653]]]}},{"type":"Feature","properties":{"sourceId":"1159317905","regionId":"region.e4d106f9-8a00-491b-87b0-780c1c769314","countryId":"country.xso2dg"},"geometry":{"type":"Polygon","coordinates":[[[20.8602,42.4971],[20.8521,42.4735],[20.8931,42.453],[21.0957,42.4505],[21.2496,42.4479],[21.2934,42.5566],[21.3265,42.5814],[21.0829,42.5735],[20.9752,42.5659],[20.8602,42.4971]]]}},{"type":"Feature","properties":{"sourceId":"1159317933","regionId":"region.066f84d9-f7a6-4c4a-a32f-6615269a7ac2","countryId":"country.xso2dg"},"geometry":{"type":"Polygon","coordinates":[[[21.0957,42.4505],[20.8931,42.453],[20.947,42.3556],[21.0957,42.4505]]]}},{"type":"Feature","properties":{"sourceId":"1159317889","regionId":"region.ee735e2e-0f9b-4be3-9695-fa91ae7149cc","countryId":"country.xso2dg"},"geometry":{"type":"Polygon","coordinates":[[[21.0557,42.9227],[20.9726,42.9325],[20.8342,42.8069],[20.9259,42.7108],[20.9707,42.6844],[21.0974,42.7947],[21.0557,42.9227]]]}}]}