{"type":"FeatureCollection","features":[{"type":"Feature","properties":{"sourceId":"1159310321","regionId":"region.91ee4018-4158-4359-8cff-6cbdcf2d0be4","countryId":"country.1r1l1cm"},"geometry":{"type":"Polygon","coordinates":[[[-71.7574,19.7101],[-71.9689,19.7323],[-72.0479,19.712],[-72.1107,19.5661],[-71.9789,19.3358],[-71.8876,19.2849],[-71.7495,19.2797],[-71.7039,19.4146],[-71.746,19.649],[-71.7574,19.7101]]]}},{"type":"Feature","properties":{"sourceId":"1159310319","regionId":"region.3d238e77-f017-47dc-884b-8ee7d8b064e3","countryId":"country.1r1l1cm"},"geometry":{"type":"Polygon","coordinates":[[[-71.7495,19.2797],[-71.8876,19.2849],[-71.9789,19.3358],[-72.1201,19.2601],[-72.2001,19.3019],[-72.2459,19.2409],[-72.2299,18.9406],[-72.271,18.8644],[-72.3652,18.867],[-72.1821,18.73],[-72.1059,18.7051],[-71.9462,18.7435],[-71.7918,18.6807],[-71.7849,18.6847],[-71.7188,18.7842],[-71.7837,18.9963],[-71.6437,19.1525],[-71.6517,19.2179],[-71.7495,19.2797]]]}},{"type":"Feature","properties":{"sourceId":"1159310299","regionId":"region.93958e4d-42e4-4c51-9724-71138bc366a3","countryId":"country.1r1l1cm"},"geometry":{"type":"MultiPolygon","coordinates":[[[[-71.7918,18.6807],[-71.9462,18.7435],[-72.1059,18.7051],[-72.1821,18.73],[-72.3652,18.867],[-72.4877,18.9589],[-72.706,18.9442],[-72.5495,18.7856],[-72.3251,18.6714],[-72.3538,18.5301],[-72.6283,18.5541],[-72.755,18.4294],[-72.9856,18.4704],[-73.0559,18.4585],[-72.9977,18.3228],[-72.9713,18.2826],[-72.765,18.2653],[-72.4903,18.4015],[-72.3541,18.3493],[-72.1861,18.3496],[-72.0127,18.314],[-71.7211,18.294],[-71.9122,18.4307],[-72.0009,18.5825],[-71.8416,18.618],[-71.7918,18.6807]]],[[[-73.2587,18.8785],[-73.0374,18.7596],[-72.8087,18.7204],[-72.8461,18.8271],[-73.2008,18.9687],[-73.2587,18.8785]]]]}},{"type":"Feature","properties":{"sourceId":"1159310325","regionId":"region.add323e8-767e-42c7-95b5-2a5a72ff24e0","countryId":"country.1r1l1cm"},"geometry":{"type":"Polygon","coordinates":[[[-71.7211,18.294],[-72.0127,18.314],[-72.1861,18.3496],[-72.3541,18.3493],[-72.4903,18.4015],[-72.765,18.2653],[-72.9713,18.2826],[-72.9977,18.3228],[-73.0125,18.2209],[-73.008,18.1811],[-72.8859,18.1414],[-72.4403,18.2239],[-72.0718,18.2375],[-71.9281,18.1838],[-71.7762,18.0393],[-71.7753,18.1723],[-71.7217,18.293],[-71.7211,18.294]]]}},{"type":"Feature","properties":{"sourceId":"1159310255","regionId":"region.c06560a4-823a-4a94-bce9-9f0393f96591","countryId":"country.1r1l1cm"},"geometry":{"type":"Polygon","coordinates":[[[-73.008,18.1811],[-73.0125,18.2209],[-73.1159,18.3551],[-73.3193,18.3666],[-73.5134,18.334],[-73.5994,18.427],[-73.784,18.4247],[-73.9063,18.3638],[-74.0853,18.4036],[-74.4526,18.361],[-74.3309,18.286],[-74.1834,18.2933],[-73.9678,18.1414],[-73.8733,18.0262],[-73.8093,18.1592],[-73.6542,18.2527],[-73.5781,18.2169],[-73.3773,18.2581],[-73.1256,18.1898],[-73.008,18.1811]]]}},{"type":"Feature","properties":{"sourceId":"1159310297","regionId":"region.be7b6fd2-e798-449c-b28c-85ac51331b47","countryId":"country.1r1l1cm"},"geometry":{"type":"Polygon","coordinates":[[[-74.4526,18.361],[-74.0853,18.4036],[-73.9063,18.3638],[-73.784,18.4247],[-73.7394,18.5438],[-73.8097,18.5428],[-74.16,18.6592],[-74.2559,18.6703],[-74.4263,18.6082],[-74.4892,18.4294],[-74.4526,18.361]]]}},{"type":"Feature","properties":{"sourceId":"1159310329","regionId":"region.05cfc009-dee0-4ba0-9a1d-f977f8605164","countryId":"country.1r1l1cm"},"geometry":{"type":"Polygon","coordinates":[[[-73.1208,19.6291],[-73.0668,19.7333],[-72.9058,19.717],[-72.6756,19.8068],[-72.5652,19.8757],[-72.776,19.9439],[-72.9779,19.9123],[-73.1437,19.9203],[-73.3446,19.8341],[-73.4681,19.7248],[-73.4095,19.636],[-73.1208,19.6291]]]}},{"type":"Feature","properties":{"sourceId":"1159310323","regionId":"region.ef0411fd-10c9-47a5-945f-7622bd594280","countryId":"country.1r1l1cm"},"geometry":{"type":"Polygon","coordinates":[[[-72.5652,19.8757],[-72.6756,19.8068],[-72.5979,19.7332],[-72.5403,19.5919],[-72.2436,19.4491],[-72.2001,19.3019],[-72.1201,19.2601],[-71.9789,19.3358],[-72.1107,19.5661],[-72.0479,19.712],[-72.1409,19.7475],[-72.3304,19.7521],[-72.5652,19.8757]]]}},{"type":"Feature","properties":{"sourceId":"1159310317","regionId":"region.0edc8b7c-d94c-4085-935b-d00fce543da0","countryId":"country.1r1l1cm"},"geometry":{"type":"Polygon","coordinates":[[[-72.706,18.9442],[-72.4877,18.9589],[-72.3652,18.867],[-72.271,18.8644],[-72.2299,18.9406],[-72.2459,19.2409],[-72.2001,19.3019],[-72.2436,19.4491],[-72.5403,19.5919],[-72.5979,19.7332],[-72.6756,19.8068],[-72.9058,19.717],[-73.0668,19.7333],[-73.1208,19.6291],[-72.8148,19.5048],[-72.7283,19.4256],[-72.8034,19.2319],[-72.7165,19.1039],[-72.8135,19.0529],[-72.706,18.9442]]]}},{"type":"Feature","properties":{"sourceId":"1159310327","regionId":"region.da1b3828-1a4f-46c8-88b4-22ea4ac1980a","countryId":"country.1r1l1cm"},"geometry":{"type":"Polygon","coordinates":[[[-73.7394,18.5438],[-73.784,18.4247],[-73.5994,18.427],[-73.5134,18.334],[-73.3193,18.3666],[-73.1159,18.3551],[-73.0125,18.2209],[-72.9977,18.3228],[-73.0559,18.4585],[-73.5267,18.5235],[-73.6047,18.4983],[-73.7394,18.5438]]]}}]}