{"type":"FeatureCollection","features":[{"type":"Feature","properties":{"sourceId":"1159316449","regionId":"region.b84d8e2e-d694-4989-8cab-a88448e797f5","countryId":"country.c826fd7f-d7a1-43da-96df-b6d4569ef38a"},"geometry":{"type":"Polygon","coordinates":[[[-63.0135,18.272],[-62.9952,18.2562],[-62.9948,18.2345],[-62.9945,18.2749],[-63,18.2673],[-63.0074,18.273],[-63.0135,18.272]]]}},{"type":"Feature","properties":{"sourceId":"1159316471","regionId":"region.03b45841-9321-498f-b657-e36832257938","countryId":"country.c826fd7f-d7a1-43da-96df-b6d4569ef38a"},"geometry":{"type":"Polygon","coordinates":[[[-63.0229,18.2704],[-63.0481,18.2354],[-63.0441,18.2323],[-63.0293,18.2352],[-62.9952,18.2562],[-63.0135,18.272],[-63.0229,18.2704]]]}},{"type":"Feature","properties":{"sourceId":"1159316455","regionId":"region.0d517464-c1fb-4fbf-98be-e924aadee9ca","countryId":"country.c826fd7f-d7a1-43da-96df-b6d4569ef38a"},"geometry":{"type":"Polygon","coordinates":[[[-63.0612,18.2458],[-63.0481,18.2354],[-63.0229,18.2704],[-63.0612,18.2458]]]}},{"type":"Feature","properties":{"sourceId":"1159316473","regionId":"region.653932f8-9caf-4c49-b193-a9dffc30ace6","countryId":"country.c826fd7f-d7a1-43da-96df-b6d4569ef38a"},"geometry":{"type":"Polygon","coordinates":[[[-63.0727,18.2313],[-63.047,18.2267],[-63.0441,18.2323],[-63.0481,18.2354],[-63.0612,18.2458],[-63.0727,18.2313]]]}},{"type":"Feature","properties":{"sourceId":"1159316463","regionId":"region.265a77ee-2e9e-466d-8e27-e9853f0c4cf2","countryId":"country.c826fd7f-d7a1-43da-96df-b6d4569ef38a"},"geometry":{"type":"Polygon","coordinates":[[[-63.0779,18.226],[-63.0758,18.2163],[-63.0613,18.2192],[-63.047,18.2267],[-63.0727,18.2313],[-63.0779,18.226]]]}},{"type":"Feature","properties":{"sourceId":"1159316477","regionId":"region.ed3e0087-002b-4789-9135-4709ae81d8dd","countryId":"country.c826fd7f-d7a1-43da-96df-b6d4569ef38a"},"geometry":{"type":"Polygon","coordinates":[[[-63.0972,18.2125],[-63.0758,18.2163],[-63.0779,18.226],[-63.0972,18.2125]]]}},{"type":"Feature","properties":{"sourceId":"1159316457","regionId":"region.f857164b-cc28-4764-a370-9e444ed14287","countryId":"country.c826fd7f-d7a1-43da-96df-b6d4569ef38a"},"geometry":{"type":"Polygon","coordinates":[[[-63.1228,18.2081],[-63.1226,18.1836],[-63.1138,18.1898],[-63.0726,18.2121],[-63.0613,18.2192],[-63.0758,18.2163],[-63.0972,18.2125],[-63.1228,18.2081]]]}},{"type":"Feature","properties":{"sourceId":"1159315555","regionId":"region.db2fa8ef-42d5-4a8b-abab-843ff9d786df","countryId":"country.c826fd7f-d7a1-43da-96df-b6d4569ef38a"},"geometry":{"type":"Polygon","coordinates":[[[-63.1226,18.1836],[-63.1228,18.2081],[-63.1421,18.1981],[-63.1505,18.1691],[-63.1226,18.1836]]]}},{"type":"Feature","properties":{"sourceId":"1159316459","regionId":"region.fe245e05-8094-4f8f-b5ff-fb8a8dfa18ae","countryId":"country.c826fd7f-d7a1-43da-96df-b6d4569ef38a"},"geometry":{"type":"Polygon","coordinates":[[[-63.0614,18.1989],[-63.0613,18.2125],[-63.0726,18.2121],[-63.1138,18.1898],[-63.0614,18.1989]]]}},{"type":"Feature","properties":{"sourceId":"1159316475","regionId":"region.9c3f4110-0011-4d0b-b5b3-feb7c9025c5e","countryId":"country.c826fd7f-d7a1-43da-96df-b6d4569ef38a"},"geometry":{"type":"Polygon","coordinates":[[[-63.0304,18.215],[-63.0342,18.2279],[-63.047,18.2267],[-63.0613,18.2192],[-63.0613,18.2125],[-63.0614,18.1989],[-63.0304,18.215]]]}},{"type":"Feature","properties":{"sourceId":"1159316465","regionId":"region.b226afb0-cd2f-4e98-8a2b-1f52ab066901","countryId":"country.c826fd7f-d7a1-43da-96df-b6d4569ef38a"},"geometry":{"type":"Polygon","coordinates":[[[-62.9948,18.2345],[-62.9952,18.2562],[-63.0293,18.2352],[-63.0342,18.2279],[-63.0304,18.215],[-62.9948,18.2345]]]}},{"type":"Feature","properties":{"sourceId":"1159316453","regionId":"region.416f34d1-e595-462c-9f80-9ff13aaec3cb","countryId":"country.c826fd7f-d7a1-43da-96df-b6d4569ef38a"},"geometry":{"type":"Polygon","coordinates":[[[-63.0074,18.273],[-63,18.2673],[-62.9945,18.2749],[-63.0074,18.273]]]}},{"type":"Feature","properties":{"sourceId":"1159315561","regionId":"region.d13d78e6-5ef2-4006-9862-8b50aed69161","countryId":"country.c826fd7f-d7a1-43da-96df-b6d4569ef38a"},"geometry":{"type":"Polygon","coordinates":[[[-63.252,18.273],[-63.2456,18.2832],[-63.2536,18.2868],[-63.2626,18.282],[-63.252,18.273]]]}},{"type":"Feature","properties":{"sourceId":"1159316461","regionId":"region.1da7fab1-daca-427a-b11b-9eb74e9e9934","countryId":"country.c826fd7f-d7a1-43da-96df-b6d4569ef38a"},"geometry":{"type":"Polygon","coordinates":[[[-63.0726,18.2121],[-63.0613,18.2125],[-63.0613,18.2192],[-63.0726,18.2121]]]}},{"type":"Feature","properties":{"sourceId":"1159316467","regionId":"region.4a93234b-a23b-4478-a21a-bdd1a7a435bc","countryId":"country.c826fd7f-d7a1-43da-96df-b6d4569ef38a"},"geometry":{"type":"Polygon","coordinates":[[[-63.0342,18.2279],[-63.0293,18.2352],[-63.0441,18.2323],[-63.047,18.2267],[-63.0342,18.2279]]]}}]}