{"type":"FeatureCollection","features":[{"type":"Feature","properties":{"sourceId":"1159308419","regionId":"region.fafae359-2cc8-42ed-ad46-8b4026791707","countryId":"country.1dtcx1v"},"geometry":{"type":"MultiPolygon","coordinates":[[[[33.6794,35.0339],[33.4909,35.0496],[33.4162,34.9658],[33.264,34.8926],[33.1307,34.8797],[33.2722,34.7731],[33.2726,34.7073],[33.6056,34.8218],[33.7015,34.9729],[33.6794,35.0339]]],[[[33.8294,35.0012],[33.8918,34.9581],[33.8963,34.962],[33.8294,35.0012]]]]}},{"type":"Feature","properties":{"sourceId":"1159315243","regionId":"region.1b68e213-2fff-4d78-ab16-ce9cbdf32e6e","countryId":"country.1dtcx1v"},"geometry":{"type":"Polygon","coordinates":[[[33.9065,35.0691],[33.8294,35.0012],[33.8963,34.962],[34.0116,34.9876],[34.0123,35.0638],[33.9065,35.0691]]]}},{"type":"Feature","properties":{"sourceId":"1159315247","regionId":"region.ae4f6c55-a1f7-4cdf-83ee-f6c957401b2b","countryId":"country.1dtcx1v"},"geometry":{"type":"Polygon","coordinates":[[[33.4909,35.0496],[33.4003,35.1977],[33.1903,35.1899],[32.8549,35.0792],[32.7114,35.1816],[32.6407,35.1871],[32.6019,35.1786],[32.5665,35.1727],[32.6729,34.9816],[32.7674,34.9025],[32.9828,34.956],[33.1307,34.8797],[33.264,34.8926],[33.4162,34.9658],[33.4909,35.0496]]]}},{"type":"Feature","properties":{"sourceId":"1159315251","regionId":"region.93009207-fb57-4f8e-a2fd-0be5fc8908cf","countryId":"country.1dtcx1v"},"geometry":{"type":"Polygon","coordinates":[[[32.7607,34.6532],[32.8323,34.7009],[33.0156,34.6344],[33.0723,34.6868],[33.2726,34.7073],[33.2722,34.7731],[33.1307,34.8797],[32.9828,34.956],[32.7674,34.9025],[32.6417,34.6609],[32.7607,34.6532]]]}},{"type":"Feature","properties":{"sourceId":"1159315249","regionId":"region.baeefbd4-2d21-478a-9f62-84b5f39ddc81","countryId":"country.1dtcx1v"},"geometry":{"type":"Polygon","coordinates":[[[32.6417,34.6609],[32.7674,34.9025],[32.6729,34.9816],[32.5665,35.1727],[32.45,35.0588],[32.3723,35.0415],[32.3294,34.8864],[32.4133,34.7535],[32.6417,34.6609]]]}}]}