{"type":"FeatureCollection","features":[{"type":"Feature","properties":{"sourceId":"1159316115","regionId":"region.2546ddef-5b38-4670-8112-a393815a1a51","countryId":"country.79df96d6-6b58-4696-b486-ed62877ef5e8"},"geometry":{"type":"Polygon","coordinates":[[[163.0261,5.3409],[163.0106,5.3797],[162.9241,5.321],[163.0192,5.2727],[163.0261,5.3409]]]}},{"type":"Feature","properties":{"sourceId":"1159315521","regionId":"region.1d7aacbe-d067-417b-b1c8-9ad22f11fbf5","countryId":"country.79df96d6-6b58-4696-b486-ed62877ef5e8"},"geometry":{"type":"Polygon","coordinates":[[[158.2908,6.938],[158.1809,6.9789],[158.1258,6.9074],[158.1935,6.7934],[158.2925,6.7951],[158.2908,6.938]]]}},{"type":"Feature","properties":{"sourceId":"1159316111","regionId":"region.aadd894e-7bdf-4616-9ba4-18f2c8280ac4","countryId":"country.79df96d6-6b58-4696-b486-ed62877ef5e8"},"geometry":{"type":"Polygon","coordinates":[[[151.5886,7.3836],[151.6445,7.3361],[151.6502,7.3694],[151.6224,7.3918],[151.5886,7.3836]]]}},{"type":"Feature","properties":{"sourceId":"1159316113","regionId":"region.f03f2e42-e9d5-4bff-9fd0-38f8f7276de6","countryId":"country.79df96d6-6b58-4696-b486-ed62877ef5e8"},"geometry":{"type":"Polygon","coordinates":[[[138.1924,9.5759],[138.1262,9.566],[138.1345,9.5119],[138.1887,9.5068],[138.1924,9.5759]]]}}]}