{"type":"FeatureCollection","features":[{"type":"Feature","properties":{"sourceId":"1159309829","regionId":"region.864fc1ec-251e-4acc-b037-7c4edb8d57d8","countryId":"country.1629o6e"},"geometry":{"type":"Polygon","coordinates":[[[160.5037,-11.736],[160.0033,-11.4611],[160.0106,-11.5895],[160.1685,-11.6535],[160.2305,-11.6262],[160.3601,-11.7169],[160.4832,-11.845],[160.5037,-11.736]]]}},{"type":"Feature","properties":{"sourceId":"1159314973","regionId":"region.2d161128-0e88-41a6-801d-0e68a512c616","countryId":"country.1629o6e"},"geometry":{"type":"Polygon","coordinates":[[[162.3748,-10.8237],[162.2717,-10.8144],[162.2775,-10.6796],[162.1136,-10.4565],[161.8357,-10.447],[161.7351,-10.4054],[161.5022,-10.2507],[161.396,-10.204],[161.2918,-10.2258],[161.2808,-10.3089],[161.511,-10.3649],[161.5247,-10.5642],[161.7487,-10.6828],[161.7922,-10.735],[162.1011,-10.8215],[162.3748,-10.8237]]]}},{"type":"Feature","properties":{"sourceId":"1159311165","regionId":"region.f9d8cbb3-4333-42ee-a375-e75a963def07","countryId":"country.1629o6e"},"geometry":{"type":"MultiPolygon","coordinates":[[[[166.9239,-11.641],[166.8699,-11.589],[166.7672,-11.6335],[166.843,-11.7133],[166.9239,-11.641]]],[[[166.1479,-10.694],[166.0267,-10.647],[165.8781,-10.6568],[165.7565,-10.8122],[165.862,-10.8685],[165.9342,-10.7757],[166.0545,-10.7667],[166.1479,-10.694]]]]}},{"type":"Feature","properties":{"sourceId":"1159309849","regionId":"region.286243b4-8ec6-4d3d-ba8c-f7a4c886dc1e","countryId":"country.1629o6e"},"geometry":{"type":"MultiPolygon","coordinates":[[[[161.3948,-9.4128],[161.3948,-9.649],[161.573,-9.7486],[161.5452,-9.6047],[161.3948,-9.4128]]],[[[161.3607,-9.6176],[161.3811,-9.509],[161.3281,-9.4386],[161.2025,-9.1384],[161.1511,-8.9496],[160.9466,-8.8137],[160.9424,-8.6922],[160.9968,-8.6038],[160.7466,-8.3097],[160.5935,-8.3849],[160.72,-8.5534],[160.6545,-8.6041],[160.7643,-8.9467],[160.8679,-9.1521],[161.2372,-9.4475],[161.3607,-9.6176]]]]}},{"type":"Feature","properties":{"sourceId":"1159316483","regionId":"region.04fe4c8a-b6e1-4d52-a505-761e43b16385","countryId":"country.1629o6e"},"geometry":{"type":"Polygon","coordinates":[[[159.9397,-9.4329],[159.9821,-9.4612],[160.028,-9.4221],[159.9397,-9.4329]]]}},{"type":"Feature","properties":{"sourceId":"1159309859","regionId":"region.3313aec8-3cbc-447f-a1c9-e7a056a3dd98","countryId":"country.1629o6e"},"geometry":{"type":"Polygon","coordinates":[[[160.028,-9.4221],[159.9821,-9.4612],[159.9397,-9.4329],[159.709,-9.2477],[159.616,-9.2953],[159.5991,-9.5124],[159.7234,-9.707],[159.8356,-9.7939],[160.1239,-9.8232],[160.3203,-9.8151],[160.4329,-9.8891],[160.6448,-9.9371],[160.8247,-9.8673],[160.7854,-9.7275],[160.673,-9.698],[160.6545,-9.6108],[160.5037,-9.5363],[160.3664,-9.4128],[160.028,-9.4221]]]}},{"type":"Feature","properties":{"sourceId":"1159309861","regionId":"region.9097a198-cb0e-4f70-9546-7d2c56ed0152","countryId":"country.1629o6e"},"geometry":{"type":"Polygon","coordinates":[[[160.0967,-9.0566],[160.2576,-9.1208],[160.258,-9.009],[160.0967,-9.0566]]]}},{"type":"Feature","properties":{"sourceId":"1159314977","regionId":"region.409b8045-8514-4771-b64d-1a937fa05d25","countryId":"country.1629o6e"},"geometry":{"type":"MultiPolygon","coordinates":[[[[158.0569,-8.5283],[157.9612,-8.5216],[157.8861,-8.5966],[157.8792,-8.6826],[158.0134,-8.7652],[158.1057,-8.6911],[158.135,-8.5668],[158.0569,-8.5283]]],[[[157.3587,-8.5768],[157.4138,-8.498],[157.3475,-8.4125],[157.2009,-8.5659],[157.2778,-8.6186],[157.3587,-8.5768]]],[[[157.7974,-8.5624],[157.9033,-8.4991],[157.8384,-8.3372],[157.7459,-8.2287],[157.6131,-8.1691],[157.6118,-8.0662],[157.5026,-7.9597],[157.3828,-8.0315],[157.3169,-8.1857],[157.2219,-8.2239],[157.2282,-8.3167],[157.4818,-8.256],[157.5671,-8.2763],[157.6748,-8.5092],[157.7974,-8.5624]]],[[[157.1047,-8.1249],[157.2023,-8.0483],[157.1913,-7.9529],[157.0911,-7.8505],[157.002,-7.8752],[156.947,-7.9797],[157.0023,-8.0868],[157.1047,-8.1249]]],[[[156.8071,-7.7201],[156.6848,-7.6657],[156.6112,-7.5694],[156.5042,-7.6301],[156.5156,-7.7201],[156.6187,-7.8131],[156.6597,-7.9392],[156.8071,-7.7201]]],[[[155.8167,-7.0207],[155.7474,-6.9709],[155.6745,-7.0759],[155.7349,-7.1243],[155.8167,-7.0207]]]]}},{"type":"Feature","properties":{"sourceId":"1159309871","regionId":"region.b8191331-9261-4d66-9383-84c6ea013c3c","countryId":"country.1629o6e"},"geometry":{"type":"Polygon","coordinates":[[[159.8594,-8.5113],[159.7966,-8.3918],[159.8421,-8.3256],[159.4317,-8.0315],[159.4026,-7.9824],[159.0857,-7.9036],[158.9898,-7.8022],[158.654,-7.5613],[158.6057,-7.5862],[158.5801,-7.7408],[158.6885,-7.8112],[158.8457,-7.9734],[159.3454,-8.2614],[159.6272,-8.3576],[159.825,-8.5421],[159.8594,-8.5113]]]}},{"type":"Feature","properties":{"sourceId":"1159314981","regionId":"region.152102f3-2083-4467-a5ce-07bab9a36572","countryId":"country.1629o6e"},"geometry":{"type":"Polygon","coordinates":[[[157.5298,-7.3332],[157.3027,-7.2664],[157.1525,-7.1243],[157.1205,-6.9807],[157.0427,-6.8971],[156.7803,-6.7758],[156.6696,-6.675],[156.4878,-6.603],[156.4611,-6.7333],[156.687,-6.8971],[156.9277,-7.2088],[157.2009,-7.3366],[157.4417,-7.4142],[157.5298,-7.3332]]]}}]}