{"type":"FeatureCollection","features":[{"type":"Feature","properties":{"sourceId":"1159307769","regionId":"region.e75d06ad-1f8d-4409-80ff-e9a56be480f9","countryId":"country.td9ldb"},"geometry":{"type":"Polygon","coordinates":[[[31.9492,-25.9581],[31.8346,-25.9821],[31.747,-25.9308],[31.6688,-25.9522],[31.6698,-26.1519],[31.6977,-26.2491],[31.608,-26.4056],[31.6001,-26.6162],[31.4882,-26.7621],[31.4966,-26.8968],[31.5514,-26.9648],[31.7769,-27.042],[31.9442,-27.1623],[31.9922,-26.8383],[32.1139,-26.84],[32.1174,-26.5823],[32.0399,-26.2837],[32.0814,-26.1488],[32.0575,-26.0412],[31.9492,-25.9581]]]}},{"type":"Feature","properties":{"sourceId":"1159307767","regionId":"region.c61ddd3d-fff5-4a26-8741-91b9960a795b","countryId":"country.td9ldb"},"geometry":{"type":"Polygon","coordinates":[[[31.747,-25.9308],[31.4269,-25.7436],[31.3093,-25.7574],[31.1198,-25.91],[31.0378,-26.1001],[30.8973,-26.2917],[31.083,-26.4169],[31.2611,-26.4543],[31.2846,-26.3227],[31.4901,-26.2512],[31.5621,-26.1712],[31.6698,-26.1519],[31.6688,-25.9522],[31.747,-25.9308]]]}},{"type":"Feature","properties":{"sourceId":"1159307771","regionId":"region.23b95794-a808-4a73-9b85-ae47756cd2f6","countryId":"country.td9ldb"},"geometry":{"type":"Polygon","coordinates":[[[30.8973,-26.2917],[30.7829,-26.4724],[30.8024,-26.8089],[30.8853,-26.7856],[31.0438,-26.7701],[31.0728,-26.877],[31.2226,-26.8078],[31.4882,-26.7621],[31.6001,-26.6162],[31.608,-26.4056],[31.6977,-26.2491],[31.6698,-26.1519],[31.5621,-26.1712],[31.4901,-26.2512],[31.2846,-26.3227],[31.2611,-26.4543],[31.083,-26.4169],[30.8973,-26.2917]]]}},{"type":"Feature","properties":{"sourceId":"1159307773","regionId":"region.9142a226-0917-4dca-bb71-dcc793f727b3","countryId":"country.td9ldb"},"geometry":{"type":"Polygon","coordinates":[[[31.2447,-27.2326],[31.5265,-27.3109],[31.9683,-27.3163],[31.9442,-27.1623],[31.7769,-27.042],[31.5514,-26.9648],[31.4966,-26.8968],[31.4882,-26.7621],[31.2226,-26.8078],[31.0728,-26.877],[31.0438,-26.7701],[30.8853,-26.7856],[30.961,-26.9112],[30.9761,-27.035],[31.157,-27.2056],[31.2447,-27.2326]]]}}]}