{"type":"FeatureCollection","features":[{"type":"Feature","properties":{"sourceId":"1159313279","regionId":"region.4fd708bf-be86-4c66-9395-5f4d6d7e242a","countryId":"country.1g4p5xi"},"geometry":{"type":"Polygon","coordinates":[[[25.2598,-17.7941],[25.1539,-17.7818],[25.057,-17.8277],[24.9581,-17.8009],[24.7253,-17.8959],[24.5778,-18.0444],[24.5056,-18.0603],[24.4216,-17.9565],[24.2964,-18.0262],[24.1831,-18.0294],[24.057,-18.119],[23.6454,-18.466],[23.5792,-18.4679],[23.5015,-18.2375],[23.3595,-18.1192],[23.3115,-18.0098],[22.9814,-18.02],[22.0503,-18.1928],[21.4757,-18.2995],[20.9934,-18.3186],[20.9751,-18.3193],[20.9756,-19.1721],[20.9794,-20.351],[20.9815,-21],[23.8814,-21],[23.879,-20.3165],[24.1571,-20.1988],[24.2543,-20.2423],[24.3783,-20.3943],[25.1451,-20.3423],[25.1622,-20.067],[24.9921,-19.9955],[24.9907,-18.9999],[25.9674,-18.9999],[25.9407,-18.9213],[25.8153,-18.814],[25.7619,-18.6303],[25.5085,-18.3991],[25.3875,-18.139],[25.2964,-18.0686],[25.2261,-17.9319],[25.2598,-17.7941]]]}},{"type":"Feature","properties":{"sourceId":"1159313281","regionId":"region.93704c55-867d-4f61-bc38-04b9327be883","countryId":"country.1g4p5xi"},"geometry":{"type":"Polygon","coordinates":[[[25.9674,-18.9999],[24.9907,-18.9999],[24.9921,-19.9955],[25.1622,-20.067],[25.1451,-20.3423],[24.3783,-20.3943],[24.2543,-20.2423],[24.1571,-20.1988],[23.879,-20.3165],[23.8814,-21],[25.4393,-22.9519],[25.7316,-23.3103],[25.8407,-23.3491],[26.0204,-23.5663],[26.7175,-23.9479],[26.89,-23.7687],[26.9645,-23.7471],[27.0042,-23.6458],[27.1274,-23.525],[27.2781,-23.4636],[27.35,-23.3915],[27.5489,-23.3608],[27.608,-23.2167],[27.6984,-23.1935],[27.8955,-23.0795],[27.9375,-22.9638],[28.0218,-22.9266],[28.0472,-22.8369],[28.1625,-22.759],[28.1962,-22.6716],[28.3386,-22.5846],[28.6239,-22.5628],[28.9125,-22.4537],[28.9602,-22.3102],[29.0478,-22.2203],[29.2221,-22.1822],[29.3501,-22.1867],[29.2393,-22.0726],[29.0708,-22.051],[29.0216,-21.9828],[29.0387,-21.7979],[28.8609,-21.7574],[28.6297,-21.6513],[28.4646,-21.6603],[28.2849,-21.5969],[28.0329,-21.5779],[27.9904,-21.5519],[27.859,-21.5175],[27.7246,-21.5246],[27.4912,-21.468],[27.4063,-21.3478],[27.3072,-21.0648],[27.2294,-20.9445],[27.2152,-20.7747],[27.2684,-20.4957],[27.284,-20.3515],[27.2149,-20.1105],[27.0267,-20.0101],[26.9251,-20.0009],[26.6772,-19.8868],[26.5663,-19.8008],[26.3122,-19.6514],[26.2926,-19.5725],[26.1303,-19.5011],[26.0344,-19.2437],[25.9565,-19.1221],[25.9674,-18.9999]],[[27.8435,-21.996],[27.8079,-21.9654],[27.8829,-21.9607],[27.8435,-21.996]],[[26.1948,-20.5585],[26.256,-20.5594],[26.2522,-20.5986],[26.2003,-20.5944],[26.1948,-20.5585]]]}},{"type":"Feature","properties":{"sourceId":"1159315937","regionId":"region.c252b8b9-674e-4bd6-80ef-3b66e66e5ac0","countryId":"country.1g4p5xi"},"geometry":{"type":"Polygon","coordinates":[[[27.9904,-21.5519],[27.885,-21.3102],[27.6748,-21.0901],[27.676,-20.8667],[27.7073,-20.7167],[27.6981,-20.5091],[27.5909,-20.4733],[27.3407,-20.473],[27.2684,-20.4957],[27.2152,-20.7747],[27.2294,-20.9445],[27.3072,-21.0648],[27.4063,-21.3478],[27.4912,-21.468],[27.7246,-21.5246],[27.859,-21.5175],[27.9904,-21.5519]],[[27.5387,-21.2158],[27.4588,-21.1559],[27.5343,-21.1457],[27.5387,-21.2158]]]}},{"type":"Feature","properties":{"sourceId":"1159313285","regionId":"region.9d4890d6-5d2e-4d3f-9c47-c228699d8a32","countryId":"country.1g4p5xi"},"geometry":{"type":"Polygon","coordinates":[[[26.9645,-23.7471],[26.89,-23.7687],[26.7175,-23.9479],[26.0204,-23.5663],[25.9566,-24.1765],[25.8862,-24.4307],[25.9512,-24.5074],[26.0334,-24.5589],[26.1659,-24.6608],[26.404,-24.6328],[26.5312,-24.4587],[26.714,-24.3159],[26.8497,-24.2481],[26.9645,-23.7471]]]}},{"type":"Feature","properties":{"sourceId":"1159313289","regionId":"region.2d06b26f-736a-49e1-b260-bbc60868ea71","countryId":"country.1g4p5xi"},"geometry":{"type":"Polygon","coordinates":[[[26.1659,-24.6608],[26.0334,-24.5589],[25.9574,-24.7073],[25.8349,-24.6227],[25.6872,-24.7691],[25.5988,-25.001],[25.6567,-25.0382],[25.5423,-25.402],[25.6528,-25.4633],[25.6955,-25.31],[25.8352,-25.0164],[25.8767,-24.886],[25.8684,-24.7482],[26.1659,-24.6608]],[[25.6874,-25.1831],[25.7056,-25.1927],[25.6991,-25.2338],[25.6679,-25.2253],[25.6874,-25.1831]]]}},{"type":"Feature","properties":{"sourceId":"1159313291","regionId":"region.89019cd0-6eca-47fd-91f4-47f7c020cb4d","countryId":"country.1g4p5xi"},"geometry":{"type":"Polygon","coordinates":[[[25.6528,-25.4633],[25.5423,-25.402],[25.6567,-25.0382],[25.5988,-25.001],[25.6872,-24.7691],[24.8136,-24.5119],[24.8206,-24.652],[24.6376,-24.6603],[24.6397,-24.4612],[23.0534,-23.9991],[23.0493,-24.8232],[23.0852,-24.8506],[24.0441,-24.8453],[24.2344,-25.0258],[24.2503,-25.5014],[24.5009,-25.7578],[24.665,-25.8233],[24.7986,-25.8292],[25.0517,-25.7379],[25.1778,-25.7633],[25.3865,-25.7435],[25.5873,-25.6195],[25.6528,-25.4633]]]}},{"type":"Feature","properties":{"sourceId":"1159313277","regionId":"region.1f9b094e-f99c-4cc9-8ebc-54ef12da5187","countryId":"country.1g4p5xi"},"geometry":{"type":"Polygon","coordinates":[[[19.9814,-24.7525],[20.1189,-24.8874],[20.3649,-25.0332],[20.5422,-25.3822],[20.6634,-25.5647],[20.6433,-25.6132],[20.7941,-25.8939],[20.8039,-26.0713],[20.8414,-26.1313],[20.6225,-26.4275],[20.6089,-26.6861],[20.6935,-26.889],[20.8519,-26.8065],[21.1225,-26.8653],[21.3808,-26.824],[21.6872,-26.8552],[21.7734,-26.7868],[21.7675,-26.7043],[22.0577,-26.6176],[22.2573,-26.3409],[22.4288,-26.2265],[22.5451,-26.2074],[22.6209,-26.1115],[22.7194,-25.9843],[22.7464,-25.7553],[22.8044,-25.6872],[22.8446,-25.4811],[23.007,-25.3108],[23.0717,-25.326],[23.2657,-25.264],[23.4593,-25.2822],[23.6868,-25.4544],[23.7427,-25.47],[23.9248,-25.6292],[24.2277,-25.649],[24.2967,-25.7235],[24.5009,-25.7578],[24.2503,-25.5014],[24.2344,-25.0258],[24.0441,-24.8453],[23.0852,-24.8506],[23.0493,-24.8232],[23.0534,-23.9991],[23.0501,-23.6427],[22.9567,-23.5586],[22.959,-23.4249],[23.0575,-23.3113],[19.9799,-23.3086],[19.9805,-23.8645],[19.9814,-24.7525]]]}},{"type":"Feature","properties":{"sourceId":"1159309801","regionId":"region.6472d855-01fd-46a7-950b-0ced28c049a3","countryId":"country.1g4p5xi"},"geometry":{"type":"Polygon","coordinates":[[[19.9799,-23.3086],[23.0575,-23.3113],[25.2417,-23.3185],[25.4393,-22.9519],[23.8814,-21],[20.9815,-21],[20.9848,-21.964],[20.972,-22.0007],[19.9783,-22.0007],[19.9799,-23.3086]]]}},{"type":"Feature","properties":{"sourceId":"1159313287","regionId":"region.5b8caf76-baf1-42c1-8704-7d241b469120","countryId":"country.1g4p5xi"},"geometry":{"type":"Polygon","coordinates":[[[25.4393,-22.9519],[25.2417,-23.3185],[23.0575,-23.3113],[22.959,-23.4249],[22.9567,-23.5586],[23.0501,-23.6427],[23.0534,-23.9991],[24.6397,-24.4612],[24.8136,-24.5119],[25.6872,-24.7691],[25.8349,-24.6227],[25.9512,-24.5074],[25.8862,-24.4307],[25.9566,-24.1765],[26.0204,-23.5663],[25.8407,-23.3491],[25.7316,-23.3103],[25.4393,-22.9519]]]}},{"type":"Feature","properties":{"sourceId":"1159317149","regionId":"region.f4f63d09-79f8-4005-a7bf-dcd38d54a313","countryId":"country.1g4p5xi"},"geometry":{"type":"Polygon","coordinates":[[[25.8349,-24.6227],[25.9574,-24.7073],[26.0334,-24.5589],[25.9512,-24.5074],[25.8349,-24.6227]]]}},{"type":"Feature","properties":{"sourceId":"1159317157","regionId":"region.24961a79-710f-42b4-a8a1-2675cf8892ca","countryId":"country.1g4p5xi"},"geometry":{"type":"Polygon","coordinates":[[[24.6397,-24.4612],[24.6376,-24.6603],[24.8206,-24.652],[24.8136,-24.5119],[24.6397,-24.4612]]]}},{"type":"Feature","properties":{"sourceId":"1159317151","regionId":"region.7ef214a0-4da6-456f-a566-2133b00c6e1f","countryId":"country.1g4p5xi"},"geometry":{"type":"Polygon","coordinates":[[[27.5387,-21.2158],[27.5343,-21.1457],[27.4588,-21.1559],[27.5387,-21.2158]]]}},{"type":"Feature","properties":{"sourceId":"1159317155","regionId":"region.a3c706d8-ec69-4dd4-a464-c0362638cec3","countryId":"country.1g4p5xi"},"geometry":{"type":"Polygon","coordinates":[[[25.6874,-25.1831],[25.6679,-25.2253],[25.6991,-25.2338],[25.7056,-25.1927],[25.6874,-25.1831]]]}},{"type":"Feature","properties":{"sourceId":"1159317161","regionId":"region.5d2395bf-b115-4a8f-ac81-0794030b9ff8","countryId":"country.1g4p5xi"},"geometry":{"type":"Polygon","coordinates":[[[27.8435,-21.996],[27.8829,-21.9607],[27.8079,-21.9654],[27.8435,-21.996]]]}},{"type":"Feature","properties":{"sourceId":"1159317159","regionId":"region.2c7989aa-dcdd-4369-871f-fb9cd3cf1ba0","countryId":"country.1g4p5xi"},"geometry":{"type":"Polygon","coordinates":[[[26.1948,-20.5585],[26.2003,-20.5944],[26.2522,-20.5986],[26.256,-20.5594],[26.1948,-20.5585]]]}}]}