{"type":"FeatureCollection","features":[{"type":"Feature","properties":{"sourceId":"1159312111","regionId":"region.ed4e77cd-a63c-49d8-8dc8-b38d4de3f5cc","countryId":"country.1jzfv40"},"geometry":{"type":"Polygon","coordinates":[[[128.3649,38.6243],[128.2748,38.5715],[128.2681,38.4535],[128.1724,38.356],[128.0399,38.3043],[127.8008,38.2939],[127.7537,38.3254],[127.4719,38.2959],[127.1575,38.3072],[126.9661,38.213],[127.1768,38.0738],[127.4517,38.061],[127.5045,37.9488],[127.6258,37.8811],[127.5379,37.7916],[127.5397,37.6046],[127.8311,37.5085],[127.607,37.1314],[127.9177,37.186],[128.038,37.1508],[128.1911,37.2028],[128.3219,37.1754],[128.4207,37.0637],[128.6503,37.0223],[128.756,36.996],[128.8038,37.0929],[129.061,37.0245],[129.1684,36.8416],[129.2861,36.8196],[129.289,36.6561],[129.4226,36.6166],[129.4712,36.7719],[129.3311,37.2822],[129.1482,37.5051],[129.0642,37.6789],[128.9238,37.8023],[128.6316,38.145],[128.3649,38.6243]]]}},{"type":"Feature","properties":{"sourceId":"1159312027","regionId":"region.ab6a4b02-0d8d-4c4a-9654-a36af7dde0f2","countryId":"country.1jzfv40"},"geometry":{"type":"MultiPolygon","coordinates":[[[[126.6675,37.8278],[126.6869,37.7736],[126.531,37.7547],[126.6038,37.5493],[126.7006,37.552],[126.7958,37.443],[126.72,37.3771],[126.6585,37.2543],[126.7552,37.0488],[126.9617,36.9051],[127.1309,36.9258],[127.26,36.8789],[127.3806,36.9148],[127.5177,37.0143],[127.607,37.1314],[127.8311,37.5085],[127.5397,37.6046],[127.5379,37.7916],[127.6258,37.8811],[127.5045,37.9488],[127.4517,38.061],[127.1768,38.0738],[126.9661,38.213],[126.9401,38.1742],[126.7619,37.979],[126.6658,37.9376],[126.6675,37.8278]],[[127.1159,37.5506],[127.1446,37.4578],[126.9208,37.4295],[126.8688,37.5603],[127.0231,37.6772],[127.1159,37.5506]]],[[[126.5078,37.5969],[126.5215,37.7512],[126.3696,37.7853],[126.4102,37.602],[126.5078,37.5969]]]]}},{"type":"Feature","properties":{"sourceId":"1159313525","regionId":"region.8570befe-5a7b-4c3a-8eae-e77e32f86113","countryId":"country.1jzfv40"},"geometry":{"type":"Polygon","coordinates":[[[126.8121,36.0473],[126.8571,36.0922],[127.0647,36.1326],[127.114,36.0557],[127.3384,36.0982],[127.4325,35.9871],[127.619,36.0295],[127.5583,36.186],[127.4657,36.2036],[127.4823,36.3745],[127.4498,36.2908],[127.3166,36.2332],[127.2907,36.3601],[127.219,36.4562],[127.0841,36.4883],[127.1042,36.6916],[127.2465,36.646],[127.3393,36.7648],[127.26,36.8789],[127.1309,36.9258],[126.9617,36.9051],[126.8602,36.8696],[126.7143,36.993],[126.5662,36.9908],[126.336,36.8247],[126.23,36.873],[126.131,36.7681],[126.2031,36.7059],[126.4242,36.6066],[126.5715,36.3056],[126.5349,36.2196],[126.6925,35.9999],[126.8121,36.0473]]]}},{"type":"Feature","properties":{"sourceId":"1159312029","regionId":"region.2bf2183e-1837-4b5d-bfd1-50975e9d8ac8","countryId":"country.1jzfv40"},"geometry":{"type":"Polygon","coordinates":[[[126.72,37.3771],[126.7958,37.443],[126.7006,37.552],[126.6038,37.5493],[126.596,37.4397],[126.72,37.3771]]]}},{"type":"Feature","properties":{"sourceId":"1159313521","regionId":"region.0f3eb4bb-c48b-491d-bb4a-c55fa3db56d0","countryId":"country.1jzfv40"},"geometry":{"type":"Polygon","coordinates":[[[126.4369,35.3706],[126.5701,35.3012],[126.7514,35.3398],[126.8669,35.462],[127.1267,35.2844],[127.431,35.291],[127.4964,35.3331],[127.6175,35.2766],[127.6883,35.3864],[127.6291,35.5222],[127.7066,35.7348],[127.9139,35.8871],[127.8776,36.0074],[127.7537,35.9752],[127.619,36.0295],[127.4325,35.9871],[127.3384,36.0982],[127.114,36.0557],[127.0647,36.1326],[126.8571,36.0922],[126.8121,36.0473],[126.6088,35.9311],[126.7332,35.8856],[126.5972,35.7139],[126.4676,35.6396],[126.5132,35.5769],[126.4369,35.3706]]]}},{"type":"Feature","properties":{"sourceId":"1159313529","regionId":"region.5b94432e-5bcf-4989-b713-d6d5d988750a","countryId":"country.1jzfv40"},"geometry":{"type":"MultiPolygon","coordinates":[[[[127.805,34.9571],[127.6469,35.1563],[127.6175,35.2766],[127.4964,35.3331],[127.431,35.291],[127.1267,35.2844],[126.8669,35.462],[126.7514,35.3398],[126.5701,35.3012],[126.4369,35.3706],[126.3635,35.188],[126.4503,35.0666],[126.3741,35.0168],[126.4093,34.8445],[126.2711,34.6425],[126.325,34.5696],[126.4902,34.5086],[126.4796,34.3488],[126.8098,34.4512],[126.885,34.4211],[127.0103,34.6125],[127.148,34.6915],[127.2908,34.7214],[127.2235,34.5468],[127.3159,34.4449],[127.5008,34.6122],[127.3853,34.7602],[127.511,34.8847],[127.638,34.6982],[127.7498,34.7371],[127.7745,34.8293],[127.6411,34.8991],[127.805,34.9571]],[[126.9856,35.2388],[126.9664,35.1501],[126.8503,35.1849],[126.8229,35.2341],[126.9856,35.2388]]],[[[126.3801,34.4984],[126.2744,34.5373],[126.1157,34.4362],[126.21,34.3588],[126.3459,34.409],[126.3801,34.4984]]]]}},{"type":"Feature","properties":{"sourceId":"1159313519","regionId":"region.1bdd4010-96d3-4d31-b710-7cc02eade167","countryId":"country.1jzfv40"},"geometry":{"type":"MultiPolygon","coordinates":[[[[128.9628,35.1334],[129.011,35.2381],[129.0931,35.2708],[129.1993,35.1636],[129.2688,35.3157],[129.0643,35.4663],[129.0085,35.5795],[128.9126,35.591],[128.7898,35.5302],[128.6149,35.5438],[128.2196,35.6128],[128.2165,35.7051],[128.1243,35.7936],[127.9656,35.8272],[127.9139,35.8871],[127.7066,35.7348],[127.6291,35.5222],[127.6883,35.3864],[127.6175,35.2766],[127.6469,35.1563],[127.805,34.9571],[128.0193,34.9987],[128.064,34.9279],[128.2241,34.9379],[128.4353,34.8432],[128.4404,34.9652],[128.5264,35.1035],[128.9184,35.0819],[128.9628,35.1334]]],[[[128.7485,34.869],[128.6939,34.9863],[128.4885,34.869],[128.6182,34.7256],[128.7485,34.869]]]]}},{"type":"Feature","properties":{"sourceId":"1159313531","regionId":"region.a9790421-2a02-4c70-bb6c-41b59d761308","countryId":"country.1jzfv40"},"geometry":{"type":"Polygon","coordinates":[[[129.1993,35.1636],[129.0931,35.2708],[129.011,35.2381],[128.9628,35.1334],[128.997,35.0757],[129.1993,35.1636]]]}},{"type":"Feature","properties":{"sourceId":"1159313533","regionId":"region.e846a13d-b61c-4b28-adb2-bca6db75ce8e","countryId":"country.1jzfv40"},"geometry":{"type":"Polygon","coordinates":[[[129.4591,35.6108],[129.286,35.6127],[129.0986,35.6659],[129.0085,35.5795],[129.0643,35.4663],[129.2688,35.3157],[129.3604,35.3536],[129.3578,35.4518],[129.4546,35.5133],[129.4591,35.6108]]]}},{"type":"Feature","properties":{"sourceId":"1159313537","regionId":"region.9cd6a6b6-6d45-4c28-be65-bf9ba43b81e9","countryId":"country.1jzfv40"},"geometry":{"type":"Polygon","coordinates":[[[129.4226,36.6166],[129.289,36.6561],[129.2861,36.8196],[129.1684,36.8416],[129.061,37.0245],[128.8038,37.0929],[128.756,36.996],[128.6503,37.0223],[128.4651,36.9104],[128.4254,36.789],[128.3417,36.7608],[128.0571,36.7757],[128.0258,36.7169],[127.8627,36.6407],[127.8,36.542],[127.8881,36.4794],[127.8309,36.2922],[127.949,36.2194],[127.9682,36.0946],[127.8776,36.0074],[127.9139,35.8871],[127.9656,35.8272],[128.1243,35.7936],[128.2165,35.7051],[128.2196,35.6128],[128.6149,35.5438],[128.7898,35.5302],[128.9126,35.591],[129.0085,35.5795],[129.0986,35.6659],[129.286,35.6127],[129.4591,35.6108],[129.5356,35.939],[129.4331,35.9961],[129.3823,36.2019],[129.4409,36.4079],[129.4226,36.6166]],[[128.7413,35.8488],[128.6887,35.7881],[128.4813,35.8277],[128.5767,35.9996],[128.746,35.9676],[128.7413,35.8488]]]}},{"type":"Feature","properties":{"sourceId":"1159313515","regionId":"region.f7c5f2b4-3d1c-4c0a-b7b7-5adf5163dfbf","countryId":"country.1jzfv40"},"geometry":{"type":"Polygon","coordinates":[[[126.9461,33.478],[126.7924,33.5638],[126.4849,33.5208],[126.3106,33.4645],[126.2062,33.3756],[126.1714,33.2694],[126.2861,33.2004],[126.8406,33.3102],[126.9461,33.478]]]}},{"type":"Feature","properties":{"sourceId":"1159312115","regionId":"region.0429d7d9-d018-4d9a-835e-026068efd759","countryId":"country.1jzfv40"},"geometry":{"type":"Polygon","coordinates":[[[127.1159,37.5506],[127.0231,37.6772],[126.8688,37.5603],[126.9208,37.4295],[127.1446,37.4578],[127.1159,37.5506]]]}},{"type":"Feature","properties":{"sourceId":"1159313527","regionId":"region.9ede41f0-756f-4e34-a47f-92e9361cb338","countryId":"country.1jzfv40"},"geometry":{"type":"Polygon","coordinates":[[[127.219,36.4562],[127.2907,36.3601],[127.3166,36.2332],[127.4498,36.2908],[127.4823,36.3745],[127.3526,36.4791],[127.219,36.4562]]]}},{"type":"Feature","properties":{"sourceId":"1159316481","regionId":"region.8f5a263f-01c5-4416-bf71-9a79fbcb6a50","countryId":"country.1jzfv40"},"geometry":{"type":"Polygon","coordinates":[[[127.2465,36.646],[127.1042,36.6916],[127.0841,36.4883],[127.219,36.4562],[127.3526,36.4791],[127.2117,36.5357],[127.2465,36.646]]]}},{"type":"Feature","properties":{"sourceId":"1159312109","regionId":"region.7b70ac38-ed4f-4343-a535-ccfced4ac6bd","countryId":"country.1jzfv40"},"geometry":{"type":"Polygon","coordinates":[[[127.607,37.1314],[127.5177,37.0143],[127.3806,36.9148],[127.26,36.8789],[127.3393,36.7648],[127.2465,36.646],[127.2117,36.5357],[127.3526,36.4791],[127.4823,36.3745],[127.4657,36.2036],[127.5583,36.186],[127.619,36.0295],[127.7537,35.9752],[127.8776,36.0074],[127.9682,36.0946],[127.949,36.2194],[127.8309,36.2922],[127.8881,36.4794],[127.8,36.542],[127.8627,36.6407],[128.0258,36.7169],[128.0571,36.7757],[128.3417,36.7608],[128.4254,36.789],[128.4651,36.9104],[128.6503,37.0223],[128.4207,37.0637],[128.3219,37.1754],[128.1911,37.2028],[128.038,37.1508],[127.9177,37.186],[127.607,37.1314]]]}},{"type":"Feature","properties":{"sourceId":"1159313255","regionId":"region.fa6e0171-5676-42c3-8e37-f354a7787480","countryId":"country.1jzfv40"},"geometry":{"type":"Polygon","coordinates":[[[126.9856,35.2388],[126.8229,35.2341],[126.8503,35.1849],[126.9664,35.1501],[126.9856,35.2388]]]}},{"type":"Feature","properties":{"sourceId":"1159313523","regionId":"region.8f1c58ba-e267-4100-8fa4-0694007bf56e","countryId":"country.1jzfv40"},"geometry":{"type":"Polygon","coordinates":[[[128.7413,35.8488],[128.746,35.9676],[128.5767,35.9996],[128.4813,35.8277],[128.6887,35.7881],[128.7413,35.8488]]]}}]}