{"type":"FeatureCollection","features":[{"type":"Feature","properties":{"sourceId":"1159308061","regionId":"region.1436165f-79cb-4a0f-9e02-c6a2126c68d3","countryId":"country.ao8edp"},"geometry":{"type":"Polygon","coordinates":[[[-61.3526,10.8041],[-61.4285,10.7114],[-61.4098,10.5663],[-61.369,10.5655],[-61.2392,10.5914],[-61.1716,10.8039],[-61.3526,10.8041]],[[-61.2745,10.6074],[-61.2887,10.6233],[-61.2713,10.6406],[-61.2655,10.6197],[-61.2745,10.6074]]]}},{"type":"Feature","properties":{"sourceId":"1159308051","regionId":"region.f3eb27e9-d0d2-47c9-b2ac-07c41b59c934","countryId":"country.ao8edp"},"geometry":{"type":"Polygon","coordinates":[[[-61.4901,10.7546],[-61.5114,10.6758],[-61.4957,10.6356],[-61.4622,10.5381],[-61.4098,10.5663],[-61.4285,10.7114],[-61.3526,10.8041],[-61.4901,10.7546]]]}},{"type":"Feature","properties":{"sourceId":"1159308039","regionId":"region.141b980c-eaea-478b-b550-c580c629be2f","countryId":"country.ao8edp"},"geometry":{"type":"Polygon","coordinates":[[[-61.5491,10.6671],[-61.5114,10.6758],[-61.4901,10.7546],[-61.5491,10.6671]]]}},{"type":"Feature","properties":{"sourceId":"1159308069","regionId":"region.9e52016d-113a-4fd4-a2b7-da9caf5da348","countryId":"country.ao8edp"},"geometry":{"type":"Polygon","coordinates":[[[-61.4957,10.6356],[-61.5114,10.6758],[-61.5491,10.6671],[-61.4957,10.6356]]]}},{"type":"Feature","properties":{"sourceId":"1159308067","regionId":"region.8f6a00c9-3226-42ab-b080-ca42999578a5","countryId":"country.ao8edp"},"geometry":{"type":"Polygon","coordinates":[[[-61.4623,10.5226],[-61.369,10.5655],[-61.4098,10.5663],[-61.4622,10.5381],[-61.4623,10.5226]]]}},{"type":"Feature","properties":{"sourceId":"1159308055","regionId":"region.fc87a45f-b774-422e-8304-8b4646223c5e","countryId":"country.ao8edp"},"geometry":{"type":"Polygon","coordinates":[[[-61.4596,10.3097],[-61.4278,10.31],[-61.2436,10.3071],[-61.1971,10.4564],[-61.2392,10.5914],[-61.369,10.5655],[-61.4623,10.5226],[-61.4879,10.4301],[-61.4596,10.3097]]]}},{"type":"Feature","properties":{"sourceId":"1159308065","regionId":"region.3b680164-bba2-4206-b7b8-bd7a31092c61","countryId":"country.ao8edp"},"geometry":{"type":"Polygon","coordinates":[[[-61.4899,10.2493],[-61.4415,10.2591],[-61.4278,10.31],[-61.4596,10.3097],[-61.4899,10.2493]]]}},{"type":"Feature","properties":{"sourceId":"1159308057","regionId":"region.cecea0f7-d6b6-4234-95f4-fbbc49aeff13","countryId":"country.ao8edp"},"geometry":{"type":"Polygon","coordinates":[[[-61.5208,10.2402],[-61.4688,10.1857],[-61.5041,10.0695],[-61.3791,10.0728],[-61.3728,10.2174],[-61.4415,10.2591],[-61.4899,10.2493],[-61.5208,10.2402]]]}},{"type":"Feature","properties":{"sourceId":"1159308041","regionId":"region.eee2dc8f-5c37-4d99-8b76-7aad030c46a4","countryId":"country.ao8edp"},"geometry":{"type":"Polygon","coordinates":[[[-61.6393,10.2101],[-61.6711,10.147],[-61.7074,10.1659],[-61.637,10.0578],[-61.5041,10.0695],[-61.4688,10.1857],[-61.5208,10.2402],[-61.6393,10.2101]]]}},{"type":"Feature","properties":{"sourceId":"1159308059","regionId":"region.88a89f10-78b3-48c6-9bdd-571bfbab722c","countryId":"country.ao8edp"},"geometry":{"type":"Polygon","coordinates":[[[-61.7074,10.1659],[-61.6711,10.147],[-61.6393,10.2101],[-61.7074,10.1659]]]}},{"type":"Feature","properties":{"sourceId":"1159308053","regionId":"region.a95280a8-90a6-4c4f-8d0b-fcb388f3956f","countryId":"country.ao8edp"},"geometry":{"type":"Polygon","coordinates":[[[-61.1777,10.0752],[-61.192,10.2301],[-61.2436,10.3071],[-61.4278,10.31],[-61.4415,10.2591],[-61.3728,10.2174],[-61.3791,10.0728],[-61.1777,10.0752]]]}},{"type":"Feature","properties":{"sourceId":"1159308049","regionId":"region.cff3ce76-fd50-4cf5-adf9-d6ae47ddba28","countryId":"country.ao8edp"},"geometry":{"type":"Polygon","coordinates":[[[-61.0384,10.4637],[-61.1971,10.4564],[-61.2436,10.3071],[-61.192,10.2301],[-61.1777,10.0752],[-60.996,10.1383],[-60.9984,10.3559],[-61.0384,10.4637]]]}},{"type":"Feature","properties":{"sourceId":"1159308047","regionId":"region.3fdd1899-4e8c-4be8-9619-1897725db406","countryId":"country.ao8edp"},"geometry":{"type":"Polygon","coordinates":[[[-61.1716,10.8039],[-61.2392,10.5914],[-61.1971,10.4564],[-61.0384,10.4637],[-61.0327,10.6835],[-60.9498,10.7635],[-60.9488,10.8453],[-61.1716,10.8039]]]}},{"type":"Feature","properties":{"sourceId":"1159308073","regionId":"region.ecc1713b-b507-46a6-b213-b5300142f3b0","countryId":"country.ao8edp"},"geometry":{"type":"Polygon","coordinates":[[[-60.6547,11.308],[-60.6471,11.2042],[-60.533,11.2665],[-60.5231,11.3437],[-60.6547,11.308]]]}},{"type":"Feature","properties":{"sourceId":"1159316403","regionId":"region.663c36e2-6d37-4cc8-baee-07d9cc7c824b","countryId":"country.ao8edp"},"geometry":{"type":"Polygon","coordinates":[[[-60.6471,11.2042],[-60.6547,11.308],[-60.7943,11.2166],[-60.8033,11.1433],[-60.6471,11.2042]]]}},{"type":"Feature","properties":{"sourceId":"1159308043","regionId":"region.846e0f8a-2411-4789-9e90-b7aa65ec94d2","countryId":"country.ao8edp"},"geometry":{"type":"Polygon","coordinates":[[[-61.2745,10.6074],[-61.2655,10.6197],[-61.2713,10.6406],[-61.2887,10.6233],[-61.2745,10.6074]]]}}]}