{"type":"FeatureCollection","features":[{"type":"Feature","properties":{"sourceId":"1159316197","regionId":"region.5b139d16-5566-4a4c-93af-749697265134","countryId":"country.b6fde5b8-cf15-4377-94fd-cef6d5af956b"},"geometry":{"type":"MultiPolygon","coordinates":[[[[-172.3662,-13.4628],[-172.4142,-13.6369],[-172.391,-13.6375],[-172.3474,-13.6386],[-172.311,-13.6395],[-172.2228,-13.5584],[-172.3662,-13.4628]]],[[[-171.8541,-14.0019],[-171.8479,-13.9437],[-171.8756,-14.0047],[-171.8541,-14.0019]]]]}},{"type":"Feature","properties":{"sourceId":"1159316201","regionId":"region.d197104d-a813-45c0-94e3-a7343623446a","countryId":"country.b6fde5b8-cf15-4377-94fd-cef6d5af956b"},"geometry":{"type":"Polygon","coordinates":[[[-172.639,-13.5221],[-172.6318,-13.5999],[-172.5787,-13.6326],[-172.4142,-13.6369],[-172.3662,-13.4628],[-172.639,-13.5221]]]}},{"type":"Feature","properties":{"sourceId":"1159316203","regionId":"region.370b5883-4df4-4f84-a864-ea3a94725d96","countryId":"country.b6fde5b8-cf15-4377-94fd-cef6d5af956b"},"geometry":{"type":"Polygon","coordinates":[[[-172.7035,-13.6166],[-172.6318,-13.5999],[-172.639,-13.5221],[-172.7035,-13.6166]]]}},{"type":"Feature","properties":{"sourceId":"1159316205","regionId":"region.4d3e92ba-7730-4e94-bd11-78f6e97d1825","countryId":"country.b6fde5b8-cf15-4377-94fd-cef6d5af956b"},"geometry":{"type":"MultiPolygon","coordinates":[[[[-172.609,-13.693],[-172.5787,-13.6326],[-172.6318,-13.5999],[-172.7035,-13.6166],[-172.609,-13.693]]],[[[-172.3184,-13.7713],[-172.3474,-13.6386],[-172.391,-13.6375],[-172.3545,-13.784],[-172.3184,-13.7713]]]]}},{"type":"Feature","properties":{"sourceId":"1159316207","regionId":"region.07ea27a6-a3af-4b14-926c-21cfae63b719","countryId":"country.b6fde5b8-cf15-4377-94fd-cef6d5af956b"},"geometry":{"type":"MultiPolygon","coordinates":[[[[-172.3545,-13.784],[-172.391,-13.6375],[-172.4142,-13.6369],[-172.5787,-13.6326],[-172.609,-13.693],[-172.5232,-13.8054],[-172.3545,-13.784]]],[[[-172.213,-13.801],[-172.311,-13.6395],[-172.3474,-13.6386],[-172.3184,-13.7713],[-172.213,-13.801]]]]}},{"type":"Feature","properties":{"sourceId":"1159316195","regionId":"region.8577d286-95fb-4e28-b5a3-18407a40a0e1","countryId":"country.b6fde5b8-cf15-4377-94fd-cef6d5af956b"},"geometry":{"type":"Polygon","coordinates":[[[-172.2228,-13.5584],[-172.311,-13.6395],[-172.213,-13.801],[-172.1806,-13.7024],[-172.2228,-13.5584]]]}},{"type":"Feature","properties":{"sourceId":"1159316191","regionId":"region.a7f499c2-954d-465d-a049-e5ee6050cfd0","countryId":"country.b6fde5b8-cf15-4377-94fd-cef6d5af956b"},"geometry":{"type":"Polygon","coordinates":[[[-171.5676,-13.8967],[-171.5852,-13.8839],[-171.6502,-13.8713],[-171.6524,-14.0452],[-171.4662,-14.0528],[-171.4693,-13.9694],[-171.558,-13.9828],[-171.5591,-13.9254],[-171.5676,-13.8967]]]}},{"type":"Feature","properties":{"sourceId":"1159316193","regionId":"region.f30cc59b-3294-457c-ba58-cd403a495c4b","countryId":"country.b6fde5b8-cf15-4377-94fd-cef6d5af956b"},"geometry":{"type":"Polygon","coordinates":[[[-171.5591,-13.9254],[-171.558,-13.9828],[-171.4693,-13.9694],[-171.5591,-13.9254]]]}},{"type":"Feature","properties":{"sourceId":"1159315495","regionId":"region.fcf05146-3306-4e12-86e7-1745196f9377","countryId":"country.b6fde5b8-cf15-4377-94fd-cef6d5af956b"},"geometry":{"type":"Polygon","coordinates":[[[-171.7923,-13.8165],[-171.8149,-13.8116],[-171.8579,-13.8063],[-171.8479,-13.9437],[-171.8541,-14.0019],[-171.6524,-14.0452],[-171.6502,-13.8713],[-171.7923,-13.8165]]]}},{"type":"Feature","properties":{"sourceId":"1159316187","regionId":"region.272ddedb-6752-456e-b51c-4312c0ca706a","countryId":"country.b6fde5b8-cf15-4377-94fd-cef6d5af956b"},"geometry":{"type":"Polygon","coordinates":[[[-171.9926,-13.8282],[-172.0406,-13.9152],[-171.8756,-14.0047],[-171.8479,-13.9437],[-171.8579,-13.8063],[-171.9926,-13.8282]]]}},{"type":"Feature","properties":{"sourceId":"1159316189","regionId":"region.c24982d0-525f-4b1b-9bc9-426152905758","countryId":"country.b6fde5b8-cf15-4377-94fd-cef6d5af956b"},"geometry":{"type":"Polygon","coordinates":[[[-172.028,-13.8407],[-172.0556,-13.8619],[-172.0406,-13.9152],[-171.9926,-13.8282],[-172.028,-13.8407]]]}}]}