{"type":"FeatureCollection","features":[{"type":"Feature","properties":{"sourceId":"1159315489","regionId":"region.3961d510-55e0-4769-b492-bd49329eefdb","countryId":"country.8606462a-5750-456d-8472-ba3c5cafd087"},"geometry":{"type":"Polygon","coordinates":[[[-157.9346,-21.8775],[-157.9529,-21.9323],[-157.8899,-21.9153],[-157.9346,-21.8775]]]}},{"type":"Feature","properties":{"sourceId":"1159316131","regionId":"region.172e06c8-0d79-4c92-917f-1583764db7fa","countryId":"country.8606462a-5750-456d-8472-ba3c5cafd087"},"geometry":{"type":"Polygon","coordinates":[[[-157.708,-19.7672],[-157.7396,-19.8185],[-157.7082,-19.8412],[-157.708,-19.7672]]]}},{"type":"Feature","properties":{"sourceId":"1159316147","regionId":"region.5cf13c9b-0651-44f4-84cf-246e455d8562","countryId":"country.8606462a-5750-456d-8472-ba3c5cafd087"},"geometry":{"type":"Polygon","coordinates":[[[-157.9407,-8.9807],[-157.9407,-8.9745],[-158.0029,-8.9467],[-157.9786,-8.976],[-157.9407,-8.9807]]]}},{"type":"Feature","properties":{"sourceId":"1159316125","regionId":"region.e33245f1-8d7f-4797-b88e-498674201aa3","countryId":"country.8606462a-5750-456d-8472-ba3c5cafd087"},"geometry":{"type":"Polygon","coordinates":[[[-159.7978,-21.1861],[-159.8331,-21.2446],[-159.7432,-21.2543],[-159.7427,-21.2016],[-159.7978,-21.1861]]]}},{"type":"Feature","properties":{"sourceId":"1159316133","regionId":"region.e7e134d4-dcbe-43ff-8400-d2011eb489bf","countryId":"country.8606462a-5750-456d-8472-ba3c5cafd087"},"geometry":{"type":"Polygon","coordinates":[[[-157.3128,-20.1552],[-157.349,-20.1433],[-157.3403,-20.1757],[-157.3128,-20.1552]]]}},{"type":"Feature","properties":{"sourceId":"1159316129","regionId":"region.7fd54764-972d-4f8a-9cd8-d4d9dbd3c6ec","countryId":"country.8606462a-5750-456d-8472-ba3c5cafd087"},"geometry":{"type":"Polygon","coordinates":[[[-158.0783,-19.9942],[-158.1203,-19.9728],[-158.1151,-20.0157],[-158.0783,-19.9942]]]}},{"type":"Feature","properties":{"sourceId":"1159316135","regionId":"region.78f862c1-0fe8-4c19-96ea-47af10a56570","countryId":"country.8606462a-5750-456d-8472-ba3c5cafd087"},"geometry":{"type":"Polygon","coordinates":[[[-158.9252,-19.2692],[-158.938,-19.2571],[-158.9457,-19.2421],[-158.9556,-19.2453],[-158.9502,-19.2545],[-158.9374,-19.2643],[-158.9252,-19.2692]]]}},{"type":"Feature","properties":{"sourceId":"1159316139","regionId":"region.8c598b69-8da4-47c4-82a3-8d805c9f5532","countryId":"country.8606462a-5750-456d-8472-ba3c5cafd087"},"geometry":{"type":"Polygon","coordinates":[[[-165.8245,-10.8818],[-165.814,-10.8891],[-165.8118,-10.8801],[-165.8245,-10.8818]]]}},{"type":"Feature","properties":{"sourceId":"1159316143","regionId":"region.313d8501-44e7-44a1-aa74-becbdb923124","countryId":"country.8606462a-5750-456d-8472-ba3c5cafd087"},"geometry":{"type":"Polygon","coordinates":[[[-160.9862,-10.3821],[-160.9381,-10.4228],[-160.9799,-10.381],[-160.9862,-10.3821]]]}},{"type":"Feature","properties":{"sourceId":"1159316141","regionId":"region.34849479-3cd8-4f11-9935-5e15af61c56a","countryId":"country.8606462a-5750-456d-8472-ba3c5cafd087"},"geometry":{"type":"Polygon","coordinates":[[[-161.088,-10.0351],[-161.0873,-10.0446],[-161.0756,-10.0364],[-161.088,-10.0351]]]}},{"type":"Feature","properties":{"sourceId":"1159316137","regionId":"region.400df312-fb52-4bbb-afc7-2282a3264fff","countryId":"country.8606462a-5750-456d-8472-ba3c5cafd087"},"geometry":{"type":"Polygon","coordinates":[[[-159.7851,-18.8308],[-159.8023,-18.8658],[-159.7765,-18.8782],[-159.7851,-18.8308]]]}}]}