{"type":"FeatureCollection","features":[{"type":"Feature","properties":{"sourceId":"1159316503","regionId":"region.6d15b0f0-cf95-40cf-ade2-3b192f13f47c","countryId":"country.75cd3e08-1b7e-45c4-95d0-9f87779537d0"},"geometry":{"type":"MultiPolygon","coordinates":[[[[-64.7054,32.3361],[-64.6949,32.3399],[-64.7081,32.3516],[-64.722,32.3525],[-64.7054,32.3361]]],[[[-64.7139,32.3295],[-64.7073,32.3212],[-64.6984,32.3264],[-64.7054,32.3361],[-64.7139,32.3295]]]]}},{"type":"Feature","properties":{"sourceId":"1159316501","regionId":"region.3b200837-8bb7-4904-87a3-896058e6f093","countryId":"country.75cd3e08-1b7e-45c4-95d0-9f87779537d0"},"geometry":{"type":"Polygon","coordinates":[[[-64.7312,32.3231],[-64.7427,32.3218],[-64.7482,32.3165],[-64.7379,32.3021],[-64.7073,32.3212],[-64.7139,32.3295],[-64.7312,32.3231]]]}},{"type":"Feature","properties":{"sourceId":"1159315579","regionId":"region.7d846000-4aa7-4fa4-86f1-5af94902c6b7","countryId":"country.75cd3e08-1b7e-45c4-95d0-9f87779537d0"},"geometry":{"type":"Polygon","coordinates":[[[-64.7801,32.3034],[-64.779,32.2911],[-64.7608,32.2862],[-64.7379,32.3021],[-64.7482,32.3165],[-64.7801,32.3034]]]}},{"type":"Feature","properties":{"sourceId":"1159316491","regionId":"region.77901d99-5325-4c49-9bbe-57e7b5f53b0b","countryId":"country.75cd3e08-1b7e-45c4-95d0-9f87779537d0"},"geometry":{"type":"Polygon","coordinates":[[[-64.7945,32.2895],[-64.7938,32.2964],[-64.7844,32.2973],[-64.7844,32.2906],[-64.779,32.2911],[-64.7801,32.3034],[-64.8108,32.3076],[-64.7945,32.2895]]]}},{"type":"Feature","properties":{"sourceId":"1159316493","regionId":"region.14b4c89b-392b-49a5-9db7-a5c16e9e258e","countryId":"country.75cd3e08-1b7e-45c4-95d0-9f87779537d0"},"geometry":{"type":"Polygon","coordinates":[[[-64.7844,32.2906],[-64.7844,32.2973],[-64.7938,32.2964],[-64.7945,32.2895],[-64.7844,32.2906]]]}},{"type":"Feature","properties":{"sourceId":"1159316495","regionId":"region.f1e7024c-79e5-42c5-9d7c-50a43d7b82cc","countryId":"country.75cd3e08-1b7e-45c4-95d0-9f87779537d0"},"geometry":{"type":"Polygon","coordinates":[[[-64.7971,32.2791],[-64.7883,32.2653],[-64.7608,32.2862],[-64.779,32.2911],[-64.7971,32.2791]]]}},{"type":"Feature","properties":{"sourceId":"1159316497","regionId":"region.53da2744-c1e3-4ee5-9986-ecb40dd44cc7","countryId":"country.75cd3e08-1b7e-45c4-95d0-9f87779537d0"},"geometry":{"type":"Polygon","coordinates":[[[-64.8329,32.2597],[-64.8152,32.2543],[-64.7883,32.2653],[-64.7971,32.2791],[-64.8329,32.2597]]]}},{"type":"Feature","properties":{"sourceId":"1159316499","regionId":"region.a1f06e23-826c-4782-8e05-95f00c4e5a16","countryId":"country.75cd3e08-1b7e-45c4-95d0-9f87779537d0"},"geometry":{"type":"Polygon","coordinates":[[[-64.8631,32.269],[-64.8802,32.2659],[-64.8152,32.2543],[-64.8329,32.2597],[-64.8631,32.269]]]}},{"type":"Feature","properties":{"sourceId":"1159315681","regionId":"region.16029d89-14a4-4a62-963e-c815a40ece9c","countryId":"country.75cd3e08-1b7e-45c4-95d0-9f87779537d0"},"geometry":{"type":"Polygon","coordinates":[[[-64.8802,32.2659],[-64.8631,32.269],[-64.872,32.2764],[-64.8581,32.2977],[-64.8689,32.3089],[-64.878,32.2861],[-64.8802,32.2659]]]}},{"type":"Feature","properties":{"sourceId":"1159316507","regionId":"region.9523c4e7-e6fb-4a36-8e80-24804c463730","countryId":"country.75cd3e08-1b7e-45c4-95d0-9f87779537d0"},"geometry":{"type":"MultiPolygon","coordinates":[[[[-64.6949,32.3399],[-64.7054,32.3361],[-64.6984,32.3264],[-64.6949,32.3399]]],[[[-64.722,32.3525],[-64.7081,32.3516],[-64.6914,32.364],[-64.6554,32.3593],[-64.6761,32.3887],[-64.722,32.3525]],[[-64.677,32.3698],[-64.681,32.376],[-64.6721,32.381],[-64.6685,32.3743],[-64.677,32.3698]]]]}},{"type":"Feature","properties":{"sourceId":"1159316509","regionId":"region.8930349d-2f21-409c-a11f-ef675e026704","countryId":"country.75cd3e08-1b7e-45c4-95d0-9f87779537d0"},"geometry":{"type":"Polygon","coordinates":[[[-64.677,32.3698],[-64.6685,32.3743],[-64.6721,32.381],[-64.681,32.376],[-64.677,32.3698]]]}}]}