{"type":"FeatureCollection","features":[{"type":"Feature","properties":{"sourceId":"1159315905","regionId":"region.5292de72-7ce5-4a63-a73b-47c5e9edb7e3","countryId":"country.jvmcgx"},"geometry":{"type":"Polygon","coordinates":[[[43.4404,41.1066],[43.3226,41.1921],[43.2306,41.1726],[43.1239,41.3129],[42.9577,41.437],[42.7665,41.5043],[42.8009,41.5792],[42.5866,41.5791],[42.451,41.4314],[42.5387,41.1912],[42.5121,41.1235],[42.3415,41.0197],[42.2792,40.9249],[42.2992,40.8481],[42.537,40.5992],[42.7719,40.6253],[42.8294,40.8935],[43.4404,41.1066]]]}},{"type":"Feature","properties":{"sourceId":"1159312345","regionId":"region.62f77bba-d68d-415f-9196-873d7d14ac86","countryId":"country.jvmcgx"},"geometry":{"type":"Polygon","coordinates":[[[42.451,41.4314],[42.1584,41.4999],[41.948,41.5056],[41.8008,41.4257],[41.695,41.4891],[41.5208,41.5142],[41.3904,41.3793],[41.1997,41.3013],[41.2553,41.1727],[41.3858,41.0753],[41.1274,40.8129],[41.3653,40.7547],[41.3334,40.601],[41.4013,40.5556],[41.6566,40.6412],[41.8208,40.5876],[42.0244,40.9119],[42.2792,40.9249],[42.3415,41.0197],[42.5121,41.1235],[42.5387,41.1912],[42.451,41.4314]]]}},{"type":"Feature","properties":{"sourceId":"1159314387","regionId":"region.17cd2bfe-822d-4a4a-a0c2-5ba41e9015bc","countryId":"country.jvmcgx"},"geometry":{"type":"Polygon","coordinates":[[[42.3572,37.11],[42.5613,37.1466],[42.7716,37.3749],[42.937,37.3202],[43.0837,37.3688],[43.3625,37.3039],[43.4093,37.4648],[43.3597,37.5846],[43.3868,37.7336],[43.1029,37.7661],[43.0233,37.7317],[42.9505,37.626],[42.2354,37.7086],[42.157,37.6466],[41.9587,37.659],[41.8169,37.7138],[41.905,37.502],[41.8926,37.4359],[41.7231,37.3656],[41.8964,37.1543],[42.0092,37.1756],[42.1785,37.3063],[42.3532,37.227],[42.3572,37.11]]]}},{"type":"Feature","properties":{"sourceId":"1159314391","regionId":"region.417e44f7-4111-43cd-9aeb-77ccc1c9ab89","countryId":"country.jvmcgx"},"geometry":{"type":"Polygon","coordinates":[[[43.3625,37.3039],[43.4796,37.2434],[43.8936,37.2249],[44.069,37.3137],[44.2232,37.2541],[44.18,37.0876],[44.2343,36.9837],[44.4281,37.0648],[44.5782,37.1664],[44.7661,37.1419],[44.8016,37.2927],[44.5659,37.4472],[44.5961,37.7164],[44.4505,37.7666],[44.3779,37.8541],[44.205,37.9048],[44.0443,37.9012],[43.9778,37.7913],[43.3868,37.7336],[43.3597,37.5846],[43.4093,37.4648],[43.3625,37.3039]]]}},{"type":"Feature","properties":{"sourceId":"1159315907","regionId":"region.a1e12969-a443-4156-9b1f-3e2a5f8586b0","countryId":"country.jvmcgx"},"geometry":{"type":"Polygon","coordinates":[[[44.807,39.6399],[44.7746,39.7028],[44.5222,39.9335],[44.3809,40.0098],[44.2553,40.0434],[44.0324,40.0086],[43.6654,40.1102],[43.3563,40.0409],[43.3184,39.9693],[43.35,39.8038],[43.5316,39.8385],[43.7155,39.7282],[43.9733,39.6432],[44.2245,39.628],[44.4583,39.6425],[44.5657,39.7659],[44.807,39.6399]]]}},{"type":"Feature","properties":{"sourceId":"1159312415","regionId":"region.eb10571b-f08f-4ffe-96df-aa7774e68132","countryId":"country.jvmcgx"},"geometry":{"type":"Polygon","coordinates":[[[44.4583,39.6425],[44.2245,39.628],[43.9733,39.6432],[43.7155,39.7282],[43.5316,39.8385],[43.35,39.8038],[43.3184,39.9693],[43.0645,39.9893],[42.7573,39.9221],[42.5637,39.9519],[42.3816,39.8706],[42.3529,39.7921],[42.4949,39.7481],[42.4313,39.4914],[42.501,39.3732],[42.6413,39.2354],[42.6276,39.0024],[42.7874,39.0719],[42.972,39.1041],[43.1129,39.1619],[43.1146,39.2616],[43.2437,39.4099],[43.3898,39.3821],[43.4923,39.3133],[43.7056,39.3404],[43.906,39.3084],[44.0474,39.3375],[44.0614,39.4003],[44.2695,39.3829],[44.4048,39.4344],[44.4583,39.6425]]]}},{"type":"Feature","properties":{"sourceId":"1159314393","regionId":"region.39c0b3db-87ae-4d7f-a0b5-273b108e24ae","countryId":"country.jvmcgx"},"geometry":{"type":"Polygon","coordinates":[[[44.0474,39.3375],[43.906,39.3084],[43.7056,39.3404],[43.4923,39.3133],[43.3898,39.3821],[43.2437,39.4099],[43.1146,39.2616],[43.1129,39.1619],[42.972,39.1041],[43.0036,38.9773],[43.1612,38.8723],[42.8753,38.5442],[42.7043,38.4618],[42.678,38.4049],[42.7335,38.1959],[42.7869,38.1811],[43.0163,38.1518],[43.0293,37.9994],[42.9835,37.8064],[43.0233,37.7317],[43.1029,37.7661],[43.3868,37.7336],[43.9778,37.7913],[44.0443,37.9012],[44.205,37.9048],[44.3338,38.1009],[44.4247,38.377],[44.2895,38.3823],[44.297,38.6223],[44.2486,38.7218],[44.275,38.8436],[44.1392,38.994],[44.1866,39.1451],[44.0777,39.2001],[44.0474,39.3375]]]}},{"type":"Feature","properties":{"sourceId":"1159312319","regionId":"region.28122203-a40d-4548-81a2-c6d857e0b907","countryId":"country.jvmcgx"},"geometry":{"type":"Polygon","coordinates":[[[28.0168,41.9726],[27.808,41.9935],[27.5332,41.9081],[27.2734,42.0917],[27.0479,42.0829],[26.8379,41.9752],[26.9062,41.6669],[26.7802,41.3756],[26.8098,41.3303],[27.2398,41.3648],[27.396,41.2646],[27.5179,41.3111],[27.6014,41.4197],[27.8074,41.4614],[28.1557,41.4922],[28.203,41.5402],[28.0759,41.6605],[27.972,41.8223],[28.0168,41.9726]]]}},{"type":"Feature","properties":{"sourceId":"1159312317","regionId":"region.82c8e94e-48c7-46a2-b41f-87bfa7acb2ec","countryId":"country.jvmcgx"},"geometry":{"type":"Polygon","coordinates":[[[26.8379,41.9752],[26.6236,41.969],[26.5529,41.8816],[26.3755,41.8166],[26.3334,41.713],[26.5963,41.5975],[26.6366,41.3785],[26.3317,41.2541],[26.3224,41.0886],[26.3591,40.9647],[26.2604,40.9204],[26.1345,40.7671],[26.044,40.7385],[26.0769,40.6118],[26.3026,40.6011],[26.7805,40.6594],[26.7864,40.7258],[26.7163,40.935],[26.8293,41.1728],[26.8098,41.3303],[26.7802,41.3756],[26.9062,41.6669],[26.8379,41.9752]]]}},{"type":"Feature","properties":{"sourceId":"1159314377","regionId":"region.f3e02c2a-3791-4480-a787-18e3b72e5482","countryId":"country.jvmcgx"},"geometry":{"type":"Polygon","coordinates":[[[43.4404,41.1066],[42.8294,40.8935],[42.7719,40.6253],[42.537,40.5992],[42.5382,40.4307],[42.1812,40.2944],[42.2309,40.1605],[42.4846,40.0588],[42.5637,39.9519],[42.7573,39.9221],[43.0645,39.9893],[43.3184,39.9693],[43.3563,40.0409],[43.6654,40.1102],[43.6903,40.2404],[43.5942,40.3454],[43.6245,40.4111],[43.7294,40.6771],[43.7113,40.7816],[43.6049,40.9633],[43.4605,41.0229],[43.4404,41.1066]]]}},{"type":"Feature","properties":{"sourceId":"1159314379","regionId":"region.d860e12c-832b-4616-9ba0-e8e4d36c6c77","countryId":"country.jvmcgx"},"geometry":{"type":"Polygon","coordinates":[[[41.8964,37.1543],[41.7231,37.3656],[41.8926,37.4359],[41.905,37.502],[41.8169,37.7138],[41.5206,37.5433],[41.3677,37.5185],[41.2603,37.5722],[41.19,37.688],[41.0752,37.7649],[41.0118,37.7414],[40.662,37.7484],[40.5516,37.7299],[40.0978,37.4758],[40,37.3757],[40.0138,37.2575],[40.1249,37.1697],[40.1275,37.069],[40.2614,36.9228],[40.4352,37.0106],[40.709,37.1005],[40.8964,37.1227],[41.2013,37.065],[41.4798,37.0756],[41.8964,37.1543]]]}},{"type":"Feature","properties":{"sourceId":"1159314359","regionId":"region.3fd7b3a8-e5b4-4780-8b00-caf5df16c46b","countryId":"country.jvmcgx"},"geometry":{"type":"Polygon","coordinates":[[[39.4417,36.6924],[39.7653,36.7422],[39.9798,36.807],[40.2614,36.9228],[40.1275,37.069],[40.1249,37.1697],[40.0138,37.2575],[40,37.3757],[39.8843,37.5501],[39.8632,37.7777],[39.5888,37.883],[39.4626,37.9767],[39.189,38.0431],[39.0603,37.9879],[38.8685,37.6514],[38.6456,37.6242],[38.5154,37.5111],[38.272,37.4764],[38.1972,37.4236],[38.0399,37.446],[37.9744,37.4354],[37.8406,37.2679],[37.8693,37.0651],[38.0079,36.9571],[38.026,36.835],[38.1901,36.9055],[38.5294,36.8337],[38.6352,36.744],[38.7954,36.6867],[39.0322,36.7012],[39.1859,36.6595],[39.4417,36.6924]]]}},{"type":"Feature","properties":{"sourceId":"1159315913","regionId":"region.2088d1b6-e5fa-4417-a202-c24ec04f5997","countryId":"country.jvmcgx"},"geometry":{"type":"Polygon","coordinates":[[[37.5221,36.6736],[37.1171,36.9],[36.8743,37.0033],[36.864,36.9362],[36.6596,36.8272],[36.9647,36.7538],[37.0145,36.6423],[37.2419,36.6586],[37.4461,36.6342],[37.5221,36.6736]]]}},{"type":"Feature","properties":{"sourceId":"1159314357","regionId":"region.87a4c780-fb56-4351-ac9d-659a8e137cf6","countryId":"country.jvmcgx"},"geometry":{"type":"Polygon","coordinates":[[[38.026,36.835],[38.0079,36.9571],[37.8693,37.0651],[37.8406,37.2679],[37.9744,37.4354],[38.0399,37.446],[37.8436,37.5356],[37.6251,37.5188],[37.6173,37.4144],[37.1342,37.3097],[37.0432,37.2333],[36.9377,37.3422],[36.7212,37.2712],[36.4519,36.9607],[36.6596,36.8272],[36.864,36.9362],[36.8743,37.0033],[37.1171,36.9],[37.5221,36.6736],[38.026,36.835]]]}},{"type":"Feature","properties":{"sourceId":"1159312411","regionId":"region.ff0eb200-dca3-4fa0-b031-14ce672f5e90","countryId":"country.jvmcgx"},"geometry":{"type":"Polygon","coordinates":[[[36.6596,36.8272],[36.4519,36.9607],[36.2806,37.0043],[36.0616,37.0097],[35.917,36.9348],[35.9325,36.873],[36.0586,36.9184],[36.189,36.8017],[36.1891,36.604],[36.0374,36.527],[35.7887,36.3203],[35.9754,36.0185],[35.9113,35.9178],[36.1553,35.8222],[36.1969,35.9517],[36.3555,36.0224],[36.3605,36.1817],[36.4986,36.2279],[36.6643,36.229],[36.6488,36.3057],[36.5878,36.3248],[36.5355,36.494],[36.6033,36.747],[36.6596,36.8272]]]}},{"type":"Feature","properties":{"sourceId":"1159312323","regionId":"region.49734b71-e4e9-4364-b604-f9a24222e573","countryId":"country.jvmcgx"},"geometry":{"type":"MultiPolygon","coordinates":[[[[28.203,41.5402],[28.1557,41.4922],[28.193,41.3553],[28.1493,41.213],[28.1747,41.0808],[28.4607,41.0329],[28.6253,40.9684],[28.822,40.9616],[28.9819,41.0017],[29.1092,41.2353],[28.9085,41.2665],[28.3843,41.4475],[28.203,41.5402]]],[[[29.2537,40.8755],[29.4509,41.0086],[29.5818,40.9253],[29.8494,41.0294],[29.8846,41.149],[29.2318,41.2407],[29.1301,41.2119],[29.0281,40.9821],[29.2537,40.8755]]]]}},{"type":"Feature","properties":{"sourceId":"1159312321","regionId":"region.00e3c2cc-f9ff-45ea-ad0d-974093a60e48","countryId":"country.jvmcgx"},"geometry":{"type":"Polygon","coordinates":[[[28.1747,41.0808],[28.1493,41.213],[28.193,41.3553],[28.1557,41.4922],[27.8074,41.4614],[27.6014,41.4197],[27.5179,41.3111],[27.396,41.2646],[27.2398,41.3648],[26.8098,41.3303],[26.8293,41.1728],[26.7163,40.935],[26.7864,40.7258],[26.9324,40.7149],[26.9635,40.561],[27.1777,40.6326],[27.4248,40.8313],[27.5242,40.9892],[27.7378,41.0126],[27.9413,40.9711],[28.013,41.0407],[28.1747,41.0808]]]}},{"type":"Feature","properties":{"sourceId":"1159312361","regionId":"region.6f40983d-6cc0-4146-90c2-63517ba8aff2","countryId":"country.jvmcgx"},"geometry":{"type":"MultiPolygon","coordinates":[[[[26.9635,40.561],[26.9324,40.7149],[26.7864,40.7258],[26.7805,40.6594],[26.8289,40.602],[26.5956,40.5104],[26.2191,40.3314],[26.2669,40.2578],[26.2147,40.1461],[26.3758,40.1535],[26.4447,40.2416],[26.6167,40.3595],[26.6834,40.4555],[26.9635,40.561]]],[[[26.6672,39.5508],[26.6967,39.7102],[26.8274,39.7078],[27.0221,39.7929],[27.2742,39.7727],[27.4388,39.8445],[27.4487,39.9959],[27.5009,40.1213],[27.4472,40.1847],[27.5722,40.3157],[27.3376,40.3703],[27.3034,40.4584],[27.0964,40.4523],[27.0134,40.3925],[26.7356,40.4036],[26.5007,40.213],[26.408,40.1937],[26.311,40.0195],[26.1526,39.9426],[26.1482,39.626],[26.07,39.4963],[26.1528,39.4592],[26.3622,39.4814],[26.6672,39.5508]]],[[[26.0122,40.1666],[25.9133,40.2413],[25.759,40.2067],[25.766,40.0972],[26.0122,40.1666]]]]}},{"type":"Feature","properties":{"sourceId":"1159312353","regionId":"region.c0cf7bb6-f5de-4382-a504-f9a46efb07bd","countryId":"country.jvmcgx"},"geometry":{"type":"Polygon","coordinates":[[[40.3523,40.9941],[40.4869,40.6733],[40.4894,40.5421],[40.7918,40.6291],[41.1274,40.8129],[41.3858,41.0753],[41.2553,41.1727],[41.1997,41.3013],[40.8968,41.1876],[40.8275,41.1979],[40.6983,41.0981],[40.3523,40.9941]]]}},{"type":"Feature","properties":{"sourceId":"1159312355","regionId":"region.a0221939-83f4-45bb-a8d6-a6f58641e9bc","countryId":"country.jvmcgx"},"geometry":{"type":"Polygon","coordinates":[[[39.1483,41.0725],[39.1201,40.9512],[39.1444,40.7714],[39.2213,40.7898],[39.3452,40.6596],[39.5789,40.5878],[39.7173,40.6574],[39.834,40.561],[39.9138,40.603],[40.0159,40.5327],[40.1846,40.5104],[40.4894,40.5421],[40.4869,40.6733],[40.3523,40.9941],[40.1428,40.9228],[39.9994,40.9821],[39.8587,40.9643],[39.5921,41.0251],[39.4302,41.1125],[39.2732,41.0504],[39.1483,41.0725]]]}},{"type":"Feature","properties":{"sourceId":"1159312333","regionId":"region.ab7632d7-8d1d-488c-894b-ef3b753967ac","countryId":"country.jvmcgx"},"geometry":{"type":"Polygon","coordinates":[[[38.1142,40.9582],[38.0629,40.8463],[38.0633,40.6052],[38.1583,40.5235],[38.2748,40.1861],[38.4542,40.0999],[38.5563,40.1194],[38.7616,40.0549],[38.9333,40.0713],[38.9071,40.2699],[39.0598,40.3519],[38.9879,40.4325],[38.8423,40.4802],[38.9077,40.6867],[39.0244,40.7605],[39.1444,40.7714],[39.1201,40.9512],[39.1483,41.0725],[38.9275,41.0426],[38.7176,40.9548],[38.3309,40.9179],[38.1142,40.9582]]]}},{"type":"Feature","properties":{"sourceId":"1159312335","regionId":"region.12cec00d-2d51-477a-b1b4-852cc0cf9c06","countryId":"country.jvmcgx"},"geometry":{"type":"Polygon","coordinates":[[[37.1517,41.1468],[36.9991,40.9797],[36.8284,40.8878],[36.7052,40.8625],[36.6989,40.8068],[37.0134,40.6989],[37.2197,40.6977],[37.4488,40.5759],[37.5841,40.5694],[37.6349,40.4612],[37.8019,40.3357],[38.0084,40.481],[38.1583,40.5235],[38.0633,40.6052],[38.0629,40.8463],[38.1142,40.9582],[37.8958,40.9821],[37.655,41.1176],[37.5047,41.0429],[37.2634,41.1479],[37.1517,41.1468]]]}},{"type":"Feature","properties":{"sourceId":"1159312341","regionId":"region.1ffd53bc-b968-47fa-8fd2-b5504caec766","countryId":"country.jvmcgx"},"geometry":{"type":"Polygon","coordinates":[[[35.5001,41.6416],[35.4608,41.5742],[35.5048,41.2845],[35.2963,41.2583],[35.1024,41.3853],[34.888,41.2698],[34.9748,41.0874],[35.0893,41.0869],[35.4611,41.0294],[35.7061,40.8788],[35.9532,40.8759],[36.1548,40.9014],[36.2429,41.007],[36.4431,40.8704],[36.6,40.9068],[36.7052,40.8625],[36.8284,40.8878],[36.9991,40.9797],[37.1517,41.1468],[37.0397,41.1815],[36.9849,41.2945],[36.8367,41.3508],[36.6199,41.3751],[36.451,41.2404],[36.2368,41.3589],[36.1345,41.4619],[36.1205,41.6278],[36.0449,41.7015],[35.8938,41.7075],[35.6198,41.6326],[35.5001,41.6416]]]}},{"type":"Feature","properties":{"sourceId":"1159312337","regionId":"region.d72865ff-7fe0-4f7a-a6a0-7a8e3f55d078","countryId":"country.jvmcgx"},"geometry":{"type":"Polygon","coordinates":[[[34.2161,41.9601],[34.1404,41.7671],[34.5325,41.7132],[34.5879,41.6575],[34.4918,41.5523],[34.4719,41.3108],[34.8373,41.2016],[34.888,41.2698],[35.1024,41.3853],[35.2963,41.2583],[35.5048,41.2845],[35.4608,41.5742],[35.5001,41.6416],[35.2248,41.7619],[35.0986,41.9127],[35.1045,42.0219],[34.9481,42.0988],[34.889,42.0078],[34.6942,41.946],[34.4827,41.9752],[34.2161,41.9601]]]}},{"type":"Feature","properties":{"sourceId":"1159312373","regionId":"region.91b6e074-1e03-4836-91a6-24442a371c69","countryId":"country.jvmcgx"},"geometry":{"type":"Polygon","coordinates":[[[32.7985,41.8597],[32.873,41.6823],[32.818,41.5764],[33.0589,41.5328],[33.1154,41.3954],[32.9194,41.2944],[32.9297,41.1533],[33.0692,41.093],[33.2346,41.0504],[33.4089,40.9599],[33.7922,41.094],[33.8209,40.9254],[34.0272,40.8608],[34.2564,40.9194],[34.2077,41.0393],[34.4194,41.302],[34.4719,41.3108],[34.4918,41.5523],[34.5879,41.6575],[34.5325,41.7132],[34.1404,41.7671],[34.2161,41.9601],[33.8735,41.9744],[33.3245,42.019],[32.9261,41.8818],[32.7985,41.8597]]]}},{"type":"Feature","properties":{"sourceId":"1159317191","regionId":"region.7723317e-e6d3-4d06-984c-b70020174f2d","countryId":"country.jvmcgx"},"geometry":{"type":"Polygon","coordinates":[[[32.1341,41.5994],[32.2507,41.5369],[32.3072,41.4156],[32.287,41.3308],[32.5012,41.3469],[32.6669,41.4964],[32.818,41.5764],[32.873,41.6823],[32.7985,41.8597],[32.6126,41.8395],[32.3518,41.7294],[32.2634,41.7202],[32.1341,41.5994]]]}},{"type":"Feature","properties":{"sourceId":"1159314349","regionId":"region.ca418388-6ee7-4c73-8f94-18f54d9755da","countryId":"country.jvmcgx"},"geometry":{"type":"Polygon","coordinates":[[[31.3464,41.1507],[31.556,41.0595],[31.7991,41.0418],[32.1494,41.0192],[32.1981,41.2419],[32.287,41.3308],[32.3072,41.4156],[32.2507,41.5369],[32.1341,41.5994],[31.8716,41.5046],[31.6589,41.3979],[31.4036,41.3165],[31.3464,41.1507]]]}},{"type":"Feature","properties":{"sourceId":"1159317195","regionId":"region.344df613-00b2-417d-a01f-fcebf6e673f9","countryId":"country.jvmcgx"},"geometry":{"type":"Polygon","coordinates":[[[30.9559,41.0824],[30.8694,40.9223],[30.8912,40.7268],[31.1354,40.7085],[31.2485,40.6721],[31.4223,40.7246],[31.5112,40.8782],[31.7334,40.9105],[31.7991,41.0418],[31.556,41.0595],[31.3464,41.1507],[31.1694,41.092],[30.9559,41.0824]]]}},{"type":"Feature","properties":{"sourceId":"1159312367","regionId":"region.fa5c5fba-143c-4b41-9b35-dd4820cd992e","countryId":"country.jvmcgx"},"geometry":{"type":"Polygon","coordinates":[[[30.4293,41.1706],[30.3921,41.0941],[30.4829,41.0329],[30.4592,40.9357],[30.264,40.8572],[30.183,40.6463],[29.9262,40.577],[29.9408,40.5335],[30.081,40.3914],[30.1691,40.371],[30.4263,40.394],[30.626,40.3315],[30.6011,40.4229],[30.6908,40.5744],[30.8252,40.5958],[30.8912,40.7268],[30.8694,40.9223],[30.9559,41.0824],[30.4293,41.1706]]]}},{"type":"Feature","properties":{"sourceId":"1159312363","regionId":"region.a01030d1-3923-45b2-9080-a289a4d5f531","countryId":"country.jvmcgx"},"geometry":{"type":"Polygon","coordinates":[[[29.8846,41.149],[29.8494,41.0294],[29.5818,40.9253],[29.4509,41.0086],[29.2537,40.8755],[29.4287,40.7761],[29.6662,40.7835],[29.7533,40.7246],[29.4284,40.6909],[29.4207,40.5632],[29.5353,40.5524],[29.7889,40.6147],[29.9262,40.577],[30.183,40.6463],[30.264,40.8572],[30.4592,40.9357],[30.4829,41.0329],[30.3921,41.0941],[30.4293,41.1706],[30.2713,41.2112],[30.1369,41.1438],[29.8846,41.149]]]}},{"type":"Feature","properties":{"sourceId":"1159317187","regionId":"region.e6999469-7243-4783-9d39-596775211d0a","countryId":"country.jvmcgx"},"geometry":{"type":"Polygon","coordinates":[[[28.9803,40.4645],[28.978,40.5732],[29.2305,40.5116],[29.4207,40.5632],[29.4284,40.6909],[28.9863,40.6448],[28.7927,40.5533],[28.9803,40.4645]]]}},{"type":"Feature","properties":{"sourceId":"1159312327","regionId":"region.4d4fb88c-8b6d-42ef-b2f6-98e79e07ed27","countryId":"country.jvmcgx"},"geometry":{"type":"Polygon","coordinates":[[[28.2081,40.3993],[28.0989,40.2972],[28.1128,40.1533],[28.246,39.9964],[28.2814,39.8958],[28.5459,39.7452],[28.6891,39.7473],[28.7803,39.6188],[28.9672,39.5891],[29.1908,39.5521],[29.2461,39.5793],[29.3995,39.8959],[29.6777,39.9063],[29.7183,40.1855],[29.8319,40.2909],[29.8,40.3719],[29.8467,40.4818],[29.9408,40.5335],[29.9262,40.577],[29.7889,40.6147],[29.5353,40.5524],[29.4207,40.5632],[29.2305,40.5116],[28.978,40.5732],[28.9803,40.4645],[28.9566,40.3632],[28.772,40.4025],[28.2081,40.3993]]]}},{"type":"Feature","properties":{"sourceId":"1159312153","regionId":"region.7976d740-e678-4c95-be18-810fbf450bf0","countryId":"country.jvmcgx"},"geometry":{"type":"Polygon","coordinates":[[[27.5722,40.3157],[27.4472,40.1847],[27.5009,40.1213],[27.4487,39.9959],[27.4388,39.8445],[27.2742,39.7727],[27.0221,39.7929],[26.8274,39.7078],[26.6967,39.7102],[26.6672,39.5508],[26.8934,39.5844],[26.926,39.4858],[26.6703,39.306],[26.7787,39.17],[27.05,39.3512],[27.291,39.4645],[27.4201,39.3803],[27.4966,39.4113],[27.6559,39.3517],[27.8712,39.3448],[28.125,39.063],[28.3208,39.1163],[28.6595,39.1566],[28.6667,39.238],[28.8114,39.2906],[28.896,39.3997],[28.9672,39.5891],[28.7803,39.6188],[28.6891,39.7473],[28.5459,39.7452],[28.2814,39.8958],[28.246,39.9964],[28.1128,40.1533],[28.0989,40.2972],[28.2081,40.3993],[27.9447,40.366],[27.9699,40.503],[27.76,40.5371],[27.6843,40.5023],[27.8674,40.3689],[27.7898,40.3205],[27.5722,40.3157]]]}},{"type":"Feature","properties":{"sourceId":"1159312359","regionId":"region.bc687328-8b77-42f5-805f-5595b99c14a1","countryId":"country.jvmcgx"},"geometry":{"type":"Polygon","coordinates":[[[27.2618,37.8884],[27.5832,37.9844],[27.8293,37.9691],[28.0611,38.0183],[28.2541,38.0201],[28.5623,38.1062],[28.4478,38.2899],[28.2994,38.3311],[28.1629,38.3088],[28.0954,38.3946],[27.9389,38.4068],[27.8989,38.3421],[27.6303,38.4915],[27.5833,38.5699],[27.3803,38.5759],[27.2284,38.7348],[27.3271,38.9249],[27.5377,39.0413],[27.4201,39.3803],[27.291,39.4645],[27.05,39.3512],[26.7787,39.17],[26.8831,39.0716],[26.8065,38.9501],[26.9624,38.9401],[27.0134,38.8712],[26.7191,38.7209],[26.7532,38.6179],[26.8489,38.5974],[26.9387,38.4342],[26.7669,38.3641],[26.6118,38.4162],[26.6304,38.5192],[26.5056,38.6527],[26.3486,38.6213],[26.4759,38.3669],[26.2654,38.2867],[26.6071,38.1083],[26.6359,38.2036],[26.7603,38.2167],[26.8649,38.0404],[26.9492,38.0674],[27.1164,37.9941],[27.2391,37.9879],[27.2618,37.8884]]]}},{"type":"Feature","properties":{"sourceId":"1159312357","regionId":"region.6f20db2e-f283-44f1-b6de-d9ce4a2a2db5","countryId":"country.jvmcgx"},"geometry":{"type":"Polygon","coordinates":[[[27.4035,37.4126],[27.5458,37.5545],[27.7704,37.4766],[28.1414,37.4668],[28.2699,37.5774],[28.4782,37.4917],[28.6089,37.4775],[28.5832,37.5897],[28.7303,37.5984],[28.8996,37.7097],[28.7706,37.8452],[28.7777,38.0288],[28.698,38.1038],[28.5623,38.1062],[28.2541,38.0201],[28.0611,38.0183],[27.8293,37.9691],[27.5832,37.9844],[27.2618,37.8884],[27.2495,37.7443],[27.1272,37.6885],[27.2085,37.5969],[27.1908,37.3573],[27.3303,37.3516],[27.4035,37.4126]]]}},{"type":"Feature","properties":{"sourceId":"1159312391","regionId":"region.7b91fa5d-5ea7-4723-a77d-1f6379279c56","countryId":"country.jvmcgx"},"geometry":{"type":"Polygon","coordinates":[[[29.2612,36.2936],[29.362,36.4631],[29.4773,36.4824],[29.5755,36.599],[29.5802,36.7161],[29.6889,36.9143],[29.604,37.0086],[29.4834,36.9959],[29.3904,37.0686],[29.2704,36.9116],[29.0902,36.9779],[29.0618,37.1029],[28.8115,37.2335],[28.7353,37.3599],[28.6273,37.3825],[28.6089,37.4775],[28.4782,37.4917],[28.2699,37.5774],[28.1414,37.4668],[27.7704,37.4766],[27.5458,37.5545],[27.4035,37.4126],[27.3968,37.3231],[27.616,37.2747],[27.5545,37.1301],[27.4751,37.0925],[27.303,37.1196],[27.2288,37.0618],[27.2632,36.9634],[27.4385,37.0277],[27.4837,36.9908],[27.7804,36.9936],[27.9866,37.0351],[28.0418,36.9389],[28.0418,36.7199],[28.1115,36.6042],[28.2531,36.7279],[28.2367,36.8132],[28.4248,36.8291],[28.6035,36.7335],[28.8635,36.6926],[28.9563,36.7275],[29.0964,36.6652],[29.1243,36.4182],[29.2612,36.2936]]]}},{"type":"Feature","properties":{"sourceId":"1159312375","regionId":"region.a90ee214-68df-4ccd-85c8-8a4598d4298e","countryId":"country.jvmcgx"},"geometry":{"type":"Polygon","coordinates":[[[32.5718,36.094],[32.6472,36.2693],[32.6517,36.438],[32.5316,36.5338],[32.4562,36.6734],[32.4264,36.8321],[32.3053,36.8542],[32.3235,36.9582],[32.1279,37.0762],[32.0331,37.1686],[31.8154,37.2985],[31.4155,37.3549],[31.3319,37.4222],[31.0235,37.3514],[30.935,37.3803],[30.7855,37.2352],[30.4409,37.2308],[30.2949,37.3049],[29.906,37.1722],[29.8359,37.0371],[29.6889,36.9143],[29.5802,36.7161],[29.5755,36.599],[29.4773,36.4824],[29.362,36.4631],[29.2612,36.2936],[29.6682,36.1438],[29.7953,36.1452],[29.9116,36.217],[30.1447,36.2543],[30.2546,36.3083],[30.4408,36.2393],[30.5199,36.3419],[30.4746,36.4016],[30.5698,36.528],[30.5698,36.7813],[30.6865,36.8912],[30.7759,36.8496],[30.9397,36.857],[31.3408,36.8086],[31.4076,36.7634],[32.0261,36.5434],[32.3655,36.178],[32.5718,36.094]]]}},{"type":"Feature","properties":{"sourceId":"1159312403","regionId":"region.06fb2775-a9bd-4a73-b9b5-8a56af9ce6ff","countryId":"country.jvmcgx"},"geometry":{"type":"Polygon","coordinates":[[[34.9333,36.7275],[35.0667,36.7957],[35.0817,37.026],[34.935,37.0837],[34.9098,37.2432],[34.7916,37.3877],[34.5122,37.352],[34.4819,37.3089],[34.149,37.155],[33.9668,37.1162],[33.8706,37.0577],[33.3719,36.988],[33.2007,36.8871],[32.9795,36.8038],[33.0435,36.6727],[33.1612,36.6185],[33.0524,36.4666],[32.8425,36.4328],[32.6517,36.438],[32.6472,36.2693],[32.5718,36.094],[32.8037,36.0272],[32.9409,36.1035],[33.0877,36.0828],[33.134,36.1318],[33.5442,36.1445],[34.0779,36.3288],[34.0773,36.4139],[34.2762,36.587],[34.5547,36.7676],[34.7708,36.8161],[34.9333,36.7275]]]}},{"type":"Feature","properties":{"sourceId":"1159314361","regionId":"region.de4896e3-a9c6-491e-b30c-3fcc6fb0fd7c","countryId":"country.jvmcgx"},"geometry":{"type":"Polygon","coordinates":[[[35.9325,36.873],[35.917,36.9348],[36.0616,37.0097],[36.1048,37.1221],[35.9697,37.2197],[35.9396,37.37],[36.11,37.6643],[36.2799,37.6691],[36.3597,37.7318],[36.3257,37.912],[36.4181,38.2188],[36.5055,38.3229],[36.4001,38.4566],[36.2669,38.4578],[36.1459,38.3951],[35.979,38.155],[35.6077,37.9538],[35.6296,37.7702],[35.5772,37.7505],[35.3632,37.8073],[35.1906,37.8181],[35.0597,37.7135],[34.8597,37.7166],[34.8652,37.553],[34.7916,37.3877],[34.9098,37.2432],[34.935,37.0837],[35.0817,37.026],[35.0667,36.7957],[34.9333,36.7275],[35.0418,36.6952],[35.348,36.5444],[35.5134,36.613],[35.6314,36.6072],[35.6067,36.7404],[35.8054,36.7751],[35.9325,36.873]]]}},{"type":"Feature","properties":{"sourceId":"1159312369","regionId":"region.e1ac16e6-cd2f-42db-803d-392e23295a3a","countryId":"country.jvmcgx"},"geometry":{"type":"Polygon","coordinates":[[[32.5071,40.7052],[32.5262,40.7887],[32.4922,40.8678],[32.1494,41.0192],[31.7991,41.0418],[31.7334,40.9105],[31.5112,40.8782],[31.4223,40.7246],[31.2485,40.6721],[31.1354,40.7085],[30.8912,40.7268],[30.8252,40.5958],[30.6908,40.5744],[30.6011,40.4229],[30.626,40.3315],[30.7386,40.1678],[30.8636,40.1428],[31.0072,40.2416],[31.0692,40.4113],[31.2509,40.346],[31.4197,40.3597],[31.5679,40.3085],[31.8214,40.3384],[32.1768,40.4313],[32.3154,40.4152],[32.4767,40.539],[32.4427,40.673],[32.5071,40.7052]]]}},{"type":"Feature","properties":{"sourceId":"1159314343","regionId":"region.c5b71ccd-8ec0-447b-adf7-bb0e12f851a4","countryId":"country.jvmcgx"},"geometry":{"type":"Polygon","coordinates":[[[32.5071,40.7052],[32.4427,40.673],[32.4767,40.539],[32.3154,40.4152],[32.1768,40.4313],[31.8214,40.3384],[31.5679,40.3085],[31.4197,40.3597],[31.2509,40.346],[31.0692,40.4113],[31.0072,40.2416],[30.8636,40.1428],[30.9221,40.02],[31.2469,40.0577],[31.4308,40.0236],[31.727,40.0235],[31.757,39.9203],[31.845,39.8761],[31.897,39.6206],[31.9912,39.4959],[31.9833,39.3482],[32.0427,39.2751],[31.8614,39.1714],[32.127,39.0342],[32.2823,39.0635],[32.4787,38.9972],[32.6761,39.0338],[32.86,39.1572],[33.0091,39.1051],[33.0624,39.2221],[33.3206,39.1199],[33.3744,39.0226],[33.3662,38.7987],[33.4666,38.6436],[33.9333,38.7923],[33.8967,38.935],[33.9301,39.0011],[33.545,39.2109],[33.5245,39.2668],[33.4448,39.3874],[33.406,39.5297],[33.2731,39.7275],[33.3727,39.9816],[33.5621,40.0165],[33.5952,40.3396],[33.3982,40.3962],[33.2714,40.3311],[33.0434,40.5018],[32.9586,40.594],[32.6651,40.6979],[32.5071,40.7052]]]}},{"type":"Feature","properties":{"sourceId":"1159312325","regionId":"region.2b003fb7-69a5-402b-a2a6-7ede4d0524e5","countryId":"country.jvmcgx"},"geometry":{"type":"Polygon","coordinates":[[[30.626,40.3315],[30.4263,40.394],[30.1691,40.371],[30.081,40.3914],[29.9408,40.5335],[29.8467,40.4818],[29.8,40.3719],[29.8319,40.2909],[29.7183,40.1855],[29.6777,39.9063],[29.6658,39.7788],[29.7163,39.7093],[29.9455,39.6076],[30.1361,39.6388],[30.235,39.7477],[30.2452,39.8497],[30.4395,39.9362],[30.5554,40.1146],[30.7386,40.1678],[30.626,40.3315]]]}},{"type":"Feature","properties":{"sourceId":"1159312371","regionId":"region.26f90d6d-ac5b-4e51-981b-711a0265f8ce","countryId":"country.jvmcgx"},"geometry":{"type":"Polygon","coordinates":[[[30.7386,40.1678],[30.5554,40.1146],[30.4395,39.9362],[30.2452,39.8497],[30.235,39.7477],[30.1361,39.6388],[30.2845,39.5097],[30.3238,39.372],[30.4418,39.2063],[30.6212,39.0869],[30.8685,39.2109],[30.9622,39.1546],[31.2577,39.2819],[31.4528,39.0912],[31.6978,39.0926],[31.8354,39.0979],[31.8614,39.1714],[32.0427,39.2751],[31.9833,39.3482],[31.9912,39.4959],[31.897,39.6206],[31.845,39.8761],[31.757,39.9203],[31.727,40.0235],[31.4308,40.0236],[31.2469,40.0577],[30.9221,40.02],[30.8636,40.1428],[30.7386,40.1678]]]}},{"type":"Feature","properties":{"sourceId":"1159314347","regionId":"region.774b8928-343d-4e25-8302-ad4962539f4b","countryId":"country.jvmcgx"},"geometry":{"type":"Polygon","coordinates":[[[32.5262,40.7887],[32.5071,40.7052],[32.6651,40.6979],[32.9586,40.594],[33.0434,40.5018],[33.2714,40.3311],[33.3982,40.3962],[33.5952,40.3396],[33.9642,40.2655],[34.0818,40.3102],[34.1502,40.423],[34.0914,40.5311],[34.0272,40.8608],[33.8209,40.9254],[33.7922,41.094],[33.4089,40.9599],[33.2346,41.0504],[33.0692,41.093],[33.0265,41.0115],[32.8326,40.9792],[32.7483,40.8974],[32.5262,40.7887]]]}},{"type":"Feature","properties":{"sourceId":"1159317193","regionId":"region.5459381a-6b04-449c-bc2e-e02470a6f48f","countryId":"country.jvmcgx"},"geometry":{"type":"Polygon","coordinates":[[[32.5262,40.7887],[32.7483,40.8974],[32.8326,40.9792],[33.0265,41.0115],[33.0692,41.093],[32.9297,41.1533],[32.9194,41.2944],[33.1154,41.3954],[33.0589,41.5328],[32.818,41.5764],[32.6669,41.4964],[32.5012,41.3469],[32.287,41.3308],[32.1981,41.2419],[32.1494,41.0192],[32.4922,40.8678],[32.5262,40.7887]]]}},{"type":"Feature","properties":{"sourceId":"1159312343","regionId":"region.8b103201-3898-4d52-be2e-8118c037ad34","countryId":"country.jvmcgx"},"geometry":{"type":"Polygon","coordinates":[[[36.7052,40.8625],[36.6,40.9068],[36.4431,40.8704],[36.4938,40.7456],[36.3973,40.588],[36.1358,40.4437],[35.8423,40.5052],[35.6864,40.3105],[35.5785,40.2774],[35.5098,40.1886],[35.6574,40.0868],[35.829,40.0805],[36.0064,40.1147],[36.0887,39.9237],[36.4875,39.9659],[36.6669,40.0345],[36.7339,40.1913],[37.0894,40.2434],[37.3508,40.259],[37.5241,40.317],[37.6349,40.4612],[37.5841,40.5694],[37.4488,40.5759],[37.2197,40.6977],[37.0134,40.6989],[36.6989,40.8068],[36.7052,40.8625]]]}},{"type":"Feature","properties":{"sourceId":"1159312339","regionId":"region.5908f5d9-aae1-47eb-8330-239c23f02b55","countryId":"country.jvmcgx"},"geometry":{"type":"Polygon","coordinates":[[[38.1583,40.5235],[38.0084,40.481],[37.8019,40.3357],[37.6349,40.4612],[37.5241,40.317],[37.3508,40.259],[37.0894,40.2434],[36.7339,40.1913],[36.6669,40.0345],[36.4875,39.9659],[36.0887,39.9237],[36.213,39.7244],[36.1835,39.6426],[36.0243,39.5351],[35.8199,39.3344],[36.1115,39.2057],[36.4521,39.1982],[36.8998,39.1335],[36.9363,39.0442],[36.7475,38.5994],[36.8789,38.625],[37.0597,38.5881],[37.2844,38.6036],[37.5098,38.7366],[37.5969,38.8343],[37.5516,38.9694],[37.7022,38.9843],[37.932,39.0623],[38.2123,39.0876],[38.3617,39.1503],[38.3926,39.211],[38.3667,39.3886],[38.4467,39.4599],[38.3556,39.5265],[38.3772,39.8363],[38.4067,39.9507],[38.7372,39.9655],[38.7616,40.0549],[38.5563,40.1194],[38.4542,40.0999],[38.2748,40.1861],[38.1583,40.5235]]]}},{"type":"Feature","properties":{"sourceId":"1159312331","regionId":"region.d73f6378-c1d5-4be3-a385-965b95836355","countryId":"country.jvmcgx"},"geometry":{"type":"Polygon","coordinates":[[[34.4719,41.3108],[34.4194,41.302],[34.2077,41.0393],[34.2564,40.9194],[34.0272,40.8608],[34.0914,40.5311],[34.1502,40.423],[34.0818,40.3102],[33.9642,40.2655],[34.0976,40.0243],[34.0525,39.9076],[34.4585,40.0007],[34.7916,39.9977],[34.9415,40.0539],[35.0726,40.039],[35.1779,40.1025],[35.1914,40.2174],[35.3273,40.234],[35.3485,40.3523],[35.4347,40.4527],[35.4324,40.6077],[35.1088,40.6891],[35.0315,40.8182],[35.0893,41.0869],[34.9748,41.0874],[34.888,41.2698],[34.8373,41.2016],[34.4719,41.3108]]]}},{"type":"Feature","properties":{"sourceId":"1159312413","regionId":"region.b27c81f8-7fc8-4782-9517-aa405584029d","countryId":"country.jvmcgx"},"geometry":{"type":"Polygon","coordinates":[[[35.0893,41.0869],[35.0315,40.8182],[35.1088,40.6891],[35.4324,40.6077],[35.4347,40.4527],[35.3485,40.3523],[35.3273,40.234],[35.5098,40.1886],[35.5785,40.2774],[35.6864,40.3105],[35.8423,40.5052],[36.1358,40.4437],[36.3973,40.588],[36.4938,40.7456],[36.4431,40.8704],[36.2429,41.007],[36.1548,40.9014],[35.9532,40.8759],[35.7061,40.8788],[35.4611,41.0294],[35.0893,41.0869]]]}},{"type":"Feature","properties":{"sourceId":"1159312387","regionId":"region.99530a9b-7fd6-4b69-aad3-6583209b3f49","countryId":"country.jvmcgx"},"geometry":{"type":"Polygon","coordinates":[[[29.6777,39.9063],[29.3995,39.8959],[29.2461,39.5793],[29.1908,39.5521],[28.9672,39.5891],[28.896,39.3997],[28.8114,39.2906],[28.6667,39.238],[28.6595,39.1566],[28.7304,39.1008],[28.9099,39.0596],[28.9909,38.948],[29.0323,38.7301],[29.0868,38.7672],[29.3457,38.7316],[29.5293,38.763],[29.5714,38.8652],[29.6881,38.8851],[29.8413,38.8525],[29.8881,38.7069],[30.0957,38.8042],[30.2535,39.0807],[30.3721,39.1224],[30.4418,39.2063],[30.3238,39.372],[30.2845,39.5097],[30.1361,39.6388],[29.9455,39.6076],[29.7163,39.7093],[29.6658,39.7788],[29.6777,39.9063]]]}},{"type":"Feature","properties":{"sourceId":"1159314351","regionId":"region.03306e49-4b6f-40ee-8547-c26c117ee024","countryId":"country.jvmcgx"},"geometry":{"type":"Polygon","coordinates":[[[33.4666,38.6436],[33.3662,38.7987],[33.3744,39.0226],[33.3206,39.1199],[33.0624,39.2221],[33.0091,39.1051],[32.86,39.1572],[32.6761,39.0338],[32.4787,38.9972],[32.2823,39.0635],[32.127,39.0342],[31.8614,39.1714],[31.8354,39.0979],[31.6978,39.0926],[31.7149,38.9277],[31.608,38.7821],[31.5948,38.6664],[31.4308,38.5141],[31.2544,38.423],[31.2833,38.3501],[31.6207,38.1047],[31.4471,38.0028],[31.4507,37.7807],[31.3292,37.6389],[31.3677,37.5376],[31.3319,37.4222],[31.4155,37.3549],[31.8154,37.2985],[32.0331,37.1686],[32.1279,37.0762],[32.3235,36.9582],[32.3053,36.8542],[32.4264,36.8321],[32.4562,36.6734],[32.7116,36.8555],[32.7304,36.9497],[32.6098,36.9761],[32.6287,37.0779],[32.8436,37.3078],[33.0132,37.4586],[33.1074,37.4887],[33.4127,37.5113],[33.5145,37.5415],[33.6389,37.647],[33.7783,37.632],[33.8047,37.5038],[34.0573,37.2852],[34.149,37.155],[34.4819,37.3089],[34.5122,37.352],[34.3891,37.4865],[34.4455,37.7171],[34.1598,38.0023],[33.8538,37.9578],[33.4561,37.9332],[33.3485,38.0292],[33.2647,38.2045],[33.3675,38.5315],[33.4666,38.6436]]]}},{"type":"Feature","properties":{"sourceId":"1159314353","regionId":"region.86b27f70-d170-40f5-aed3-d8b519024c7e","countryId":"country.jvmcgx"},"geometry":{"type":"Polygon","coordinates":[[[34.149,37.155],[34.0573,37.2852],[33.8047,37.5038],[33.7783,37.632],[33.6389,37.647],[33.5145,37.5415],[33.4127,37.5113],[33.1074,37.4887],[33.0132,37.4586],[32.8436,37.3078],[32.6287,37.0779],[32.6098,36.9761],[32.7304,36.9497],[32.7116,36.8555],[32.4562,36.6734],[32.5316,36.5338],[32.6517,36.438],[32.8425,36.4328],[33.0524,36.4666],[33.1612,36.6185],[33.0435,36.6727],[32.9795,36.8038],[33.2007,36.8871],[33.3719,36.988],[33.8706,37.0577],[33.9668,37.1162],[34.149,37.155]]]}},{"type":"Feature","properties":{"sourceId":"1159314367","regionId":"region.3c040720-53db-423f-8e85-848fefa60e83","countryId":"country.jvmcgx"},"geometry":{"type":"Polygon","coordinates":[[[34.5122,37.352],[34.7916,37.3877],[34.8652,37.553],[34.8597,37.7166],[35.0597,37.7135],[35.1906,37.8181],[35.2282,38.0248],[35.2056,38.1766],[35.044,38.1781],[34.915,38.3794],[34.8103,38.3484],[34.6897,38.4042],[34.4898,38.3885],[34.1598,38.0023],[34.4455,37.7171],[34.3891,37.4865],[34.5122,37.352]]]}},{"type":"Feature","properties":{"sourceId":"1159312407","regionId":"region.a0ca6ca4-f462-441c-8b11-bfab837c8404","countryId":"country.jvmcgx"},"geometry":{"type":"Polygon","coordinates":[[[35.1906,37.8181],[35.3632,37.8073],[35.5772,37.7505],[35.6296,37.7702],[35.6077,37.9538],[35.979,38.155],[36.1459,38.3951],[36.2669,38.4578],[36.4001,38.4566],[36.5055,38.3229],[36.65,38.4591],[36.7475,38.5994],[36.9363,39.0442],[36.8998,39.1335],[36.4521,39.1982],[36.1115,39.2057],[35.8199,39.3344],[35.7357,39.2439],[35.2548,39.0133],[35.0278,39.0411],[34.9527,38.8481],[35.0691,38.7049],[35.071,38.5658],[34.915,38.3794],[35.044,38.1781],[35.2056,38.1766],[35.2282,38.0248],[35.1906,37.8181]]]}},{"type":"Feature","properties":{"sourceId":"1159312385","regionId":"region.8ef0717b-9f6a-4e8e-ae59-1fd9878a2e86","countryId":"country.jvmcgx"},"geometry":{"type":"Polygon","coordinates":[[[31.2544,38.423],[31.0996,38.5152],[30.7811,38.2777],[30.5302,38.193],[30.2111,37.9619],[30.1653,37.8104],[30.0153,37.7765],[30.1235,37.7168],[30.3366,37.8461],[30.5129,37.7093],[30.7065,37.6706],[30.7664,37.5421],[30.935,37.3803],[31.0235,37.3514],[31.3319,37.4222],[31.3677,37.5376],[31.3292,37.6389],[31.4507,37.7807],[31.4471,38.0028],[31.6207,38.1047],[31.2833,38.3501],[31.2544,38.423]]]}},{"type":"Feature","properties":{"sourceId":"1159312389","regionId":"region.21d7e7d7-9b0d-4996-85b3-02f3ff9ac689","countryId":"country.jvmcgx"},"geometry":{"type":"Polygon","coordinates":[[[28.6595,39.1566],[28.3208,39.1163],[28.125,39.063],[27.8712,39.3448],[27.6559,39.3517],[27.4966,39.4113],[27.4201,39.3803],[27.5377,39.0413],[27.3271,38.9249],[27.2284,38.7348],[27.3803,38.5759],[27.5833,38.5699],[27.6303,38.4915],[27.8989,38.3421],[27.9389,38.4068],[28.0954,38.3946],[28.1629,38.3088],[28.2994,38.3311],[28.4478,38.2899],[28.5623,38.1062],[28.698,38.1038],[28.7844,38.1199],[28.8381,38.2388],[28.931,38.2551],[28.8949,38.3632],[28.9179,38.6537],[29.0323,38.7301],[28.9909,38.948],[28.9099,39.0596],[28.7304,39.1008],[28.6595,39.1566]]]}},{"type":"Feature","properties":{"sourceId":"1159312381","regionId":"region.33bff2a0-5b68-457a-9605-9b62451bf8de","countryId":"country.jvmcgx"},"geometry":{"type":"Polygon","coordinates":[[[28.698,38.1038],[28.7777,38.0288],[28.7706,37.8452],[28.8996,37.7097],[28.7303,37.5984],[28.5832,37.5897],[28.6089,37.4775],[28.6273,37.3825],[28.7353,37.3599],[28.8115,37.2335],[29.0618,37.1029],[29.0902,36.9779],[29.2704,36.9116],[29.3904,37.0686],[29.4147,37.1747],[29.5845,37.41],[29.5381,37.5763],[29.8455,37.7593],[29.6641,37.8537],[29.6648,37.9558],[30.0132,38.1666],[30.0255,38.2582],[29.8915,38.4248],[29.7533,38.4502],[29.6286,38.4288],[29.6277,38.3096],[29.4123,38.2827],[29.2191,38.2133],[28.931,38.2551],[28.8381,38.2388],[28.7844,38.1199],[28.698,38.1038]]]}},{"type":"Feature","properties":{"sourceId":"1159312379","regionId":"region.104e755a-cca5-4dea-bc36-de5315a6fd50","countryId":"country.jvmcgx"},"geometry":{"type":"Polygon","coordinates":[[[29.8455,37.7593],[29.5381,37.5763],[29.5845,37.41],[29.4147,37.1747],[29.3904,37.0686],[29.4834,36.9959],[29.604,37.0086],[29.6889,36.9143],[29.8359,37.0371],[29.906,37.1722],[30.2949,37.3049],[30.4409,37.2308],[30.7855,37.2352],[30.935,37.3803],[30.7664,37.5421],[30.7065,37.6706],[30.5129,37.7093],[30.3366,37.8461],[30.1235,37.7168],[30.0153,37.7765],[29.8455,37.7593]]]}},{"type":"Feature","properties":{"sourceId":"1159314369","regionId":"region.8b815e06-9b8f-47ec-8159-7dbafa678aa7","countryId":"country.jvmcgx"},"geometry":{"type":"Polygon","coordinates":[[[33.9301,39.0011],[33.8967,38.935],[33.9333,38.7923],[33.4666,38.6436],[33.3675,38.5315],[33.2647,38.2045],[33.3485,38.0292],[33.4561,37.9332],[33.8538,37.9578],[34.1598,38.0023],[34.4898,38.3885],[34.3601,38.4732],[34.3895,38.5718],[34.2204,38.6508],[34.2575,38.797],[34.2357,38.9268],[34.0997,38.9],[33.9301,39.0011]]]}},{"type":"Feature","properties":{"sourceId":"1159312409","regionId":"region.b8caf53c-7968-4e4a-b11a-f019a94c1507","countryId":"country.jvmcgx"},"geometry":{"type":"Polygon","coordinates":[[[34.4898,38.3885],[34.6897,38.4042],[34.8103,38.3484],[34.915,38.3794],[35.071,38.5658],[35.0691,38.7049],[34.9527,38.8481],[35.0278,39.0411],[34.9735,39.1878],[34.7371,39.4003],[34.5904,39.3717],[34.6717,39.1109],[34.3926,38.9823],[34.3463,38.8531],[34.2357,38.9268],[34.2575,38.797],[34.2204,38.6508],[34.3895,38.5718],[34.3601,38.4732],[34.4898,38.3885]]]}},{"type":"Feature","properties":{"sourceId":"1159314371","regionId":"region.b7a1a108-0c32-4df5-87d8-97a04dce2ba6","countryId":"country.jvmcgx"},"geometry":{"type":"Polygon","coordinates":[[[35.5098,40.1886],[35.3273,40.234],[35.1914,40.2174],[35.1779,40.1025],[35.0726,40.039],[34.9415,40.0539],[34.7916,39.9977],[34.4585,40.0007],[34.0525,39.9076],[34.0733,39.8257],[34.2705,39.7135],[34.395,39.7007],[34.5737,39.5052],[34.7371,39.4003],[34.9735,39.1878],[35.0278,39.0411],[35.2548,39.0133],[35.7357,39.2439],[35.8199,39.3344],[36.0243,39.5351],[36.1835,39.6426],[36.213,39.7244],[36.0887,39.9237],[36.0064,40.1147],[35.829,40.0805],[35.6574,40.0868],[35.5098,40.1886]]]}},{"type":"Feature","properties":{"sourceId":"1159312405","regionId":"region.7d7b6ef5-42c3-4876-85ec-77a34c6c5e94","countryId":"country.jvmcgx"},"geometry":{"type":"Polygon","coordinates":[[[33.9301,39.0011],[34.0997,38.9],[34.2357,38.9268],[34.3463,38.8531],[34.3926,38.9823],[34.6717,39.1109],[34.5904,39.3717],[34.7371,39.4003],[34.5737,39.5052],[34.395,39.7007],[34.2705,39.7135],[34.0733,39.8257],[33.9128,39.7069],[33.7989,39.5204],[33.6366,39.4187],[33.5245,39.2668],[33.545,39.2109],[33.9301,39.0011]]]}},{"type":"Feature","properties":{"sourceId":"1159314355","regionId":"region.8c8939a7-747b-49e6-9ace-d6a0dbe997b7","countryId":"country.jvmcgx"},"geometry":{"type":"Polygon","coordinates":[[[29.8881,38.7069],[29.8413,38.8525],[29.6881,38.8851],[29.5714,38.8652],[29.5293,38.763],[29.3457,38.7316],[29.0868,38.7672],[29.0323,38.7301],[28.9179,38.6537],[28.8949,38.3632],[28.931,38.2551],[29.2191,38.2133],[29.4123,38.2827],[29.6277,38.3096],[29.6286,38.4288],[29.7533,38.4502],[29.8881,38.7069]]]}},{"type":"Feature","properties":{"sourceId":"1159312351","regionId":"region.2a6ed636-f074-43ca-9ea0-8a459ac69535","countryId":"country.jvmcgx"},"geometry":{"type":"Polygon","coordinates":[[[38.7616,40.0549],[38.7372,39.9655],[38.4067,39.9507],[38.3772,39.8363],[38.3556,39.5265],[38.4467,39.4599],[38.3667,39.3886],[38.3926,39.211],[38.3617,39.1503],[38.6236,39.0822],[38.6879,39.023],[38.7457,39.0378],[38.7204,39.1579],[38.8477,39.2578],[38.8368,39.3387],[39.0333,39.4462],[39.3189,39.5008],[39.4724,39.4822],[39.7038,39.5009],[39.8564,39.5715],[39.9887,39.5324],[40.1859,39.583],[40.5548,39.549],[40.6188,39.5324],[40.68,39.6877],[40.5672,39.7519],[40.4669,39.9135],[40.2422,39.9366],[40.2814,40.0472],[40.1179,40.0727],[39.8691,40.0148],[39.7879,39.9348],[39.622,39.8938],[39.3854,39.8933],[38.9333,40.0713],[38.7616,40.0549]]]}},{"type":"Feature","properties":{"sourceId":"1159314389","regionId":"region.a1a7cd4a-14a7-417b-854b-3455bf1f593f","countryId":"country.jvmcgx"},"geometry":{"type":"Polygon","coordinates":[[[40.5548,39.549],[40.1859,39.583],[39.9887,39.5324],[39.8564,39.5715],[39.7038,39.5009],[39.4724,39.4822],[39.3189,39.5008],[39.0333,39.4462],[38.8368,39.3387],[38.8477,39.2578],[38.7204,39.1579],[38.7457,39.0378],[38.8131,38.8772],[38.9988,38.8975],[39.2254,38.858],[39.4756,38.7633],[39.6995,38.8143],[39.8536,38.8958],[39.8791,39.0593],[40.0151,39.0974],[40.0416,39.338],[40.3017,39.4211],[40.3923,39.5022],[40.5548,39.549]]]}},{"type":"Feature","properties":{"sourceId":"1159312377","regionId":"region.4a0ecfb7-afdd-41ad-90d3-2fa86bf64707","countryId":"country.jvmcgx"},"geometry":{"type":"Polygon","coordinates":[[[29.8881,38.7069],[29.7533,38.4502],[29.8915,38.4248],[30.0255,38.2582],[30.0132,38.1666],[29.6648,37.9558],[29.6641,37.8537],[29.8455,37.7593],[30.0153,37.7765],[30.1653,37.8104],[30.2111,37.9619],[30.5302,38.193],[30.7811,38.2777],[31.0996,38.5152],[31.2544,38.423],[31.4308,38.5141],[31.5948,38.6664],[31.608,38.7821],[31.7149,38.9277],[31.6978,39.0926],[31.4528,39.0912],[31.2577,39.2819],[30.9622,39.1546],[30.8685,39.2109],[30.6212,39.0869],[30.4418,39.2063],[30.3721,39.1224],[30.2535,39.0807],[30.0957,38.8042],[29.8881,38.7069]]]}},{"type":"Feature","properties":{"sourceId":"1159314365","regionId":"region.15d1ff70-a95b-4f11-9df2-b34ada3f6d28","countryId":"country.jvmcgx"},"geometry":{"type":"Polygon","coordinates":[[[33.5245,39.2668],[33.6366,39.4187],[33.7989,39.5204],[33.9128,39.7069],[34.0733,39.8257],[34.0525,39.9076],[34.0976,40.0243],[33.9642,40.2655],[33.5952,40.3396],[33.5621,40.0165],[33.3727,39.9816],[33.2731,39.7275],[33.406,39.5297],[33.4448,39.3874],[33.5245,39.2668]]]}},{"type":"Feature","properties":{"sourceId":"1159312397","regionId":"region.93ec217d-ac10-4051-ae50-9ed9b2ff5005","countryId":"country.jvmcgx"},"geometry":{"type":"Polygon","coordinates":[[[36.5055,38.3229],[36.4181,38.2188],[36.3257,37.912],[36.3597,37.7318],[36.2799,37.6691],[36.2202,37.5064],[36.3036,37.3491],[36.5506,37.3897],[36.7212,37.2712],[36.9377,37.3422],[37.0432,37.2333],[37.1342,37.3097],[37.6173,37.4144],[37.6251,37.5188],[37.4571,37.5896],[37.4222,37.6941],[37.5653,37.8205],[37.7152,38.0927],[37.7823,38.2784],[37.7336,38.3462],[37.2259,38.5263],[37.2844,38.6036],[37.0597,38.5881],[36.8789,38.625],[36.7475,38.5994],[36.65,38.4591],[36.5055,38.3229]]]}},{"type":"Feature","properties":{"sourceId":"1159312423","regionId":"region.384bb240-394f-4cc7-a534-fb69cbb1debe","countryId":"country.jvmcgx"},"geometry":{"type":"Polygon","coordinates":[[[42.4313,39.4914],[42.1987,39.4261],[42.1557,39.2991],[42.0373,39.2271],[41.8345,39.1688],[41.6626,39.1988],[41.4456,39.3718],[41.2051,39.3657],[41.1724,39.3048],[41.2703,39.1163],[41.2649,39.0322],[41.1643,38.8879],[41.2596,38.7392],[41.3784,38.6488],[41.4206,38.5346],[41.5312,38.5544],[41.6959,38.6127],[41.8666,38.6028],[42.0377,38.7134],[41.9994,38.7953],[42.1396,38.8907],[42.31,38.9457],[42.4734,38.9316],[42.6276,39.0024],[42.6413,39.2354],[42.501,39.3732],[42.4313,39.4914]]]}},{"type":"Feature","properties":{"sourceId":"1159312349","regionId":"region.67d50a8c-566e-4f61-8526-136bf95b764b","countryId":"country.jvmcgx"},"geometry":{"type":"Polygon","coordinates":[[[42.4313,39.4914],[42.4949,39.7481],[42.3529,39.7921],[42.3816,39.8706],[42.5637,39.9519],[42.4846,40.0588],[42.2309,40.1605],[42.1812,40.2944],[42.5382,40.4307],[42.537,40.5992],[42.2992,40.8481],[42.2792,40.9249],[42.0244,40.9119],[41.8208,40.5876],[41.6566,40.6412],[41.4013,40.5556],[41.3334,40.601],[41.3653,40.7547],[41.1274,40.8129],[40.7918,40.6291],[40.4894,40.5421],[40.5747,40.2838],[40.7998,40.2117],[40.7478,40.1492],[40.481,40.0366],[40.2814,40.0472],[40.2422,39.9366],[40.4669,39.9135],[40.5672,39.7519],[40.68,39.6877],[40.6188,39.5324],[40.855,39.581],[40.9831,39.4966],[41.1183,39.4637],[41.2051,39.3657],[41.4456,39.3718],[41.6626,39.1988],[41.8345,39.1688],[42.0373,39.2271],[42.1557,39.2991],[42.1987,39.4261],[42.4313,39.4914]]]}},{"type":"Feature","properties":{"sourceId":"1159312399","regionId":"region.2158180b-59b7-44a8-ad7c-d6132513c16f","countryId":"country.jvmcgx"},"geometry":{"type":"Polygon","coordinates":[[[38.3617,39.1503],[38.2123,39.0876],[37.932,39.0623],[37.7022,38.9843],[37.5516,38.9694],[37.5969,38.8343],[37.5098,38.7366],[37.2844,38.6036],[37.2259,38.5263],[37.7336,38.3462],[37.7823,38.2784],[37.7152,38.0927],[37.5653,37.8205],[37.888,37.881],[38.1276,37.905],[38.2173,38.0405],[38.4309,38.2141],[38.5609,38.2284],[38.6035,38.1104],[38.8032,38.0903],[39.0695,38.1515],[39.1149,38.1927],[39.1149,38.3435],[38.9922,38.326],[38.8105,38.4403],[38.6889,38.4207],[38.4817,38.4759],[38.3489,38.5956],[38.4836,38.753],[38.6187,38.7482],[38.6168,39.0203],[38.6879,39.023],[38.6236,39.0822],[38.3617,39.1503]]]}},{"type":"Feature","properties":{"sourceId":"1159312395","regionId":"region.2502374a-835b-4388-8c25-72499ad84a59","countryId":"country.jvmcgx"},"geometry":{"type":"Polygon","coordinates":[[[40.0151,39.0974],[39.8791,39.0593],[39.8536,38.8958],[39.6995,38.8143],[39.4756,38.7633],[39.2254,38.858],[38.9988,38.8975],[38.8131,38.8772],[38.7457,39.0378],[38.6879,39.023],[38.6168,39.0203],[38.6187,38.7482],[38.4836,38.753],[38.3489,38.5956],[38.4817,38.4759],[38.6889,38.4207],[38.8105,38.4403],[38.9922,38.326],[39.1149,38.3435],[39.4203,38.3402],[39.7843,38.4027],[39.8474,38.4974],[39.9662,38.4694],[40.3012,38.478],[40.2332,38.6304],[40.3822,38.8252],[40.3038,38.9156],[40.2995,39.0632],[40.3916,39.1817],[40.3612,39.2294],[40.0151,39.0974]]]}},{"type":"Feature","properties":{"sourceId":"1159312425","regionId":"region.3b8c6ebd-77e0-4c84-8f4f-98eadf502cfd","countryId":"country.jvmcgx"},"geometry":{"type":"Polygon","coordinates":[[[42.6276,39.0024],[42.4734,38.9316],[42.31,38.9457],[42.1396,38.8907],[41.9994,38.7953],[42.0377,38.7134],[41.8666,38.6028],[41.6959,38.6127],[41.5312,38.5544],[41.6161,38.5288],[41.6773,38.2214],[41.8882,38.1833],[42.0602,38.2272],[42.2509,38.1167],[42.4378,38.0643],[42.6685,37.9442],[42.7371,37.9824],[42.7869,38.1811],[42.7335,38.1959],[42.678,38.4049],[42.7043,38.4618],[42.8753,38.5442],[43.1612,38.8723],[43.0036,38.9773],[42.972,39.1041],[42.7874,39.0719],[42.6276,39.0024]]]}},{"type":"Feature","properties":{"sourceId":"1159312417","regionId":"region.4a2a369b-ae6f-4096-b583-01f784ccc416","countryId":"country.jvmcgx"},"geometry":{"type":"Polygon","coordinates":[[[40.5548,39.549],[40.3923,39.5022],[40.3017,39.4211],[40.0416,39.338],[40.0151,39.0974],[40.3612,39.2294],[40.3916,39.1817],[40.2995,39.0632],[40.3038,38.9156],[40.3822,38.8252],[40.2332,38.6304],[40.3012,38.478],[40.4176,38.481],[40.4911,38.5863],[40.6449,38.6193],[40.9003,38.6008],[41.2596,38.7392],[41.1643,38.8879],[41.2649,39.0322],[41.2703,39.1163],[41.1724,39.3048],[41.2051,39.3657],[41.1183,39.4637],[40.9831,39.4966],[40.855,39.581],[40.6188,39.5324],[40.5548,39.549]]]}},{"type":"Feature","properties":{"sourceId":"1159315909","regionId":"region.f573afe7-46b1-4060-bb0e-da7b49c13363","countryId":"country.jvmcgx"},"geometry":{"type":"Polygon","coordinates":[[[36.2799,37.6691],[36.11,37.6643],[35.9396,37.37],[35.9697,37.2197],[36.1048,37.1221],[36.0616,37.0097],[36.2806,37.0043],[36.4519,36.9607],[36.7212,37.2712],[36.5506,37.3897],[36.3036,37.3491],[36.2202,37.5064],[36.2799,37.6691]]]}},{"type":"Feature","properties":{"sourceId":"1159312393","regionId":"region.8875d72e-e8d9-42db-89e3-d64aef32bcca","countryId":"country.jvmcgx"},"geometry":{"type":"Polygon","coordinates":[[[37.6251,37.5188],[37.8436,37.5356],[38.0399,37.446],[38.1972,37.4236],[38.272,37.4764],[38.5154,37.5111],[38.6456,37.6242],[38.8685,37.6514],[39.0603,37.9879],[39.189,38.0431],[39.2563,38.1531],[39.1149,38.1927],[39.0695,38.1515],[38.8032,38.0903],[38.6035,38.1104],[38.5609,38.2284],[38.4309,38.2141],[38.2173,38.0405],[38.1276,37.905],[37.888,37.881],[37.5653,37.8205],[37.4222,37.6941],[37.4571,37.5896],[37.6251,37.5188]]]}},{"type":"Feature","properties":{"sourceId":"1159312421","regionId":"region.8945c2db-cb75-4464-8214-63cfc8a348b8","countryId":"country.jvmcgx"},"geometry":{"type":"Polygon","coordinates":[[[41.2596,38.7392],[40.9003,38.6008],[40.6449,38.6193],[40.4911,38.5863],[40.4176,38.481],[40.3012,38.478],[39.9662,38.4694],[39.8474,38.4974],[39.7843,38.4027],[39.4203,38.3402],[39.1149,38.3435],[39.1149,38.1927],[39.2563,38.1531],[39.189,38.0431],[39.4626,37.9767],[39.5888,37.883],[39.8632,37.7777],[39.8843,37.5501],[40,37.3757],[40.0978,37.4758],[40.5516,37.7299],[40.662,37.7484],[41.0118,37.7414],[41.0752,37.7649],[41.0355,37.8621],[41.133,37.9491],[41.2146,38.1151],[41.2092,38.2801],[41.2716,38.453],[41.4206,38.5346],[41.3784,38.6488],[41.2596,38.7392]]]}},{"type":"Feature","properties":{"sourceId":"1159314383","regionId":"region.410eceb4-c453-41bd-9857-edf6285c9cf3","countryId":"country.jvmcgx"},"geometry":{"type":"Polygon","coordinates":[[[41.4206,38.5346],[41.2716,38.453],[41.2092,38.2801],[41.2146,38.1151],[41.133,37.9491],[41.0355,37.8621],[41.0752,37.7649],[41.19,37.688],[41.2603,37.5722],[41.3677,37.5185],[41.5206,37.5433],[41.8169,37.7138],[41.7107,37.8078],[41.5289,37.8656],[41.4214,37.9442],[41.4462,38.0558],[41.5619,38.0806],[41.6773,38.2214],[41.6161,38.5288],[41.5312,38.5544],[41.4206,38.5346]]]}},{"type":"Feature","properties":{"sourceId":"1159314385","regionId":"region.50d09ceb-0f35-47a2-9ec3-84b9ceb0030c","countryId":"country.jvmcgx"},"geometry":{"type":"Polygon","coordinates":[[[42.7869,38.1811],[42.7371,37.9824],[42.6685,37.9442],[42.4378,38.0643],[42.2509,38.1167],[42.0602,38.2272],[41.8882,38.1833],[41.6773,38.2214],[41.5619,38.0806],[41.4462,38.0558],[41.4214,37.9442],[41.5289,37.8656],[41.7107,37.8078],[41.8169,37.7138],[41.9587,37.659],[42.157,37.6466],[42.2354,37.7086],[42.9505,37.626],[43.0233,37.7317],[42.9835,37.8064],[43.0293,37.9994],[43.0163,38.1518],[42.7869,38.1811]]]}},{"type":"Feature","properties":{"sourceId":"1159314375","regionId":"region.756796ae-6aa5-40b5-8b00-62e72da37e01","countryId":"country.jvmcgx"},"geometry":{"type":"Polygon","coordinates":[[[40.2814,40.0472],[40.481,40.0366],[40.7478,40.1492],[40.7998,40.2117],[40.5747,40.2838],[40.4894,40.5421],[40.1846,40.5104],[40.0159,40.5327],[39.9138,40.603],[39.834,40.561],[39.86,40.2669],[39.8115,40.144],[39.8691,40.0148],[40.1179,40.0727],[40.2814,40.0472]]]}},{"type":"Feature","properties":{"sourceId":"1159314373","regionId":"region.2bc2ac97-b2d8-4cb0-b7c7-2e75837f15e5","countryId":"country.jvmcgx"},"geometry":{"type":"Polygon","coordinates":[[[39.834,40.561],[39.7173,40.6574],[39.5789,40.5878],[39.3452,40.6596],[39.2213,40.7898],[39.1444,40.7714],[39.0244,40.7605],[38.9077,40.6867],[38.8423,40.4802],[38.9879,40.4325],[39.0598,40.3519],[38.9071,40.2699],[38.9333,40.0713],[39.3854,39.8933],[39.622,39.8938],[39.7879,39.9348],[39.8691,40.0148],[39.8115,40.144],[39.86,40.2669],[39.834,40.561]]]}}]}