{"type":"FeatureCollection","features":[{"type":"Feature","properties":{"sourceId":"1159315805","regionId":"region.81f025d9-d66c-45e7-980d-8e570c26ffec","countryId":"country.1gxtyz9"},"geometry":{"type":"MultiPolygon","coordinates":[[[[129.0001,-31.6892],[129.0001,-30.981],[129.0001,-30.2693],[129.0001,-29.202],[129.0001,-28.4905],[129.0001,-27.7788],[129.0001,-27.0673],[129.0001,-25.9999],[129.0001,-24.9565],[129.0001,-23.9132],[129.0001,-23.2177],[129.0001,-22.1743],[129.0001,-21.4788],[129.0001,-20.7832],[129.0001,-20.0877],[129.0001,-19.392],[129.0001,-18.6966],[129.0001,-18.0009],[129.0001,-16.9576],[129.0001,-16.2621],[129.0001,-15.5666],[129.0001,-14.8682],[128.8342,-14.8401],[128.5324,-14.7529],[128.4026,-14.823],[128.1958,-15.0568],[128.2245,-15.2602],[128.0671,-15.1252],[128.1753,-14.6984],[127.9056,-14.4975],[127.7896,-14.3671],[127.666,-14.1784],[127.4893,-14.0584],[127.4185,-13.942],[127.3224,-13.9174],[127.1074,-13.9528],[127.0702,-13.8281],[126.9529,-13.7236],[126.7474,-13.7918],[126.8182,-13.9426],[126.7012,-14.0071],[126.7048,-14.1181],[126.5692,-14.1952],[126.501,-13.9972],[126.3903,-14.0051],[126.2477,-14.2232],[126.1911,-14.1596],[126.1496,-13.9328],[126.0741,-14.0261],[126.1413,-14.1955],[126.0718,-14.2267],[126.0609,-14.35],[125.9857,-14.3829],[126.0413,-14.5087],[125.9251,-14.5186],[125.7442,-14.4448],[125.6581,-14.3603],[125.5838,-14.5265],[125.4663,-14.5248],[125.1443,-14.7284],[125.2329,-14.8605],[125.2043,-14.9321],[125.3545,-14.9939],[125.3738,-15.1076],[125.3108,-15.1506],[125.2156,-15.0575],[125.1262,-15.0495],[124.9077,-15.1003],[124.842,-15.1412],[124.9289,-15.3381],[125.0381,-15.2814],[125.0896,-15.3473],[125.0498,-15.4982],[124.9204,-15.361],[124.7979,-15.2919],[124.698,-15.374],[124.6296,-15.505],[124.5042,-15.4675],[124.4033,-15.5593],[124.3779,-15.6873],[124.4043,-15.8748],[124.5151,-15.9701],[124.59,-16.0942],[124.5204,-16.1764],[124.4297,-16.1419],[124.3784,-16.2149],[124.4133,-16.3381],[124.5962,-16.3266],[124.5925,-16.4013],[124.4002,-16.3531],[124.3421,-16.408],[124.2227,-16.3956],[124.1262,-16.2722],[123.986,-16.2863],[123.8352,-16.3683],[123.7327,-16.259],[123.771,-16.1633],[123.595,-16.1559],[123.5397,-16.2652],[123.6516,-16.3603],[123.6541,-16.4845],[123.5662,-16.616],[123.6931,-16.7299],[123.7681,-16.8785],[123.8371,-17.1324],[123.6359,-16.9914],[123.5796,-17.094],[123.6443,-17.1847],[123.5676,-17.362],[123.554,-17.519],[123.3997,-17.3293],[123.2604,-17.0147],[123.1433,-16.9138],[123.1509,-16.8077],[122.9598,-16.5803],[123.0066,-16.3744],[122.9162,-16.4159],[122.8864,-16.5123],[122.7588,-16.6044],[122.7043,-16.7867],[122.5706,-16.7885],[122.5304,-16.874],[122.582,-16.9562],[122.4128,-16.9728],[122.2761,-17.0893],[122.172,-17.2612],[122.1432,-17.5637],[122.2054,-17.7109],[122.1961,-17.9454],[122.3607,-18.0002],[122.324,-18.1506],[122.2204,-18.1972],[121.9103,-18.4645],[121.8237,-18.4518],[121.7691,-18.6574],[121.6439,-18.7171],[121.6426,-18.8102],[121.5194,-19.0696],[121.3115,-19.3541],[121.1935,-19.4724],[120.9544,-19.6337],[120.6506,-19.7633],[120.2383,-19.9068],[119.8023,-19.9658],[119.5667,-20.0688],[119.2124,-19.9612],[119.0685,-19.9828],[118.8318,-20.262],[118.7019,-20.3178],[118.6063,-20.3095],[118.3688,-20.3621],[118.1356,-20.3621],[117.9407,-20.4928],[117.8394,-20.6169],[117.6748,-20.6721],[117.3538,-20.7277],[117.0625,-20.6217],[116.8796,-20.7131],[116.7432,-20.6169],[116.4347,-20.8224],[116.2659,-20.8626],[116.1515,-20.97],[115.9367,-21.059],[115.8062,-21.2354],[115.6027,-21.3435],[115.4546,-21.5138],[115.1052,-21.6652],[114.929,-21.6939],[114.6467,-21.8434],[114.5223,-22.0693],[114.3919,-22.358],[114.1797,-22.5217],[114.1109,-22.4777],[114.1714,-22.3175],[114.0775,-22.1755],[114.1592,-21.7919],[114.0115,-21.86],[113.898,-22.0492],[113.804,-22.3308],[113.6467,-22.5777],[113.6589,-22.7278],[113.7598,-22.7888],[113.8115,-23.0514],[113.7483,-23.1623],[113.7825,-23.3271],[113.7376,-23.527],[113.5995,-23.634],[113.4597,-23.9103],[113.4146,-24.0494],[113.4333,-24.1702],[113.3853,-24.2491],[113.3914,-24.4137],[113.4395,-24.5328],[113.6043,-24.7283],[113.6106,-24.8928],[113.7131,-25.1249],[113.8024,-25.1718],[113.9284,-25.4498],[114.1553,-25.7897],[114.2586,-25.8419],[114.2581,-25.9889],[114.1919,-26.1959],[114.2344,-26.3166],[114.1038,-26.4479],[113.97,-26.3317],[113.9355,-26.1917],[113.7954,-26.2067],[113.7044,-26.148],[113.7606,-25.9048],[113.5329,-25.6183],[113.4226,-25.6547],[113.4208,-25.7282],[113.5576,-25.941],[113.5772,-26.0893],[113.6841,-26.2216],[113.7817,-26.2414],[113.8848,-26.3427],[113.8525,-26.5448],[113.6949,-26.6142],[113.5983,-26.5185],[113.4501,-26.2006],[113.2447,-26.2401],[113.2978,-26.3973],[113.5906,-26.6757],[113.7644,-26.9181],[114.0125,-27.3154],[114.0745,-27.4472],[114.1439,-27.6878],[114.0972,-27.8194],[114.166,-28.1067],[114.3101,-28.2302],[114.5311,-28.5224],[114.5899,-28.6559],[114.5775,-28.7851],[114.6526,-28.9124],[114.832,-29.0921],[114.9788,-29.4799],[114.9461,-29.6581],[114.9675,-29.9024],[114.9426,-30.031],[114.9749,-30.214],[115.1011,-30.6334],[115.1809,-30.8272],[115.313,-30.9908],[115.4546,-31.3035],[115.6803,-31.6486],[115.7437,-31.9278],[115.7568,-32.1856],[115.7144,-32.303],[115.7693,-32.6023],[115.6009,-32.6617],[115.6746,-33.025],[115.6668,-33.2877],[115.5171,-33.5124],[115.4341,-33.5955],[115.2827,-33.6506],[115.1188,-33.6165],[115.0457,-33.5372],[114.9568,-33.6823],[114.971,-34.0827],[115.0178,-34.2621],[115.1084,-34.3443],[115.1838,-34.3019],[115.3347,-34.3142],[115.6123,-34.4459],[115.7455,-34.5402],[116.0198,-34.8294],[116.2484,-34.8775],[116.4651,-35.0007],[116.8996,-35.0504],[117.1716,-35.0133],[117.3595,-35.0242],[117.5386,-35.0922],[117.6843,-35.0463],[118.1199,-34.9871],[118.3874,-34.8259],[118.4798,-34.7171],[118.7059,-34.6477],[118.7273,-34.558],[118.932,-34.4459],[119.117,-34.4724],[119.3821,-34.4401],[119.4839,-34.3586],[119.4749,-34.2859],[119.572,-34.142],[119.8062,-33.985],[120.0022,-33.926],[120.4227,-33.9699],[120.5723,-33.8915],[121.1664,-33.8679],[121.3338,-33.8152],[121.5329,-33.8195],[121.813,-33.8951],[122.0156,-33.8254],[122.1873,-34.0207],[122.3123,-33.9249],[122.5603,-33.9592],[122.5746,-33.9108],[122.7879,-33.881],[123.085,-33.8784],[123.147,-34.0021],[123.2666,-33.9865],[123.3436,-33.9035],[123.5667,-33.8844],[123.7388,-33.794],[123.7568,-33.7141],[123.9525,-33.5673],[124.0083,-33.3542],[124.1165,-33.1215],[124.3569,-32.9528],[124.7088,-32.9039],[124.9019,-32.8337],[125.0003,-32.7372],[125.3378,-32.6015],[125.5373,-32.5484],[125.87,-32.333],[126.1857,-32.2325],[126.3723,-32.2828],[126.6777,-32.3166],[127.053,-32.3038],[127.2887,-32.2734],[127.532,-32.2114],[127.7663,-32.1231],[128.0173,-32.0842],[128.6553,-31.8458],[129.0001,-31.6892]]],[[[113.2166,-26.068],[113.0513,-25.717],[113.0078,-25.4962],[112.9194,-25.5236],[112.9645,-25.794],[113.0462,-25.94],[113.2166,-26.068]]],[[[115.4645,-20.7302],[115.3994,-20.6938],[115.3106,-20.8019],[115.3652,-20.8769],[115.4645,-20.7302]]],[[[125.1951,-14.4701],[125.1228,-14.4812],[125.0896,-14.6074],[125.1929,-14.5959],[125.1951,-14.4701]]]]}},{"type":"Feature","properties":{"sourceId":"1159315809","regionId":"region.81ccf08a-bac0-43f3-8c8c-1037cb97b23d","countryId":"country.1gxtyz9"},"geometry":{"type":"MultiPolygon","coordinates":[[[[129.0001,-14.8682],[129.0001,-15.5666],[129.0001,-16.2621],[129.0001,-16.9576],[129.0001,-18.0009],[129.0001,-18.6966],[129.0001,-19.392],[129.0001,-20.0877],[129.0001,-20.7832],[129.0001,-21.4788],[129.0001,-22.1743],[129.0001,-23.2177],[129.0001,-23.9132],[129.0001,-24.9565],[129.0001,-25.9999],[129.8439,-25.9999],[130.6877,-25.9999],[131.8127,-25.9999],[132.9377,-25.9999],[133.5002,-25.9999],[134.9064,-25.9999],[136.0314,-25.9999],[136.8752,-25.9999],[138.0002,-25.9999],[138.0002,-25.4096],[138.0002,-24.5241],[138.0002,-23.9336],[138.0002,-22.7529],[138.0002,-21.5724],[138.0002,-20.982],[138.0002,-19.8014],[138.0002,-19.211],[138.0002,-18.0303],[138.0002,-17.44],[138.0002,-16.5416],[137.8669,-16.4371],[137.7461,-16.2521],[137.5505,-16.172],[137.3612,-16.1222],[137.2503,-16.0206],[137.0459,-15.9223],[136.9919,-15.8642],[136.9065,-15.9362],[136.7679,-15.9008],[136.6121,-15.7547],[136.2679,-15.545],[136.2401,-15.4241],[135.9517,-15.2644],[135.861,-15.176],[135.4696,-14.948],[135.3913,-14.7399],[135.5226,-14.6515],[135.5323,-14.5811],[135.7591,-14.2654],[135.9033,-14.1358],[135.9231,-13.9596],[135.9914,-13.9011],[136.0049,-13.798],[135.9368,-13.7502],[135.8448,-13.6002],[135.8834,-13.3258],[136.0524,-13.2453],[136.1774,-13.2356],[136.3084,-13.1628],[136.4505,-13.2164],[136.6369,-12.9549],[136.4898,-12.8508],[136.4738,-12.7922],[136.6792,-12.6713],[136.7402,-12.4758],[136.8616,-12.4347],[136.9493,-12.3559],[136.8764,-12.2234],[136.6906,-12.2828],[136.5906,-12.1743],[136.5333,-11.9932],[136.4507,-11.9423],[136.3005,-12.0507],[136.18,-12.1878],[136.3135,-12.2016],[136.3639,-12.2564],[136.2527,-12.4411],[136.0232,-12.4557],[136.0261,-12.3115],[135.8801,-12.1516],[135.7653,-12.2571],[135.6501,-12.1646],[135.7654,-12.0719],[135.7393,-11.9415],[135.5707,-11.9946],[135.5353,-12.0806],[135.3029,-12.1283],[135.2583,-12.2221],[135.0702,-12.2599],[134.9671,-12.1461],[134.8611,-12.1266],[134.7686,-11.9477],[134.6047,-12.0495],[134.3822,-12.0427],[134.285,-11.9682],[134.1897,-12.0182],[134.1322,-11.8864],[133.9431,-11.9137],[133.8438,-11.8552],[133.9016,-11.7389],[133.8025,-11.7149],[133.6221,-11.8333],[133.4785,-11.7908],[133.3467,-11.6882],[133.2612,-11.7296],[133.1411,-11.6746],[133.0111,-11.4328],[132.911,-11.3318],[132.7595,-11.4924],[132.6742,-11.5084],[132.4749,-11.2341],[132.3499,-11.1463],[132.241,-11.1965],[132.1883,-11.3513],[132.0143,-11.1396],[131.9403,-11.2514],[131.8562,-11.3034],[132.0847,-11.518],[132.3699,-11.435],[132.4954,-11.4762],[132.595,-11.622],[132.6956,-11.6535],[132.593,-11.7844],[132.6511,-11.8658],[132.6272,-12.0439],[132.4396,-12.1549],[132.4229,-12.2316],[132.2688,-12.1808],[132.0457,-12.3074],[131.9046,-12.2198],[131.7844,-12.2704],[131.4929,-12.2978],[131.3279,-12.1853],[131.2165,-12.2149],[131.1164,-12.1549],[131.0002,-12.1713],[131.0252,-12.3605],[130.8976,-12.3342],[130.7839,-12.435],[130.6204,-12.4369],[130.5794,-12.5685],[130.345,-12.695],[130.3518,-12.8425],[130.2468,-12.9378],[130.1299,-12.9405],[130.1187,-13.1562],[130.2732,-13.3188],[130.1637,-13.4329],[129.9689,-13.5304],[129.8377,-13.5105],[129.7855,-13.6757],[129.8159,-13.762],[129.7149,-13.8805],[129.7175,-14.0156],[129.4959,-14.0891],[129.4932,-14.1445],[129.3729,-14.3293],[129.3581,-14.4088],[129.5852,-14.5663],[129.6068,-14.6716],[129.7241,-14.7907],[129.6455,-14.8406],[129.6118,-14.9426],[129.659,-15.0899],[129.5982,-15.1171],[129.4766,-14.9338],[129.2214,-14.8435],[129.263,-15.1076],[129.1755,-15.0585],[129.1732,-14.9648],[129.0001,-14.8682]]],[[[137.0779,-15.7512],[137.0832,-15.6522],[136.943,-15.6677],[137.0003,-15.787],[137.0779,-15.7512]]],[[[136.2869,-13.7058],[136.2111,-13.6614],[136.1535,-13.7707],[136.2614,-13.7936],[136.2869,-13.7058]]],[[[136.9515,-14.1816],[136.8106,-14.1591],[136.7234,-14.1855],[136.7168,-14.0637],[136.7914,-13.9177],[136.6843,-13.7205],[136.5801,-13.6819],[136.5947,-13.8123],[136.4302,-13.8771],[136.4097,-13.9972],[136.4608,-14.2164],[136.6394,-14.2802],[136.7331,-14.2561],[136.9031,-14.2989],[136.9515,-14.1816]]],[[[130.5368,-11.705],[130.448,-11.6945],[130.4617,-11.5921],[130.3968,-11.5346],[130.3499,-11.3395],[130.2698,-11.3381],[130.147,-11.489],[130.2015,-11.6535],[130.0643,-11.6913],[130.0535,-11.8228],[130.147,-11.8248],[130.3211,-11.7702],[130.4963,-11.839],[130.635,-11.7682],[130.5368,-11.705]]],[[[131.5374,-11.4133],[131.4746,-11.3906],[131.4277,-11.2497],[131.2744,-11.1896],[131.0098,-11.3549],[130.888,-11.3132],[130.6917,-11.4228],[130.5736,-11.2753],[130.366,-11.2324],[130.4303,-11.4843],[130.4966,-11.6495],[130.7126,-11.7995],[130.98,-11.9264],[131.099,-11.8284],[131.2931,-11.7241],[131.3781,-11.5841],[131.4324,-11.607],[131.5374,-11.4133]]],[[[132.4894,-11.1601],[132.5652,-11.3108],[132.6272,-11.246],[132.5513,-11.0324],[132.4894,-11.1601]]]]}},{"type":"Feature","properties":{"sourceId":"1159313267","regionId":"region.5c8edbce-363c-4ff9-ae40-2d49852915ad","countryId":"country.1gxtyz9"},"geometry":{"type":"MultiPolygon","coordinates":[[[[129.0001,-31.6892],[130.1569,-31.5739],[130.8338,-31.6017],[131.1775,-31.4776],[131.5359,-31.6056],[131.783,-31.7278],[132.0779,-31.9078],[132.2337,-32.033],[132.4832,-32.0265],[132.5873,-31.9347],[132.798,-31.9563],[132.9343,-32.0617],[133.0557,-32.1082],[133.1478,-32.1967],[133.4118,-32.2114],[133.552,-32.1723],[133.5862,-32.1031],[133.8123,-32.2472],[133.95,-32.3894],[133.8537,-32.5297],[134.1483,-32.457],[134.2733,-32.5881],[134.2715,-32.7321],[134.0741,-32.714],[134.2788,-33.1627],[134.4461,-33.154],[134.6624,-33.2255],[134.814,-33.3528],[134.8679,-33.5446],[134.8499,-33.6384],[135.1898,-33.893],[135.2595,-33.998],[135.2731,-34.1159],[135.3464,-34.2756],[135.4295,-34.7127],[135.604,-34.8801],[135.7415,-34.861],[136.0125,-34.9797],[135.8621,-34.6982],[135.9368,-34.5346],[136.1248,-34.4529],[136.1148,-34.3837],[136.2322,-34.3087],[136.3694,-34.0734],[136.5816,-33.9489],[136.6074,-33.9029],[136.8075,-33.8084],[136.9653,-33.6845],[137.0202,-33.7302],[137.2249,-33.6533],[137.3767,-33.3899],[137.4522,-33.1401],[137.9024,-32.7875],[137.9578,-33.0047],[138.044,-33.1251],[137.855,-33.1906],[137.8104,-33.26],[137.9375,-33.5278],[137.9309,-33.6165],[137.7766,-33.6935],[137.6021,-33.8766],[137.5542,-34.072],[137.4539,-34.164],[137.4922,-34.2602],[137.4595,-34.4475],[137.5127,-34.6178],[137.4461,-34.9174],[137.0306,-34.8998],[136.9419,-35.0387],[136.9609,-35.0964],[136.8355,-35.2477],[136.9534,-35.2839],[137.0397,-35.2272],[137.1692,-35.2423],[137.2389,-35.1721],[137.4035,-35.1242],[137.561,-35.131],[137.6714,-35.1808],[137.7469,-35.0589],[137.9104,-34.624],[137.9309,-34.4148],[138.0378,-34.308],[138.0163,-34.2273],[138.0781,-34.1284],[138.2266,-34.3205],[138.2599,-34.4384],[138.4402,-34.6756],[138.5363,-34.7409],[138.4865,-34.8735],[138.5073,-35.0566],[138.4274,-35.3526],[138.2873,-35.4699],[138.1227,-35.5554],[138.1768,-35.6682],[138.5313,-35.6459],[138.7459,-35.5388],[138.882,-35.5606],[138.9612,-35.4138],[139.1021,-35.3893],[139.2232,-35.3188],[139.3755,-35.464],[139.1354,-35.4983],[139.0414,-35.6041],[139.4754,-35.8964],[139.4567,-35.9579],[139.5674,-36.0753],[139.8537,-36.6218],[139.8635,-36.7673],[139.7848,-36.902],[139.672,-36.9534],[139.7883,-37.1262],[139.7415,-37.1808],[139.988,-37.4871],[140.1143,-37.5175],[140.2406,-37.6659],[140.3599,-37.8821],[140.6024,-38.0378],[140.7136,-38.0706],[140.9682,-38.0594],[140.9679,-37.0646],[140.9676,-36.0652],[140.9676,-35.5655],[140.9672,-34.5661],[141.0001,-34.0185],[141.0001,-32.7692],[141.0001,-31.8269],[141.0001,-30.5705],[141.0001,-29.9422],[141.0001,-28.9999],[141.0001,-28.2499],[141.0001,-27.1249],[141.0001,-25.9999],[139.8748,-25.9999],[138.7501,-25.9999],[138.0002,-25.9999],[136.8752,-25.9999],[136.0314,-25.9999],[134.9064,-25.9999],[133.5002,-25.9999],[132.9377,-25.9999],[131.8127,-25.9999],[130.6877,-25.9999],[129.8439,-25.9999],[129.0001,-25.9999],[129.0001,-27.0673],[129.0001,-27.7788],[129.0001,-28.4905],[129.0001,-29.202],[129.0001,-30.2693],[129.0001,-30.981],[129.0001,-31.6892]]],[[[138.1296,-35.8163],[137.9085,-35.7291],[137.686,-35.7575],[137.5808,-35.7268],[137.6229,-35.5821],[137.4359,-35.6106],[137.3522,-35.5856],[137.0745,-35.6716],[136.6211,-35.7512],[136.5326,-35.9119],[136.6567,-35.9739],[136.7156,-36.0628],[137.0198,-36.0217],[137.1399,-36.0422],[137.2117,-35.9802],[137.3711,-36.0108],[137.4592,-36.0827],[137.6204,-36.0001],[137.6133,-35.9242],[137.7567,-35.8715],[137.9325,-35.8753],[138.0477,-35.9186],[138.1296,-35.8163]]]]}},{"type":"Feature","properties":{"sourceId":"1159315807","regionId":"region.8c06b38c-dceb-4feb-91e4-e342b294c675","countryId":"country.1gxtyz9"},"geometry":{"type":"MultiPolygon","coordinates":[[[[138.0002,-16.5416],[138.0002,-17.44],[138.0002,-18.0303],[138.0002,-19.211],[138.0002,-19.8014],[138.0002,-20.982],[138.0002,-21.5724],[138.0002,-22.7529],[138.0002,-23.9336],[138.0002,-24.5241],[138.0002,-25.4096],[138.0002,-25.9999],[138.7501,-25.9999],[139.8748,-25.9999],[141.0001,-25.9999],[141.0001,-27.1249],[141.0001,-28.2499],[141.0001,-28.9999],[141.9717,-28.9999],[142.9432,-28.9999],[143.9147,-28.9999],[144.8863,-28.9999],[145.8578,-28.9999],[147.3151,-28.9999],[148.2866,-28.9999],[148.9714,-28.9997],[149.0936,-28.8484],[149.4163,-28.6807],[149.4844,-28.5839],[149.7592,-28.607],[150.0198,-28.6001],[150.2981,-28.5349],[150.4496,-28.6465],[150.6211,-28.6589],[150.7935,-28.635],[151.0459,-28.7349],[151.0775,-28.8369],[151.2874,-28.9208],[151.3153,-29.0993],[151.4227,-29.1546],[151.5543,-28.9552],[151.7292,-28.889],[151.7626,-28.9476],[151.9339,-28.9243],[152.0256,-28.8757],[152.067,-28.7032],[151.9676,-28.5364],[152.164,-28.4371],[152.357,-28.3761],[152.4922,-28.2612],[152.54,-28.3177],[152.751,-28.358],[152.8463,-28.3258],[153.1169,-28.3502],[153.1925,-28.2598],[153.3825,-28.2376],[153.5065,-28.1493],[153.4495,-28.0732],[153.4456,-27.8105],[153.3154,-27.6549],[153.3076,-27.5781],[153.2078,-27.465],[153.1136,-27.2424],[153.0384,-27.1734],[153.2062,-27.0461],[153.1525,-26.925],[153.1509,-26.6847],[153.11,-26.6469],[153.1135,-26.4575],[153.0775,-26.2809],[153.1418,-26.0615],[153.1216,-25.9338],[152.8938,-25.6882],[152.9387,-25.4757],[152.9138,-25.2877],[152.6771,-25.2419],[152.506,-24.9994],[152.4915,-24.8476],[152.4048,-24.7487],[152.3062,-24.7242],[152.1504,-24.6191],[152.0586,-24.5139],[151.9334,-24.211],[151.8114,-24.1423],[151.7804,-24.0226],[151.5806,-24.0575],[151.4037,-23.95],[151.2778,-23.8239],[151.1872,-23.8041],[151.126,-23.6754],[151.0274,-23.58],[150.8566,-23.52],[150.7874,-23.3093],[150.7644,-23.1589],[150.7737,-22.9669],[150.8264,-22.6979],[150.7532,-22.6105],[150.7583,-22.4824],[150.6362,-22.3425],[150.5676,-22.3232],[150.513,-22.5354],[150.2156,-22.3948],[150.0536,-22.1415],[149.9905,-22.1629],[149.9235,-22.2983],[150.0225,-22.5534],[149.8809,-22.4674],[149.8308,-22.3886],[149.7051,-22.3839],[149.6086,-22.2443],[149.4832,-21.9513],[149.4354,-21.7897],[149.4783,-21.7184],[149.4294,-21.5838],[149.3556,-21.4947],[149.293,-21.3193],[149.1961,-21.1809],[149.2312,-21.0898],[149.1506,-20.9962],[149.0462,-20.9799],[148.9714,-20.8705],[148.9108,-20.8733],[148.7398,-20.7189],[148.6553,-20.5554],[148.8508,-20.4211],[148.7923,-20.2873],[148.6109,-20.2136],[148.5667,-20.06],[148.4439,-20.1042],[148.2649,-20.0831],[148.2539,-19.9635],[148.0724,-19.877],[147.9495,-19.9078],[147.8592,-19.8249],[147.6843,-19.8281],[147.5921,-19.7221],[147.5505,-19.5209],[147.4214,-19.4128],[147.1672,-19.4],[146.9782,-19.2839],[146.9051,-19.3046],[146.7463,-19.1728],[146.6548,-19.1825],[146.4465,-19.0597],[146.2766,-18.8743],[146.3394,-18.527],[146.2137,-18.4921],[146.1834,-18.3801],[146.0238,-18.2631],[146.0037,-18.1564],[146.0979,-17.9313],[146.1027,-17.706],[146.1477,-17.6326],[146.0684,-17.5159],[146.0711,-17.392],[145.9684,-17.2424],[145.8823,-17.0397],[145.9417,-16.9299],[145.7777,-16.8853],[145.6615,-16.728],[145.5791,-16.672],[145.4634,-16.4812],[145.4004,-16.4433],[145.4624,-16.2732],[145.4344,-16.2006],[145.4624,-16.0605],[145.3558,-15.9034],[145.3664,-15.7493],[145.2738,-15.5357],[145.2564,-15.3888],[145.3026,-15.2846],[145.2359,-15.1659],[145.2771,-14.947],[145.1548,-14.8375],[144.9417,-14.7263],[144.886,-14.6096],[144.6776,-14.5558],[144.5804,-14.3642],[144.5847,-14.2648],[144.5149,-14.1728],[144.4483,-14.2436],[144.3036,-14.3126],[144.1854,-14.2626],[144.1616,-14.3731],[143.952,-14.499],[143.7827,-14.4023],[143.7078,-14.2096],[143.6873,-14.0143],[143.6184,-13.9562],[143.5344,-13.7657],[143.5946,-13.4358],[143.5266,-13.3298],[143.4972,-12.8565],[143.3651,-12.8049],[143.4339,-12.6131],[143.3235,-12.5578],[143.2529,-12.3889],[143.0772,-12.3288],[143.0863,-12.149],[143.2039,-11.9825],[143.1234,-11.9106],[142.9743,-11.9252],[142.8729,-11.8507],[142.8579,-11.6051],[142.8211,-11.4776],[142.8696,-11.3913],[142.8013,-11.2778],[142.7898,-11.0849],[142.742,-10.975],[142.6345,-10.9308],[142.5496,-10.838],[142.615,-10.7454],[142.4486,-10.7145],[142.3234,-10.9016],[142.1746,-10.9301],[142.1454,-10.9831],[142.1594,-11.1511],[142.1318,-11.3381],[141.9476,-11.8962],[141.801,-12.0551],[141.6657,-12.4411],[141.8114,-12.5841],[141.7547,-12.8185],[141.5855,-12.9775],[141.6908,-13.2599],[141.5598,-13.492],[141.4741,-13.7763],[141.485,-13.9485],[141.584,-14.0761],[141.5921,-14.2453],[141.5217,-14.4838],[141.6043,-14.8777],[141.6657,-15.0114],[141.639,-15.1412],[141.4871,-15.4789],[141.4397,-15.6489],[141.4017,-15.9036],[141.4248,-16.0817],[141.3498,-16.2243],[141.304,-16.442],[141.1995,-16.7031],[140.947,-17.0183],[140.96,-17.074],[140.8831,-17.3464],[140.8333,-17.4508],[140.7551,-17.4781],[140.5075,-17.6363],[140.2405,-17.7021],[139.9995,-17.7061],[139.9253,-17.6214],[139.641,-17.5324],[139.4387,-17.3757],[139.2742,-17.3483],[139.2095,-17.2861],[139.1416,-17.1169],[139.1581,-17.033],[139.0373,-16.9156],[138.7534,-16.8412],[138.6572,-16.7797],[138.4927,-16.7944],[138.1843,-16.6972],[138.0002,-16.5416]]],[[[153.4115,-27.3395],[153.4661,-27.0602],[153.3605,-27.066],[153.4115,-27.3395]]],[[[153.37,-24.989],[153.2813,-24.8586],[153.2261,-25.0275],[153.0383,-25.1835],[153.0685,-25.329],[152.9483,-25.5522],[152.9994,-25.7286],[153.0835,-25.6658],[153.1607,-25.4631],[153.2674,-25.2555],[153.37,-24.989]]],[[[151.2699,-23.6663],[151.1914,-23.5138],[151.0182,-23.4532],[150.9796,-23.4874],[151.2139,-23.7781],[151.2699,-23.6663]]],[[[146.319,-18.383],[146.2781,-18.2874],[146.1218,-18.2455],[146.2234,-18.4655],[146.319,-18.383]]],[[[139.7341,-16.4433],[139.6038,-16.3984],[139.2879,-16.4706],[139.2219,-16.5256],[139.137,-16.6972],[139.3021,-16.7245],[139.4447,-16.6646],[139.4666,-16.567],[139.5525,-16.4833],[139.6105,-16.5532],[139.7341,-16.4433]]],[[[142.2554,-10.6667],[142.2123,-10.5976],[142.1182,-10.6535],[142.1532,-10.7556],[142.2554,-10.6667]]]]}},{"type":"Feature","properties":{"sourceId":"1159313299","regionId":"region.7a764465-95e8-4db4-87f3-c876053fc05f","countryId":"country.1gxtyz9"},"geometry":{"type":"Polygon","coordinates":[[[153.5065,-28.1493],[153.3825,-28.2376],[153.1925,-28.2598],[153.1169,-28.3502],[152.8463,-28.3258],[152.751,-28.358],[152.54,-28.3177],[152.4922,-28.2612],[152.357,-28.3761],[152.164,-28.4371],[151.9676,-28.5364],[152.067,-28.7032],[152.0256,-28.8757],[151.9339,-28.9243],[151.7626,-28.9476],[151.7292,-28.889],[151.5543,-28.9552],[151.4227,-29.1546],[151.3153,-29.0993],[151.2874,-28.9208],[151.0775,-28.8369],[151.0459,-28.7349],[150.7935,-28.635],[150.6211,-28.6589],[150.4496,-28.6465],[150.2981,-28.5349],[150.0198,-28.6001],[149.7592,-28.607],[149.4844,-28.5839],[149.4163,-28.6807],[149.0936,-28.8484],[148.9714,-28.9997],[148.2866,-28.9999],[147.3151,-28.9999],[145.8578,-28.9999],[144.8863,-28.9999],[143.9147,-28.9999],[142.9432,-28.9999],[141.9717,-28.9999],[141.0001,-28.9999],[141.0001,-29.9422],[141.0001,-30.5705],[141.0001,-31.8269],[141.0001,-32.7692],[141.0001,-34.0185],[141.0456,-34.0622],[141.2418,-34.076],[141.5679,-34.2139],[141.7485,-34.1032],[141.8874,-34.1305],[142.0252,-34.1122],[142.0943,-34.1708],[142.2351,-34.1919],[142.2588,-34.2728],[142.4064,-34.3564],[142.3858,-34.5334],[142.4586,-34.5916],[142.5566,-34.7742],[142.6428,-34.7876],[142.7261,-34.6032],[143.1426,-34.699],[143.3605,-34.8062],[143.3313,-34.9628],[143.407,-35.1788],[143.5814,-35.2494],[143.5955,-35.3605],[143.7769,-35.4184],[143.9984,-35.5554],[144.1001,-35.5868],[144.1804,-35.6791],[144.3243,-35.7542],[144.4226,-35.9139],[144.6028,-36.0661],[144.7407,-36.135],[144.8902,-36.0764],[145.0084,-35.8676],[145.2179,-35.8512],[145.3341,-35.876],[145.5726,-35.8436],[145.7446,-35.9649],[145.9596,-35.977],[146.2162,-36.0558],[146.3851,-36.0475],[146.4319,-35.9838],[146.6241,-35.9938],[146.9311,-36.1157],[147.0796,-36.1036],[147.1246,-36.0456],[147.3063,-36.052],[147.3966,-35.9667],[147.5568,-35.9964],[147.7138,-35.9394],[147.9969,-36.0592],[148.0319,-36.2371],[148.1618,-36.5766],[148.214,-36.6513],[148.123,-36.7842],[148.2168,-36.8017],[148.8936,-37.0748],[149.9721,-37.5103],[149.951,-37.2843],[150.0195,-37.2209],[149.9038,-36.9284],[149.93,-36.8305],[150.0658,-36.5666],[150.0793,-36.386],[150.1423,-36.32],[150.1231,-36.1526],[150.1634,-35.9566],[150.2324,-35.8438],[150.2181,-35.7512],[150.3069,-35.7003],[150.4094,-35.5385],[150.554,-35.2136],[150.613,-35.1873],[150.7038,-35.1204],[150.6956,-35.0261],[150.7762,-34.987],[150.7534,-34.8581],[150.8338,-34.7824],[150.9189,-34.4864],[150.9249,-34.3304],[151.028,-34.2008],[151.169,-34.1101],[151.2925,-33.8918],[151.3431,-33.5483],[151.4242,-33.5278],[151.5038,-33.36],[151.626,-33.1916],[151.6706,-33.0611],[151.834,-32.865],[151.9352,-32.8158],[152.1895,-32.7586],[152.2359,-32.607],[152.5216,-32.4275],[152.5101,-32.1619],[152.6093,-31.9458],[152.6929,-31.8853],[152.8454,-31.5693],[152.9345,-31.4828],[152.9806,-31.1659],[153.0595,-31.0772],[153.0879,-30.9267],[153.005,-30.8358],[152.9878,-30.7346],[153.0505,-30.4733],[153.2038,-30.1292],[153.3216,-29.6975],[153.37,-29.3967],[153.3403,-29.3227],[153.4538,-29.0356],[153.606,-28.8674],[153.6306,-28.6616],[153.576,-28.5896],[153.5635,-28.4609],[153.5911,-28.2685],[153.5065,-28.1493]],[[149.3499,-35.3595],[149.1867,-35.3807],[149.0864,-35.61],[149.1065,-35.8274],[149.0525,-35.9149],[148.9481,-35.8879],[148.7927,-35.7073],[148.7705,-35.4933],[148.826,-35.3133],[149.1029,-35.1459],[149.1892,-35.1785],[149.3499,-35.3595]]]}},{"type":"Feature","properties":{"sourceId":"1159311169","regionId":"region.e870056e-71bc-4bb3-bf80-9d378a64f7ed","countryId":"country.1gxtyz9"},"geometry":{"type":"Polygon","coordinates":[[[150.7038,-35.1204],[150.613,-35.1873],[150.7595,-35.1789],[150.7038,-35.1204]]]}},{"type":"Feature","properties":{"sourceId":"1159313263","regionId":"region.e6bce211-a607-41d8-97e4-bbf5dcb5dfc5","countryId":"country.1gxtyz9"},"geometry":{"type":"Polygon","coordinates":[[[149.9721,-37.5103],[148.8936,-37.0748],[148.2168,-36.8017],[148.123,-36.7842],[148.214,-36.6513],[148.1618,-36.5766],[148.0319,-36.2371],[147.9969,-36.0592],[147.7138,-35.9394],[147.5568,-35.9964],[147.3966,-35.9667],[147.3063,-36.052],[147.1246,-36.0456],[147.0796,-36.1036],[146.9311,-36.1157],[146.6241,-35.9938],[146.4319,-35.9838],[146.3851,-36.0475],[146.2162,-36.0558],[145.9596,-35.977],[145.7446,-35.9649],[145.5726,-35.8436],[145.3341,-35.876],[145.2179,-35.8512],[145.0084,-35.8676],[144.8902,-36.0764],[144.7407,-36.135],[144.6028,-36.0661],[144.4226,-35.9139],[144.3243,-35.7542],[144.1804,-35.6791],[144.1001,-35.5868],[143.9984,-35.5554],[143.7769,-35.4184],[143.5955,-35.3605],[143.5814,-35.2494],[143.407,-35.1788],[143.3313,-34.9628],[143.3605,-34.8062],[143.1426,-34.699],[142.7261,-34.6032],[142.6428,-34.7876],[142.5566,-34.7742],[142.4586,-34.5916],[142.3858,-34.5334],[142.4064,-34.3564],[142.2588,-34.2728],[142.2351,-34.1919],[142.0943,-34.1708],[142.0252,-34.1122],[141.8874,-34.1305],[141.7485,-34.1032],[141.5679,-34.2139],[141.2418,-34.076],[141.0456,-34.0622],[141.0001,-34.0185],[140.9672,-34.5661],[140.9676,-35.5655],[140.9676,-36.0652],[140.9679,-37.0646],[140.9682,-38.0594],[141.1343,-38.1276],[141.3748,-38.2912],[141.4344,-38.3751],[141.6014,-38.3923],[141.6725,-38.2843],[141.9468,-38.2829],[142.2246,-38.4057],[142.3977,-38.3671],[142.6538,-38.4728],[142.8102,-38.5784],[143.0601,-38.6359],[143.2415,-38.7628],[143.3345,-38.756],[143.537,-38.8583],[143.7046,-38.7281],[143.8449,-38.6912],[144.0525,-38.4858],[144.249,-38.4016],[144.4019,-38.3012],[144.6528,-38.2858],[144.7251,-38.1648],[144.5233,-38.0842],[144.8045,-37.9409],[144.9827,-37.8993],[145.1102,-38.0517],[145.1193,-38.1594],[144.9829,-38.3414],[144.804,-38.3791],[144.8864,-38.4821],[145.0247,-38.4939],[145.2966,-38.2317],[145.4766,-38.2449],[145.5569,-38.3852],[145.4312,-38.4428],[145.4481,-38.5505],[145.5708,-38.6617],[145.8093,-38.6502],[145.9158,-38.8958],[146.0918,-38.8198],[146.1817,-38.8683],[146.2638,-38.996],[146.4343,-39.0891],[146.4541,-38.9493],[146.4024,-38.8586],[146.2864,-38.9098],[146.2557,-38.7018],[146.4118,-38.7398],[146.8786,-38.6443],[147.3955,-38.2201],[147.5894,-38.0807],[147.9165,-37.9186],[148.3064,-37.8234],[148.7241,-37.8235],[148.9439,-37.7895],[149.479,-37.7859],[149.6667,-37.7001],[149.7871,-37.5528],[149.9721,-37.5103]]]}},{"type":"Feature","properties":{"sourceId":"1159313261","regionId":"region.0bbf8f36-03cd-42bb-a36d-74d587c06786","countryId":"country.1gxtyz9"},"geometry":{"type":"MultiPolygon","coordinates":[[[[147.9985,-43.2304],[147.9639,-43.0105],[148.0047,-42.9089],[147.8887,-42.8195],[147.9531,-42.72],[147.9369,-42.5909],[148.006,-42.5141],[147.9834,-42.319],[148.0745,-42.1974],[148.147,-41.9993],[148.2993,-42.0506],[148.3269,-41.9158],[148.261,-41.8004],[148.315,-41.6065],[148.2795,-41.4504],[148.3311,-41.3225],[148.2689,-41.1516],[148.3314,-41.0022],[148.2093,-40.8408],[147.9842,-40.7365],[147.9162,-40.8527],[147.8198,-40.8935],[147.669,-40.8259],[147.5974,-40.8469],[147.4448,-41.0084],[147.286,-40.9413],[147.1711,-41.0065],[147.0176,-40.9767],[146.4237,-41.1662],[146.2144,-41.1554],[145.9155,-41.0413],[145.7913,-41.017],[145.7116,-40.9304],[144.9847,-40.7448],[144.6892,-40.7045],[144.697,-40.8869],[144.6058,-40.9965],[144.6753,-41.0807],[144.6817,-41.2231],[144.7673,-41.3355],[144.926,-41.7091],[145.2066,-41.9666],[145.2769,-42.1821],[145.2024,-42.2475],[145.2642,-42.5953],[145.3527,-42.6508],[145.5103,-42.9584],[145.5823,-42.9636],[145.8733,-43.2584],[146.0254,-43.3249],[146.0308,-43.4827],[146.3055,-43.5304],[146.5135,-43.5339],[146.7107,-43.629],[146.927,-43.6117],[146.936,-43.4952],[147.0998,-43.2994],[147.2576,-43.2543],[147.2576,-43.1144],[147.3602,-42.9252],[147.4773,-42.9089],[147.5856,-42.8212],[147.6895,-42.8953],[147.8403,-42.902],[147.8871,-43.0344],[147.6478,-43.0728],[147.7925,-43.2441],[147.8675,-43.1417],[147.9985,-43.2304]]],[[[147.3366,-43.3403],[147.1681,-43.3683],[147.1492,-43.5012],[147.3159,-43.5007],[147.3366,-43.3403]]],[[[148.4299,-40.3733],[148.346,-40.3095],[148.0741,-40.3512],[148.082,-40.4543],[148.2957,-40.4347],[148.4299,-40.3733]]],[[[148.0149,-40.1506],[148.0747,-40.2551],[148.3074,-40.2377],[148.3338,-40.1747],[148.299,-39.9618],[148.167,-39.9356],[147.9533,-39.7117],[147.8537,-39.8277],[147.9414,-40.0451],[148.0149,-40.1506]]],[[[144.1055,-39.893],[144.1262,-39.8077],[144.0842,-39.6262],[143.862,-39.7006],[143.8381,-39.9345],[143.9225,-40.1274],[144.1125,-40.0309],[144.1055,-39.893]]]]}},{"type":"Feature","properties":{"sourceId":"1159315603","regionId":"region.3071d2cd-f03e-4a20-bcb5-1646481846ea","countryId":"country.1gxtyz9"},"geometry":{"type":"Polygon","coordinates":[[[158.8934,-54.5108],[158.8324,-54.7117],[158.8926,-54.6869],[158.9556,-54.5512],[158.8934,-54.5108]]]}},{"type":"Feature","properties":{"sourceId":"1159313269","regionId":"region.5189a323-5737-479f-88d7-1d3a9fdd95dc","countryId":"country.1gxtyz9"},"geometry":{"type":"Polygon","coordinates":[[[159.0444,-31.5192],[159.0752,-31.5398],[159.083,-31.5584],[159.0801,-31.5763],[159.0896,-31.589],[159.1065,-31.5676],[159.0689,-31.5209],[159.0444,-31.5192]]]}},{"type":"Feature","properties":{"sourceId":"1159315797","regionId":"region.f59fcf78-4522-47c5-8be3-9b57e989aefb","countryId":"country.1gxtyz9"},"geometry":{"type":"Polygon","coordinates":[[[150.009,-16.1344],[149.9998,-16.1357],[150.0073,-16.1367],[150.009,-16.1344]]]}},{"type":"Feature","properties":{"sourceId":"1159315625","regionId":"region.b1ee5940-b46a-43ca-a3da-fa99cf541ee2","countryId":"country.1gxtyz9"},"geometry":{"type":"Polygon","coordinates":[[[123.597,-12.4283],[123.575,-12.4266],[123.5756,-12.4368],[123.5977,-12.4386],[123.597,-12.4283]]]}},{"type":"Feature","properties":{"sourceId":"1159313297","regionId":"region.b371ad85-e43c-44f6-8446-03821d01f8ad","countryId":"country.1gxtyz9"},"geometry":{"type":"Polygon","coordinates":[[[149.3499,-35.3595],[149.1892,-35.1785],[149.1029,-35.1459],[148.826,-35.3133],[148.7705,-35.4933],[148.7927,-35.7073],[148.9481,-35.8879],[149.0525,-35.9149],[149.1065,-35.8274],[149.0864,-35.61],[149.1867,-35.3807],[149.3499,-35.3595]]]}}]}