{"type":"FeatureCollection","features":[{"type":"Feature","properties":{"sourceId":"1159310377","regionId":"region.44974e52-782e-416a-aff8-08633f34ac35","countryId":"country.e55nqx"},"geometry":{"type":"Polygon","coordinates":[[[14.0649,13.078],[14.4182,13.0811],[14.481,13.0005],[14.9984,12.9998],[15.0423,13.1036],[15.0043,13.2601],[15.1695,13.2061],[15.2459,13.1154],[15.3793,13.185],[15.2195,13.3614],[15.3568,13.4051],[15.4411,13.3187],[15.5601,13.2648],[15.3758,13.752],[15.2133,13.7506],[14.9158,13.6788],[14.7957,13.6712],[14.6438,13.9089],[14.4774,14.1045],[14.3566,14.135],[14.1457,14.3139],[14.1271,14.3867],[13.9505,14.4661],[13.6081,14.5183],[13.4823,14.4836],[13.4492,14.3801],[13.6073,13.7041],[14.0649,13.078]]]}},{"type":"Feature","properties":{"sourceId":"1159317321","regionId":"region.23324616-0f7c-4897-ba3e-d72c803c41fe","countryId":"country.e55nqx"},"geometry":{"type":"Polygon","coordinates":[[[22.3647,10.9542],[22.4605,11.0008],[22.7199,10.9647],[22.8611,10.9192],[22.9565,11.2088],[22.9148,11.3961],[22.7818,11.3989],[22.743,11.4661],[22.6281,11.5098],[22.5371,11.6809],[22.6124,12.0728],[22.4581,12.0304],[22.4814,12.1767],[22.3728,12.4631],[22.4457,12.6111],[22.2049,12.7434],[22.0587,12.6367],[21.936,12.6395],[21.8094,12.7937],[21.5745,12.882],[21.3805,12.7901],[21.2375,12.6777],[21.0945,12.6982],[20.9822,12.6675],[20.8495,12.7186],[20.8392,12.882],[20.6861,12.9126],[20.6759,13.0454],[20.4104,13.0454],[20.2946,13.0923],[20.2454,13.0379],[19.9903,12.9706],[20.1746,12.8407],[20.055,12.68],[20.0958,12.5994],[19.9155,12.4076],[19.8215,12.1632],[19.82,12.087],[19.8526,11.9768],[19.94,11.9739],[19.9602,12.0701],[20.2725,12.0647],[20.5211,11.8994],[21.0291,11.6496],[21.2614,11.5964],[21.8211,11.6981],[22.0826,11.5948],[22.3647,10.9542]]]}},{"type":"Feature","properties":{"sourceId":"1159311775","regionId":"region.75bf2893-1e99-45eb-844d-3aba81d08ec4","countryId":"country.e55nqx"},"geometry":{"type":"Polygon","coordinates":[[[22.3647,10.9542],[22.0826,11.5948],[21.8211,11.6981],[21.2614,11.5964],[21.0291,11.6496],[20.5211,11.8994],[20.2725,12.0647],[19.9602,12.0701],[19.94,11.9739],[19.8526,11.9768],[19.82,12.087],[19.642,12.0977],[19.3896,12.1589],[19.2192,11.9994],[19.2858,11.845],[19.1908,11.6737],[19.0738,11.6189],[18.9961,11.7081],[18.8651,11.6798],[18.8575,11.3504],[19.1315,11.1867],[19.3977,11.0621],[19.633,10.989],[19.6658,10.8782],[19.6584,10.6185],[19.6059,10.3592],[19.641,10.2252],[19.5761,10.0645],[19.651,9.9281],[19.9321,9.0633],[20.0687,9.1381],[20.3594,9.1164],[20.4352,9.1381],[20.4961,9.2709],[20.8139,9.4188],[20.9961,9.6483],[21.0174,9.7436],[21.0931,9.7743],[21.2569,9.9757],[21.3743,9.9731],[21.4854,10.1643],[21.6563,10.2337],[21.7511,10.4118],[21.7055,10.5718],[21.7226,10.6367],[21.8636,10.6679],[22.0039,10.7433],[22.0486,10.837],[22.1764,10.8162],[22.253,10.9153],[22.3647,10.9542]]]}},{"type":"Feature","properties":{"sourceId":"1159311773","regionId":"region.4e9d6efb-fe3c-4247-80a9-6d2769060605","countryId":"country.e55nqx"},"geometry":{"type":"Polygon","coordinates":[[[19.9321,9.0633],[19.651,9.9281],[19.5761,10.0645],[19.641,10.2252],[19.6059,10.3592],[19.6584,10.6185],[19.5337,10.4954],[19.3853,10.4746],[19.3002,10.2975],[19.1641,10.1375],[18.9989,10.007],[18.8069,9.9987],[18.7664,9.8925],[18.6902,9.8673],[18.6002,9.9154],[18.6091,10.0159],[18.4455,10.1849],[18.2705,10.2465],[18.1305,10.3464],[17.9249,10.3861],[17.8272,10.4739],[17.5337,10.4637],[17.3295,9.8158],[17.4273,9.7748],[17.5584,9.6632],[17.5365,9.5871],[17.6249,9.4525],[17.7131,9.4555],[17.7952,9.2913],[17.9958,9.2001],[18.1655,9.1601],[18.0642,9.021],[17.9675,9.0074],[17.9407,8.8497],[18.0142,8.8037],[18.0315,8.5765],[18.0888,8.521],[18.1287,8.3788],[18.1269,8.2141],[18.1754,8.022],[18.5893,8.0479],[18.6726,8.2075],[18.813,8.2764],[19.0723,8.6319],[19.0487,8.7457],[18.9291,8.7965],[18.8927,8.8979],[19.1006,9.0153],[19.2632,9.0283],[19.3694,9.0004],[19.7,9.0206],[19.9321,9.0633]]]}},{"type":"Feature","properties":{"sourceId":"1159317323","regionId":"region.fdf36ae6-1b73-4535-9c89-fca42e0ed567","countryId":"country.e55nqx"},"geometry":{"type":"Polygon","coordinates":[[[18.1754,8.022],[18.1269,8.2141],[18.1287,8.3788],[18.0888,8.521],[18.0315,8.5765],[18.0142,8.8037],[17.9407,8.8497],[17.9675,9.0074],[18.0642,9.021],[18.1655,9.1601],[17.9958,9.2001],[17.7952,9.2913],[17.7131,9.4555],[17.6249,9.4525],[17.5365,9.5871],[17.4597,9.6392],[17.2546,9.6015],[17.21,9.386],[17.072,9.2755],[17.1803,9.1469],[17.1048,9.0698],[17.1174,8.7837],[17.0392,8.6116],[17.2495,8.2906],[17.1626,8.1559],[17.0909,8.1204],[17.2338,7.8108],[17.6798,7.9852],[17.8979,7.9675],[18.1754,8.022]]]}},{"type":"Feature","properties":{"sourceId":"1159311765","regionId":"region.3297ff71-bbb8-4508-aa36-23524823c6d4","countryId":"country.e55nqx"},"geometry":{"type":"Polygon","coordinates":[[[17.2338,7.8108],[17.0909,8.1204],[17.1626,8.1559],[17.2495,8.2906],[17.0392,8.6116],[17.1174,8.7837],[17.1048,9.0698],[16.9191,9.0361],[16.5687,9.1361],[16.4354,9.1276],[16.5971,8.8811],[16.5135,8.7532],[16.365,8.6486],[16.1452,8.5975],[15.8929,8.4388],[15.8186,8.319],[15.7368,8.3233],[15.5765,8.2576],[15.4817,8.3479],[15.2732,8.4486],[15.2107,8.4218],[15.3453,8.136],[15.4407,7.8394],[15.5629,7.7924],[15.549,7.6308],[15.481,7.5233],[15.6685,7.5163],[15.7939,7.458],[15.9253,7.4882],[16.0652,7.5912],[16.3708,7.6725],[16.4074,7.7961],[16.5487,7.87],[16.6245,7.6687],[16.8151,7.5495],[16.8807,7.6329],[17.1019,7.6777],[17.2338,7.8108]]]}},{"type":"Feature","properties":{"sourceId":"1159310373","regionId":"region.188e720b-0198-4a7d-86cc-a539a1221512","countryId":"country.e55nqx"},"geometry":{"type":"Polygon","coordinates":[[[14.481,13.0005],[14.4906,12.8863],[14.604,12.7608],[14.8308,12.6182],[14.9083,12.3269],[14.9049,12.2487],[15.0697,12.2591],[15.3658,12.3305],[15.4066,12.2795],[15.713,12.351],[15.8764,12.3408],[15.9785,12.3714],[16.0602,12.4633],[16.5197,12.2897],[16.6423,12.2284],[16.6729,12.0038],[16.775,11.8812],[16.7852,11.7383],[16.8363,11.6974],[16.9895,11.6872],[17.1222,11.5647],[17.2652,11.4932],[17.4592,11.6668],[17.6256,11.7151],[17.5237,11.9151],[17.5601,12.1556],[17.4021,12.1917],[17.2895,12.3547],[17.2575,12.5155],[17.1287,12.6195],[17.0389,12.8299],[16.947,12.9],[16.9698,12.9706],[17.1317,13.144],[16.9973,13.1821],[16.8241,13.1598],[16.7194,13.1131],[16.2469,13.052],[16,13.0476],[15.8836,13.1879],[15.7762,13.1719],[15.5601,13.2648],[15.4411,13.3187],[15.3568,13.4051],[15.2195,13.3614],[15.3793,13.185],[15.2459,13.1154],[15.1695,13.2061],[15.0043,13.2601],[15.0423,13.1036],[14.9984,12.9998],[14.481,13.0005]]]}},{"type":"Feature","properties":{"sourceId":"1159317319","regionId":"region.d3fd3df2-f882-4bd7-a713-bbf1ce299f9d","countryId":"country.e55nqx"},"geometry":{"type":"Polygon","coordinates":[[[14.9049,12.2487],[14.9031,12.1459],[15.0118,12.1086],[15.1075,12.1541],[15.1225,12.0906],[15.0406,12.0556],[15.042,11.9024],[15.1109,11.7829],[15.0683,11.7001],[15.1356,11.5308],[15.0606,11.4161],[15.0283,11.2445],[15.0288,11.0802],[15.2313,11.1845],[15.4321,11.1163],[15.5487,10.9259],[15.6495,10.8966],[15.7456,10.8112],[16.0012,10.7894],[16.1392,10.7344],[16.1085,10.446],[16.1265,10.315],[16.2194,10.1959],[16.4402,10.1929],[16.5622,10.2508],[16.6441,10.0859],[16.7399,10.0265],[16.8798,10.0001],[16.9439,9.9372],[17.1381,9.9107],[17.2276,9.8319],[17.3295,9.8158],[17.5337,10.4637],[17.2958,10.5844],[17.3162,10.7477],[17.255,11.2379],[17.2652,11.4932],[17.1222,11.5647],[16.9895,11.6872],[16.8363,11.6974],[16.7852,11.7383],[16.775,11.8812],[16.6729,12.0038],[16.6423,12.2284],[16.5197,12.2897],[16.0602,12.4633],[15.9785,12.3714],[15.8764,12.3408],[15.713,12.351],[15.4066,12.2795],[15.3658,12.3305],[15.0697,12.2591],[14.9049,12.2487]]]}},{"type":"Feature","properties":{"sourceId":"1159315945","regionId":"region.f68af2a1-9ffd-4458-9f3f-184e1e1afac6","countryId":"country.e55nqx"},"geometry":{"type":"Polygon","coordinates":[[[15.0406,12.0556],[15.1225,12.0906],[15.1075,12.1541],[15.0118,12.1086],[15.0406,12.0556]]]}},{"type":"Feature","properties":{"sourceId":"1159315949","regionId":"region.c84f2433-543f-47b6-b356-c50c2e54b212","countryId":"country.e55nqx"},"geometry":{"type":"Polygon","coordinates":[[[15.0288,11.0802],[15.079,10.8981],[15.0659,10.7931],[15.1499,10.6231],[15.1382,10.5217],[15.2183,10.4872],[15.3014,10.3117],[15.5361,10.0805],[15.6812,9.9913],[15.383,9.9302],[15.2149,9.9841],[15.0612,9.9492],[14.8981,9.9605],[14.7325,9.9238],[14.7375,9.6658],[14.9407,9.6957],[15.0265,9.6416],[15.0896,9.3944],[15.2996,9.2448],[15.4383,9.1868],[15.5154,9.3137],[15.676,9.4997],[15.7163,9.6041],[15.8307,9.7413],[15.9739,9.6832],[16.1584,9.8557],[16.2433,10.0716],[16.2194,10.1959],[16.1265,10.315],[16.1085,10.446],[16.1392,10.7344],[16.0012,10.7894],[15.7456,10.8112],[15.6495,10.8966],[15.5487,10.9259],[15.4321,11.1163],[15.2313,11.1845],[15.0288,11.0802]]]}},{"type":"Feature","properties":{"sourceId":"1159311767","regionId":"region.8d866685-7de1-412d-916f-5fdd7eae57c3","countryId":"country.e55nqx"},"geometry":{"type":"Polygon","coordinates":[[[14.7325,9.9238],[14.4405,9.9953],[14.1963,9.9791],[14.0885,9.8096],[13.9476,9.6378],[14.0365,9.5688],[14.3213,9.2432],[14.3495,9.1684],[14.7939,8.8136],[14.846,8.811],[15.0313,8.6587],[15.2107,8.4218],[15.2732,8.4486],[15.3059,8.6718],[15.3726,8.7415],[15.3771,8.8833],[15.4639,9.0267],[15.4383,9.1868],[15.2996,9.2448],[15.0896,9.3944],[15.0265,9.6416],[14.9407,9.6957],[14.7375,9.6658],[14.7325,9.9238]]]}},{"type":"Feature","properties":{"sourceId":"1159317313","regionId":"region.51c68475-f666-465b-8f71-1971db6c8acd","countryId":"country.e55nqx"},"geometry":{"type":"Polygon","coordinates":[[[20.8933,21.0209],[20.0043,19.2795],[20.1526,18.6864],[20.4244,17.9697],[20.4244,17.6237],[20.3997,17.1788],[20.3009,16.7587],[20.548,16.0667],[20.637,15.8437],[20.4835,15.7116],[20.5672,15.6855],[20.8329,15.7994],[20.9506,15.9128],[21.0915,15.9838],[21.2934,15.8901],[21.3888,15.9238],[21.7626,15.9982],[21.922,15.9457],[22.0182,15.986],[22.4707,15.9089],[22.5445,15.8152],[22.7675,15.8385],[22.8834,15.7973],[23.0696,15.7848],[23.1192,15.7072],[23.3206,15.6813],[23.5927,15.749],[23.9844,15.7219],[23.9835,16.9411],[23.9828,17.8702],[23.9821,18.567],[23.9813,19.4961],[23.2402,19.8621],[22.2521,20.3501],[21.6345,20.655],[20.8933,21.0209]]]}},{"type":"Feature","properties":{"sourceId":"1159310371","regionId":"region.fa02354f-1bf8-4464-9d9b-9ef29d04a5fc","countryId":"country.e55nqx"},"geometry":{"type":"Polygon","coordinates":[[[19.1858,21.8642],[18.9171,21.9968],[18.7191,21.8498],[18.7686,21.3555],[18.7438,21.1331],[18.1507,20.9354],[17.953,20.8365],[17.8294,20.713],[17.7058,20.6882],[17.4093,20.6882],[17.3598,20.4164],[16.8179,19.4622],[16.2714,18.4999],[15.4902,17.1245],[15.4685,16.9049],[16.6714,16.3419],[17.8428,15.7925],[17.9929,15.6164],[18.0849,15.5317],[18.2706,15.4315],[18.48,15.3839],[18.5922,15.3905],[18.7912,15.4505],[18.9354,15.522],[19.1304,15.7307],[19.2074,15.9401],[19.215,16.1733],[19.3794,16.1205],[19.4234,15.9681],[19.555,15.8864],[19.8638,15.7987],[20.0001,15.7838],[20.0803,15.7734],[20.3043,15.6695],[20.4835,15.7116],[20.637,15.8437],[20.548,16.0667],[20.3009,16.7587],[20.3997,17.1788],[20.4244,17.6237],[20.4244,17.9697],[20.1526,18.6864],[20.0043,19.2795],[20.8933,21.0209],[19.9053,21.5089],[19.1858,21.8642]]]}},{"type":"Feature","properties":{"sourceId":"1159317311","regionId":"region.7e04e9dd-3921-4af3-8b55-c10cd4d1950c","countryId":"country.e55nqx"},"geometry":{"type":"Polygon","coordinates":[[[18.9171,21.9968],[18.176,22.3628],[17.4348,22.7288],[16.6938,23.0947],[15.9851,23.4447],[15.9646,23.4422],[14.9799,22.9957],[15.172,21.9934],[15.1804,21.5073],[15.301,21.4013],[15.6093,20.9507],[15.5442,20.799],[15.954,20.3746],[15.963,20.3192],[15.736,19.9035],[15.6516,18.9494],[15.5677,18],[15.4902,17.1245],[16.2714,18.4999],[16.8179,19.4622],[17.3598,20.4164],[17.4093,20.6882],[17.7058,20.6882],[17.8294,20.713],[17.953,20.8365],[18.1507,20.9354],[18.7438,21.1331],[18.7686,21.3555],[18.7191,21.8498],[18.9171,21.9968]]]}},{"type":"Feature","properties":{"sourceId":"1159310375","regionId":"region.ff6d1b86-1ae4-4cdb-bf9d-c3879f29efb2","countryId":"country.e55nqx"},"geometry":{"type":"Polygon","coordinates":[[[13.6081,14.5183],[13.9505,14.4661],[14.1271,14.3867],[14.1457,14.3139],[14.3566,14.135],[14.4774,14.1045],[14.6438,13.9089],[14.7957,13.6712],[14.9158,13.6788],[15.2133,13.7506],[15.3758,13.752],[15.5601,13.2648],[15.7762,13.1719],[15.8836,13.1879],[15.8984,13.5215],[15.8402,13.6426],[15.8418,13.7658],[15.6007,13.7539],[15.5905,14.0767],[15.7743,14.1482],[16.05,14.475],[16.1113,14.5771],[16.1317,14.812],[16.4891,16.0374],[16.6714,16.3419],[15.4685,16.9049],[15.0258,16.4325],[14.369,15.7496],[13.8339,15.0196],[13.7605,14.8664],[13.7644,14.7191],[13.6483,14.6494],[13.6081,14.5183]]]}},{"type":"Feature","properties":{"sourceId":"1159310387","regionId":"region.0a78f85b-457a-4db3-a847-314a4f9f6bc6","countryId":"country.e55nqx"},"geometry":{"type":"Polygon","coordinates":[[[22.1808,13.9206],[22.0423,13.9995],[21.7023,14.1109],[21.4355,14.1515],[21.1682,14.1015],[20.899,14.2648],[20.8442,14.355],[20.5588,14.469],[20.288,14.4414],[20.0001,14.156],[20.0001,14.0106],[20.2385,13.8862],[20.2317,13.6698],[20.2832,13.5632],[20.3048,13.2232],[20.2946,13.0923],[20.4104,13.0454],[20.6759,13.0454],[20.6861,12.9126],[20.8392,12.882],[20.8495,12.7186],[20.9822,12.6675],[21.0945,12.6982],[21.2375,12.6777],[21.3805,12.7901],[21.5745,12.882],[21.8094,12.7937],[21.9351,13.0592],[22.0161,13.1402],[22.14,13.1935],[22.2676,13.3346],[22.1959,13.5805],[22.0737,13.7714],[22.1808,13.9206]]]}},{"type":"Feature","properties":{"sourceId":"1159310381","regionId":"region.d0441a97-7a64-4f4c-92fa-d92eeeaeba5a","countryId":"country.e55nqx"},"geometry":{"type":"Polygon","coordinates":[[[23.1192,15.7072],[23.0696,15.7848],[22.8834,15.7973],[22.7675,15.8385],[22.5445,15.8152],[22.4707,15.9089],[22.0182,15.986],[21.922,15.9457],[21.7626,15.9982],[21.3888,15.9238],[21.2934,15.8901],[21.0915,15.9838],[20.9506,15.9128],[20.8329,15.7994],[20.5672,15.6855],[20.4835,15.7116],[20.3043,15.6695],[20.0803,15.7734],[20.0001,15.7838],[20.0001,14.156],[20.288,14.4414],[20.5588,14.469],[20.8442,14.355],[20.899,14.2648],[21.1682,14.1015],[21.4355,14.1515],[21.7023,14.1109],[22.0423,13.9995],[22.1808,13.9206],[22.2435,13.9754],[22.5315,14.1226],[22.5319,14.2206],[22.441,14.2499],[22.4249,14.4704],[22.3635,14.5435],[22.4654,14.6293],[22.6663,14.6817],[22.6508,14.8162],[22.7389,14.9798],[22.9055,15.1126],[22.9657,15.2239],[22.9665,15.4048],[22.9068,15.4814],[22.9257,15.5639],[23.1192,15.7072]]]}},{"type":"Feature","properties":{"sourceId":"1159317317","regionId":"region.179ef52c-5656-4614-a652-ba4862e3eecd","countryId":"country.e55nqx"},"geometry":{"type":"Polygon","coordinates":[[[15.8836,13.1879],[16,13.0476],[16.2469,13.052],[16.7194,13.1131],[16.8241,13.1598],[16.9973,13.1821],[17.1317,13.144],[17.2038,13.2708],[17.197,13.5006],[17.2496,13.7277],[17.5514,13.8201],[17.9929,15.6164],[17.8428,15.7925],[16.6714,16.3419],[16.4891,16.0374],[16.1317,14.812],[16.1113,14.5771],[16.05,14.475],[15.7743,14.1482],[15.5905,14.0767],[15.6007,13.7539],[15.8418,13.7658],[15.8402,13.6426],[15.8984,13.5215],[15.8836,13.1879]]]}},{"type":"Feature","properties":{"sourceId":"1159311769","regionId":"region.7da1981e-e494-4e3e-a5dc-d851f3727a6c","countryId":"country.e55nqx"},"geometry":{"type":"Polygon","coordinates":[[[16.4354,9.1276],[16.5687,9.1361],[16.9191,9.0361],[17.1048,9.0698],[17.1803,9.1469],[17.072,9.2755],[17.21,9.386],[17.2546,9.6015],[17.4597,9.6392],[17.5365,9.5871],[17.5584,9.6632],[17.4273,9.7748],[17.3295,9.8158],[17.2276,9.8319],[17.1381,9.9107],[16.9439,9.9372],[16.8798,10.0001],[16.7399,10.0265],[16.6441,10.0859],[16.5622,10.2508],[16.4402,10.1929],[16.2194,10.1959],[16.2433,10.0716],[16.1584,9.8557],[15.9739,9.6832],[15.8307,9.7413],[15.7163,9.6041],[15.676,9.4997],[15.5154,9.3137],[15.4383,9.1868],[15.4639,9.0267],[15.5303,8.9923],[15.8295,9.0284],[15.9781,9.1061],[16.1414,9.0883],[16.1972,9.149],[16.371,9.2376],[16.4354,9.1276]]]}},{"type":"Feature","properties":{"sourceId":"1159311763","regionId":"region.eb226075-a3fd-4e81-b8e8-d997263fcf7d","countryId":"country.e55nqx"},"geometry":{"type":"Polygon","coordinates":[[[16.4354,9.1276],[16.371,9.2376],[16.1972,9.149],[16.1414,9.0883],[15.9781,9.1061],[15.8295,9.0284],[15.5303,8.9923],[15.4639,9.0267],[15.3771,8.8833],[15.3726,8.7415],[15.3059,8.6718],[15.2732,8.4486],[15.4817,8.3479],[15.5765,8.2576],[15.7368,8.3233],[15.8186,8.319],[15.8929,8.4388],[16.1452,8.5975],[16.365,8.6486],[16.5135,8.7532],[16.5971,8.8811],[16.4354,9.1276]]]}},{"type":"Feature","properties":{"sourceId":"1159310383","regionId":"region.561c60cd-5fd5-4f9c-8cd0-9d0ac53e3ab2","countryId":"country.e55nqx"},"geometry":{"type":"Polygon","coordinates":[[[17.2652,11.4932],[17.255,11.2379],[17.3162,10.7477],[17.2958,10.5844],[17.5337,10.4637],[17.8272,10.4739],[17.9249,10.3861],[18.1305,10.3464],[18.2705,10.2465],[18.4455,10.1849],[18.6091,10.0159],[18.6002,9.9154],[18.6902,9.8673],[18.7664,9.8925],[18.8069,9.9987],[18.9989,10.007],[19.1641,10.1375],[19.3002,10.2975],[19.3853,10.4746],[19.5337,10.4954],[19.6584,10.6185],[19.6658,10.8782],[19.633,10.989],[19.3977,11.0621],[19.1315,11.1867],[18.8575,11.3504],[18.8651,11.6798],[18.9961,11.7081],[19.0738,11.6189],[19.1908,11.6737],[19.2858,11.845],[19.2192,11.9994],[19.3896,12.1589],[19.642,12.0977],[19.82,12.087],[19.8215,12.1632],[19.9155,12.4076],[20.0958,12.5994],[20.055,12.68],[20.1746,12.8407],[19.9903,12.9706],[19.7057,13.0556],[19.4709,12.9535],[19.1672,12.7765],[19.0814,12.7479],[18.4727,12.7706],[18.0753,12.5697],[17.9738,12.479],[17.8259,12.4572],[17.5647,12.2363],[17.5601,12.1556],[17.5237,11.9151],[17.6256,11.7151],[17.4592,11.6668],[17.2652,11.4932]]]}},{"type":"Feature","properties":{"sourceId":"1159310379","regionId":"region.25c31619-cb83-4a03-a476-590a1ed6a7a6","countryId":"country.e55nqx"},"geometry":{"type":"Polygon","coordinates":[[[17.1317,13.144],[16.9698,12.9706],[16.947,12.9],[17.0389,12.8299],[17.1287,12.6195],[17.2575,12.5155],[17.2895,12.3547],[17.4021,12.1917],[17.5601,12.1556],[17.5647,12.2363],[17.8259,12.4572],[17.9738,12.479],[18.0753,12.5697],[18.4727,12.7706],[19.0814,12.7479],[19.1672,12.7765],[19.4709,12.9535],[19.7057,13.0556],[19.9903,12.9706],[20.2454,13.0379],[20.2946,13.0923],[20.3048,13.2232],[20.2832,13.5632],[20.2317,13.6698],[20.2385,13.8862],[20.0001,14.0106],[20.0001,14.156],[20.0001,15.7838],[19.8638,15.7987],[19.555,15.8864],[19.4234,15.9681],[19.3794,16.1205],[19.215,16.1733],[19.2074,15.9401],[19.1304,15.7307],[18.9354,15.522],[18.7912,15.4505],[18.5922,15.3905],[18.48,15.3839],[18.2706,15.4315],[18.0849,15.5317],[17.9929,15.6164],[17.5514,13.8201],[17.2496,13.7277],[17.197,13.5006],[17.2038,13.2708],[17.1317,13.144]]]}}]}