{"type":"FeatureCollection","features":[{"type":"Feature","properties":{"sourceId":"1159315195","regionId":"region.4273eb18-3ed5-4310-831a-4607c6421bf4","countryId":"country.18zobjo"},"geometry":{"type":"Polygon","coordinates":[[[102.1187,22.3975],[102.0146,22.4461],[101.8178,22.4063],[101.7132,22.4915],[101.6545,22.4461],[101.6061,22.2848],[101.5182,22.2282],[101.6068,21.9676],[101.7515,21.8064],[101.7286,21.7175],[101.7936,21.5882],[101.7348,21.5544],[101.7225,21.3042],[101.8215,21.2211],[102.0384,21.1184],[102.1477,21.0152],[102.3094,20.9625],[102.5089,20.869],[102.5665,20.9342],[102.787,21.0316],[102.8039,21.1214],[102.9259,21.1406],[102.8879,21.2269],[102.895,21.4953],[102.9741,21.5753],[102.9478,21.7371],[102.7867,21.7399],[102.6507,21.6578],[102.591,21.9014],[102.4781,21.9576],[102.4829,22.0214],[102.2262,22.2284],[102.1187,22.3975]]]}},{"type":"Feature","properties":{"sourceId":"1159315193","regionId":"region.3c3184ab-e84d-44c8-b12e-bea910b42554","countryId":"country.18zobjo"},"geometry":{"type":"Polygon","coordinates":[[[101.8215,21.2211],[101.7685,21.1605],[101.7309,20.9987],[101.62,20.9388],[101.4444,20.7494],[101.5607,20.6332],[101.5403,20.4757],[101.4552,20.3557],[101.2286,20.3083],[101.244,20.136],[101.1411,20.0779],[101.0117,20.092],[100.9577,20.0089],[100.7417,19.957],[100.7632,19.8707],[100.8059,19.892],[101.0596,19.8458],[101.1313,19.8887],[101.2579,19.8213],[101.5594,19.8235],[101.7076,19.9308],[101.8986,19.9793],[101.9923,20.0595],[102.1521,20.0916],[102.2022,20.1795],[102.1578,20.2491],[102.1432,20.4094],[102.2321,20.6062],[102.3386,20.6747],[102.3519,20.8482],[102.3094,20.9625],[102.1477,21.0152],[102.0384,21.1184],[101.8215,21.2211]]]}},{"type":"Feature","properties":{"sourceId":"1159313989","regionId":"region.77980454-a1b1-47e5-affa-40a4d7787cf7","countryId":"country.18zobjo"},"geometry":{"type":"Polygon","coordinates":[[[101.159,21.5527],[101.0034,21.406],[100.792,21.2974],[100.7254,21.3117],[100.6376,21.0697],[100.5435,21.0274],[100.5157,20.8865],[100.6078,20.8399],[100.7176,20.7612],[100.8242,20.5938],[100.832,20.4998],[100.9381,20.4961],[101.007,20.351],[101.1274,20.2995],[101.2286,20.3083],[101.4552,20.3557],[101.5403,20.4757],[101.5607,20.6332],[101.4444,20.7494],[101.62,20.9388],[101.7309,20.9987],[101.7685,21.1605],[101.7179,21.1345],[101.4951,21.2428],[101.2753,21.1741],[101.209,21.2455],[101.2348,21.3637],[101.1714,21.4034],[101.159,21.5527]]]}},{"type":"Feature","properties":{"sourceId":"1159313987","regionId":"region.2b1d425e-68e1-4706-8b41-27fd4e6b7bbe","countryId":"country.18zobjo"},"geometry":{"type":"Polygon","coordinates":[[[100.6078,20.8399],[100.5134,20.807],[100.3837,20.8317],[100.2113,20.6974],[100.1493,20.5481],[100.0993,20.3178],[100.3065,20.3997],[100.3644,20.369],[100.5434,20.0666],[100.4743,19.8654],[100.4077,19.7943],[100.4828,19.7786],[100.6782,19.8187],[100.7632,19.8707],[100.7417,19.957],[100.9577,20.0089],[101.0117,20.092],[101.1411,20.0779],[101.244,20.136],[101.2286,20.3083],[101.1274,20.2995],[101.007,20.351],[100.9381,20.4961],[100.832,20.4998],[100.8242,20.5938],[100.7176,20.7612],[100.6078,20.8399]]]}},{"type":"Feature","properties":{"sourceId":"1159313991","regionId":"region.89d3ab63-457d-45a0-8396-8d4d400acb8b","countryId":"country.18zobjo"},"geometry":{"type":"Polygon","coordinates":[[[100.39,19.7244],[100.462,19.5371],[100.5748,19.5083],[100.6333,19.5422],[100.7455,19.485],[100.8746,19.6129],[101.1247,19.5651],[101.2462,19.5703],[101.1929,19.4528],[101.2291,19.1436],[101.3179,19.0501],[101.2329,18.8927],[101.2113,18.7119],[101.2401,18.6736],[101.0303,18.4278],[101.0741,18.3716],[101.1284,18.2457],[101.1652,18.0534],[101.0083,17.8952],[100.9559,17.7075],[100.8857,17.5959],[100.9377,17.5555],[101.1323,17.4617],[101.247,17.5922],[101.5455,17.8137],[101.4236,17.9289],[101.4208,18.2147],[101.6598,18.4709],[101.7426,18.5022],[101.8107,18.6218],[101.8617,18.7933],[101.8032,18.8856],[101.8104,19.0499],[101.8243,19.2791],[101.9063,19.4032],[101.8167,19.4814],[101.8149,19.6567],[101.746,19.7413],[101.7717,19.8533],[101.7076,19.9308],[101.5594,19.8235],[101.2579,19.8213],[101.1313,19.8887],[101.0596,19.8458],[100.8059,19.892],[100.7632,19.8707],[100.6782,19.8187],[100.4828,19.7786],[100.4077,19.7943],[100.39,19.7244]]]}},{"type":"Feature","properties":{"sourceId":"1159315197","regionId":"region.1917aa2a-a399-4507-9d45-1c558f0cb413","countryId":"country.18zobjo"},"geometry":{"type":"Polygon","coordinates":[[[103.2963,18.2952],[103.2608,18.4002],[103.3968,18.4414],[103.6071,18.4004],[103.8321,18.3207],[104,18.3184],[104.1109,18.1146],[104.2033,18.0186],[104.282,17.8615],[104.4329,18.1849],[104.5497,18.2295],[104.793,18.0759],[104.8313,18.0038],[105.0397,17.9408],[105.1322,17.9912],[105.2569,18.2475],[105.1567,18.3198],[105.08,18.4544],[105.1695,18.6183],[105.1127,18.6983],[104.9372,18.7312],[104.8729,18.778],[104.722,18.792],[104.4007,18.9923],[104.2596,19.1041],[104.2533,18.9844],[104.1216,18.8259],[104.0372,18.8119],[103.8855,18.8771],[103.7754,18.8272],[103.5708,18.9498],[103.4842,18.9304],[103.4877,18.6328],[103.3683,18.5514],[103.0839,18.5132],[102.8217,18.5107],[102.9021,18.3932],[102.9039,18.2935],[102.9955,18.2509],[103.0877,18.1387],[103.1852,18.2578],[103.2963,18.2952]]]}},{"type":"Feature","properties":{"sourceId":"1159315199","regionId":"region.7213fa7b-d5c9-4411-b059-4f98bc5e7072","countryId":"country.18zobjo"},"geometry":{"type":"Polygon","coordinates":[[[104.7463,16.9435],[104.8322,16.9072],[104.8634,17.0858],[105.1648,17.1114],[105.2282,17.0557],[105.4843,17.1004],[105.6339,17.0434],[105.7287,17.1095],[105.8883,17.0512],[106.0939,17.0588],[106.404,17.0146],[106.26,17.2892],[106.1854,17.2574],[106.0193,17.3945],[105.846,17.598],[105.7353,17.664],[105.5942,17.8881],[105.6034,17.9692],[105.476,18.1273],[105.3683,18.15],[105.2569,18.2475],[105.1322,17.9912],[105.0397,17.9408],[104.8313,18.0038],[104.793,18.0759],[104.5497,18.2295],[104.4329,18.1849],[104.282,17.8615],[104.3526,17.8193],[104.4812,17.6404],[104.7145,17.5153],[104.8164,17.3728],[104.8099,17.1717],[104.7463,16.9435]]]}},{"type":"Feature","properties":{"sourceId":"1159315179","regionId":"region.2e234a66-6367-4ea9-a1c4-f32fe3a395a7","countryId":"country.18zobjo"},"geometry":{"type":"Polygon","coordinates":[[[104.7579,16.8189],[104.7783,16.7158],[104.7545,16.5289],[104.8689,16.4384],[104.988,16.294],[105.0425,16.1414],[105.107,16.0959],[105.4232,16.005],[105.5003,15.9977],[105.7901,15.8854],[105.8932,15.8801],[105.9827,15.9579],[106.1402,15.9909],[106.1211,16.1428],[106.1953,16.1789],[106.3872,16.1361],[106.6439,16.2167],[106.7515,16.4283],[106.6552,16.4708],[106.6402,16.5866],[106.5351,16.6835],[106.5336,16.9506],[106.404,17.0146],[106.0939,17.0588],[105.8883,17.0512],[105.7287,17.1095],[105.6339,17.0434],[105.4843,17.1004],[105.2282,17.0557],[105.1648,17.1114],[104.8634,17.0858],[104.8322,16.9072],[104.7463,16.9435],[104.7579,16.8189]]]}},{"type":"Feature","properties":{"sourceId":"1159315177","regionId":"region.a7c3865f-7bde-4b8c-a6ed-b4a9f0d1c26c","countryId":"country.18zobjo"},"geometry":{"type":"Polygon","coordinates":[[[105.4232,16.005],[105.3726,15.8821],[105.448,15.7649],[105.6129,15.7215],[105.651,15.6346],[105.5922,15.4275],[105.6341,15.4539],[105.8967,15.4425],[106.0727,15.4599],[106.075,15.3623],[106.1607,15.2884],[106.3735,15.3999],[106.3512,15.513],[106.6791,15.5452],[106.6981,15.6239],[106.6549,15.7527],[106.8044,15.962],[106.8176,16.0493],[106.9347,16.0286],[107.0691,16.0776],[107.136,16.1848],[107.068,16.2908],[106.9673,16.2999],[106.8599,16.4118],[106.7515,16.4283],[106.6439,16.2167],[106.3872,16.1361],[106.1953,16.1789],[106.1211,16.1428],[106.1402,15.9909],[105.9827,15.9579],[105.8932,15.8801],[105.7901,15.8854],[105.5003,15.9977],[105.4232,16.005]]]}},{"type":"Feature","properties":{"sourceId":"1159315181","regionId":"region.99a29410-cf53-40c3-b769-e2c0bf39e49e","countryId":"country.18zobjo"},"geometry":{"type":"Polygon","coordinates":[[[102.1074,18.2124],[102.3067,18.0515],[102.4122,17.9942],[102.5675,17.9708],[102.5956,17.8501],[102.7222,17.8818],[102.9386,18.0089],[103.0379,17.9907],[103.0877,18.1387],[102.9955,18.2509],[102.9039,18.2935],[102.8513,18.3087],[102.5376,18.2417],[102.4892,18.2978],[102.3721,18.309],[102.1446,18.4282],[102.0583,18.3471],[102.0555,18.1923],[102.1074,18.2124]]]}},{"type":"Feature","properties":{"sourceId":"1159315183","regionId":"region.7cead361-cd1c-4f36-b192-5c10d6e0ade1","countryId":"country.18zobjo"},"geometry":{"type":"Polygon","coordinates":[[[102.0555,18.1923],[102.0583,18.3471],[102.1446,18.4282],[102.3721,18.309],[102.4892,18.2978],[102.5376,18.2417],[102.8513,18.3087],[102.9039,18.2935],[102.9021,18.3932],[102.8217,18.5107],[103.0839,18.5132],[103.3683,18.5514],[103.4877,18.6328],[103.4842,18.9304],[103.5708,18.9498],[103.7754,18.8272],[103.8855,18.8771],[103.8858,19.0089],[103.7207,19.0714],[103.5815,19.0859],[103.5082,19.1493],[103.2632,19.122],[102.9051,19.202],[102.7459,19.3144],[102.5758,19.2243],[102.3709,19.3892],[102.1899,19.4093],[102.097,19.3843],[101.9568,19.1535],[101.8104,19.0499],[101.8032,18.8856],[101.8617,18.7933],[101.8107,18.6218],[101.7426,18.5022],[101.6598,18.4709],[101.4208,18.2147],[101.4236,17.9289],[101.5455,17.8137],[101.6362,17.8948],[101.7291,17.9122],[101.7904,18.0736],[101.9043,18.0371],[102.0555,18.1923]]]}},{"type":"Feature","properties":{"sourceId":"1159315175","regionId":"region.68b2e907-e211-40bc-9537-fe5e9c6a5b54","countryId":"country.18zobjo"},"geometry":{"type":"Polygon","coordinates":[[[105.5922,15.4275],[105.4863,15.3749],[105.564,15.2725],[105.4438,15.1338],[105.5836,14.9776],[105.4891,14.7863],[105.5101,14.5936],[105.416,14.4282],[105.1843,14.3457],[105.2569,14.1824],[105.3479,14.1061],[105.5332,14.1643],[105.6173,14.103],[105.744,14.0869],[105.8956,13.9248],[106.0492,13.9155],[106.1446,14.0724],[106.0125,14.2258],[105.9692,14.332],[106.1541,14.3675],[106.236,14.4844],[106.34,14.449],[106.341,14.5281],[106.2634,14.6687],[106.176,14.7534],[106.2149,14.8893],[106.3421,15.0056],[106.5022,14.9622],[106.4852,14.8266],[106.6108,14.7682],[106.797,14.8973],[106.812,15.0661],[106.684,15.1382],[106.6662,15.2223],[106.3735,15.3999],[106.1607,15.2884],[106.075,15.3623],[106.0727,15.4599],[105.8967,15.4425],[105.6341,15.4539],[105.5922,15.4275]]]}},{"type":"Feature","properties":{"sourceId":"1159315189","regionId":"region.9a71b44a-2f6e-4dda-a8b0-80dfe6e4a2b8","countryId":"country.18zobjo"},"geometry":{"type":"Polygon","coordinates":[[[102.9259,21.1406],[102.8039,21.1214],[102.787,21.0316],[102.5665,20.9342],[102.5089,20.869],[102.3094,20.9625],[102.3519,20.8482],[102.3386,20.6747],[102.2321,20.6062],[102.1432,20.4094],[102.1578,20.2491],[102.2022,20.1795],[102.1521,20.0916],[101.9923,20.0595],[101.8986,19.9793],[101.7076,19.9308],[101.7717,19.8533],[101.746,19.7413],[101.8149,19.6567],[101.8167,19.4814],[101.9063,19.4032],[101.8243,19.2791],[101.8104,19.0499],[101.9568,19.1535],[102.097,19.3843],[102.1899,19.4093],[102.3709,19.3892],[102.5758,19.2243],[102.7459,19.3144],[102.6735,19.4219],[102.6711,19.5263],[102.871,19.6956],[102.9525,19.8188],[103.1382,19.9151],[103.1142,20.1764],[103.2356,20.3125],[103.1773,20.4752],[103.2266,20.707],[103.3891,20.7943],[103.2258,20.8264],[103.147,20.846],[102.9259,21.1406]]]}},{"type":"Feature","properties":{"sourceId":"1159315187","regionId":"region.62a57926-fb94-4c52-991e-4d93b8f13d01","countryId":"country.18zobjo"},"geometry":{"type":"Polygon","coordinates":[[[104.6141,20.6426],[104.3891,20.771],[104.2953,20.8798],[104.0567,20.9588],[103.7756,20.8349],[103.7586,20.7497],[103.6654,20.6583],[103.5779,20.7329],[103.3891,20.7943],[103.2266,20.707],[103.1773,20.4752],[103.2356,20.3125],[103.1142,20.1764],[103.1382,19.9151],[103.4705,19.8684],[103.6866,19.9296],[103.7951,20.0283],[103.8875,19.9497],[103.8745,19.8462],[103.9521,19.7826],[104.1526,19.8408],[104.2002,19.6986],[104.2953,19.6549],[104.3801,19.6853],[104.5058,19.6028],[104.6231,19.6181],[104.6548,19.698],[104.805,19.7909],[104.7807,19.9081],[104.9457,19.9924],[104.9569,20.0918],[104.8192,20.221],[104.6571,20.2127],[104.6809,20.341],[104.5755,20.4141],[104.3598,20.4397],[104.445,20.5346],[104.5426,20.5357],[104.6141,20.6426]]]}},{"type":"Feature","properties":{"sourceId":"1159315185","regionId":"region.95f159ed-b1a0-4c13-8d34-3857e4ef70c6","countryId":"country.18zobjo"},"geometry":{"type":"Polygon","coordinates":[[[104.2002,19.6986],[104.1526,19.8408],[103.9521,19.7826],[103.8745,19.8462],[103.8875,19.9497],[103.7951,20.0283],[103.6866,19.9296],[103.4705,19.8684],[103.1382,19.9151],[102.9525,19.8188],[102.871,19.6956],[102.6711,19.5263],[102.6735,19.4219],[102.7459,19.3144],[102.9051,19.202],[103.2632,19.122],[103.5082,19.1493],[103.5815,19.0859],[103.7207,19.0714],[103.8858,19.0089],[103.8855,18.8771],[104.0372,18.8119],[104.1216,18.8259],[104.2533,18.9844],[104.2596,19.1041],[104.1477,19.1829],[103.9728,19.2253],[103.8567,19.3172],[104.0388,19.4134],[104.09,19.4837],[104.0174,19.6004],[104.2002,19.6986]]]}},{"type":"Feature","properties":{"sourceId":"1159315203","regionId":"region.5c011053-8001-4667-9eac-f6e6b5a85a96","countryId":"country.18zobjo"},"geometry":{"type":"Polygon","coordinates":[[[107.136,16.1848],[107.0691,16.0776],[106.9347,16.0286],[106.8176,16.0493],[106.8044,15.962],[106.6549,15.7527],[106.6981,15.6239],[106.6791,15.5452],[106.3512,15.513],[106.3735,15.3999],[106.6662,15.2223],[106.684,15.1382],[106.7907,15.2547],[106.9451,15.2291],[107.0974,15.2714],[107.238,15.2536],[107.3778,15.1581],[107.4607,15.1815],[107.5024,15.044],[107.6568,15.2057],[107.6576,15.2824],[107.5764,15.4031],[107.4939,15.42],[107.4479,15.5081],[107.3693,15.4961],[107.1603,15.7587],[107.1752,15.8485],[107.3906,15.9358],[107.4333,16.0555],[107.299,16.0642],[107.136,16.1848]]]}},{"type":"Feature","properties":{"sourceId":"1159315201","regionId":"region.3c4ad9d4-cb4f-416e-9697-eb83c3c14639","countryId":"country.18zobjo"},"geometry":{"type":"Polygon","coordinates":[[[107.5024,15.044],[107.4607,15.1815],[107.3778,15.1581],[107.238,15.2536],[107.0974,15.2714],[106.9451,15.2291],[106.7907,15.2547],[106.684,15.1382],[106.812,15.0661],[106.797,14.8973],[106.6108,14.7682],[106.4852,14.8266],[106.5022,14.9622],[106.3421,15.0056],[106.2149,14.8893],[106.176,14.7534],[106.2634,14.6687],[106.341,14.5281],[106.34,14.449],[106.5402,14.5217],[106.622,14.4576],[106.7072,14.4293],[106.793,14.3226],[106.9461,14.3235],[107.2112,14.4935],[107.2873,14.5985],[107.4149,14.5434],[107.5204,14.7046],[107.4909,14.8042],[107.5553,14.8762],[107.4619,14.9568],[107.5024,15.044]]]}}]}