{"type":"FeatureCollection","features":[{"type":"Feature","properties":{"sourceId":"1159318045","regionId":"region.684bcf72-7fba-4828-9e35-a8c17fef2873","countryId":"country.5472bc14-36bc-4d4a-a088-d270a3bb1347"},"geometry":{"type":"Polygon","coordinates":[[[14.5249,35.898],[14.5195,35.8943],[14.5294,35.8816],[14.54,35.8827],[14.548,35.89],[14.5249,35.898]]]}},{"type":"Feature","properties":{"sourceId":"1159318043","regionId":"region.26b8b81e-63d5-4e09-ab03-0b6a63d14604","countryId":"country.5472bc14-36bc-4d4a-a088-d270a3bb1347"},"geometry":{"type":"Polygon","coordinates":[[[14.5139,35.9008],[14.5072,35.8987],[14.5016,35.8952],[14.5107,35.889],[14.5154,35.8911],[14.5195,35.8943],[14.5249,35.898],[14.5139,35.9008]]]}},{"type":"Feature","properties":{"sourceId":"1159318013","regionId":"region.754c512d-6c45-4fd2-a136-1b0e49c9c135","countryId":"country.5472bc14-36bc-4d4a-a088-d270a3bb1347"},"geometry":{"type":"Polygon","coordinates":[[[14.5104,35.9246],[14.4929,35.9066],[14.5072,35.8987],[14.5139,35.9008],[14.5104,35.9246]]]}},{"type":"Feature","properties":{"sourceId":"1159318011","regionId":"region.5935e0c0-a0dc-4583-b26a-83ae904973b9","countryId":"country.5472bc14-36bc-4d4a-a088-d270a3bb1347"},"geometry":{"type":"Polygon","coordinates":[[[14.5014,35.9304],[14.4841,35.92],[14.482,35.9123],[14.4886,35.9047],[14.4929,35.9066],[14.5104,35.9246],[14.5014,35.9304]]]}},{"type":"Feature","properties":{"sourceId":"1159318009","regionId":"region.bd2ca0c2-56a1-4a47-aee3-334eddbe58bd","countryId":"country.5472bc14-36bc-4d4a-a088-d270a3bb1347"},"geometry":{"type":"Polygon","coordinates":[[[14.4649,35.9466],[14.4625,35.9292],[14.4841,35.92],[14.5014,35.9304],[14.4649,35.9466]]]}},{"type":"Feature","properties":{"sourceId":"1159317995","regionId":"region.85b20b4d-d281-40ea-a5b9-9d537b4c801e","countryId":"country.5472bc14-36bc-4d4a-a088-d270a3bb1347"},"geometry":{"type":"Polygon","coordinates":[[[14.4382,35.9626],[14.4258,35.9203],[14.435,35.9058],[14.4465,35.9043],[14.4513,35.9129],[14.4551,35.9289],[14.4625,35.9292],[14.4649,35.9466],[14.4382,35.9626]]]}},{"type":"Feature","properties":{"sourceId":"1159317991","regionId":"region.31331b52-b23c-4182-833b-de6652389dce","countryId":"country.5472bc14-36bc-4d4a-a088-d270a3bb1347"},"geometry":{"type":"Polygon","coordinates":[[[14.4058,35.9678],[14.3737,35.9363],[14.4033,35.9082],[14.4258,35.9203],[14.4382,35.9626],[14.4058,35.9678]]]}},{"type":"Feature","properties":{"sourceId":"1159317989","regionId":"region.9606b770-6507-4c39-94fc-260f78329c5f","countryId":"country.5472bc14-36bc-4d4a-a088-d270a3bb1347"},"geometry":{"type":"Polygon","coordinates":[[[14.3409,35.9256],[14.3737,35.9363],[14.4058,35.9678],[14.3409,35.9256]]]}},{"type":"Feature","properties":{"sourceId":"1159317987","regionId":"region.781ddff0-1346-4457-b8c2-b25caa916aaa","countryId":"country.5472bc14-36bc-4d4a-a088-d270a3bb1347"},"geometry":{"type":"Polygon","coordinates":[[[14.3426,35.9002],[14.4042,35.9052],[14.4033,35.9082],[14.3737,35.9363],[14.3409,35.9256],[14.3426,35.9002]]]}},{"type":"Feature","properties":{"sourceId":"1159317985","regionId":"region.8d7aa8cf-b76e-425c-bba3-e700f534aad8","countryId":"country.5472bc14-36bc-4d4a-a088-d270a3bb1347"},"geometry":{"type":"Polygon","coordinates":[[[14.3648,35.8644],[14.3986,35.8603],[14.4164,35.8638],[14.4128,35.8795],[14.4024,35.8816],[14.4116,35.8913],[14.4131,35.8975],[14.4042,35.9052],[14.3426,35.9002],[14.3648,35.8644]]]}},{"type":"Feature","properties":{"sourceId":"1159318039","regionId":"region.cdf600a2-a626-4bee-a731-6e834e6d486d","countryId":"country.5472bc14-36bc-4d4a-a088-d270a3bb1347"},"geometry":{"type":"Polygon","coordinates":[[[14.3892,35.8395],[14.3986,35.8603],[14.3648,35.8644],[14.3892,35.8395]]]}},{"type":"Feature","properties":{"sourceId":"1159318041","regionId":"region.bf0c94e9-b0a4-4088-8fb1-4e7f50da9d1e","countryId":"country.5472bc14-36bc-4d4a-a088-d270a3bb1347"},"geometry":{"type":"Polygon","coordinates":[[[14.4288,35.8226],[14.4507,35.8393],[14.4572,35.8472],[14.4699,35.8603],[14.4634,35.8626],[14.4164,35.8638],[14.3986,35.8603],[14.3892,35.8395],[14.4288,35.8226]]]}},{"type":"Feature","properties":{"sourceId":"1159318095","regionId":"region.18d904f4-6523-45d8-9d4a-c59b8df92549","countryId":"country.5472bc14-36bc-4d4a-a088-d270a3bb1347"},"geometry":{"type":"Polygon","coordinates":[[[14.4536,35.8163],[14.4669,35.8378],[14.4507,35.8393],[14.4288,35.8226],[14.4536,35.8163]]]}},{"type":"Feature","properties":{"sourceId":"1159318097","regionId":"region.cf314b80-7e9d-4c38-87b4-ce3a7d7fe69a","countryId":"country.5472bc14-36bc-4d4a-a088-d270a3bb1347"},"geometry":{"type":"Polygon","coordinates":[[[14.4976,35.8094],[14.509,35.8298],[14.5042,35.8292],[14.4835,35.8342],[14.4764,35.8384],[14.4669,35.8378],[14.4536,35.8163],[14.4976,35.8094]]]}},{"type":"Feature","properties":{"sourceId":"1159318085","regionId":"region.716c5d84-08ab-4d1e-86df-2760e807e669","countryId":"country.5472bc14-36bc-4d4a-a088-d270a3bb1347"},"geometry":{"type":"Polygon","coordinates":[[[14.5403,35.829],[14.5252,35.8398],[14.509,35.8298],[14.4976,35.8094],[14.5403,35.829]]]}},{"type":"Feature","properties":{"sourceId":"1159318075","regionId":"region.503b3677-fe19-43bd-8a86-fab775416f46","countryId":"country.5472bc14-36bc-4d4a-a088-d270a3bb1347"},"geometry":{"type":"Polygon","coordinates":[[[14.5658,35.8417],[14.5483,35.8458],[14.5246,35.8446],[14.5252,35.8398],[14.5403,35.829],[14.5658,35.8417]]]}},{"type":"Feature","properties":{"sourceId":"1159318073","regionId":"region.71ba2612-6441-461f-b3b5-c9744da09380","countryId":"country.5472bc14-36bc-4d4a-a088-d270a3bb1347"},"geometry":{"type":"Polygon","coordinates":[[[14.5609,35.873],[14.543,35.8609],[14.5483,35.8458],[14.5658,35.8417],[14.5609,35.873]]]}},{"type":"Feature","properties":{"sourceId":"1159318059","regionId":"region.5c72f6c0-137f-4279-a071-dd077ba83b47","countryId":"country.5472bc14-36bc-4d4a-a088-d270a3bb1347"},"geometry":{"type":"Polygon","coordinates":[[[14.5562,35.8793],[14.54,35.8827],[14.5294,35.8816],[14.5267,35.8745],[14.5252,35.8656],[14.543,35.8609],[14.5609,35.873],[14.5562,35.8793]]]}},{"type":"Feature","properties":{"sourceId":"1159318049","regionId":"region.c7c0fe37-25c5-4e84-98d2-09f745e42c3d","countryId":"country.5472bc14-36bc-4d4a-a088-d270a3bb1347"},"geometry":{"type":"Polygon","coordinates":[[[14.548,35.89],[14.54,35.8827],[14.5562,35.8793],[14.548,35.89]]]}},{"type":"Feature","properties":{"sourceId":"1159317949","regionId":"region.76c0c486-ebff-4c32-be9c-29aa75d1b502","countryId":"country.5472bc14-36bc-4d4a-a088-d270a3bb1347"},"geometry":{"type":"Polygon","coordinates":[[[14.1948,36.0294],[14.2118,36.0519],[14.1836,36.0648],[14.1948,36.0294]]]}},{"type":"Feature","properties":{"sourceId":"1159317965","regionId":"region.4f438477-a947-4f17-9fdf-a35a66b99ac8","countryId":"country.5472bc14-36bc-4d4a-a088-d270a3bb1347"},"geometry":{"type":"Polygon","coordinates":[[[14.2097,36.0231],[14.2355,36.0318],[14.2357,36.0379],[14.2286,36.0476],[14.2189,36.0514],[14.2118,36.0519],[14.1948,36.0294],[14.2097,36.0231]]]}},{"type":"Feature","properties":{"sourceId":"1159317971","regionId":"region.611c7122-06e5-4913-b9ee-3f21bb0c6ebc","countryId":"country.5472bc14-36bc-4d4a-a088-d270a3bb1347"},"geometry":{"type":"Polygon","coordinates":[[[14.233,36.0165],[14.2404,36.0266],[14.2411,36.0285],[14.2355,36.0318],[14.2097,36.0231],[14.233,36.0165]]]}},{"type":"Feature","properties":{"sourceId":"1159317973","regionId":"region.36f835bd-7265-44f1-b9fa-07e1de06a70f","countryId":"country.5472bc14-36bc-4d4a-a088-d270a3bb1347"},"geometry":{"type":"Polygon","coordinates":[[[14.2736,36.016],[14.2717,36.0192],[14.2404,36.0266],[14.233,36.0165],[14.2736,36.016]]]}},{"type":"Feature","properties":{"sourceId":"1159317977","regionId":"region.1e413b63-fb4e-4062-8e5d-94ca00fa2f88","countryId":"country.5472bc14-36bc-4d4a-a088-d270a3bb1347"},"geometry":{"type":"Polygon","coordinates":[[[14.3001,36.025],[14.297,36.0304],[14.2807,36.0334],[14.2717,36.0192],[14.2736,36.016],[14.3001,36.025]]]}},{"type":"Feature","properties":{"sourceId":"1159317961","regionId":"region.dc4be707-7afa-4081-a2e7-495f743bb0ff","countryId":"country.5472bc14-36bc-4d4a-a088-d270a3bb1347"},"geometry":{"type":"Polygon","coordinates":[[[14.3204,36.0462],[14.297,36.0304],[14.3001,36.025],[14.3204,36.0462]]]}},{"type":"Feature","properties":{"sourceId":"1159317959","regionId":"region.75810bae-d5c3-4451-afc4-a21c9aa3fc27","countryId":"country.5472bc14-36bc-4d4a-a088-d270a3bb1347"},"geometry":{"type":"Polygon","coordinates":[[[14.2891,36.0645],[14.2807,36.0334],[14.297,36.0304],[14.3204,36.0462],[14.2891,36.0645]]]}},{"type":"Feature","properties":{"sourceId":"1159317957","regionId":"region.d6eb5183-e4f3-4a28-8b9a-fcb1eac2c942","countryId":"country.5472bc14-36bc-4d4a-a088-d270a3bb1347"},"geometry":{"type":"Polygon","coordinates":[[[14.272,36.071],[14.2506,36.0458],[14.2551,36.0375],[14.2807,36.0334],[14.2891,36.0645],[14.272,36.071]]]}},{"type":"Feature","properties":{"sourceId":"1159317955","regionId":"region.bf5d508a-ff7f-45b3-b940-09a268a10185","countryId":"country.5472bc14-36bc-4d4a-a088-d270a3bb1347"},"geometry":{"type":"Polygon","coordinates":[[[14.2335,36.0728],[14.2395,36.0493],[14.2506,36.0458],[14.272,36.071],[14.2335,36.0728]]]}},{"type":"Feature","properties":{"sourceId":"1159317953","regionId":"region.412959d8-f97f-44da-adb1-f15c284c9964","countryId":"country.5472bc14-36bc-4d4a-a088-d270a3bb1347"},"geometry":{"type":"Polygon","coordinates":[[[14.2129,36.0702],[14.2189,36.0514],[14.2286,36.0476],[14.2395,36.0493],[14.2335,36.0728],[14.2129,36.0702]]]}},{"type":"Feature","properties":{"sourceId":"1159317951","regionId":"region.89fbbad3-6057-4d1c-bf18-6e2cb6d81c98","countryId":"country.5472bc14-36bc-4d4a-a088-d270a3bb1347"},"geometry":{"type":"Polygon","coordinates":[[[14.1836,36.0648],[14.2118,36.0519],[14.2189,36.0514],[14.2129,36.0702],[14.1836,36.0648]]]}},{"type":"Feature","properties":{"sourceId":"1159317967","regionId":"region.2cb5c131-c108-4f62-b3a4-a4ed4f945082","countryId":"country.5472bc14-36bc-4d4a-a088-d270a3bb1347"},"geometry":{"type":"Polygon","coordinates":[[[14.2357,36.0379],[14.2447,36.0306],[14.2551,36.0375],[14.2506,36.0458],[14.2395,36.0493],[14.2286,36.0476],[14.2357,36.0379]]]}},{"type":"Feature","properties":{"sourceId":"1159317969","regionId":"region.e3b030c5-b45a-4b56-87d1-6357b6efa71e","countryId":"country.5472bc14-36bc-4d4a-a088-d270a3bb1347"},"geometry":{"type":"Polygon","coordinates":[[[14.2355,36.0318],[14.2411,36.0285],[14.2447,36.0306],[14.2357,36.0379],[14.2355,36.0318]]]}},{"type":"Feature","properties":{"sourceId":"1159317975","regionId":"region.721bf731-ec92-4db3-a117-258c61a0dd05","countryId":"country.5472bc14-36bc-4d4a-a088-d270a3bb1347"},"geometry":{"type":"Polygon","coordinates":[[[14.2404,36.0266],[14.2717,36.0192],[14.2807,36.0334],[14.2551,36.0375],[14.2447,36.0306],[14.2411,36.0285],[14.2404,36.0266]]]}},{"type":"Feature","properties":{"sourceId":"1159317993","regionId":"region.f43eeb42-0b4e-46dc-9df3-1960e60ea1a6","countryId":"country.5472bc14-36bc-4d4a-a088-d270a3bb1347"},"geometry":{"type":"Polygon","coordinates":[[[14.4042,35.9052],[14.4131,35.8975],[14.4353,35.8952],[14.435,35.9058],[14.4258,35.9203],[14.4033,35.9082],[14.4042,35.9052]]]}},{"type":"Feature","properties":{"sourceId":"1159317997","regionId":"region.6f41352b-4a2b-4be3-8f15-b2d6f373d571","countryId":"country.5472bc14-36bc-4d4a-a088-d270a3bb1347"},"geometry":{"type":"Polygon","coordinates":[[[14.4353,35.8952],[14.4459,35.8949],[14.4486,35.9011],[14.4465,35.9043],[14.435,35.9058],[14.4353,35.8952]]]}},{"type":"Feature","properties":{"sourceId":"1159315585","regionId":"region.cbc382e2-3a20-43c6-a050-e46b12c63156","countryId":"country.5472bc14-36bc-4d4a-a088-d270a3bb1347"},"geometry":{"type":"Polygon","coordinates":[[[14.4353,35.8952],[14.4131,35.8975],[14.4116,35.8913],[14.411,35.8842],[14.4128,35.8795],[14.4545,35.883],[14.4578,35.889],[14.4459,35.8949],[14.4353,35.8952]]]}},{"type":"Feature","properties":{"sourceId":"1159317983","regionId":"region.354d232c-f575-4b83-b68e-fd4de13fb84f","countryId":"country.5472bc14-36bc-4d4a-a088-d270a3bb1347"},"geometry":{"type":"Polygon","coordinates":[[[14.4024,35.8816],[14.411,35.8842],[14.4116,35.8913],[14.4024,35.8816]]]}},{"type":"Feature","properties":{"sourceId":"1159317979","regionId":"region.a01b6da8-9ccd-4762-9634-ada14c8a5480","countryId":"country.5472bc14-36bc-4d4a-a088-d270a3bb1347"},"geometry":{"type":"Polygon","coordinates":[[[14.4024,35.8816],[14.4128,35.8795],[14.411,35.8842],[14.4024,35.8816]]]}},{"type":"Feature","properties":{"sourceId":"1159318037","regionId":"region.70526822-b1aa-42d6-ae2a-fb7a1026591c","countryId":"country.5472bc14-36bc-4d4a-a088-d270a3bb1347"},"geometry":{"type":"Polygon","coordinates":[[[14.4164,35.8638],[14.4634,35.8626],[14.4545,35.883],[14.4128,35.8795],[14.4164,35.8638]]]}},{"type":"Feature","properties":{"sourceId":"1159318033","regionId":"region.73cc07e7-af21-478d-9444-79e64527bb1b","countryId":"country.5472bc14-36bc-4d4a-a088-d270a3bb1347"},"geometry":{"type":"Polygon","coordinates":[[[14.4634,35.8626],[14.4699,35.8603],[14.4803,35.8721],[14.4841,35.8759],[14.4791,35.8819],[14.4702,35.8842],[14.4578,35.889],[14.4545,35.883],[14.4634,35.8626]]]}},{"type":"Feature","properties":{"sourceId":"1159318007","regionId":"region.67045136-2a12-4cba-bad6-46001f1f82a6","countryId":"country.5472bc14-36bc-4d4a-a088-d270a3bb1347"},"geometry":{"type":"Polygon","coordinates":[[[14.4551,35.9289],[14.4637,35.9117],[14.482,35.9123],[14.4841,35.92],[14.4625,35.9292],[14.4551,35.9289]]]}},{"type":"Feature","properties":{"sourceId":"1159318005","regionId":"region.e7e17cfe-1b30-411f-b655-623bf14c2388","countryId":"country.5472bc14-36bc-4d4a-a088-d270a3bb1347"},"geometry":{"type":"Polygon","coordinates":[[[14.4513,35.9129],[14.4622,35.9094],[14.4637,35.9117],[14.4551,35.9289],[14.4513,35.9129]]]}},{"type":"Feature","properties":{"sourceId":"1159318015","regionId":"region.b6d95dff-a46d-436f-a662-051c470fc6ea","countryId":"country.5472bc14-36bc-4d4a-a088-d270a3bb1347"},"geometry":{"type":"Polygon","coordinates":[[[14.482,35.9123],[14.4637,35.9117],[14.4622,35.9094],[14.4625,35.9011],[14.4722,35.8989],[14.4859,35.9004],[14.4886,35.9047],[14.482,35.9123]]]}},{"type":"Feature","properties":{"sourceId":"1159318003","regionId":"region.3b8dd89e-f5e4-4891-a729-b367709c7701","countryId":"country.5472bc14-36bc-4d4a-a088-d270a3bb1347"},"geometry":{"type":"Polygon","coordinates":[[[14.4513,35.9129],[14.4465,35.9043],[14.4486,35.9011],[14.4545,35.899],[14.4625,35.9011],[14.4622,35.9094],[14.4513,35.9129]]]}},{"type":"Feature","properties":{"sourceId":"1159318021","regionId":"region.164da924-f9f4-458e-9c7e-e78a4ea45302","countryId":"country.5472bc14-36bc-4d4a-a088-d270a3bb1347"},"geometry":{"type":"Polygon","coordinates":[[[14.4545,35.899],[14.4578,35.889],[14.4702,35.8842],[14.4741,35.8917],[14.4722,35.8989],[14.4625,35.9011],[14.4545,35.899]]]}},{"type":"Feature","properties":{"sourceId":"1159318001","regionId":"region.578d84c6-f6d0-4de6-b373-c1283c51b594","countryId":"country.5472bc14-36bc-4d4a-a088-d270a3bb1347"},"geometry":{"type":"Polygon","coordinates":[[[14.4486,35.9011],[14.4459,35.8949],[14.4578,35.889],[14.4545,35.899],[14.4486,35.9011]]]}},{"type":"Feature","properties":{"sourceId":"1159318029","regionId":"region.3b1eb032-7b31-4b1e-978d-540e2e8f2566","countryId":"country.5472bc14-36bc-4d4a-a088-d270a3bb1347"},"geometry":{"type":"Polygon","coordinates":[[[14.4791,35.8819],[14.4866,35.8864],[14.4741,35.8917],[14.4702,35.8842],[14.4791,35.8819]]]}},{"type":"Feature","properties":{"sourceId":"1159318031","regionId":"region.cf5f101e-cf0c-461a-902b-4fae60fa5914","countryId":"country.5472bc14-36bc-4d4a-a088-d270a3bb1347"},"geometry":{"type":"Polygon","coordinates":[[[14.4841,35.8759],[14.4966,35.8844],[14.4962,35.8883],[14.4866,35.8864],[14.4791,35.8819],[14.4841,35.8759]]]}},{"type":"Feature","properties":{"sourceId":"1159318061","regionId":"region.97c0e456-8344-47c1-ba1a-972b227c5643","countryId":"country.5472bc14-36bc-4d4a-a088-d270a3bb1347"},"geometry":{"type":"Polygon","coordinates":[[[14.4803,35.8721],[14.4933,35.8629],[14.5007,35.8798],[14.4966,35.8844],[14.4841,35.8759],[14.4803,35.8721]]]}},{"type":"Feature","properties":{"sourceId":"1159318077","regionId":"region.8c19d6ae-d57f-463c-8f17-6e0e10814779","countryId":"country.5472bc14-36bc-4d4a-a088-d270a3bb1347"},"geometry":{"type":"Polygon","coordinates":[[[14.4699,35.8603],[14.4572,35.8472],[14.4782,35.8464],[14.4903,35.8396],[14.5042,35.8292],[14.509,35.8298],[14.5033,35.8366],[14.4945,35.8508],[14.4948,35.8585],[14.4933,35.8629],[14.4803,35.8721],[14.4699,35.8603]]]}},{"type":"Feature","properties":{"sourceId":"1159318087","regionId":"region.fbfc702e-ebb8-4142-9ce7-d0863378f722","countryId":"country.5472bc14-36bc-4d4a-a088-d270a3bb1347"},"geometry":{"type":"Polygon","coordinates":[[[14.4507,35.8393],[14.4669,35.8378],[14.4764,35.8384],[14.4782,35.8464],[14.4572,35.8472],[14.4507,35.8393]]]}},{"type":"Feature","properties":{"sourceId":"1159318091","regionId":"region.d646145f-e0fc-4af0-9619-f88ed5e2084c","countryId":"country.5472bc14-36bc-4d4a-a088-d270a3bb1347"},"geometry":{"type":"Polygon","coordinates":[[[14.4835,35.8342],[14.4903,35.8396],[14.4782,35.8464],[14.4764,35.8384],[14.4835,35.8342]]]}},{"type":"Feature","properties":{"sourceId":"1159318093","regionId":"region.c515dbec-8412-4893-bee9-b49b1957626a","countryId":"country.5472bc14-36bc-4d4a-a088-d270a3bb1347"},"geometry":{"type":"Polygon","coordinates":[[[14.4835,35.8342],[14.5042,35.8292],[14.4903,35.8396],[14.4835,35.8342]]]}},{"type":"Feature","properties":{"sourceId":"1159318083","regionId":"region.9a66898a-a5f8-4815-aecb-2d18d432eebd","countryId":"country.5472bc14-36bc-4d4a-a088-d270a3bb1347"},"geometry":{"type":"Polygon","coordinates":[[[14.5252,35.8398],[14.5246,35.8446],[14.511,35.8567],[14.5098,35.8549],[14.5098,35.8502],[14.5033,35.8366],[14.509,35.8298],[14.5252,35.8398]]]}},{"type":"Feature","properties":{"sourceId":"1159318069","regionId":"region.9f98d49e-aea4-4067-bfcb-1a47570d1786","countryId":"country.5472bc14-36bc-4d4a-a088-d270a3bb1347"},"geometry":{"type":"Polygon","coordinates":[[[14.5246,35.8446],[14.5483,35.8458],[14.543,35.8609],[14.5252,35.8656],[14.5164,35.8603],[14.511,35.8567],[14.5246,35.8446]]]}},{"type":"Feature","properties":{"sourceId":"1159318065","regionId":"region.917697cd-f35a-454d-8e0c-010a61a94348","countryId":"country.5472bc14-36bc-4d4a-a088-d270a3bb1347"},"geometry":{"type":"Polygon","coordinates":[[[14.5252,35.8656],[14.5267,35.8745],[14.5137,35.8739],[14.5084,35.8691],[14.5164,35.8603],[14.5252,35.8656]]]}},{"type":"Feature","properties":{"sourceId":"1159318067","regionId":"region.4d3fd631-0911-4a4e-bd29-45ad1f987b3c","countryId":"country.5472bc14-36bc-4d4a-a088-d270a3bb1347"},"geometry":{"type":"Polygon","coordinates":[[[14.5164,35.8603],[14.5084,35.8691],[14.4948,35.8585],[14.5098,35.8549],[14.511,35.8567],[14.5164,35.8603]]]}},{"type":"Feature","properties":{"sourceId":"1159318079","regionId":"region.7df7ac4a-1d71-4191-87b7-50b27681d99a","countryId":"country.5472bc14-36bc-4d4a-a088-d270a3bb1347"},"geometry":{"type":"Polygon","coordinates":[[[14.5098,35.8549],[14.4948,35.8585],[14.4945,35.8508],[14.5098,35.8502],[14.5098,35.8549]]]}},{"type":"Feature","properties":{"sourceId":"1159318081","regionId":"region.2f70c7f0-469f-465c-9930-85c126395799","countryId":"country.5472bc14-36bc-4d4a-a088-d270a3bb1347"},"geometry":{"type":"Polygon","coordinates":[[[14.5098,35.8502],[14.4945,35.8508],[14.5033,35.8366],[14.5098,35.8502]]]}},{"type":"Feature","properties":{"sourceId":"1159318063","regionId":"region.2d61fe99-bbfe-4e37-8b5a-8b3af27250a0","countryId":"country.5472bc14-36bc-4d4a-a088-d270a3bb1347"},"geometry":{"type":"Polygon","coordinates":[[[14.5084,35.8691],[14.5137,35.8739],[14.5137,35.8804],[14.5084,35.8854],[14.5007,35.8798],[14.4933,35.8629],[14.4948,35.8585],[14.5084,35.8691]]]}},{"type":"Feature","properties":{"sourceId":"1159318019","regionId":"region.b167b0d1-04cd-4283-b966-7b15b8577533","countryId":"country.5472bc14-36bc-4d4a-a088-d270a3bb1347"},"geometry":{"type":"Polygon","coordinates":[[[14.5072,35.8987],[14.4929,35.9066],[14.4886,35.9047],[14.4859,35.9004],[14.4892,35.8974],[14.5016,35.8952],[14.5072,35.8987]]]}},{"type":"Feature","properties":{"sourceId":"1159318055","regionId":"region.341c7a25-7b44-4a34-b831-252f2dc6f08f","countryId":"country.5472bc14-36bc-4d4a-a088-d270a3bb1347"},"geometry":{"type":"Polygon","coordinates":[[[14.498,35.8925],[14.4962,35.8883],[14.4966,35.8844],[14.5007,35.8798],[14.5084,35.8854],[14.5107,35.889],[14.5016,35.8952],[14.498,35.8925]]]}},{"type":"Feature","properties":{"sourceId":"1159318025","regionId":"region.c2a1e178-d1da-4d1f-846c-61860d421eab","countryId":"country.5472bc14-36bc-4d4a-a088-d270a3bb1347"},"geometry":{"type":"Polygon","coordinates":[[[14.5016,35.8952],[14.4892,35.8974],[14.4894,35.8919],[14.498,35.8925],[14.5016,35.8952]]]}},{"type":"Feature","properties":{"sourceId":"1159318051","regionId":"region.1e6d2336-2158-430d-8805-8bb94c3e4cc6","countryId":"country.5472bc14-36bc-4d4a-a088-d270a3bb1347"},"geometry":{"type":"Polygon","coordinates":[[[14.5107,35.889],[14.5084,35.8854],[14.5137,35.8804],[14.5213,35.8871],[14.5154,35.8911],[14.5107,35.889]]]}},{"type":"Feature","properties":{"sourceId":"1159318057","regionId":"region.dd2aad91-6d27-4d7c-8908-7e2798b35495","countryId":"country.5472bc14-36bc-4d4a-a088-d270a3bb1347"},"geometry":{"type":"Polygon","coordinates":[[[14.5294,35.8816],[14.5213,35.8871],[14.5137,35.8804],[14.5137,35.8739],[14.5267,35.8745],[14.5294,35.8816]]]}},{"type":"Feature","properties":{"sourceId":"1159318027","regionId":"region.5d04ac6a-c090-45cf-a049-b40a44c808a6","countryId":"country.5472bc14-36bc-4d4a-a088-d270a3bb1347"},"geometry":{"type":"Polygon","coordinates":[[[14.498,35.8925],[14.4894,35.8919],[14.4866,35.8864],[14.4962,35.8883],[14.498,35.8925]]]}},{"type":"Feature","properties":{"sourceId":"1159318023","regionId":"region.558cc312-b681-4a27-9635-d4dafefa629e","countryId":"country.5472bc14-36bc-4d4a-a088-d270a3bb1347"},"geometry":{"type":"Polygon","coordinates":[[[14.4866,35.8864],[14.4894,35.8919],[14.4892,35.8974],[14.4859,35.9004],[14.4722,35.8989],[14.4741,35.8917],[14.4866,35.8864]]]}},{"type":"Feature","properties":{"sourceId":"1159318047","regionId":"region.bc1ddf6c-041a-4a13-afac-149b3a45c62e","countryId":"country.5472bc14-36bc-4d4a-a088-d270a3bb1347"},"geometry":{"type":"Polygon","coordinates":[[[14.5213,35.8871],[14.5294,35.8816],[14.5195,35.8943],[14.5154,35.8911],[14.5213,35.8871]]]}}]}