{"type":"FeatureCollection","features":[{"type":"Feature","properties":{"sourceId":"1159313963","regionId":"region.de0bcdf3-d0c6-4864-afea-04361e511bb7","countryId":"country.14vdqsc"},"geometry":{"type":"Polygon","coordinates":[[[2.3902,11.8965],[2.3381,11.9401],[2.0709,12.3069],[2.0693,12.3833],[2.245,12.4242],[2.2032,12.5833],[2.109,12.7056],[1.9717,12.7242],[1.8261,12.6042],[1.5359,12.6475],[1.3048,12.8385],[1.2688,12.7737],[1.28,12.7008],[1.1998,12.4715],[1.2237,12.1782],[1.3311,12.1393],[1.3042,11.8929],[1.2299,11.7165],[1.2622,11.5727],[1.4232,11.4537],[1.5693,11.4533],[1.6016,11.3887],[1.8798,11.4449],[2.0154,11.4316],[2.2911,11.6748],[2.3902,11.8965]]]}},{"type":"Feature","properties":{"sourceId":"1159311601","regionId":"region.26f4a5d2-f86d-4da9-ad66-d4ac15e89a13","countryId":"country.14vdqsc"},"geometry":{"type":"Polygon","coordinates":[[[1.4232,11.4537],[1.2622,11.5727],[1.2299,11.7165],[1.1032,11.8335],[0.8638,11.9181],[0.7227,11.8103],[0.6965,11.7374],[0.5294,11.6597],[0.5317,11.4961],[0.5762,11.3843],[0.5343,11.3214],[0.5545,11.2079],[0.4978,11.0942],[0.4156,11.1133],[0.3748,11.0258],[0.4866,11.0032],[0.4876,10.9332],[0.6753,10.9885],[0.9015,10.9927],[1.035,11.0493],[1.1306,11.2476],[1.2684,11.2479],[1.4232,11.4537]]]}},{"type":"Feature","properties":{"sourceId":"1159313947","regionId":"region.0be63986-be22-4ba3-b0d0-253fc7804490","countryId":"country.14vdqsc"},"geometry":{"type":"Polygon","coordinates":[[[-5.5226,10.4255],[-5.4025,10.3006],[-5.2176,10.3199],[-5.1199,10.294],[-5.0773,10.3779],[-5.0919,10.5707],[-4.985,10.5856],[-4.9486,10.7826],[-5.0619,10.8322],[-5.1867,10.8101],[-5.2807,10.9369],[-5.408,11.0411],[-5.5056,11.048],[-5.4314,10.8447],[-5.4826,10.6842],[-5.4681,10.5878],[-5.5226,10.4255]]]}},{"type":"Feature","properties":{"sourceId":"1159313951","regionId":"region.8ec30702-fb83-479d-bb3f-976753f9aa5d","countryId":"country.14vdqsc"},"geometry":{"type":"Polygon","coordinates":[[[-5.1199,10.294],[-5.0483,10.0854],[-4.9745,10.0555],[-4.9661,9.901],[-4.8385,9.8695],[-4.7055,9.7021],[-4.604,9.7272],[-4.5017,9.655],[-4.3225,9.609],[-4.2703,9.7439],[-4.133,9.8204],[-4.0599,9.7963],[-3.8916,9.8939],[-3.9813,10.0119],[-3.9677,10.0995],[-3.8172,10.1236],[-3.7491,10.2372],[-3.7774,10.3506],[-3.698,10.4675],[-3.6945,10.6441],[-3.7258,10.8271],[-3.7854,10.82],[-3.912,10.6885],[-4.1023,10.7763],[-4.2617,10.7005],[-4.4019,10.7544],[-4.46,10.859],[-4.5305,10.87],[-4.6624,10.7778],[-4.7938,10.8709],[-4.9648,10.8885],[-5.0619,10.8322],[-4.9486,10.7826],[-4.985,10.5856],[-5.0919,10.5707],[-5.0773,10.3779],[-5.1199,10.294]]]}},{"type":"Feature","properties":{"sourceId":"1159313953","regionId":"region.4f111789-cf61-4a12-a631-e3685ba277fe","countryId":"country.14vdqsc"},"geometry":{"type":"Polygon","coordinates":[[[-3.8916,9.8939],[-3.6617,9.9489],[-3.6063,9.9182],[-3.3892,9.9132],[-3.2779,9.8435],[-3.2026,9.9082],[-3.1546,10.0778],[-3.0514,10.0748],[-2.9806,10.01],[-2.8922,10.1014],[-2.7885,10.0924],[-2.7584,10.2661],[-2.8332,10.306],[-2.8146,10.3937],[-2.9325,10.6343],[-2.92,10.7111],[-3.0528,10.7406],[-3.1986,10.638],[-3.3179,10.5926],[-3.3963,10.6473],[-3.6945,10.6441],[-3.698,10.4675],[-3.7774,10.3506],[-3.7491,10.2372],[-3.8172,10.1236],[-3.9677,10.0995],[-3.9813,10.0119],[-3.8916,9.8939]]]}},{"type":"Feature","properties":{"sourceId":"1159318101","regionId":"region.01f14d6b-57b9-41f9-b710-c5c26c707162","countryId":"country.14vdqsc"},"geometry":{"type":"Polygon","coordinates":[[[-3.2026,9.9082],[-3.0946,9.7339],[-2.99,9.7084],[-2.9102,9.5427],[-2.7637,9.3919],[-2.6892,9.4887],[-2.7611,9.5662],[-2.7434,9.6533],[-2.7953,9.72],[-2.7368,9.8326],[-2.7885,10.0924],[-2.8922,10.1014],[-2.9806,10.01],[-3.0514,10.0748],[-3.1546,10.0778],[-3.2026,9.9082]]]}},{"type":"Feature","properties":{"sourceId":"1159313885","regionId":"region.d797e76a-3387-4014-9991-b4b2741e40a3","countryId":"country.14vdqsc"},"geometry":{"type":"Polygon","coordinates":[[[0.2185,14.911],[-0.2367,15.0656],[-0.3977,15.0021],[-0.5003,15.0797],[-0.7713,15.0566],[-1.0431,14.8181],[-0.8838,14.6716],[-0.7848,14.4898],[-0.6353,14.3253],[-0.6121,14.176],[-0.5669,14.1426],[-0.3181,14.1599],[-0.2474,14.1935],[-0.001,14.1852],[0.2024,14.4355],[0.1529,14.5467],[0.2197,14.7312],[0.1841,14.8196],[0.2185,14.911]]]}},{"type":"Feature","properties":{"sourceId":"1159313887","regionId":"region.75b10045-0278-43cd-9f96-a8b4e89d9db9","countryId":"country.14vdqsc"},"geometry":{"type":"Polygon","coordinates":[[[-1.0431,14.8181],[-1.3503,14.715],[-1.6969,14.4961],[-1.967,14.4837],[-2.005,14.4442],[-2.0234,14.1986],[-2.085,14.1597],[-1.8638,13.9941],[-1.8706,13.8982],[-1.747,13.7293],[-1.6969,13.8256],[-1.5348,13.9027],[-1.4731,13.7919],[-1.3331,13.739],[-1.1519,13.7614],[-0.8519,13.8513],[-0.642,13.9709],[-0.571,14.0086],[-0.5669,14.1426],[-0.6121,14.176],[-0.6353,14.3253],[-0.7848,14.4898],[-0.8838,14.6716],[-1.0431,14.8181]]]}},{"type":"Feature","properties":{"sourceId":"1159313919","regionId":"region.d57f0499-280d-4335-9a36-004db309893d","countryId":"country.14vdqsc"},"geometry":{"type":"Polygon","coordinates":[[[-2.085,14.1597],[-2.1519,14.1561],[-2.4617,14.2809],[-2.5974,14.2223],[-2.6763,14.1417],[-2.5685,13.991],[-2.4198,14.0435],[-2.2709,13.9698],[-2.1486,13.6593],[-2.1156,13.528],[-1.878,13.5418],[-1.8678,13.6058],[-1.7308,13.6817],[-1.747,13.7293],[-1.8706,13.8982],[-1.8638,13.9941],[-2.085,14.1597]]]}},{"type":"Feature","properties":{"sourceId":"1159313921","regionId":"region.db4dd9af-23b0-4bdf-8a4d-7e5bd5b17913","countryId":"country.14vdqsc"},"geometry":{"type":"Polygon","coordinates":[[[-2.6763,14.1417],[-2.8409,14.043],[-2.9281,13.7996],[-2.9305,13.6385],[-2.8597,13.5578],[-2.7313,13.5202],[-2.6319,13.448],[-2.5906,13.2931],[-2.4007,13.3884],[-2.2363,13.3328],[-2.0897,13.3361],[-2.0664,13.2629],[-2.129,13.0643],[-2.0182,13.0294],[-1.742,13.1224],[-1.7464,13.2593],[-1.8401,13.3406],[-1.878,13.5418],[-2.1156,13.528],[-2.1486,13.6593],[-2.2709,13.9698],[-2.4198,14.0435],[-2.5685,13.991],[-2.6763,14.1417]]]}},{"type":"Feature","properties":{"sourceId":"1159313891","regionId":"region.5c5cb6cc-c236-4c79-8c80-f9f1623dfeb2","countryId":"country.14vdqsc"},"geometry":{"type":"Polygon","coordinates":[[[-2.9305,13.6385],[-3.0675,13.6068],[-3.1251,13.6773],[-3.2597,13.6583],[-3.284,13.5422],[-3.2486,13.2928],[-3.4265,13.2742],[-3.4739,13.1676],[-3.4608,12.8417],[-3.4262,12.7865],[-3.367,12.898],[-3.2737,12.9828],[-3.1469,12.9467],[-2.9704,12.9537],[-2.889,12.9043],[-2.6902,12.927],[-2.6859,12.9705],[-2.6609,13.0902],[-2.549,13.0906],[-2.4526,13.2247],[-2.5906,13.2931],[-2.6319,13.448],[-2.7313,13.5202],[-2.8597,13.5578],[-2.9305,13.6385]]]}},{"type":"Feature","properties":{"sourceId":"1159313879","regionId":"region.d8489b49-7071-4ee5-9c90-88f58133f852","countryId":"country.14vdqsc"},"geometry":{"type":"Polygon","coordinates":[[[-3.9655,13.4892],[-4.1043,13.3827],[-4.1471,13.2996],[-4.327,13.1686],[-4.3511,13.1183],[-4.2293,12.949],[-4.2119,12.8192],[-4.2455,12.7289],[-4.1555,12.679],[-4.1774,12.5462],[-4.1496,12.4421],[-4.0087,12.4016],[-3.9423,12.5341],[-3.6961,12.5343],[-3.5637,12.4818],[-3.5135,12.6746],[-3.4293,12.7497],[-3.4262,12.7865],[-3.4608,12.8417],[-3.4739,13.1676],[-3.5969,13.1994],[-3.7986,13.3471],[-3.984,13.3965],[-3.9655,13.4892]]]}},{"type":"Feature","properties":{"sourceId":"1159313875","regionId":"region.045058de-98f7-465d-851f-8ccd4f0957e9","countryId":"country.14vdqsc"},"geometry":{"type":"Polygon","coordinates":[[[-4.2455,12.7289],[-4.4644,12.7173],[-4.4825,12.6463],[-4.3869,12.5302],[-4.4516,12.4353],[-4.4061,12.3075],[-4.5855,12.1972],[-4.6527,12.0716],[-4.4655,12.0638],[-4.4316,11.9845],[-4.4908,11.7616],[-4.4494,11.7169],[-4.3084,11.7421],[-4.2383,11.9002],[-4.0869,11.9445],[-3.981,11.9327],[-3.8995,12.0847],[-3.8169,12.1629],[-3.7071,12.3925],[-3.5637,12.4818],[-3.6961,12.5343],[-3.9423,12.5341],[-4.0087,12.4016],[-4.1496,12.4421],[-4.1774,12.5462],[-4.1555,12.679],[-4.2455,12.7289]]]}},{"type":"Feature","properties":{"sourceId":"1159313871","regionId":"region.cd4f9ec8-081e-471a-8585-3401b6c43a02","countryId":"country.14vdqsc"},"geometry":{"type":"Polygon","coordinates":[[[-4.6527,12.0716],[-4.7323,12.0373],[-4.6376,11.9829],[-4.626,11.7599],[-4.5497,11.4923],[-4.6183,11.4113],[-4.7302,11.3985],[-4.7938,11.2477],[-4.6582,11.111],[-4.6563,11.0347],[-4.7581,10.9933],[-4.7938,10.8709],[-4.6624,10.7778],[-4.5305,10.87],[-4.46,10.859],[-4.4019,10.7544],[-4.2617,10.7005],[-4.1023,10.7763],[-3.912,10.6885],[-3.7854,10.82],[-3.7258,10.8271],[-3.5861,10.9721],[-3.6249,10.9688],[-3.8015,11.1476],[-3.8817,11.199],[-3.8491,11.3594],[-3.9696,11.5401],[-3.9907,11.6377],[-3.949,11.8511],[-3.981,11.9327],[-4.0869,11.9445],[-4.2383,11.9002],[-4.3084,11.7421],[-4.4494,11.7169],[-4.4908,11.7616],[-4.4316,11.9845],[-4.4655,12.0638],[-4.6527,12.0716]]]}},{"type":"Feature","properties":{"sourceId":"1159313873","regionId":"region.f3e5d4a5-511b-48da-accb-e6dab7b561f0","countryId":"country.14vdqsc"},"geometry":{"type":"Polygon","coordinates":[[[-4.7323,12.0373],[-4.8068,11.9963],[-4.9537,12.0051],[-5.1678,11.9437],[-5.2682,11.8431],[-5.3078,11.629],[-5.2339,11.576],[-5.2183,11.4222],[-5.3223,11.1355],[-5.5056,11.048],[-5.408,11.0411],[-5.2807,10.9369],[-5.1867,10.8101],[-5.0619,10.8322],[-4.9648,10.8885],[-4.7938,10.8709],[-4.7581,10.9933],[-4.6563,11.0347],[-4.6582,11.111],[-4.7938,11.2477],[-4.7302,11.3985],[-4.6183,11.4113],[-4.5497,11.4923],[-4.626,11.7599],[-4.6376,11.9829],[-4.7323,12.0373]]]}},{"type":"Feature","properties":{"sourceId":"1159313959","regionId":"region.86e511d3-25d0-4d0e-ae05-66b06ee6389f","countryId":"country.14vdqsc"},"geometry":{"type":"Polygon","coordinates":[[[0.2024,14.4355],[-0.001,14.1852],[-0.2474,14.1935],[-0.3181,14.1599],[-0.5669,14.1426],[-0.571,14.0086],[-0.642,13.9709],[-0.6083,13.9226],[-0.4665,13.8177],[-0.3683,13.6514],[-0.2196,13.6165],[-0.2263,13.4966],[-0.1719,13.5714],[-0.0581,13.5419],[0.0615,13.5782],[0.3585,13.7496],[0.4999,13.851],[0.3692,14.0391],[0.3392,14.1258],[0.3888,14.2516],[0.2024,14.4355]]]}},{"type":"Feature","properties":{"sourceId":"1159313961","regionId":"region.c2985192-5569-44eb-8d7e-2cf0d50ed556","countryId":"country.14vdqsc"},"geometry":{"type":"Polygon","coordinates":[[[0.4999,13.851],[0.3585,13.7496],[0.0615,13.5782],[0.0696,13.4997],[0.302,13.2084],[0.4325,13.1676],[0.5847,13.0016],[0.5744,12.954],[0.7965,13.002],[0.9717,13.0858],[0.9835,13.3684],[1.1676,13.3134],[1.1877,13.3641],[1.0482,13.4419],[0.951,13.5832],[0.7953,13.626],[0.7534,13.6841],[0.6207,13.68],[0.6005,13.7687],[0.4999,13.851]]]}},{"type":"Feature","properties":{"sourceId":"1159313957","regionId":"region.2ad89f15-c022-4270-a4d0-fdef697b2d5f","countryId":"country.14vdqsc"},"geometry":{"type":"Polygon","coordinates":[[[0.9717,13.0858],[0.7965,13.002],[0.5744,12.954],[0.4736,12.8632],[0.2879,12.9118],[0.2473,12.8098],[0.3011,12.7341],[0.349,12.4439],[0.4792,12.513],[0.5946,12.4398],[0.6542,12.3295],[0.7245,12.3392],[0.8542,12.5064],[0.8714,12.5799],[0.9994,12.6654],[1.1037,12.6557],[1.1564,12.75],[1.2688,12.7737],[1.3048,12.8385],[1.114,12.9962],[0.9717,13.0858]]]}},{"type":"Feature","properties":{"sourceId":"1159313929","regionId":"region.437eecee-579a-44c8-bc65-4a266a31cf20","countryId":"country.14vdqsc"},"geometry":{"type":"Polygon","coordinates":[[[0.3748,11.0258],[0.4156,11.1133],[0.4978,11.0942],[0.5545,11.2079],[0.5343,11.3214],[0.5762,11.3843],[0.5317,11.4961],[0.5294,11.6597],[0.4258,11.6649],[0.3157,11.7394],[0.1019,11.7852],[0.0497,11.75],[-0.0713,11.6877],[-0.1537,11.3387],[-0.009,11.3386],[-0.1151,11.1247],[0.3748,11.0258]]]}},{"type":"Feature","properties":{"sourceId":"1159313927","regionId":"region.164fd4ba-f88c-4d6f-9e25-bb743dffde00","countryId":"country.14vdqsc"},"geometry":{"type":"Polygon","coordinates":[[[-0.1151,11.1247],[-0.009,11.3386],[-0.1537,11.3387],[-0.0713,11.6877],[0.0497,11.75],[0.0148,11.8445],[-0.1103,11.9229],[-0.2529,11.7934],[-0.3812,11.8211],[-0.4702,11.9272],[-0.4645,11.9875],[-0.5967,11.9734],[-0.6947,11.8574],[-0.7985,11.8377],[-0.9239,11.6695],[-0.8678,11.5856],[-0.7455,11.5212],[-0.5621,11.4882],[-0.5773,11.3777],[-0.7354,11.2732],[-0.7769,11.1965],[-0.6906,11.0595],[-0.703,10.9942],[-0.5165,10.9886],[-0.4059,11.1015],[-0.1661,11.135],[-0.1151,11.1247]]]}},{"type":"Feature","properties":{"sourceId":"1159313937","regionId":"region.ab233ded-0a32-4212-a558-dbad57999994","countryId":"country.14vdqsc"},"geometry":{"type":"Polygon","coordinates":[[[-1.4136,11.014],[-1.1075,10.9943],[-1.0703,11.0139],[-0.703,10.9942],[-0.6906,11.0595],[-0.7769,11.1965],[-0.8789,11.1949],[-1.1005,11.3809],[-1.2736,11.476],[-1.3138,11.5348],[-1.5881,11.3224],[-1.6386,11.1411],[-1.4689,11.0779],[-1.4136,11.014]]]}},{"type":"Feature","properties":{"sourceId":"1159313915","regionId":"region.a9482d44-4140-4263-8442-6750243915de","countryId":"country.14vdqsc"},"geometry":{"type":"Polygon","coordinates":[[[-1.4136,11.014],[-1.4689,11.0779],[-1.6386,11.1411],[-1.5881,11.3224],[-1.6962,11.3669],[-1.8054,11.288],[-1.9183,11.3587],[-1.9849,11.2867],[-2.1176,11.3765],[-2.2108,11.5161],[-2.3356,11.5453],[-2.3401,11.7204],[-2.2232,11.7263],[-2.2396,11.9095],[-2.2533,11.9019],[-2.4183,11.8617],[-2.5364,11.7906],[-2.5935,11.6118],[-2.6801,11.6099],[-2.6659,11.5163],[-2.5249,11.389],[-2.6239,11.3233],[-2.7163,11.3348],[-2.8042,11.2334],[-2.6367,11.1103],[-2.7288,10.9861],[-1.5987,10.9971],[-1.4236,11.0179],[-1.4136,11.014]]]}},{"type":"Feature","properties":{"sourceId":"1159313943","regionId":"region.e4c24ce9-94f9-4b81-a383-8d812d78f258","countryId":"country.14vdqsc"},"geometry":{"type":"Polygon","coordinates":[[[-2.7288,10.9861],[-2.6367,11.1103],[-2.8042,11.2334],[-2.8586,11.2877],[-3.0052,11.3405],[-3.2285,11.3151],[-3.3027,11.1712],[-3.1194,11.1787],[-3.1224,11.0604],[-3.1913,10.8637],[-3.1911,10.7836],[-3.0528,10.7406],[-2.92,10.7111],[-2.8642,10.8643],[-2.7288,10.9861]]]}},{"type":"Feature","properties":{"sourceId":"1159313881","regionId":"region.8378a776-34f7-4d87-a714-c0e09a25f042","countryId":"country.14vdqsc"},"geometry":{"type":"Polygon","coordinates":[[[-2.9194,12.053],[-3.18,12.0997],[-3.2287,12.0293],[-3.1599,11.958],[-3.2913,11.9045],[-3.3571,11.9881],[-3.4901,11.9768],[-3.6127,11.8078],[-3.5871,11.757],[-3.3962,11.6784],[-3.4199,11.6003],[-3.3098,11.5462],[-3.2771,11.4594],[-3.0256,11.5714],[-2.8293,11.519],[-2.8586,11.2877],[-2.8042,11.2334],[-2.7163,11.3348],[-2.6239,11.3233],[-2.5249,11.389],[-2.6659,11.5163],[-2.6801,11.6099],[-2.7731,11.7526],[-2.8614,11.7619],[-2.831,11.8815],[-2.9194,12.053]]]}},{"type":"Feature","properties":{"sourceId":"1159313911","regionId":"region.84a57a96-58a1-485d-918b-a72e88ee02e0","countryId":"country.14vdqsc"},"geometry":{"type":"Polygon","coordinates":[[[-2.9194,12.053],[-2.831,11.8815],[-2.8614,11.7619],[-2.7731,11.7526],[-2.6801,11.6099],[-2.5935,11.6118],[-2.5364,11.7906],[-2.4183,11.8617],[-2.2533,11.9019],[-2.4706,12.0038],[-2.4757,12.1555],[-2.3961,12.2251],[-2.4153,12.445],[-2.2594,12.5331],[-2.3103,12.6481],[-2.4372,12.6157],[-2.4334,12.7033],[-2.535,12.8117],[-2.6371,12.7362],[-2.7513,12.5918],[-2.7204,12.5116],[-2.8406,12.3669],[-2.8819,12.2594],[-2.7925,12.1151],[-2.9194,12.053]]]}},{"type":"Feature","properties":{"sourceId":"1159313945","regionId":"region.39c7aa7b-3ab9-462a-a2ae-da16b74cd912","countryId":"country.14vdqsc"},"geometry":{"type":"Polygon","coordinates":[[[-3.5871,11.757],[-3.7731,11.7237],[-3.949,11.8511],[-3.9907,11.6377],[-3.9696,11.5401],[-3.8491,11.3594],[-3.8817,11.199],[-3.8015,11.1476],[-3.6249,10.9688],[-3.5861,10.9721],[-3.5966,11.0288],[-3.5029,11.1246],[-3.3027,11.1712],[-3.2285,11.3151],[-3.0052,11.3405],[-2.8586,11.2877],[-2.8293,11.519],[-3.0256,11.5714],[-3.2771,11.4594],[-3.3098,11.5462],[-3.4199,11.6003],[-3.3962,11.6784],[-3.5871,11.757]]]}},{"type":"Feature","properties":{"sourceId":"1159313941","regionId":"region.9a1d1fe4-391e-40e3-8c17-bac8836e43c3","countryId":"country.14vdqsc"},"geometry":{"type":"Polygon","coordinates":[[[-3.3027,11.1712],[-3.5029,11.1246],[-3.5966,11.0288],[-3.5861,10.9721],[-3.7258,10.8271],[-3.6945,10.6441],[-3.3963,10.6473],[-3.3179,10.5926],[-3.1986,10.638],[-3.0528,10.7406],[-3.1911,10.7836],[-3.1913,10.8637],[-3.1224,11.0604],[-3.1194,11.1787],[-3.3027,11.1712]]]}},{"type":"Feature","properties":{"sourceId":"1159313883","regionId":"region.181236d8-34fa-4332-bf3d-dd1421dfc7aa","countryId":"country.14vdqsc"},"geometry":{"type":"Polygon","coordinates":[[[-2.8406,12.3669],[-2.9567,12.3479],[-3.085,12.4102],[-3.159,12.5092],[-3.2395,12.5248],[-3.2487,12.6768],[-3.3606,12.6638],[-3.4293,12.7497],[-3.5135,12.6746],[-3.5637,12.4818],[-3.7071,12.3925],[-3.8169,12.1629],[-3.8995,12.0847],[-3.981,11.9327],[-3.949,11.8511],[-3.7731,11.7237],[-3.5871,11.757],[-3.6127,11.8078],[-3.4901,11.9768],[-3.3571,11.9881],[-3.2913,11.9045],[-3.1599,11.958],[-3.2287,12.0293],[-3.18,12.0997],[-2.9194,12.053],[-2.7925,12.1151],[-2.8819,12.2594],[-2.8406,12.3669]]]}},{"type":"Feature","properties":{"sourceId":"1159313935","regionId":"region.81a9769c-ab07-41a5-9e47-3e3e5fa21937","countryId":"country.14vdqsc"},"geometry":{"type":"Polygon","coordinates":[[[-0.4645,11.9875],[-0.4702,11.9272],[-0.3812,11.8211],[-0.2529,11.7934],[-0.1103,11.9229],[-0.0825,12.0486],[0.0277,12.1248],[-0.0846,12.2307],[-0.1835,12.2729],[-0.1452,12.388],[-0.2239,12.4367],[-0.2074,12.5605],[-0.3891,12.4689],[-0.6137,12.5058],[-0.5282,12.4165],[-0.4774,12.2062],[-0.4229,12.1535],[-0.4645,11.9875]]]}},{"type":"Feature","properties":{"sourceId":"1159313933","regionId":"region.0bbc9653-d481-4df2-acc6-06cc6aeb8282","countryId":"country.14vdqsc"},"geometry":{"type":"Polygon","coordinates":[[[-0.6137,12.5058],[-0.6726,12.6763],[-0.84,12.5242],[-0.9103,12.4662],[-0.9792,12.5244],[-1.0601,12.4477],[-1.0978,12.2598],[-1.0623,12.1837],[-1.0225,12.0877],[-0.8985,11.9503],[-0.888,11.8859],[-0.7985,11.8377],[-0.6947,11.8574],[-0.5967,11.9734],[-0.4645,11.9875],[-0.4229,12.1535],[-0.4774,12.2062],[-0.5282,12.4165],[-0.6137,12.5058]]]}},{"type":"Feature","properties":{"sourceId":"1159313939","regionId":"region.c2414e0b-88b5-4321-9a0a-72e272763d05","countryId":"country.14vdqsc"},"geometry":{"type":"Polygon","coordinates":[[[-0.888,11.8859],[-1.073,11.9263],[-1.2258,11.8322],[-1.3477,11.5841],[-1.3138,11.5348],[-1.2736,11.476],[-1.1005,11.3809],[-0.8789,11.1949],[-0.7769,11.1965],[-0.7354,11.2732],[-0.5773,11.3777],[-0.5621,11.4882],[-0.7455,11.5212],[-0.8678,11.5856],[-0.9239,11.6695],[-0.7985,11.8377],[-0.888,11.8859]]]}},{"type":"Feature","properties":{"sourceId":"1159313917","regionId":"region.f5697bde-636a-4d73-9014-13c42fa986c3","countryId":"country.14vdqsc"},"geometry":{"type":"Polygon","coordinates":[[[-1.3477,11.5841],[-1.635,11.7726],[-1.7889,11.9264],[-1.969,11.9049],[-2.0418,11.9818],[-2.2396,11.9095],[-2.2232,11.7263],[-2.3401,11.7204],[-2.3356,11.5453],[-2.2108,11.5161],[-2.1176,11.3765],[-1.9849,11.2867],[-1.9183,11.3587],[-1.8054,11.288],[-1.6962,11.3669],[-1.5881,11.3224],[-1.3138,11.5348],[-1.3477,11.5841]]]}},{"type":"Feature","properties":{"sourceId":"1159313897","regionId":"region.d41db91a-f84f-4593-a72a-fcdc76035409","countryId":"country.14vdqsc"},"geometry":{"type":"Polygon","coordinates":[[[-2.3103,12.6481],[-2.2594,12.5331],[-2.4153,12.445],[-2.3961,12.2251],[-2.4757,12.1555],[-2.4706,12.0038],[-2.2533,11.9019],[-2.2396,11.9095],[-2.0418,11.9818],[-1.9585,12.1023],[-1.8703,12.1449],[-1.7977,12.2227],[-1.8207,12.3426],[-2.0264,12.268],[-2.0777,12.2975],[-2.0059,12.4454],[-1.8719,12.4353],[-1.7899,12.4731],[-1.8293,12.5871],[-1.9411,12.6773],[-2.0091,12.7076],[-2.1775,12.6976],[-2.3103,12.6481]]]}},{"type":"Feature","properties":{"sourceId":"1159313903","regionId":"region.78b88dff-2d5d-4ac1-bf95-55b5984bfa56","countryId":"country.14vdqsc"},"geometry":{"type":"Polygon","coordinates":[[[-1.0978,12.2598],[-1.2699,12.3345],[-1.2485,12.4375],[-1.3257,12.5014],[-1.3957,12.4643],[-1.5957,12.6731],[-1.6209,12.5931],[-1.7227,12.5466],[-1.6809,12.3979],[-1.8207,12.3426],[-1.7977,12.2227],[-1.8703,12.1449],[-1.7146,12.0572],[-1.4594,12.1944],[-1.4117,12.1093],[-1.1318,12.1533],[-1.0623,12.1837],[-1.0978,12.2598]]]}},{"type":"Feature","properties":{"sourceId":"1159313905","regionId":"region.cf457939-1cfb-46ff-b2c5-61d024de21fb","countryId":"country.14vdqsc"},"geometry":{"type":"Polygon","coordinates":[[[-1.0978,12.2598],[-1.0601,12.4477],[-0.9792,12.5244],[-0.9103,12.4662],[-0.84,12.5242],[-1.0303,12.6657],[-1.1238,12.6632],[-1.1717,12.7433],[-1.3722,12.858],[-1.5526,12.9041],[-1.7315,12.9007],[-1.6644,12.8648],[-1.6547,12.7558],[-1.5957,12.6731],[-1.3957,12.4643],[-1.3257,12.5014],[-1.2485,12.4375],[-1.2699,12.3345],[-1.0978,12.2598]]]}},{"type":"Feature","properties":{"sourceId":"1159311603","regionId":"region.613bcf11-2b81-42ac-b527-282c48b75c62","countryId":"country.14vdqsc"},"geometry":{"type":"Polygon","coordinates":[[[-0.1103,11.9229],[0.0148,11.8445],[0.0497,11.75],[0.1019,11.7852],[0.3157,11.7394],[0.4258,11.6649],[0.5294,11.6597],[0.6965,11.7374],[0.7227,11.8103],[0.8638,11.9181],[1.1032,11.8335],[1.2299,11.7165],[1.3042,11.8929],[1.3311,12.1393],[1.2237,12.1782],[1.1998,12.4715],[1.28,12.7008],[1.2688,12.7737],[1.1564,12.75],[1.1037,12.6557],[0.9994,12.6654],[0.8714,12.5799],[0.8542,12.5064],[0.7245,12.3392],[0.6542,12.3295],[0.5946,12.4398],[0.4792,12.513],[0.349,12.4439],[0.253,12.373],[0.0094,12.3278],[-0.0846,12.2307],[0.0277,12.1248],[-0.0825,12.0486],[-0.1103,11.9229]]]}},{"type":"Feature","properties":{"sourceId":"1159313955","regionId":"region.9da1db6e-9fb9-4401-81b7-f83214b71ec8","countryId":"country.14vdqsc"},"geometry":{"type":"Polygon","coordinates":[[[-0.0846,12.2307],[0.0094,12.3278],[0.253,12.373],[0.349,12.4439],[0.3011,12.7341],[0.2473,12.8098],[0.2879,12.9118],[0.4736,12.8632],[0.5744,12.954],[0.5847,13.0016],[0.4325,13.1676],[0.302,13.2084],[0.0696,13.4997],[0.0615,13.5782],[-0.0581,13.5419],[-0.1719,13.5714],[-0.2263,13.4966],[-0.2945,13.4158],[-0.3019,13.191],[-0.366,12.9908],[-0.3048,12.8547],[-0.1989,12.7879],[-0.2074,12.5605],[-0.2239,12.4367],[-0.1452,12.388],[-0.1835,12.2729],[-0.0846,12.2307]]]}},{"type":"Feature","properties":{"sourceId":"1159313901","regionId":"region.08d273a0-165a-4d58-9a61-28b9d4c2419f","countryId":"country.14vdqsc"},"geometry":{"type":"Polygon","coordinates":[[[-1.0623,12.1837],[-1.1318,12.1533],[-1.4117,12.1093],[-1.4594,12.1944],[-1.7146,12.0572],[-1.8703,12.1449],[-1.9585,12.1023],[-2.0418,11.9818],[-1.969,11.9049],[-1.7889,11.9264],[-1.635,11.7726],[-1.3477,11.5841],[-1.2258,11.8322],[-1.073,11.9263],[-0.888,11.8859],[-0.8985,11.9503],[-1.0225,12.0877],[-1.0623,12.1837]]]}},{"type":"Feature","properties":{"sourceId":"1159313899","regionId":"region.f046745f-80fb-4ec8-9b9d-b93908443ec6","countryId":"country.14vdqsc"},"geometry":{"type":"Polygon","coordinates":[[[-1.9411,12.6773],[-1.8293,12.5871],[-1.7899,12.4731],[-1.8719,12.4353],[-2.0059,12.4454],[-2.0777,12.2975],[-2.0264,12.268],[-1.8207,12.3426],[-1.6809,12.3979],[-1.7227,12.5466],[-1.6209,12.5931],[-1.5957,12.6731],[-1.6547,12.7558],[-1.6644,12.8648],[-1.7315,12.9007],[-1.8609,12.8699],[-1.9407,12.797],[-1.9411,12.6773]]]}},{"type":"Feature","properties":{"sourceId":"1159313889","regionId":"region.fbd8cf55-a367-400f-ad41-c3e44d3c05fa","countryId":"country.14vdqsc"},"geometry":{"type":"Polygon","coordinates":[[[-2.6371,12.7362],[-2.7108,12.8084],[-2.6902,12.927],[-2.889,12.9043],[-2.9704,12.9537],[-3.1469,12.9467],[-3.2737,12.9828],[-3.367,12.898],[-3.4262,12.7865],[-3.4293,12.7497],[-3.3606,12.6638],[-3.2487,12.6768],[-3.2395,12.5248],[-3.159,12.5092],[-3.085,12.4102],[-2.9567,12.3479],[-2.8406,12.3669],[-2.7204,12.5116],[-2.7513,12.5918],[-2.6371,12.7362]]]}},{"type":"Feature","properties":{"sourceId":"1159313907","regionId":"region.7f0a102a-2fe2-44b2-8b52-aa5acb263b85","countryId":"country.14vdqsc"},"geometry":{"type":"Polygon","coordinates":[[[-2.6371,12.7362],[-2.535,12.8117],[-2.4334,12.7033],[-2.4372,12.6157],[-2.3103,12.6481],[-2.1775,12.6976],[-2.0091,12.7076],[-1.9411,12.6773],[-1.9407,12.797],[-1.8609,12.8699],[-1.7315,12.9007],[-1.5526,12.9041],[-1.5025,12.994],[-1.6573,13.0372],[-1.742,13.1224],[-2.0182,13.0294],[-2.129,13.0643],[-2.2365,13.0913],[-2.4929,12.9613],[-2.6859,12.9705],[-2.6902,12.927],[-2.7108,12.8084],[-2.6371,12.7362]]]}},{"type":"Feature","properties":{"sourceId":"1159313909","regionId":"region.f52ffcb9-68f2-49a1-92d9-b7c1908bf8ce","countryId":"country.14vdqsc"},"geometry":{"type":"Polygon","coordinates":[[[-2.129,13.0643],[-2.0664,13.2629],[-2.0897,13.3361],[-2.2363,13.3328],[-2.4007,13.3884],[-2.5906,13.2931],[-2.4526,13.2247],[-2.549,13.0906],[-2.6609,13.0902],[-2.6859,12.9705],[-2.4929,12.9613],[-2.2365,13.0913],[-2.129,13.0643]]]}},{"type":"Feature","properties":{"sourceId":"1159313923","regionId":"region.3273e7de-5f0a-4a82-80a0-436bdff0d840","countryId":"country.14vdqsc"},"geometry":{"type":"Polygon","coordinates":[[[-0.6137,12.5058],[-0.3891,12.4689],[-0.2074,12.5605],[-0.1989,12.7879],[-0.3048,12.8547],[-0.366,12.9908],[-0.3019,13.191],[-0.2945,13.4158],[-0.2263,13.4966],[-0.2196,13.6165],[-0.3683,13.6514],[-0.4665,13.8177],[-0.6083,13.9226],[-0.6567,13.885],[-0.6727,13.7324],[-0.7486,13.5846],[-0.65,13.2547],[-0.6758,13.0225],[-0.7838,12.8987],[-0.7011,12.7912],[-0.6726,12.6763],[-0.6137,12.5058]]]}},{"type":"Feature","properties":{"sourceId":"1159313925","regionId":"region.1708892d-1504-4792-a23e-bcffe6aa52ed","countryId":"country.14vdqsc"},"geometry":{"type":"Polygon","coordinates":[[[-0.6726,12.6763],[-0.7011,12.7912],[-0.7838,12.8987],[-0.6758,13.0225],[-0.65,13.2547],[-0.7486,13.5846],[-0.6727,13.7324],[-0.6567,13.885],[-0.6083,13.9226],[-0.642,13.9709],[-0.8519,13.8513],[-1.1519,13.7614],[-1.3331,13.739],[-1.289,13.6501],[-1.3582,13.4233],[-1.2769,13.2868],[-1.2993,13.1354],[-1.3759,13.1405],[-1.5217,13.0779],[-1.5025,12.994],[-1.5526,12.9041],[-1.3722,12.858],[-1.1717,12.7433],[-1.1238,12.6632],[-1.0303,12.6657],[-0.84,12.5242],[-0.6726,12.6763]]]}},{"type":"Feature","properties":{"sourceId":"1159313893","regionId":"region.d98cf4ac-da2b-4e6e-9ee1-a304a125f138","countryId":"country.14vdqsc"},"geometry":{"type":"Polygon","coordinates":[[[-1.742,13.1224],[-1.6573,13.0372],[-1.5025,12.994],[-1.5217,13.0779],[-1.3759,13.1405],[-1.2993,13.1354],[-1.2769,13.2868],[-1.3582,13.4233],[-1.289,13.6501],[-1.3331,13.739],[-1.4731,13.7919],[-1.5348,13.9027],[-1.6969,13.8256],[-1.747,13.7293],[-1.7308,13.6817],[-1.8678,13.6058],[-1.878,13.5418],[-1.8401,13.3406],[-1.7464,13.2593],[-1.742,13.1224]]]}}]}