{"type":"FeatureCollection","features":[{"type":"Feature","properties":{"sourceId":"1159311043","regionId":"region.171a30bd-7e74-46a7-b27b-1b603a8939bc","countryId":"country.1abe1vk"},"geometry":{"type":"Polygon","coordinates":[[[26.5945,55.667],[26.2797,55.7432],[26.2269,55.7969],[25.9613,55.9585],[25.8018,55.7739],[25.4879,55.7242],[25.3786,55.7746],[25.1221,55.6918],[25.0178,55.7345],[24.7176,55.6719],[24.6305,55.5226],[24.7688,55.463],[24.7848,55.3826],[25.0557,55.3053],[25.2388,55.201],[25.126,55.1035],[25.3491,55.0267],[25.7811,55.1305],[25.6456,55.205],[25.7343,55.327],[26.3207,55.2289],[26.6332,55.2691],[26.7399,55.2428],[26.7686,55.3002],[26.4455,55.3375],[26.5945,55.667]]]}},{"type":"Feature","properties":{"sourceId":"1159311045","regionId":"region.1afbad94-be1c-43ea-b721-bac121942a59","countryId":"country.1abe1vk"},"geometry":{"type":"Polygon","coordinates":[[[26.7399,55.2428],[26.6332,55.2691],[26.3207,55.2289],[25.7343,55.327],[25.6456,55.205],[25.7811,55.1305],[25.3491,55.0267],[25.126,55.1035],[25.2388,55.201],[25.0557,55.3053],[24.7848,55.3826],[24.7688,55.463],[24.6305,55.5226],[24.4156,55.3932],[24.3886,55.3165],[24.5368,55.1204],[24.6493,55.0511],[24.5488,54.9878],[24.8,54.8903],[24.6565,54.8167],[24.6246,54.7309],[24.4822,54.7013],[24.4128,54.5439],[24.4299,54.4403],[24.642,54.4496],[24.7261,54.4061],[24.996,54.4513],[24.9137,54.3154],[24.7699,54.2254],[24.851,54.145],[25.072,54.1322],[25.1935,54.2437],[25.554,54.2313],[25.74,54.1463],[25.7868,54.2318],[25.696,54.321],[25.53,54.3461],[25.6462,54.5204],[25.7404,54.5685],[25.7095,54.6756],[25.7827,54.8697],[25.9079,54.9481],[26.1703,54.9933],[26.3095,55.1446],[26.5789,55.1185],[26.7399,55.2428]]]}},{"type":"Feature","properties":{"sourceId":"1159311029","regionId":"region.93aa5ee6-c526-4875-9c7a-cb3cface4b5a","countryId":"country.1abe1vk"},"geometry":{"type":"Polygon","coordinates":[[[24.851,54.145],[24.7699,54.2254],[24.9137,54.3154],[24.996,54.4513],[24.7261,54.4061],[24.642,54.4496],[24.4299,54.4403],[24.4128,54.5439],[23.9872,54.5349],[23.7563,54.4698],[23.641,54.5078],[23.3474,54.3038],[23.336,54.2263],[23.4325,54.1693],[23.4856,53.9393],[23.6426,53.899],[23.9198,53.9478],[24.2011,53.9525],[24.3779,53.8868],[24.5287,53.9584],[24.8214,54.0199],[24.851,54.145]]]}},{"type":"Feature","properties":{"sourceId":"1159311037","regionId":"region.e2a6c206-3e01-453c-8784-53b0789a9586","countryId":"country.1abe1vk"},"geometry":{"type":"Polygon","coordinates":[[[24.871,56.4426],[24.5728,56.3098],[24.4472,56.2605],[24.2876,56.2955],[24.1404,56.2576],[24.0115,55.9852],[24.0511,55.8938],[23.9987,55.6368],[23.8671,55.5693],[24.0508,55.4832],[24.3495,55.4422],[24.4156,55.3932],[24.6305,55.5226],[24.7176,55.6719],[25.0178,55.7345],[25.1221,55.6918],[25.3786,55.7746],[25.4879,55.7242],[25.8018,55.7739],[25.9613,55.9585],[25.7955,56.0401],[25.6497,56.1438],[25.3491,56.1599],[25.0731,56.1978],[24.871,56.4426]]]}},{"type":"Feature","properties":{"sourceId":"1159311027","regionId":"region.0ce819d5-6836-4150-b908-5f1e84b03f8d","countryId":"country.1abe1vk"},"geometry":{"type":"Polygon","coordinates":[[[22.5782,56.387],[21.9832,56.3884],[21.9653,56.3837],[21.9853,56.2244],[21.8992,56.1328],[21.7422,56.1051],[21.5834,55.9902],[21.6334,55.7506],[21.7446,55.7598],[21.8776,55.6018],[22.0696,55.6617],[22.4571,55.6779],[22.505,55.8048],[22.6983,55.9493],[22.6004,56.0441],[22.3746,56.1641],[22.4612,56.3201],[22.5782,56.387]]]}},{"type":"Feature","properties":{"sourceId":"1159311025","regionId":"region.638086d2-3027-4b3c-9a29-4e9b0115160a","countryId":"country.1abe1vk"},"geometry":{"type":"Polygon","coordinates":[[[21.0534,56.0726],[21.0744,55.7449],[21.2229,55.5202],[21.2676,55.2487],[21.4055,55.2724],[21.5039,55.1944],[22.0999,55.0299],[22.2699,55.0695],[22.2989,55.1346],[22.0845,55.1853],[21.9104,55.2903],[22.0367,55.4115],[21.8861,55.4364],[21.8776,55.6018],[21.7446,55.7598],[21.6334,55.7506],[21.5834,55.9902],[21.7422,56.1051],[21.8992,56.1328],[21.9853,56.2244],[21.9653,56.3837],[21.7365,56.3237],[21.4855,56.2658],[21.3276,56.2244],[21.1904,56.0845],[21.0534,56.0726]]]}},{"type":"Feature","properties":{"sourceId":"1159311039","regionId":"region.f1b20809-3848-478b-82dd-d266f4186eb3","countryId":"country.1abe1vk"},"geometry":{"type":"Polygon","coordinates":[[[23.1726,56.358],[23.0167,56.3239],[22.8596,56.3971],[22.6814,56.3503],[22.5782,56.387],[22.4612,56.3201],[22.3746,56.1641],[22.6004,56.0441],[22.6983,55.9493],[22.505,55.8048],[22.4571,55.6779],[22.6457,55.4743],[23.0208,55.5155],[23.1142,55.5743],[23.3248,55.5673],[23.6341,55.4746],[23.8671,55.5693],[23.9987,55.6368],[24.0511,55.8938],[24.0115,55.9852],[24.1404,56.2576],[23.9813,56.3124],[23.8711,56.3321],[23.378,56.3546],[23.1726,56.358]]]}},{"type":"Feature","properties":{"sourceId":"1159311035","regionId":"region.88b6f8d7-9ff3-4b97-be6e-08672fc17efb","countryId":"country.1abe1vk"},"geometry":{"type":"Polygon","coordinates":[[[22.8113,54.3926],[22.9733,54.3754],[23.336,54.2263],[23.3474,54.3038],[23.641,54.5078],[23.7563,54.4698],[23.6646,54.5757],[23.6242,54.8749],[23.4033,54.958],[23.4123,55.0787],[23.0017,55.1054],[22.5712,55.064],[22.6335,54.9579],[22.8089,54.8938],[22.8328,54.7787],[22.7248,54.7234],[22.6804,54.4532],[22.7672,54.3563],[22.8113,54.3926]]]}},{"type":"Feature","properties":{"sourceId":"1159311041","regionId":"region.59fc5398-c682-4210-8959-53010e25e8e0","countryId":"country.1abe1vk"},"geometry":{"type":"Polygon","coordinates":[[[22.5712,55.064],[23.0017,55.1054],[23.4123,55.0787],[23.4775,55.215],[23.1555,55.2779],[22.8682,55.2934],[22.6457,55.4743],[22.4571,55.6779],[22.0696,55.6617],[21.8776,55.6018],[21.8861,55.4364],[22.0367,55.4115],[21.9104,55.2903],[22.0845,55.1853],[22.2989,55.1346],[22.2699,55.0695],[22.5712,55.064]]]}},{"type":"Feature","properties":{"sourceId":"1159311031","regionId":"region.a7ad6bc6-98fc-427e-908e-d1eecbb7974b","countryId":"country.1abe1vk"},"geometry":{"type":"Polygon","coordinates":[[[24.4156,55.3932],[24.3495,55.4422],[24.0508,55.4832],[23.8671,55.5693],[23.6341,55.4746],[23.3248,55.5673],[23.1142,55.5743],[23.0208,55.5155],[22.6457,55.4743],[22.8682,55.2934],[23.1555,55.2779],[23.4775,55.215],[23.4123,55.0787],[23.4033,54.958],[23.6242,54.8749],[23.6646,54.5757],[23.7563,54.4698],[23.9872,54.5349],[24.4128,54.5439],[24.4822,54.7013],[24.6246,54.7309],[24.6565,54.8167],[24.8,54.8903],[24.5488,54.9878],[24.6493,55.0511],[24.5368,55.1204],[24.3886,55.3165],[24.4156,55.3932]]]}}]}