{"type":"FeatureCollection","features":[{"type":"Feature","properties":{"sourceId":"1159311523","regionId":"region.68087f36-3b35-4c02-b46e-80d3a1c57333","countryId":"country.5d8b54a9-8886-4e50-ac35-dfdbac3cdcff"},"geometry":{"type":"Polygon","coordinates":[[[-59.5458,13.2438],[-59.581,13.2098],[-59.5543,13.1801],[-59.5402,13.1825],[-59.5181,13.2175],[-59.5458,13.2438]]]}},{"type":"Feature","properties":{"sourceId":"1159311513","regionId":"region.4c2e1db0-1ad9-4054-b256-cced4a766b7f","countryId":"country.5d8b54a9-8886-4e50-ac35-dfdbac3cdcff"},"geometry":{"type":"Polygon","coordinates":[[[-59.569,13.2897],[-59.606,13.2421],[-59.601,13.2164],[-59.581,13.2098],[-59.5458,13.2438],[-59.569,13.2897]]]}},{"type":"Feature","properties":{"sourceId":"1159311529","regionId":"region.a3403ee9-fb60-49a1-aea4-51901022fc6b","countryId":"country.5d8b54a9-8886-4e50-ac35-dfdbac3cdcff"},"geometry":{"type":"Polygon","coordinates":[[[-59.5759,13.3044],[-59.6529,13.2739],[-59.6508,13.2388],[-59.606,13.2421],[-59.569,13.2897],[-59.5759,13.3044]]]}},{"type":"Feature","properties":{"sourceId":"1159311525","regionId":"region.19645f1e-481b-4617-bf59-18198335524d","countryId":"country.5d8b54a9-8886-4e50-ac35-dfdbac3cdcff"},"geometry":{"type":"Polygon","coordinates":[[[-59.6529,13.2739],[-59.5759,13.3044],[-59.6309,13.338],[-59.6529,13.2739]]]}},{"type":"Feature","properties":{"sourceId":"1159311517","regionId":"region.e5e4dbe2-8cb4-484e-bbb4-7b5fe464bc86","countryId":"country.5d8b54a9-8886-4e50-ac35-dfdbac3cdcff"},"geometry":{"type":"Polygon","coordinates":[[[-59.6406,13.1416],[-59.6111,13.1503],[-59.601,13.2164],[-59.606,13.2421],[-59.6508,13.2388],[-59.6406,13.1416]]]}},{"type":"Feature","properties":{"sourceId":"1159311527","regionId":"region.5938668a-f1b9-45f5-9a1a-987a30444074","countryId":"country.5d8b54a9-8886-4e50-ac35-dfdbac3cdcff"},"geometry":{"type":"Polygon","coordinates":[[[-59.6003,13.0841],[-59.5705,13.1082],[-59.5871,13.1613],[-59.6111,13.1503],[-59.6406,13.1416],[-59.6003,13.0841]]]}},{"type":"Feature","properties":{"sourceId":"1159311511","regionId":"region.2f74237b-3bc1-433e-ae03-73c41810ce5a","countryId":"country.5d8b54a9-8886-4e50-ac35-dfdbac3cdcff"},"geometry":{"type":"Polygon","coordinates":[[[-59.4758,13.0865],[-59.5131,13.1294],[-59.5705,13.1082],[-59.6003,13.0841],[-59.4758,13.0865]]]}},{"type":"Feature","properties":{"sourceId":"1159311531","regionId":"region.5a9d888b-abe5-48d2-a867-22ed6c32be66","countryId":"country.5d8b54a9-8886-4e50-ac35-dfdbac3cdcff"},"geometry":{"type":"Polygon","coordinates":[[[-59.4677,13.1865],[-59.5087,13.1458],[-59.5131,13.1294],[-59.4758,13.0865],[-59.4677,13.1865]]]}},{"type":"Feature","properties":{"sourceId":"1159311521","regionId":"region.6a514ba0-8d39-45d8-8f6f-0580d65acb1e","countryId":"country.5d8b54a9-8886-4e50-ac35-dfdbac3cdcff"},"geometry":{"type":"Polygon","coordinates":[[[-59.5181,13.2175],[-59.5402,13.1825],[-59.5087,13.1458],[-59.4677,13.1865],[-59.5181,13.2175]]]}},{"type":"Feature","properties":{"sourceId":"1159311515","regionId":"region.894dc759-a41e-449a-9c63-cb4d24a4fbbb","countryId":"country.5d8b54a9-8886-4e50-ac35-dfdbac3cdcff"},"geometry":{"type":"Polygon","coordinates":[[[-59.5402,13.1825],[-59.5543,13.1801],[-59.5871,13.1613],[-59.5705,13.1082],[-59.5131,13.1294],[-59.5087,13.1458],[-59.5402,13.1825]]]}},{"type":"Feature","properties":{"sourceId":"1159311533","regionId":"region.d29a7230-1eab-47fc-850d-e45fe9d9444f","countryId":"country.5d8b54a9-8886-4e50-ac35-dfdbac3cdcff"},"geometry":{"type":"Polygon","coordinates":[[[-59.581,13.2098],[-59.601,13.2164],[-59.6111,13.1503],[-59.5871,13.1613],[-59.5543,13.1801],[-59.581,13.2098]]]}}]}