{"type":"FeatureCollection","features":[{"type":"Feature","properties":{"sourceId":"1159311391","regionId":"region.a52a0ca3-7e70-45a1-9a41-0f0b54884233","countryId":"country.8thyov"},"geometry":{"type":"Polygon","coordinates":[[[-82.5736,9.5762],[-82.6189,9.4867],[-82.829,9.6027],[-82.8613,9.4841],[-82.9443,9.4372],[-82.9395,9.0706],[-82.7491,8.9741],[-82.7202,8.9202],[-82.5677,8.8997],[-82.363,8.8088],[-82.3215,9.0094],[-82.1321,8.9006],[-82.0067,8.9466],[-82.1054,8.9352],[-82.246,9.0141],[-82.2555,9.1826],[-82.3506,9.2073],[-82.3876,9.2861],[-82.3496,9.402],[-82.5736,9.5762]]]}},{"type":"Feature","properties":{"sourceId":"1159310095","regionId":"region.01c167b0-b7ba-4598-b781-bcf8d0f987b6","countryId":"country.8thyov"},"geometry":{"type":"Polygon","coordinates":[[[-82.7202,8.9202],[-82.8669,8.8381],[-82.9242,8.7412],[-82.8498,8.6299],[-82.8704,8.4381],[-83.0532,8.3151],[-82.9437,8.2486],[-82.8864,8.1022],[-82.8976,8.0347],[-82.8492,8.0683],[-82.8772,8.2191],[-82.8087,8.2957],[-82.6589,8.3228],[-82.5117,8.2764],[-82.2801,8.3432],[-82.1965,8.2022],[-82.1094,8.2333],[-81.7115,8.1303],[-81.6636,7.9973],[-81.6061,8.1349],[-81.5131,8.251],[-81.5225,8.3793],[-81.6336,8.2971],[-81.7843,8.264],[-81.83,8.3184],[-81.9971,8.34],[-82.1429,8.5573],[-82.1532,8.7626],[-82.363,8.8088],[-82.5677,8.8997],[-82.7202,8.9202]]]}},{"type":"Feature","properties":{"sourceId":"1159310093","regionId":"region.00c882b8-6813-41e4-9c4b-bf69cef1b037","countryId":"country.8thyov"},"geometry":{"type":"Polygon","coordinates":[[[-77.3735,8.6647],[-77.477,8.6699],[-77.5741,8.7928],[-77.7208,8.8923],[-77.7444,8.9636],[-77.8902,9.0772],[-78.0246,9.2265],[-78.208,9.2903],[-78.4377,9.4044],[-78.7811,9.4459],[-78.9033,9.4229],[-79.0581,9.4579],[-79.0745,9.562],[-79.075,9.4573],[-79.247,9.3307],[-79.0718,9.2774],[-78.9372,9.3445],[-78.6989,9.3708],[-78.6277,9.3214],[-78.5002,9.338],[-78.4087,9.2436],[-78.2956,9.2573],[-78.257,9.1909],[-78.0425,9.0732],[-77.9119,8.997],[-77.6925,8.7724],[-77.4694,8.5378],[-77.3735,8.6647]]]}},{"type":"Feature","properties":{"sourceId":"1159315095","regionId":"region.3bdd8212-a5f9-476e-a00d-ea7b973ce263","countryId":"country.8thyov"},"geometry":{"type":"MultiPolygon","coordinates":[[[[-77.4694,8.5378],[-77.6925,8.7724],[-77.8218,8.7329],[-77.9086,8.6217],[-77.8174,8.4013],[-77.7317,8.2583],[-77.6255,8.1997],[-77.5526,8.0848],[-77.2694,8.1677],[-77.3632,8.2721],[-77.4694,8.5378]]],[[[-78.1834,8.0936],[-78.202,8.0012],[-78.3293,7.9597],[-78.3311,7.8929],[-78.2451,7.7309],[-78.0724,7.6015],[-77.9497,7.6188],[-77.9559,7.7392],[-78.0162,7.9314],[-78.0919,7.9726],[-78.1834,8.0936]]]]}},{"type":"Feature","properties":{"sourceId":"1159310091","regionId":"region.2ebfaae0-c8ec-4252-b617-c6a272f22542","countryId":"country.8thyov"},"geometry":{"type":"Polygon","coordinates":[[[-77.2694,8.1677],[-77.5526,8.0848],[-77.6255,8.1997],[-77.7317,8.2583],[-77.8174,8.4013],[-77.9086,8.6217],[-77.8218,8.7329],[-77.6925,8.7724],[-77.9119,8.997],[-78.0425,9.0732],[-78.0792,8.9437],[-78.309,8.8067],[-78.4512,8.8197],[-78.4288,8.7145],[-78.4585,8.5604],[-78.4097,8.353],[-78.3033,8.4543],[-78.1556,8.3941],[-78.1829,8.2979],[-78.3058,8.2539],[-78.2375,8.154],[-78.2864,8.0807],[-78.4308,8.0771],[-78.3945,7.9174],[-78.3294,7.8432],[-78.1442,7.4979],[-78.0098,7.3835],[-77.8958,7.2351],[-77.8202,7.4765],[-77.7312,7.5303],[-77.7705,7.669],[-77.6799,7.671],[-77.58,7.5284],[-77.3397,7.7072],[-77.3799,7.7744],[-77.3216,7.881],[-77.2012,7.982],[-77.2694,8.1677]],[[-78.1834,8.0936],[-78.0919,7.9726],[-78.0162,7.9314],[-77.9559,7.7392],[-77.9497,7.6188],[-78.0724,7.6015],[-78.2451,7.7309],[-78.3311,7.8929],[-78.3293,7.9597],[-78.202,8.0012],[-78.1834,8.0936]]]}},{"type":"Feature","properties":{"sourceId":"1159310085","regionId":"region.ed3ab52a-ea09-4c36-9706-f7e81156164f","countryId":"country.8thyov"},"geometry":{"type":"MultiPolygon","coordinates":[[[[-78.4097,8.353],[-78.4585,8.5604],[-78.4288,8.7145],[-78.4512,8.8197],[-78.309,8.8067],[-78.0792,8.9437],[-78.0425,9.0732],[-78.257,9.1909],[-78.2956,9.2573],[-78.4087,9.2436],[-78.5002,9.338],[-78.6277,9.3214],[-78.6989,9.3708],[-78.9372,9.3445],[-79.0718,9.2774],[-79.247,9.3307],[-79.2567,9.4024],[-79.4408,9.479],[-79.5225,9.4543],[-79.5737,9.2182],[-79.6698,9.1282],[-79.7782,9.1144],[-79.8893,9.194],[-79.9627,9.0835],[-79.9559,8.997],[-80.1375,8.9492],[-80.1637,8.8307],[-80.092,8.4709],[-80.0408,8.398],[-79.8641,8.5524],[-79.7744,8.5796],[-79.7563,8.7963],[-79.6012,8.8907],[-79.482,8.9984],[-79.176,9.0107],[-79.0053,8.9595],[-78.7576,8.8293],[-78.6125,8.6697],[-78.5044,8.634],[-78.4914,8.4734],[-78.4097,8.353]]],[[[-78.8922,8.458],[-78.9747,8.4444],[-78.9699,8.3051],[-78.8345,8.3428],[-78.8922,8.458]]]]}},{"type":"Feature","properties":{"sourceId":"1159310099","regionId":"region.1ab0abc4-886c-4ff2-8668-5ffd0fc87e15","countryId":"country.8thyov"},"geometry":{"type":"Polygon","coordinates":[[[-80.0408,8.398],[-80.092,8.4709],[-80.1637,8.8307],[-80.1375,8.9492],[-80.1782,9.0218],[-80.3555,8.8719],[-80.5156,8.9266],[-80.5425,8.791],[-80.6517,8.767],[-80.7394,8.6152],[-80.8221,8.5377],[-80.6935,8.3093],[-80.7341,8.1635],[-80.687,8.1326],[-80.4785,8.0914],[-80.4702,8.2206],[-80.3807,8.3104],[-80.225,8.3011],[-80.0408,8.398]]]}},{"type":"Feature","properties":{"sourceId":"1159310081","regionId":"region.8de5c7e9-f0af-4ef0-9bef-425587c6381a","countryId":"country.8thyov"},"geometry":{"type":"MultiPolygon","coordinates":[[[[-81.6644,7.3973],[-81.719,7.4525],[-81.7388,7.6443],[-81.83,7.5762],[-81.8419,7.4308],[-81.7462,7.3489],[-81.6644,7.3973]]],[[[-81.2131,8.7918],[-81.2045,8.5653],[-81.3285,8.5581],[-81.4886,8.5969],[-81.5225,8.3793],[-81.5131,8.251],[-81.6061,8.1349],[-81.6636,7.9973],[-81.5675,7.8492],[-81.5258,7.7115],[-81.1952,7.6389],[-81.1833,7.8237],[-81.0854,7.7943],[-80.9463,7.5557],[-80.8731,7.2126],[-80.6041,7.2367],[-80.6681,7.3228],[-80.7197,7.5296],[-80.8021,7.5812],[-80.947,7.7884],[-80.9434,7.9015],[-80.8578,7.9696],[-80.8536,8.0599],[-80.687,8.1326],[-80.7341,8.1635],[-80.6935,8.3093],[-80.8221,8.5377],[-80.7394,8.6152],[-80.7282,8.7301],[-80.8626,8.8851],[-81.0877,8.8087],[-81.2131,8.7918]]]]}},{"type":"Feature","properties":{"sourceId":"1159310101","regionId":"region.f7f8eca1-a54f-47bb-8a67-95e4b44ba203","countryId":"country.8thyov"},"geometry":{"type":"Polygon","coordinates":[[[-79.0745,9.562],[-79.1938,9.5396],[-79.551,9.6293],[-79.6645,9.5834],[-79.6906,9.4958],[-79.909,9.3084],[-80.0008,9.3205],[-80.1008,9.2223],[-80.2926,9.1514],[-80.4083,9.1423],[-80.6371,9.0517],[-80.8626,8.8851],[-80.7282,8.7301],[-80.7394,8.6152],[-80.6517,8.767],[-80.5425,8.791],[-80.5156,8.9266],[-80.3555,8.8719],[-80.1782,9.0218],[-80.1375,8.9492],[-79.9559,8.997],[-79.9627,9.0835],[-79.8893,9.194],[-79.7782,9.1144],[-79.6698,9.1282],[-79.5737,9.2182],[-79.5225,9.4543],[-79.4408,9.479],[-79.2567,9.4024],[-79.247,9.3307],[-79.075,9.4573],[-79.0745,9.562]]]}},{"type":"Feature","properties":{"sourceId":"1159311389","regionId":"region.74d6c367-29c3-46fb-84ae-bd6b45b5964e","countryId":"country.8thyov"},"geometry":{"type":"Polygon","coordinates":[[[-82.0067,8.9466],[-82.1321,8.9006],[-82.3215,9.0094],[-82.363,8.8088],[-82.1532,8.7626],[-82.1429,8.5573],[-81.9971,8.34],[-81.83,8.3184],[-81.7843,8.264],[-81.6336,8.2971],[-81.5225,8.3793],[-81.4886,8.5969],[-81.3285,8.5581],[-81.2045,8.5653],[-81.2131,8.7918],[-81.358,8.7851],[-81.5391,8.8129],[-81.762,9.0638],[-81.7934,8.9316],[-81.9037,8.9711],[-82.0067,8.9466]]]}},{"type":"Feature","properties":{"sourceId":"1159310105","regionId":"region.afadd1af-b4cb-45cd-8c7f-ad21a1230fb3","countryId":"country.8thyov"},"geometry":{"type":"Polygon","coordinates":[[[-80.3755,7.9972],[-80.5042,7.9112],[-80.5738,7.8215],[-80.5543,7.7412],[-80.7197,7.5296],[-80.6681,7.3228],[-80.6041,7.2367],[-80.4448,7.2459],[-80.3576,7.382],[-80.2497,7.4296],[-80.1355,7.4246],[-79.9947,7.5034],[-80.0524,7.6371],[-80.1438,7.7528],[-80.3,7.8833],[-80.3755,7.9972]]]}},{"type":"Feature","properties":{"sourceId":"1159310103","regionId":"region.1caa66c9-4ed3-43b9-9603-21d515b09bde","countryId":"country.8thyov"},"geometry":{"type":"Polygon","coordinates":[[[-80.4785,8.0914],[-80.687,8.1326],[-80.8536,8.0599],[-80.8578,7.9696],[-80.9434,7.9015],[-80.947,7.7884],[-80.8021,7.5812],[-80.7197,7.5296],[-80.5543,7.7412],[-80.5738,7.8215],[-80.5042,7.9112],[-80.3755,7.9972],[-80.4785,8.0914]]]}}]}