{"type":"FeatureCollection","features":[{"type":"Feature","properties":{"sourceId":"1159308253","regionId":"region.f89e6383-cec9-4685-8325-28474140e5c4","countryId":"country.gddwz0"},"geometry":{"type":"Polygon","coordinates":[[[103.2433,14.3419],[103.457,14.3744],[103.5502,14.4219],[103.8703,14.3433],[104.0451,14.357],[104.0457,14.3573],[104.0581,14.664],[103.9329,14.8992],[104.0178,15.0387],[103.9721,15.1744],[104.0765,15.3639],[103.986,15.4102],[103.8459,15.463],[103.7861,15.4385],[103.5912,15.4652],[103.4175,15.4279],[103.3432,15.4017],[103.1158,15.4823],[103.1677,15.3664],[103.2943,15.3118],[103.367,15.3527],[103.5,15.2999],[103.4449,15.186],[103.4443,14.9381],[103.288,14.7701],[103.2331,14.5981],[103.2433,14.3419]]]}},{"type":"Feature","properties":{"sourceId":"1159308217","regionId":"region.a88f93ed-b629-4e4f-b646-9bdbbac79ac2","countryId":"country.gddwz0"},"geometry":{"type":"Polygon","coordinates":[[[104.4585,14.357],[104.5946,14.41],[104.7717,14.4399],[104.9156,14.3932],[104.833,14.5601],[104.8644,14.7199],[104.8285,14.8618],[104.6943,14.9716],[104.6832,15.2452],[104.4183,15.2848],[104.2541,15.3679],[104.1295,15.5645],[103.986,15.4102],[104.0765,15.3639],[103.9721,15.1744],[104.0178,15.0387],[103.9329,14.8992],[104.0581,14.664],[104.0457,14.3573],[104.2475,14.4011],[104.4585,14.357]]]}},{"type":"Feature","properties":{"sourceId":"1159308219","regionId":"region.31861c6a-1196-40b0-875c-e27d6937e2b1","countryId":"country.gddwz0"},"geometry":{"type":"Polygon","coordinates":[[[104.9156,14.3932],[105.0473,14.2141],[105.1843,14.3457],[105.416,14.4282],[105.5101,14.5936],[105.4891,14.7863],[105.5836,14.9776],[105.4438,15.1338],[105.564,15.2725],[105.4863,15.3749],[105.5922,15.4275],[105.651,15.6346],[105.6129,15.7215],[105.448,15.7649],[105.3726,15.8821],[105.4232,16.005],[105.107,16.0959],[105.0348,15.9997],[105.0573,15.9046],[104.9395,15.6139],[104.9086,15.4739],[104.7891,15.5631],[104.5121,15.5834],[104.4037,15.5284],[104.3819,15.434],[104.4183,15.2848],[104.6832,15.2452],[104.6943,14.9716],[104.8285,14.8618],[104.8644,14.7199],[104.833,14.5601],[104.9156,14.3932]]]}},{"type":"Feature","properties":{"sourceId":"1159308233","regionId":"region.f9a7498d-89ee-4378-a0d9-b61c89223e4e","countryId":"country.gddwz0"},"geometry":{"type":"Polygon","coordinates":[[[102.9139,14.1649],[102.7139,14.1321],[102.5942,14.1487],[102.3614,14.1561],[102.1656,14.1378],[102.0528,14.1856],[101.9909,14.0668],[101.9125,14.0358],[101.8696,13.9332],[101.8762,13.7231],[101.9954,13.3362],[102.0389,13.1614],[102.1709,13.2437],[102.2704,13.2023],[102.3292,13.2726],[102.3295,13.4846],[102.3322,13.5646],[102.5132,13.5672],[102.5744,13.6939],[102.6986,13.7618],[102.7728,13.9361],[102.8698,14.0206],[102.9139,14.1649]]]}},{"type":"Feature","properties":{"sourceId":"1159308237","regionId":"region.72d874af-35cf-49b8-812b-0346a91b527d","countryId":"country.gddwz0"},"geometry":{"type":"Polygon","coordinates":[[[103.0169,14.2389],[103.085,14.2958],[103.2433,14.3419],[103.2331,14.5981],[103.288,14.7701],[103.4443,14.9381],[103.4449,15.186],[103.5,15.2999],[103.367,15.3527],[103.2943,15.3118],[103.1677,15.3664],[103.1158,15.4823],[102.9768,15.6715],[102.9465,15.7892],[102.8686,15.6365],[102.7893,15.6395],[102.8372,15.5079],[102.9418,15.5032],[102.9912,15.3655],[102.9829,15.1938],[102.8595,15.1575],[102.7539,14.985],[102.555,14.9408],[102.5045,14.8081],[102.4859,14.5757],[102.5595,14.4547],[102.6172,14.2857],[102.5942,14.1487],[102.7139,14.1321],[102.9139,14.1649],[103.0169,14.2389]]]}},{"type":"Feature","properties":{"sourceId":"1159308075","regionId":"region.132bf3d7-6249-4d06-baf9-b01d38417f8e","countryId":"country.gddwz0"},"geometry":{"type":"Polygon","coordinates":[[[102.765,12.0446],[102.6922,12.1785],[102.7151,12.3422],[102.7638,12.4253],[102.5586,12.6312],[102.4959,12.6542],[102.4952,12.746],[102.3947,12.6655],[102.3297,12.5569],[102.3555,12.3583],[102.2654,12.2715],[102.3362,12.1976],[102.5716,12.091],[102.6318,12.152],[102.7497,12.0403],[102.777,11.9025],[102.9067,11.7414],[102.9136,11.6459],[102.9138,11.7655],[102.765,12.0446]]]}},{"type":"Feature","properties":{"sourceId":"1159308231","regionId":"region.fc89e570-2276-40be-8731-f2feebdb4a66","countryId":"country.gddwz0"},"geometry":{"type":"Polygon","coordinates":[[[102.4901,12.9952],[102.3821,13.1366],[102.3292,13.2726],[102.2704,13.2023],[102.1709,13.2437],[102.0389,13.1614],[101.9954,13.3362],[101.7699,13.1815],[101.7176,13.1717],[101.6926,13.134],[101.7133,13.0348],[101.8238,12.8935],[101.7891,12.6978],[101.9608,12.5373],[102.072,12.4885],[102.2283,12.3237],[102.3555,12.3583],[102.3297,12.5569],[102.3947,12.6655],[102.4952,12.746],[102.4648,12.9275],[102.4901,12.9952]]]}},{"type":"Feature","properties":{"sourceId":"1159308885","regionId":"region.e1e838de-f662-4a18-b7d8-332bc3834280","countryId":"country.gddwz0"},"geometry":{"type":"Polygon","coordinates":[[[100.1992,6.6994],[100.2134,6.8853],[100.12,6.9321],[100.0464,7.0634],[99.9378,7.1297],[99.7456,7.1297],[99.6792,7.0268],[99.6858,6.8773],[99.7972,6.8217],[99.9566,6.664],[100.0013,6.5675],[100.1273,6.4423],[100.1668,6.6951],[100.1992,6.6994]]]}},{"type":"Feature","properties":{"sourceId":"1159309163","regionId":"region.2ac01ee7-3336-4391-9144-f11f181f614e","countryId":"country.gddwz0"},"geometry":{"type":"MultiPolygon","coordinates":[[[[100.1992,6.6994],[100.2808,6.6889],[100.3777,6.5268],[100.6484,6.4472],[100.7129,6.493],[100.8056,6.4148],[100.8237,6.2986],[100.9205,6.3396],[100.925,6.4337],[101.029,6.477],[101.1011,6.6379],[101.0388,6.7327],[101.068,6.8577],[100.9976,6.8567],[100.8499,6.9621],[100.7651,6.9831],[100.6111,7.1926],[100.486,7.1399],[100.3955,7.2113],[100.3788,7.3098],[100.2796,7.2058],[100.1545,7.1803],[100.0306,7.0917],[100.0464,7.0634],[100.12,6.9321],[100.2134,6.8853],[100.1992,6.6994]]],[[[100.3425,7.9388],[100.1552,7.8744],[100.1296,7.8017],[100.2009,7.7723],[100.307,7.7579],[100.3235,7.6164],[100.4402,7.477],[100.3425,7.9388]]]]}},{"type":"Feature","properties":{"sourceId":"1159309167","regionId":"region.795c566b-466c-47a7-a4ad-9b08285da022","countryId":"country.gddwz0"},"geometry":{"type":"Polygon","coordinates":[[[100.8237,6.2986],[100.9101,6.2358],[101.0817,6.2465],[101.0943,6.0858],[101.0711,5.9198],[101.0153,5.8983],[100.9724,5.7729],[101.1054,5.6376],[101.225,5.6992],[101.249,5.787],[101.5002,5.8927],[101.4883,6.045],[101.3823,6.1965],[101.4359,6.4126],[101.5363,6.443],[101.6017,6.5554],[101.5091,6.596],[101.3454,6.5505],[101.3039,6.6005],[101.1587,6.6001],[101.1011,6.6379],[101.029,6.477],[100.925,6.4337],[100.9205,6.3396],[100.8237,6.2986]]]}},{"type":"Feature","properties":{"sourceId":"1159308271","regionId":"region.4b53eca5-41b2-40df-8024-20defbee6a30","countryId":"country.gddwz0"},"geometry":{"type":"Polygon","coordinates":[[[102.0731,6.2575],[101.8084,6.4645],[101.7235,6.5744],[101.6017,6.5554],[101.5363,6.443],[101.4359,6.4126],[101.3823,6.1965],[101.4883,6.045],[101.5002,5.8927],[101.5793,5.9063],[101.6976,5.7671],[101.8005,5.7399],[101.9129,5.8593],[101.9594,6.0116],[102.06,6.0948],[102.0731,6.2575]]]}},{"type":"Feature","properties":{"sourceId":"1159309169","regionId":"region.9f58cb67-e2a0-49c7-8013-693d9a8f290b","countryId":"country.gddwz0"},"geometry":{"type":"Polygon","coordinates":[[[100.0993,20.3178],[99.942,20.444],[99.8377,20.4168],[99.7696,20.3284],[99.6519,20.3068],[99.5029,20.3452],[99.5087,20.1528],[99.5104,20.0539],[99.4199,19.9574],[99.3429,19.7065],[99.2706,19.6605],[99.342,19.2748],[99.3094,19.1863],[99.3999,18.9984],[99.5337,19.0729],[99.5797,19.2931],[99.5701,19.4027],[99.6874,19.4298],[99.9093,19.4826],[99.9121,19.3988],[100.1322,19.4707],[100.1863,19.6147],[100.39,19.7244],[100.4077,19.7943],[100.4743,19.8654],[100.5434,20.0666],[100.3644,20.369],[100.3065,20.3997],[100.0993,20.3178]]]}},{"type":"Feature","properties":{"sourceId":"1159309171","regionId":"region.1d0dbec3-d38c-49f8-8b12-615366d1699d","countryId":"country.gddwz0"},"geometry":{"type":"Polygon","coordinates":[[[99.5087,20.1528],[99.2957,20.0625],[99.1175,20.1178],[99.0168,20.041],[99.0088,19.8459],[98.8837,19.7455],[98.8079,19.8065],[98.5326,19.6759],[98.4778,19.7056],[98.6083,19.479],[98.5889,19.204],[98.655,19.101],[98.6162,19.0428],[98.4651,19.0106],[98.3366,19.0349],[98.2474,19.1418],[98.1186,19.0786],[98.1155,18.5398],[98.1678,18.4358],[98.1072,18.3599],[98.0919,18.2367],[98.1267,18.0907],[98.1025,17.9676],[98.2429,17.8335],[98.212,17.7785],[98.3026,17.6959],[98.2595,17.5803],[98.3225,17.5228],[98.3372,17.3011],[98.4152,17.2501],[98.5628,17.2881],[98.533,17.469],[98.6117,17.6653],[98.7104,17.7562],[98.8391,17.7154],[98.9106,17.8186],[98.8038,18.0009],[98.8164,18.1434],[98.7807,18.2529],[98.6809,18.3014],[98.7158,18.4309],[98.9266,18.5291],[99.0106,18.6677],[99.1765,18.7063],[99.2198,18.5917],[99.3148,18.5298],[99.3652,18.7649],[99.3474,18.8513],[99.3999,18.9984],[99.3094,19.1863],[99.342,19.2748],[99.2706,19.6605],[99.3429,19.7065],[99.4199,19.9574],[99.5104,20.0539],[99.5087,20.1528]]]}},{"type":"Feature","properties":{"sourceId":"1159308155","regionId":"region.8e213390-7325-4cdd-8a49-2f1214795bcf","countryId":"country.gddwz0"},"geometry":{"type":"Polygon","coordinates":[[[98.4778,19.7056],[98.2179,19.708],[98.0179,19.7894],[98.0083,19.6391],[97.8691,19.5705],[97.7671,19.3975],[97.8062,19.3011],[97.8108,19.1122],[97.6578,18.9257],[97.7191,18.8646],[97.7518,18.5825],[97.5095,18.4913],[97.3729,18.5486],[97.4526,18.3336],[97.5606,18.3283],[97.6843,18.1461],[97.7541,17.969],[97.6855,17.8807],[97.7689,17.6792],[97.908,17.5549],[98.3026,17.6959],[98.212,17.7785],[98.2429,17.8335],[98.1025,17.9676],[98.1267,18.0907],[98.0919,18.2367],[98.1072,18.3599],[98.1678,18.4358],[98.1155,18.5398],[98.1186,19.0786],[98.2474,19.1418],[98.3366,19.0349],[98.4651,19.0106],[98.6162,19.0428],[98.655,19.101],[98.5889,19.204],[98.6083,19.479],[98.4778,19.7056]]]}},{"type":"Feature","properties":{"sourceId":"1159308169","regionId":"region.49b653bd-2eb2-4e2a-ae7f-56b3ec3ab749","countryId":"country.gddwz0"},"geometry":{"type":"Polygon","coordinates":[[[97.908,17.5549],[97.9828,17.5054],[98.1006,17.3026],[98.221,17.2008],[98.3133,17.052],[98.4362,17.0116],[98.5246,16.8504],[98.4567,16.7232],[98.5471,16.6201],[98.6316,16.4631],[98.657,16.3016],[98.7886,16.3746],[98.9033,16.3634],[98.8072,16.1105],[98.6587,16.1163],[98.5838,15.977],[98.5441,15.6751],[98.6637,15.6182],[98.8902,15.2794],[98.9804,15.2206],[99.057,15.3973],[99.0429,15.5161],[99.1028,15.626],[99.1214,15.7698],[99.0788,15.8689],[99.0262,16.0301],[98.9973,16.2821],[99.0062,16.48],[99.114,16.4756],[99.2394,16.5412],[99.2495,16.6532],[99.346,16.8879],[99.2817,16.9277],[99.319,17.1086],[99.3174,17.2607],[99.2699,17.3923],[99.1727,17.3347],[99.0454,17.3814],[99.0121,17.6106],[98.9324,17.644],[98.8645,17.5326],[98.7213,17.4853],[98.7104,17.7562],[98.6117,17.6653],[98.533,17.469],[98.5628,17.2881],[98.4152,17.2501],[98.3372,17.3011],[98.3225,17.5228],[98.2595,17.5803],[98.3026,17.6959],[97.908,17.5549]]]}},{"type":"Feature","properties":{"sourceId":"1159309191","regionId":"region.01b6e16f-0f17-4185-be67-b7d1cb27e6f1","countryId":"country.gddwz0"},"geometry":{"type":"Polygon","coordinates":[[[98.5441,15.6751],[98.5599,15.3553],[98.4034,15.3601],[98.3852,15.2563],[98.283,15.29],[98.2077,15.2192],[98.165,15.1258],[98.1912,14.9932],[98.2433,14.8051],[98.4182,14.6076],[98.5477,14.3777],[98.7537,14.2001],[98.9453,14.0691],[99.0922,13.8636],[99.1468,13.7237],[99.2479,13.7657],[99.3542,13.7523],[99.4788,13.7968],[99.797,13.8153],[99.8801,13.9445],[99.8115,14.0618],[99.8252,14.5184],[99.8672,14.6384],[99.7873,14.6759],[99.6782,14.7942],[99.5444,14.796],[99.459,14.6908],[99.2839,14.8687],[99.28,14.9998],[99.069,15.0139],[99.001,15.0772],[98.9804,15.2206],[98.8902,15.2794],[98.6637,15.6182],[98.5441,15.6751]]]}},{"type":"Feature","properties":{"sourceId":"1159308205","regionId":"region.15903773-e87e-4114-865d-8e451cf3e0bb","countryId":"country.gddwz0"},"geometry":{"type":"Polygon","coordinates":[[[99.4047,12.5669],[99.387,12.4659],[99.4571,12.2564],[99.4663,12.126],[99.574,11.9763],[99.5541,11.895],[99.63,11.8158],[99.5307,11.6309],[99.4406,11.5973],[99.4282,11.4969],[99.1409,11.0394],[99.2658,10.9584],[99.4113,10.9562],[99.5034,10.9971],[99.5153,11.1729],[99.5862,11.1951],[99.5693,11.334],[99.6419,11.5233],[99.7518,11.7099],[99.8171,11.7414],[99.8553,11.9684],[99.9553,12.0725],[100.02,12.1927],[99.9817,12.2799],[100.011,12.3832],[99.9608,12.6362],[99.8255,12.6274],[99.6246,12.5453],[99.4748,12.5856],[99.4047,12.5669]]]}},{"type":"Feature","properties":{"sourceId":"1159308203","regionId":"region.c5e58e40-1ab4-4175-9332-59c82d8d6fca","countryId":"country.gddwz0"},"geometry":{"type":"Polygon","coordinates":[[[99.4047,12.5669],[99.4748,12.5856],[99.6246,12.5453],[99.8255,12.6274],[99.9608,12.6362],[99.9876,12.7905],[100.1043,13.0573],[100.074,13.1528],[99.9609,13.2916],[99.8587,13.3284],[99.7037,13.3117],[99.663,13.2135],[99.3236,13.1719],[99.1865,13.2116],[99.1021,13.1713],[99.0932,13.0383],[99.1511,12.9948],[99.2141,12.7347],[99.4047,12.5669]]]}},{"type":"Feature","properties":{"sourceId":"1159308209","regionId":"region.c4a78f62-7860-44e6-a17c-8307f0afdcdb","countryId":"country.gddwz0"},"geometry":{"type":"Polygon","coordinates":[[[99.1865,13.2116],[99.3236,13.1719],[99.663,13.2135],[99.7037,13.3117],[99.8587,13.3284],[99.9184,13.5096],[100.0379,13.5045],[100.0787,13.6837],[99.9481,13.7454],[99.9421,13.9256],[99.8801,13.9445],[99.797,13.8153],[99.4788,13.7968],[99.3542,13.7523],[99.2479,13.7657],[99.1468,13.7237],[99.1879,13.4271],[99.1865,13.2116]]]}},{"type":"Feature","properties":{"sourceId":"1159308157","regionId":"region.eb7360c9-d800-47db-a759-96ef0b45f3d0","countryId":"country.gddwz0"},"geometry":{"type":"Polygon","coordinates":[[[99.1409,11.0394],[99.0015,10.9576],[98.9745,10.8242],[98.8792,10.7882],[98.9742,10.5953],[98.9035,10.4241],[98.9505,10.341],[98.8963,10.1881],[98.9383,10.1256],[98.9033,10.0173],[98.7735,9.9405],[98.641,9.7861],[98.6665,9.6557],[98.7498,9.6012],[98.7824,9.6776],[98.902,9.7297],[99.0353,9.7345],[99.1449,9.7912],[99.1683,9.8445],[99.1599,10.1283],[99.2013,10.2106],[99.1516,10.3574],[99.2468,10.4439],[99.2446,10.5351],[99.4942,10.8781],[99.5034,10.9971],[99.4113,10.9562],[99.2658,10.9584],[99.1409,11.0394]]]}},{"type":"Feature","properties":{"sourceId":"1159308161","regionId":"region.85d7fb66-d6ed-44a7-a738-33879194e668","countryId":"country.gddwz0"},"geometry":{"type":"Polygon","coordinates":[[[98.7474,10.3505],[98.7205,10.2279],[98.5999,9.9481],[98.5127,9.8369],[98.544,9.7065],[98.4717,9.6212],[98.3896,9.3449],[98.511,9.3064],[98.6556,9.4171],[98.7753,9.5467],[98.7498,9.6012],[98.6665,9.6557],[98.641,9.7861],[98.7735,9.9405],[98.9033,10.0173],[98.9383,10.1256],[98.8963,10.1881],[98.9505,10.341],[98.9035,10.4241],[98.9742,10.5953],[98.8792,10.7882],[98.7667,10.6888],[98.7913,10.5204],[98.7474,10.3505]]]}},{"type":"Feature","properties":{"sourceId":"1159309181","regionId":"region.262b9a02-2e31-47a6-9bc2-ba189d5363dc","countryId":"country.gddwz0"},"geometry":{"type":"Polygon","coordinates":[[[100.39,19.7244],[100.1863,19.6147],[100.1322,19.4707],[99.9121,19.3988],[99.9093,19.4826],[99.6874,19.4298],[99.7094,19.2291],[99.7902,19.0594],[99.9308,18.9855],[100.1209,18.8117],[100.3526,18.8151],[100.4196,18.9359],[100.6258,19.1232],[100.6085,19.3163],[100.5196,19.3602],[100.5748,19.5083],[100.462,19.5371],[100.39,19.7244]]]}},{"type":"Feature","properties":{"sourceId":"1159309177","regionId":"region.36844aa4-efd3-47cd-bda8-ae1b37fd3436","countryId":"country.gddwz0"},"geometry":{"type":"Polygon","coordinates":[[[101.0741,18.3716],[101.0303,18.4278],[101.2401,18.6736],[101.2113,18.7119],[101.2329,18.8927],[101.3179,19.0501],[101.2291,19.1436],[101.1929,19.4528],[101.2462,19.5703],[101.1247,19.5651],[100.8746,19.6129],[100.7455,19.485],[100.6333,19.5422],[100.5748,19.5083],[100.5196,19.3602],[100.6085,19.3163],[100.6258,19.1232],[100.4196,18.9359],[100.3526,18.8151],[100.4086,18.4968],[100.5419,18.4271],[100.4475,18.1504],[100.4221,18.016],[100.5722,18.0492],[100.7605,18.0261],[100.8392,18.0839],[100.9195,18.2499],[101.0741,18.3716]]]}},{"type":"Feature","properties":{"sourceId":"1159309189","regionId":"region.0077fdae-42ec-4cb6-9b6d-d69fe08b9c05","countryId":"country.gddwz0"},"geometry":{"type":"Polygon","coordinates":[[[101.0741,18.3716],[100.9195,18.2499],[100.8392,18.0839],[100.7605,18.0261],[100.5722,18.0492],[100.4221,18.016],[100.1294,17.8572],[99.8966,17.8037],[99.9692,17.7048],[99.9296,17.5792],[100.0342,17.4328],[99.9712,17.255],[99.9828,17.1656],[100.2055,17.1971],[100.2943,17.3667],[100.4386,17.4144],[100.5871,17.4244],[100.72,17.5305],[100.8579,17.6906],[100.9559,17.7075],[101.0083,17.8952],[101.1652,18.0534],[101.1284,18.2457],[101.0741,18.3716]]]}},{"type":"Feature","properties":{"sourceId":"1159309185","regionId":"region.ba5b641e-a6f7-426a-aaa0-ad18f73d08fc","countryId":"country.gddwz0"},"geometry":{"type":"Polygon","coordinates":[[[100.9559,17.7075],[100.8579,17.6906],[100.72,17.5305],[100.5871,17.4244],[100.4386,17.4144],[100.2943,17.3667],[100.2055,17.1971],[99.9828,17.1656],[99.9274,17.1223],[100.1251,16.9716],[100.1187,16.8959],[99.9557,16.8651],[99.9044,16.6881],[99.9173,16.5863],[100.0322,16.4962],[100.2343,16.5935],[100.287,16.5102],[100.5486,16.5266],[100.5819,16.4283],[100.6682,16.347],[100.7914,16.4535],[100.8955,16.7656],[101.0656,16.9062],[101.0423,17.0652],[101.093,17.2266],[100.9908,17.3253],[100.9229,17.3288],[100.8827,17.4666],[100.9377,17.5555],[100.8857,17.5959],[100.9559,17.7075]]]}},{"type":"Feature","properties":{"sourceId":"1159308255","regionId":"region.d215262a-e970-426d-a13a-b22cfa8d71a6","countryId":"country.gddwz0"},"geometry":{"type":"Polygon","coordinates":[[[100.9377,17.5555],[100.8827,17.4666],[100.9229,17.3288],[100.9908,17.3253],[101.093,17.2266],[101.0423,17.0652],[101.0656,16.9062],[101.2096,17.116],[101.3038,17.0794],[101.4686,17.073],[101.5415,17.0012],[101.635,17.0466],[101.7906,16.7665],[102.0713,16.8854],[102.0351,16.9456],[102.1466,17.0153],[102.0884,17.1048],[101.9464,17.1983],[102.0221,17.3187],[101.9934,17.4497],[102.1414,17.5088],[102.1212,17.5832],[102.0251,17.7333],[102.0488,17.8643],[102.0246,17.9814],[102.0584,18.0884],[102.1074,18.2124],[102.0555,18.1923],[101.9043,18.0371],[101.7904,18.0736],[101.7291,17.9122],[101.6362,17.8948],[101.5455,17.8137],[101.247,17.5922],[101.1323,17.4617],[100.9377,17.5555]]]}},{"type":"Feature","properties":{"sourceId":"1159317145","regionId":"region.d5998cb6-e9bc-4d64-9660-4f5806be85be","countryId":"country.gddwz0"},"geometry":{"type":"Polygon","coordinates":[[[104.2033,18.0186],[104.1109,18.1146],[104,18.3184],[103.8321,18.3207],[103.6071,18.4004],[103.3968,18.4414],[103.2608,18.4002],[103.2963,18.2952],[103.3603,18.2192],[103.322,18.0774],[103.4357,17.99],[103.5102,18.0642],[103.7608,17.8725],[103.8506,17.8749],[103.9687,17.7683],[104.0103,17.8012],[104.1345,17.9097],[104.2033,18.0186]]]}},{"type":"Feature","properties":{"sourceId":"1159308257","regionId":"region.cff35f2d-6deb-498a-b574-23a443b75096","countryId":"country.gddwz0"},"geometry":{"type":"Polygon","coordinates":[[[103.2963,18.2952],[103.1852,18.2578],[103.0877,18.1387],[103.0379,17.9907],[102.9386,18.0089],[102.7222,17.8818],[102.5956,17.8501],[102.5675,17.9708],[102.4122,17.9942],[102.3067,18.0515],[102.1074,18.2124],[102.0584,18.0884],[102.2047,18.0186],[102.3891,17.8941],[102.4732,17.7543],[102.6097,17.6893],[102.6113,17.6185],[102.7359,17.6002],[102.8623,17.7265],[102.885,17.8853],[102.9878,17.8229],[103.0587,17.8864],[103.1651,17.8025],[103.2651,17.8788],[103.3996,17.8664],[103.4357,17.99],[103.322,18.0774],[103.3603,18.2192],[103.2963,18.2952]]]}},{"type":"Feature","properties":{"sourceId":"1159308267","regionId":"region.310c9240-72f1-429c-9413-618c0ea4e13c","countryId":"country.gddwz0"},"geometry":{"type":"Polygon","coordinates":[[[104.2033,18.0186],[104.1345,17.9097],[104.0103,17.8012],[104.0761,17.675],[104.01,17.4689],[104.0589,17.386],[104.1613,17.4112],[104.4135,17.4209],[104.4442,17.2493],[104.3618,17.0829],[104.3944,17.0374],[104.239,16.8962],[104.3041,16.8531],[104.7579,16.8189],[104.7463,16.9435],[104.8099,17.1717],[104.8164,17.3728],[104.7145,17.5153],[104.4812,17.6404],[104.3526,17.8193],[104.282,17.8615],[104.2033,18.0186]]]}},{"type":"Feature","properties":{"sourceId":"1159308269","regionId":"region.8b7bd03d-5347-4a5e-a1aa-d87fe042505d","countryId":"country.gddwz0"},"geometry":{"type":"Polygon","coordinates":[[[104.7579,16.8189],[104.3041,16.8531],[104.239,16.8962],[104.0729,16.8326],[104.1844,16.6668],[104.2443,16.4329],[104.3124,16.4533],[104.3559,16.3234],[104.5046,16.3381],[104.6313,16.2154],[104.8129,16.1906],[104.988,16.294],[104.8689,16.4384],[104.7545,16.5289],[104.7783,16.7158],[104.7579,16.8189]]]}},{"type":"Feature","properties":{"sourceId":"1159308221","regionId":"region.e21d57fa-5fd4-4e5f-9fa9-9dbb70b59e39","countryId":"country.gddwz0"},"geometry":{"type":"Polygon","coordinates":[[[104.988,16.294],[104.8129,16.1906],[104.5631,16.0782],[104.4661,15.9127],[104.4246,15.7213],[104.5121,15.5834],[104.7891,15.5631],[104.9086,15.4739],[104.9395,15.6139],[105.0573,15.9046],[105.0348,15.9997],[105.107,16.0959],[105.0425,16.1414],[104.988,16.294]]]}},{"type":"Feature","properties":{"sourceId":"1159308007","regionId":"region.917b2743-0f39-4a99-823b-a65a12fab4ca","countryId":"country.gddwz0"},"geometry":{"type":"Polygon","coordinates":[[[98.6492,8.3687],[98.6627,8.5562],[98.7133,8.6251],[98.5815,8.6272],[98.6069,8.7768],[98.4615,8.9593],[98.5325,9.2846],[98.511,9.3064],[98.3896,9.3449],[98.3269,9.2037],[98.382,9.0719],[98.2241,8.7353],[98.1995,8.5344],[98.2776,8.2407],[98.425,8.1484],[98.4456,8.3251],[98.6492,8.3687]]]}},{"type":"Feature","properties":{"sourceId":"1159309157","regionId":"region.41ab0856-77aa-4615-8213-92a1fc99b52c","countryId":"country.gddwz0"},"geometry":{"type":"Polygon","coordinates":[[[99.2568,7.6551],[99.341,7.7476],[99.2957,7.852],[99.3381,7.9431],[99.2867,8.1028],[99.316,8.2929],[99.2661,8.3416],[99.0607,8.3517],[98.9166,8.3136],[98.8856,8.5077],[98.9182,8.5843],[98.7703,8.6734],[98.7133,8.6251],[98.6627,8.5562],[98.6492,8.3687],[98.7442,8.2149],[98.7474,8.0683],[98.8294,8.0068],[98.918,8.0513],[99.056,7.8474],[99.0332,7.7228],[99.1375,7.7443],[99.2568,7.6551]]]}},{"type":"Feature","properties":{"sourceId":"1159309165","regionId":"region.18df4585-0e76-43d7-9cd0-66804b8e3ed2","countryId":"country.gddwz0"},"geometry":{"type":"Polygon","coordinates":[[[99.7456,7.1297],[99.9378,7.1297],[100.0464,7.0634],[100.0306,7.0917],[99.9651,7.177],[99.7961,7.6033],[99.8175,7.6797],[99.7443,7.8509],[99.7238,7.9917],[99.6067,7.9791],[99.5392,7.8789],[99.4008,7.8901],[99.3381,7.9431],[99.2957,7.852],[99.341,7.7476],[99.2568,7.6551],[99.2927,7.6207],[99.3659,7.3364],[99.4707,7.28],[99.5247,7.3113],[99.584,7.1564],[99.7456,7.1297]]]}},{"type":"Feature","properties":{"sourceId":"1159308273","regionId":"region.c3cb4317-f0f9-4295-bdc9-8a9b3e75afa9","countryId":"country.gddwz0"},"geometry":{"type":"Polygon","coordinates":[[[101.068,6.8577],[101.0388,6.7327],[101.1011,6.6379],[101.1587,6.6001],[101.3039,6.6005],[101.3454,6.5505],[101.5091,6.596],[101.6017,6.5554],[101.7235,6.5744],[101.5663,6.8322],[101.3852,6.9052],[101.2443,6.902],[101.068,6.8577]]]}},{"type":"Feature","properties":{"sourceId":"1159309159","regionId":"region.5425f6a2-8c33-45c0-8ad1-e2d8beace733","countryId":"country.gddwz0"},"geometry":{"type":"Polygon","coordinates":[[[100.2009,7.7723],[100.1296,7.8017],[99.9594,7.9038],[99.7443,7.8509],[99.8175,7.6797],[99.7961,7.6033],[99.9651,7.177],[100.0306,7.0917],[100.1545,7.1803],[100.2796,7.2058],[100.3788,7.3098],[100.303,7.3427],[100.1854,7.5142],[100.1448,7.7194],[100.2009,7.7723]]]}},{"type":"Feature","properties":{"sourceId":"1159308159","regionId":"region.20436589-c611-4319-bad0-cd317a0fadd7","countryId":"country.gddwz0"},"geometry":{"type":"Polygon","coordinates":[[[99.7718,9.3123],[99.7314,9.1532],[99.782,9.1146],[99.6861,8.9277],[99.5853,8.9101],[99.5277,8.8426],[99.5223,8.7302],[99.4473,8.6011],[99.2876,8.4865],[99.2661,8.3416],[99.316,8.2929],[99.2867,8.1028],[99.3381,7.9431],[99.4008,7.8901],[99.5392,7.8789],[99.6067,7.9791],[99.7238,7.9917],[99.7443,7.8509],[99.9594,7.9038],[100.1296,7.8017],[100.1552,7.8744],[100.3425,7.9388],[100.2715,8.3171],[100.2205,8.4487],[100.1043,8.4177],[99.9592,8.6376],[99.9163,9.102],[99.8535,9.2947],[99.7718,9.3123]]]}},{"type":"Feature","properties":{"sourceId":"1159308019","regionId":"region.b2ba3b44-7a72-49e3-ac52-ff142995eb1b","countryId":"country.gddwz0"},"geometry":{"type":"MultiPolygon","coordinates":[[[[99.1449,9.7912],[99.0353,9.7345],[98.902,9.7297],[98.7824,9.6776],[98.7498,9.6012],[98.7753,9.5467],[98.6556,9.4171],[98.511,9.3064],[98.5325,9.2846],[98.4615,8.9593],[98.6069,8.7768],[98.5815,8.6272],[98.7133,8.6251],[98.7703,8.6734],[98.9182,8.5843],[98.8856,8.5077],[98.9166,8.3136],[99.0607,8.3517],[99.2661,8.3416],[99.2876,8.4865],[99.4473,8.6011],[99.5223,8.7302],[99.5277,8.8426],[99.5853,8.9101],[99.6861,8.9277],[99.782,9.1146],[99.7314,9.1532],[99.7718,9.3123],[99.5215,9.2699],[99.4748,9.201],[99.2551,9.2325],[99.2302,9.3198],[99.3236,9.3915],[99.1814,9.6433],[99.1449,9.7912]]],[[[100.0702,9.5864],[99.9263,9.566],[99.9563,9.4216],[100.0609,9.4638],[100.0702,9.5864]]]]}},{"type":"Feature","properties":{"sourceId":"1159308215","regionId":"region.4269565f-0b83-4d7b-9284-17ae281eeb96","countryId":"country.gddwz0"},"geometry":{"type":"Polygon","coordinates":[[[100.089,13.426],[100.0379,13.5045],[99.9184,13.5096],[99.8587,13.3284],[99.9609,13.2916],[100.089,13.426]]]}},{"type":"Feature","properties":{"sourceId":"1159308213","regionId":"region.7d4bf61f-69c9-4333-908f-37d8caf0d913","countryId":"country.gddwz0"},"geometry":{"type":"Polygon","coordinates":[[[100.4008,13.4906],[100.3895,13.6118],[100.3318,13.7301],[100.2593,13.6613],[100.0787,13.6837],[100.0379,13.5045],[100.089,13.426],[100.2899,13.505],[100.4008,13.4906]]]}},{"type":"Feature","properties":{"sourceId":"1159308197","regionId":"region.d5e428f1-7bf8-4273-a87c-a735265b3787","countryId":"country.gddwz0"},"geometry":{"type":"Polygon","coordinates":[[[100.467,13.4957],[100.4984,13.6622],[100.7132,13.7115],[100.8554,13.692],[100.9243,13.8175],[100.9048,13.9498],[100.6786,13.918],[100.5515,13.9479],[100.4884,13.7981],[100.3357,13.7987],[100.3318,13.7301],[100.3895,13.6118],[100.4008,13.4906],[100.467,13.4957]]]}},{"type":"Feature","properties":{"sourceId":"1159308211","regionId":"region.5f2dc258-b969-443c-9b88-a8482b5fbab3","countryId":"country.gddwz0"},"geometry":{"type":"Polygon","coordinates":[[[100.841,13.4782],[100.9463,13.6296],[100.8554,13.692],[100.7132,13.7115],[100.4984,13.6622],[100.467,13.4957],[100.6497,13.5203],[100.841,13.4782]]]}},{"type":"Feature","properties":{"sourceId":"1159308229","regionId":"region.f4039bb6-70f5-499b-ba05-49ff9b8e57cb","countryId":"country.gddwz0"},"geometry":{"type":"Polygon","coordinates":[[[100.9807,13.4629],[101.1533,13.5894],[101.2766,13.5512],[101.3649,13.4581],[101.5209,13.4011],[101.6801,13.2502],[101.7176,13.1717],[101.7699,13.1815],[101.9954,13.3362],[101.8762,13.7231],[101.7558,13.8014],[101.6745,13.7528],[101.5491,13.7705],[101.3541,13.86],[101.2109,13.8749],[101.1408,13.9684],[100.9053,13.9554],[100.9048,13.9498],[100.9243,13.8175],[100.8554,13.692],[100.9463,13.6296],[100.841,13.4782],[100.9807,13.4629]]]}},{"type":"Feature","properties":{"sourceId":"1159308227","regionId":"region.0dd24069-7c62-4d98-950c-b069ef28b6f4","countryId":"country.gddwz0"},"geometry":{"type":"Polygon","coordinates":[[[100.978,12.6396],[101.0086,12.8011],[101.0965,12.9189],[101.0861,13.0225],[101.1878,13.0764],[101.3846,13.0219],[101.5367,13.0645],[101.6372,13.1509],[101.6926,13.134],[101.7176,13.1717],[101.6801,13.2502],[101.5209,13.4011],[101.3649,13.4581],[101.2766,13.5512],[101.1533,13.5894],[100.9807,13.4629],[100.9813,13.359],[100.9124,13.2939],[100.9452,13.2009],[100.8783,13.0983],[100.9331,13.0264],[100.8687,12.9062],[100.9185,12.8263],[100.8374,12.7079],[100.978,12.6396]]]}},{"type":"Feature","properties":{"sourceId":"1159308235","regionId":"region.4f765a21-db7a-49c0-bedf-99fd7dedbb4f","countryId":"country.gddwz0"},"geometry":{"type":"Polygon","coordinates":[[[101.7891,12.6978],[101.8238,12.8935],[101.7133,13.0348],[101.6926,13.134],[101.6372,13.1509],[101.5367,13.0645],[101.3846,13.0219],[101.1878,13.0764],[101.0861,13.0225],[101.0965,12.9189],[101.0086,12.8011],[100.978,12.6396],[101.0877,12.6806],[101.4429,12.6248],[101.6423,12.6514],[101.7891,12.6978]]]}},{"type":"Feature","properties":{"sourceId":"1159308011","regionId":"region.1b17feb1-5890-49a7-bf61-c6c8b44a576e","countryId":"country.gddwz0"},"geometry":{"type":"Polygon","coordinates":[[[98.4186,7.9038],[98.4385,8.0657],[98.2814,8.1918],[98.2678,7.8901],[98.3981,7.815],[98.4186,7.9038]]]}},{"type":"Feature","properties":{"sourceId":"1159308241","regionId":"region.78c011f8-626d-4da9-b146-24d6d1d27838","countryId":"country.gddwz0"},"geometry":{"type":"Polygon","coordinates":[[[102.0713,16.8854],[101.7906,16.7665],[101.7514,16.6704],[101.956,16.633],[102.0814,16.5029],[102.2148,16.5021],[102.4518,16.3832],[102.4061,16.2435],[102.28,16.0492],[102.3865,15.9941],[102.3317,15.8058],[102.4206,15.697],[102.6924,15.7195],[102.7893,15.6395],[102.8686,15.6365],[102.9465,15.7892],[102.8647,16.0567],[102.8548,16.2781],[102.9564,16.4148],[103.0913,16.5131],[103.1626,16.6434],[103.1944,16.8221],[103.1131,16.9128],[102.9555,16.8411],[102.8332,16.8759],[102.7874,17.0136],[102.6758,16.9437],[102.6118,16.77],[102.0713,16.8854]]]}},{"type":"Feature","properties":{"sourceId":"1159308259","regionId":"region.1c7e3c42-b1ed-4289-8eaf-4a955bca8545","countryId":"country.gddwz0"},"geometry":{"type":"Polygon","coordinates":[[[103.4357,17.99],[103.3996,17.8664],[103.396,17.5965],[103.2805,17.4765],[103.2698,17.2669],[103.4751,17.2169],[103.6512,17.1068],[103.6501,17.0439],[103.9376,16.7801],[104.0729,16.8326],[104.239,16.8962],[104.3944,17.0374],[104.3618,17.0829],[104.4442,17.2493],[104.4135,17.4209],[104.1613,17.4112],[104.0589,17.386],[104.01,17.4689],[104.0761,17.675],[104.0103,17.8012],[103.9687,17.7683],[103.8506,17.8749],[103.7608,17.8725],[103.5102,18.0642],[103.4357,17.99]]]}},{"type":"Feature","properties":{"sourceId":"1159308167","regionId":"region.902807c4-d6d5-48ba-8685-0b0735991877","countryId":"country.gddwz0"},"geometry":{"type":"Polygon","coordinates":[[[100.2115,14.9551],[100.0525,14.9627],[99.97,14.909],[99.726,14.9612],[99.616,14.9442],[99.4181,15.0009],[99.33,15.0695],[99.28,14.9998],[99.2839,14.8687],[99.459,14.6908],[99.5444,14.796],[99.6782,14.7942],[99.7873,14.6759],[99.8672,14.6384],[99.8252,14.5184],[99.8115,14.0618],[99.9862,14.1456],[100.1521,14.1402],[100.221,14.1771],[100.2821,14.4027],[100.2541,14.4865],[100.1967,14.5693],[100.2324,14.7898],[100.2115,14.9551]]]}},{"type":"Feature","properties":{"sourceId":"1159308193","regionId":"region.dd632f38-e103-45bf-aa9a-789ea249a42b","countryId":"country.gddwz0"},"geometry":{"type":"Polygon","coordinates":[[[100.2115,14.9551],[100.2324,14.7898],[100.3415,14.7928],[100.4771,14.7248],[100.4337,14.9265],[100.4429,15.0604],[100.3093,15.1676],[100.2722,15.1125],[100.3034,14.9945],[100.2115,14.9551]]]}},{"type":"Feature","properties":{"sourceId":"1159308177","regionId":"region.d79abea5-0aa4-4984-ae07-789672f5e90e","countryId":"country.gddwz0"},"geometry":{"type":"Polygon","coordinates":[[[99.726,14.9612],[99.97,14.909],[100.0525,14.9627],[100.2115,14.9551],[100.3034,14.9945],[100.2722,15.1125],[100.3093,15.1676],[100.2626,15.2884],[100.1176,15.4216],[100.0576,15.4197],[100.0587,15.2873],[99.7606,15.3172],[99.7182,15.2707],[99.8072,15.078],[99.726,14.9612]]]}},{"type":"Feature","properties":{"sourceId":"1159308175","regionId":"region.e63741a2-b3c1-4932-9f36-0c1a4d9ab7e3","countryId":"country.gddwz0"},"geometry":{"type":"Polygon","coordinates":[[[100.2541,14.4865],[100.4144,14.5091],[100.4993,14.4555],[100.5157,14.6859],[100.4771,14.7248],[100.3415,14.7928],[100.2324,14.7898],[100.1967,14.5693],[100.2541,14.4865]]]}},{"type":"Feature","properties":{"sourceId":"1159308195","regionId":"region.a6ab2941-1f99-43ff-a52e-9cdb6211a072","countryId":"country.gddwz0"},"geometry":{"type":"Polygon","coordinates":[[[101.1931,14.7559],[101.1264,14.8423],[100.8788,14.7781],[100.7871,14.8715],[100.7199,14.7621],[100.594,14.6559],[100.624,14.5465],[100.7561,14.5101],[100.7799,14.3321],[100.8228,14.2418],[100.9124,14.2139],[101.0535,14.3696],[101.1615,14.3478],[101.2429,14.4798],[101.1931,14.7559]]]}},{"type":"Feature","properties":{"sourceId":"1159308249","regionId":"region.caecd343-2f75-463e-833f-d636d99ad8f1","countryId":"country.gddwz0"},"geometry":{"type":"Polygon","coordinates":[[[101.2429,14.4798],[101.4093,14.4248],[101.4827,14.4613],[101.6199,14.4319],[101.7651,14.3476],[101.8969,14.393],[101.9829,14.3421],[101.9611,14.2567],[102.0528,14.1856],[102.1656,14.1378],[102.3614,14.1561],[102.5942,14.1487],[102.6172,14.2857],[102.5595,14.4547],[102.4859,14.5757],[102.5045,14.8081],[102.555,14.9408],[102.7539,14.985],[102.8595,15.1575],[102.9829,15.1938],[102.9912,15.3655],[102.9418,15.5032],[102.8372,15.5079],[102.7893,15.6395],[102.6924,15.7195],[102.4206,15.697],[102.3317,15.8058],[102.1758,15.7454],[102.0847,15.6196],[101.9512,15.5346],[101.9591,15.4698],[101.5654,15.2536],[101.4065,15.2141],[101.3004,15.302],[101.2807,15.0877],[101.3806,15.0611],[101.447,14.8615],[101.2749,14.7296],[101.1931,14.7559],[101.2429,14.4798]]]}},{"type":"Feature","properties":{"sourceId":"1159308181","regionId":"region.df53efe7-83d8-405a-a870-b1f708ad7f15","countryId":"country.gddwz0"},"geometry":{"type":"Polygon","coordinates":[[[101.2429,14.4798],[101.1615,14.3478],[101.0535,14.3696],[100.9124,14.2139],[100.9053,13.9554],[101.1408,13.9684],[101.2161,14.0466],[101.3251,14.0643],[101.3133,14.1665],[101.5156,14.3063],[101.4093,14.4248],[101.2429,14.4798]]]}},{"type":"Feature","properties":{"sourceId":"1159308191","regionId":"region.1aaa2405-1361-47e4-a9e0-b170a5ff8502","countryId":"country.gddwz0"},"geometry":{"type":"Polygon","coordinates":[[[100.9124,14.2139],[100.8228,14.2418],[100.5542,14.113],[100.3503,14.1137],[100.36,14.0033],[100.5515,13.9479],[100.6786,13.918],[100.9048,13.9498],[100.9053,13.9554],[100.9124,14.2139]]]}},{"type":"Feature","properties":{"sourceId":"1159308173","regionId":"region.945b6666-bd76-40cd-9040-30230ad4885f","countryId":"country.gddwz0"},"geometry":{"type":"Polygon","coordinates":[[[99.28,14.9998],[99.33,15.0695],[99.4181,15.0009],[99.616,14.9442],[99.726,14.9612],[99.8072,15.078],[99.7182,15.2707],[99.7606,15.3172],[100.0587,15.2873],[100.0576,15.4197],[99.9136,15.5163],[99.8524,15.636],[99.6624,15.6651],[99.511,15.5603],[99.1619,15.7731],[99.1214,15.7698],[99.1028,15.626],[99.0429,15.5161],[99.057,15.3973],[98.9804,15.2206],[99.001,15.0772],[99.069,15.0139],[99.28,14.9998]]]}},{"type":"Feature","properties":{"sourceId":"1159308245","regionId":"region.9096ccb8-0fa5-4f4d-89e3-90907fdb648a","countryId":"country.gddwz0"},"geometry":{"type":"Polygon","coordinates":[[[103.1131,16.9128],[103.1944,16.8221],[103.1626,16.6434],[103.1933,16.5423],[103.1823,16.3731],[103.3389,16.3638],[103.4483,16.2093],[103.5256,16.2097],[103.7266,16.2214],[103.7077,16.3849],[103.8056,16.4572],[104.2443,16.4329],[104.1844,16.6668],[104.0729,16.8326],[103.9376,16.7801],[103.6501,17.0439],[103.5833,17.1003],[103.5068,17.0445],[103.4802,16.9002],[103.2372,16.9621],[103.1131,16.9128]]]}},{"type":"Feature","properties":{"sourceId":"1159308251","regionId":"region.49040fae-8e94-421e-ae58-687bed3bcada","countryId":"country.gddwz0"},"geometry":{"type":"Polygon","coordinates":[[[104.2443,16.4329],[103.8056,16.4572],[103.7077,16.3849],[103.7266,16.2214],[103.5256,16.2097],[103.4762,16.1304],[103.4932,15.9157],[103.4391,15.7216],[103.3392,15.684],[103.3283,15.5576],[103.4412,15.5107],[103.4175,15.4279],[103.5912,15.4652],[103.7861,15.4385],[103.8459,15.463],[103.986,15.4102],[104.1295,15.5645],[104.2112,15.6065],[104.1117,15.8233],[104.01,15.7984],[104.0192,15.9763],[104.1079,15.9826],[104.109,16.096],[104.2326,16.1676],[104.3559,16.3234],[104.3124,16.4533],[104.2443,16.4329]]]}},{"type":"Feature","properties":{"sourceId":"1159308247","regionId":"region.46c57c8e-f6dd-45bd-96ef-fe3e15630bd7","countryId":"country.gddwz0"},"geometry":{"type":"Polygon","coordinates":[[[103.1626,16.6434],[103.0913,16.5131],[102.9564,16.4148],[102.8548,16.2781],[102.8647,16.0567],[102.9465,15.7892],[102.9768,15.6715],[103.1158,15.4823],[103.3432,15.4017],[103.4175,15.4279],[103.4412,15.5107],[103.3283,15.5576],[103.3392,15.684],[103.4391,15.7216],[103.4932,15.9157],[103.4762,16.1304],[103.5256,16.2097],[103.4483,16.2093],[103.3389,16.3638],[103.1823,16.3731],[103.1933,16.5423],[103.1626,16.6434]]]}},{"type":"Feature","properties":{"sourceId":"1159308265","regionId":"region.633f0322-64d1-49e5-a348-9092e0d1369f","countryId":"country.gddwz0"},"geometry":{"type":"Polygon","coordinates":[[[102.6758,16.9437],[102.556,17.0558],[102.4755,17.2388],[102.4777,17.3087],[102.3922,17.4957],[102.3768,17.6078],[102.2249,17.6392],[102.1212,17.5832],[102.1414,17.5088],[101.9934,17.4497],[102.0221,17.3187],[101.9464,17.1983],[102.0884,17.1048],[102.1466,17.0153],[102.0351,16.9456],[102.0713,16.8854],[102.6118,16.77],[102.6758,16.9437]]]}},{"type":"Feature","properties":{"sourceId":"1159308179","regionId":"region.9ff44f2b-e7db-4962-93b5-7d894e1f2321","countryId":"country.gddwz0"},"geometry":{"type":"Polygon","coordinates":[[[101.3004,15.302],[101.2316,15.3986],[101.1535,15.3927],[100.9734,15.4827],[100.7396,15.4976],[100.7281,15.4173],[100.5586,15.2619],[100.4429,15.0604],[100.4337,14.9265],[100.4771,14.7248],[100.5157,14.6859],[100.594,14.6559],[100.7199,14.7621],[100.7871,14.8715],[100.8788,14.7781],[101.1264,14.8423],[101.1931,14.7559],[101.2749,14.7296],[101.447,14.8615],[101.3806,15.0611],[101.2807,15.0877],[101.3004,15.302]]]}},{"type":"Feature","properties":{"sourceId":"1159308263","regionId":"region.9136d77a-4481-46ff-868d-2dfb49d02caa","countryId":"country.gddwz0"},"geometry":{"type":"Polygon","coordinates":[[[102.6758,16.9437],[102.7874,17.0136],[102.8332,16.8759],[102.9555,16.8411],[103.1131,16.9128],[103.2372,16.9621],[103.4802,16.9002],[103.5068,17.0445],[103.5833,17.1003],[103.6501,17.0439],[103.6512,17.1068],[103.4751,17.2169],[103.2698,17.2669],[103.2805,17.4765],[103.396,17.5965],[103.3996,17.8664],[103.2651,17.8788],[103.1651,17.8025],[103.0587,17.8864],[102.9878,17.8229],[102.885,17.8853],[102.8623,17.7265],[102.7359,17.6002],[102.6113,17.6185],[102.6097,17.6893],[102.4732,17.7543],[102.3891,17.8941],[102.2047,18.0186],[102.0584,18.0884],[102.0246,17.9814],[102.0488,17.8643],[102.0251,17.7333],[102.1212,17.5832],[102.2249,17.6392],[102.3768,17.6078],[102.3922,17.4957],[102.4777,17.3087],[102.4755,17.2388],[102.556,17.0558],[102.6758,16.9437]]]}},{"type":"Feature","properties":{"sourceId":"1159308187","regionId":"region.6f94d843-884c-46e3-aba5-93779837a104","countryId":"country.gddwz0"},"geometry":{"type":"Polygon","coordinates":[[[100.221,14.1771],[100.2832,14.1162],[100.3503,14.1137],[100.5542,14.113],[100.8228,14.2418],[100.7799,14.3321],[100.7561,14.5101],[100.624,14.5465],[100.594,14.6559],[100.5157,14.6859],[100.4993,14.4555],[100.4144,14.5091],[100.2541,14.4865],[100.2821,14.4027],[100.221,14.1771]]]}},{"type":"Feature","properties":{"sourceId":"1159308199","regionId":"region.9a3bf3f4-4914-458a-b2fd-7d59ccff579d","countryId":"country.gddwz0"},"geometry":{"type":"Polygon","coordinates":[[[100.3503,14.1137],[100.2832,14.1162],[100.2637,14.0293],[100.3357,13.7987],[100.4884,13.7981],[100.5515,13.9479],[100.36,14.0033],[100.3503,14.1137]]]}},{"type":"Feature","properties":{"sourceId":"1159308201","regionId":"region.81531b57-8e49-4473-a918-066209db0737","countryId":"country.gddwz0"},"geometry":{"type":"Polygon","coordinates":[[[100.221,14.1771],[100.1521,14.1402],[99.9862,14.1456],[99.8115,14.0618],[99.8801,13.9445],[99.9421,13.9256],[99.9481,13.7454],[100.0787,13.6837],[100.2593,13.6613],[100.3318,13.7301],[100.3357,13.7987],[100.2637,14.0293],[100.2832,14.1162],[100.221,14.1771]]]}},{"type":"Feature","properties":{"sourceId":"1159309193","regionId":"region.a68e3561-1794-4b3e-ad96-b9d5e489a409","countryId":"country.gddwz0"},"geometry":{"type":"Polygon","coordinates":[[[99.9044,16.6881],[99.8601,16.7322],[99.6931,16.732],[99.5558,16.8148],[99.529,16.875],[99.346,16.8879],[99.2495,16.6532],[99.2394,16.5412],[99.114,16.4756],[99.0062,16.48],[98.9973,16.2821],[99.0262,16.0301],[99.0788,15.8689],[99.1622,15.9278],[99.2816,15.8888],[99.5389,15.9167],[99.7299,15.8283],[99.8283,16.0221],[99.8897,16.0724],[99.9434,16.2774],[99.9946,16.3379],[100.0322,16.4962],[99.9173,16.5863],[99.9044,16.6881]]]}},{"type":"Feature","properties":{"sourceId":"1159309173","regionId":"region.d78132d7-466f-4d86-9ee3-4de3034459c8","countryId":"country.gddwz0"},"geometry":{"type":"Polygon","coordinates":[[[99.6874,19.4298],[99.5701,19.4027],[99.5797,19.2931],[99.5337,19.0729],[99.3999,18.9984],[99.3474,18.8513],[99.3652,18.7649],[99.3148,18.5298],[99.2365,18.476],[99.1048,18.2736],[99.0153,18.2423],[99.0631,18.0565],[99.1612,17.8118],[99.0121,17.6106],[99.0454,17.3814],[99.1727,17.3347],[99.2699,17.3923],[99.3174,17.2607],[99.4399,17.2269],[99.4774,17.3575],[99.4144,17.4628],[99.4734,17.7289],[99.3747,17.779],[99.6122,18.0364],[99.7238,18.0709],[99.8135,18.2197],[99.9136,18.2936],[100.1149,18.5659],[100.1209,18.8117],[99.9308,18.9855],[99.7902,19.0594],[99.7094,19.2291],[99.6874,19.4298]]]}},{"type":"Feature","properties":{"sourceId":"1159309187","regionId":"region.be15eecc-7bd1-41d3-817b-e1d9e6c8b99a","countryId":"country.gddwz0"},"geometry":{"type":"Polygon","coordinates":[[[99.9044,16.6881],[99.9557,16.8651],[100.1187,16.8959],[100.1251,16.9716],[99.9274,17.1223],[99.9828,17.1656],[99.9712,17.255],[100.0342,17.4328],[99.9296,17.5792],[99.9692,17.7048],[99.8966,17.8037],[99.7848,17.7843],[99.5499,17.8068],[99.4734,17.7289],[99.4144,17.4628],[99.4774,17.3575],[99.4399,17.2269],[99.3174,17.2607],[99.319,17.1086],[99.2817,16.9277],[99.346,16.8879],[99.529,16.875],[99.5558,16.8148],[99.6931,16.732],[99.8601,16.7322],[99.9044,16.6881]]]}},{"type":"Feature","properties":{"sourceId":"1159308185","regionId":"region.48691467-3a9d-44c1-a4a5-6ead6a041300","countryId":"country.gddwz0"},"geometry":{"type":"Polygon","coordinates":[[[100.4429,15.0604],[100.5586,15.2619],[100.7281,15.4173],[100.7396,15.4976],[100.8325,15.6255],[100.7551,15.9306],[100.6027,15.952],[100.5062,15.9256],[100.1713,15.9544],[99.9946,16.3379],[99.9434,16.2774],[99.8897,16.0724],[99.8283,16.0221],[99.7299,15.8283],[99.5389,15.9167],[99.2816,15.8888],[99.1622,15.9278],[99.0788,15.8689],[99.1214,15.7698],[99.1619,15.7731],[99.511,15.5603],[99.6624,15.6651],[99.8524,15.636],[99.9136,15.5163],[100.0576,15.4197],[100.1176,15.4216],[100.2626,15.2884],[100.3093,15.1676],[100.4429,15.0604]]]}},{"type":"Feature","properties":{"sourceId":"1159308165","regionId":"region.d0ce9116-1473-475e-ae2d-ef068449fcfa","countryId":"country.gddwz0"},"geometry":{"type":"Polygon","coordinates":[[[101.7906,16.7665],[101.635,17.0466],[101.5415,17.0012],[101.4686,17.073],[101.3038,17.0794],[101.2096,17.116],[101.0656,16.9062],[100.8955,16.7656],[100.7914,16.4535],[100.6682,16.347],[100.6982,16.2516],[100.6333,16.1385],[100.6323,16.0511],[100.7703,15.986],[100.7551,15.9306],[100.8325,15.6255],[100.7396,15.4976],[100.9734,15.4827],[101.1535,15.3927],[101.2316,15.3986],[101.3004,15.302],[101.3702,15.4063],[101.3654,15.5574],[101.3958,15.6988],[101.3299,15.7535],[101.3271,15.8522],[101.384,15.9532],[101.324,16.0756],[101.3788,16.3576],[101.5052,16.541],[101.4998,16.6147],[101.5989,16.7042],[101.7514,16.6704],[101.7906,16.7665]]]}},{"type":"Feature","properties":{"sourceId":"1159308163","regionId":"region.ffedcf45-4123-4b7c-9d83-2e9fc16dc2b1","countryId":"country.gddwz0"},"geometry":{"type":"Polygon","coordinates":[[[100.6682,16.347],[100.5819,16.4283],[100.5486,16.5266],[100.287,16.5102],[100.2343,16.5935],[100.0322,16.4962],[99.9946,16.3379],[100.1713,15.9544],[100.5062,15.9256],[100.6027,15.952],[100.7551,15.9306],[100.7703,15.986],[100.6323,16.0511],[100.6333,16.1385],[100.6982,16.2516],[100.6682,16.347]]]}},{"type":"Feature","properties":{"sourceId":"1159308239","regionId":"region.3e28af79-7043-4f47-8786-05c9ac6c5189","countryId":"country.gddwz0"},"geometry":{"type":"Polygon","coordinates":[[[102.3317,15.8058],[102.3865,15.9941],[102.28,16.0492],[102.4061,16.2435],[102.4518,16.3832],[102.2148,16.5021],[102.0814,16.5029],[101.956,16.633],[101.7514,16.6704],[101.5989,16.7042],[101.4998,16.6147],[101.5052,16.541],[101.3788,16.3576],[101.324,16.0756],[101.384,15.9532],[101.3271,15.8522],[101.3299,15.7535],[101.3958,15.6988],[101.3654,15.5574],[101.3702,15.4063],[101.3004,15.302],[101.4065,15.2141],[101.5654,15.2536],[101.9591,15.4698],[101.9512,15.5346],[102.0847,15.6196],[102.1758,15.7454],[102.3317,15.8058]]]}},{"type":"Feature","properties":{"sourceId":"1159309183","regionId":"region.a858d071-7b6a-4c90-8aeb-bba13b0448e8","countryId":"country.gddwz0"},"geometry":{"type":"Polygon","coordinates":[[[100.3526,18.8151],[100.1209,18.8117],[100.1149,18.5659],[99.9136,18.2936],[99.8135,18.2197],[99.7238,18.0709],[99.6122,18.0364],[99.3747,17.779],[99.4734,17.7289],[99.5499,17.8068],[99.7848,17.7843],[99.8966,17.8037],[100.1294,17.8572],[100.4221,18.016],[100.4475,18.1504],[100.5419,18.4271],[100.4086,18.4968],[100.3526,18.8151]]]}},{"type":"Feature","properties":{"sourceId":"1159309175","regionId":"region.ab5571ca-1ac4-4805-bd68-afa4815d0ae4","countryId":"country.gddwz0"},"geometry":{"type":"Polygon","coordinates":[[[99.3148,18.5298],[99.2198,18.5917],[99.1765,18.7063],[99.0106,18.6677],[98.9266,18.5291],[98.7158,18.4309],[98.6809,18.3014],[98.7807,18.2529],[98.8164,18.1434],[98.8038,18.0009],[98.9106,17.8186],[98.8391,17.7154],[98.7104,17.7562],[98.7213,17.4853],[98.8645,17.5326],[98.9324,17.644],[99.0121,17.6106],[99.1612,17.8118],[99.0631,18.0565],[99.0153,18.2423],[99.1048,18.2736],[99.2365,18.476],[99.3148,18.5298]]]}},{"type":"Feature","properties":{"sourceId":"1159308183","regionId":"region.77347a1d-5978-400a-83fd-3207eb17d92a","countryId":"country.gddwz0"},"geometry":{"type":"Polygon","coordinates":[[[101.1408,13.9684],[101.2109,13.8749],[101.3541,13.86],[101.5491,13.7705],[101.6745,13.7528],[101.7558,13.8014],[101.8762,13.7231],[101.8696,13.9332],[101.9125,14.0358],[101.9909,14.0668],[102.0528,14.1856],[101.9611,14.2567],[101.9829,14.3421],[101.8969,14.393],[101.7651,14.3476],[101.6199,14.4319],[101.4827,14.4613],[101.4093,14.4248],[101.5156,14.3063],[101.3133,14.1665],[101.3251,14.0643],[101.2161,14.0466],[101.1408,13.9684]]]}},{"type":"Feature","properties":{"sourceId":"1159308223","regionId":"region.04258a7e-1a0c-46bf-a30d-026fcd6be4fb","countryId":"country.gddwz0"},"geometry":{"type":"Polygon","coordinates":[[[104.1295,15.5645],[104.2541,15.3679],[104.4183,15.2848],[104.3819,15.434],[104.4037,15.5284],[104.5121,15.5834],[104.4246,15.7213],[104.4661,15.9127],[104.5631,16.0782],[104.8129,16.1906],[104.6313,16.2154],[104.5046,16.3381],[104.3559,16.3234],[104.2326,16.1676],[104.109,16.096],[104.1079,15.9826],[104.0192,15.9763],[104.01,15.7984],[104.1117,15.8233],[104.2112,15.6065],[104.1295,15.5645]]]}}]}