{"type":"FeatureCollection","features":[{"type":"Feature","properties":{"sourceId":"1159313273","regionId":"region.821d4e7f-46a2-4c1a-8929-a5bd258d8f41","countryId":"country.1bxt04r"},"geometry":{"type":"Polygon","coordinates":[[[178.4303,-18.9553],[178.345,-18.9249],[178.3415,-19.0478],[178.4966,-19.0133],[178.4303,-18.9553]]]}},{"type":"Feature","properties":{"sourceId":"1159313271","regionId":"region.03dd9709-df7d-4d1b-a338-df852fd08cb8","countryId":"country.1bxt04r"},"geometry":{"type":"Polygon","coordinates":[[[177.7834,-18.2232],[177.8261,-18.123],[177.8152,-17.9854],[177.9353,-18.0005],[178.0076,-17.9533],[177.9713,-17.8629],[178.0506,-17.5785],[178.1392,-17.6682],[178.3223,-17.6435],[178.4269,-17.6642],[178.4483,-17.5503],[178.3037,-17.4303],[178.2627,-17.3356],[178.0422,-17.3569],[177.9266,-17.4059],[177.8333,-17.3665],[177.6221,-17.4547],[177.3889,-17.6406],[177.4353,-17.7433],[177.2821,-17.8517],[177.2516,-17.9522],[177.3359,-18.1056],[177.7834,-18.2232]]]}},{"type":"Feature","properties":{"sourceId":"1159313275","regionId":"region.3276f405-037c-4580-b213-0cbd959b357d","countryId":"country.1bxt04r"},"geometry":{"type":"Polygon","coordinates":[[[178.4483,-17.5503],[178.4269,-17.6642],[178.3223,-17.6435],[178.1392,-17.6682],[178.0506,-17.5785],[177.9713,-17.8629],[178.0076,-17.9533],[177.9353,-18.0005],[177.8152,-17.9854],[177.8261,-18.123],[177.7834,-18.2232],[177.8594,-18.2658],[178.1683,-18.2485],[178.277,-18.1463],[178.4031,-18.1013],[178.4702,-18.1419],[178.6846,-18.0704],[178.5949,-17.926],[178.636,-17.8637],[178.5677,-17.755],[178.6023,-17.65],[178.4483,-17.5503]]]}},{"type":"Feature","properties":{"sourceId":"1159313293","regionId":"region.9169d594-3df9-4abe-8f76-00340b187793","countryId":"country.1bxt04r"},"geometry":{"type":"MultiPolygon","coordinates":[[[[-180,-16.7867],[-180,-16.9641],[-179.9829,-16.9324],[-179.821,-16.78],[-179.9159,-16.6945],[-180,-16.7867]]],[[[180,-16.169],[180,-16.1491],[179.856,-16.2311],[179.7644,-16.1814],[179.4582,-16.3199],[179.3293,-16.408],[179.2404,-16.3981],[178.917,-16.4706],[178.6809,-16.6681],[178.5718,-16.6155],[178.4836,-16.7599],[178.6023,-16.7797],[178.7053,-16.9988],[178.801,-16.9777],[178.8838,-16.8577],[179.0269,-16.9231],[179.0444,-16.8238],[179.172,-16.7226],[179.2664,-16.6899],[179.2969,-16.8068],[179.5969,-16.7888],[179.6438,-16.7457],[179.9038,-16.7177],[179.8511,-16.5086],[179.5481,-16.766],[179.4888,-16.7076],[179.5979,-16.5398],[179.7385,-16.4592],[179.8512,-16.2909],[180,-16.169]]]]}},{"type":"Feature","properties":{"sourceId":"1159313295","regionId":"region.67f4ea64-128c-4a2e-b66a-6fa97eb74a6c","countryId":"country.1bxt04r"},"geometry":{"type":"Polygon","coordinates":[[[177.1248,-12.4861],[177.0597,-12.4753],[177.0436,-12.5085],[177.1136,-12.5114],[177.1248,-12.4861]]]}}]}