{"type":"FeatureCollection","features":[{"type":"Feature","properties":{"sourceId":"1159309325","regionId":"region.b10b5285-ea7a-478b-be07-bbb4e1537f96","countryId":"country.awshmp"},"geometry":{"type":"Polygon","coordinates":[[[35.7576,32.7443],[35.5627,32.6442],[35.561,32.3847],[35.5596,32.1904],[35.6355,32.1838],[35.6489,32.3554],[35.8481,32.402],[35.9053,32.3389],[36.0172,32.346],[36.0872,32.4083],[36.0819,32.5163],[35.8957,32.7133],[35.7697,32.7481],[35.7576,32.7443]]]}},{"type":"Feature","properties":{"sourceId":"1159309333","regionId":"region.fcb3177b-b5f2-4c8b-9519-85db550e149e","countryId":"country.awshmp"},"geometry":{"type":"Polygon","coordinates":[[[35.4571,31.4335],[35.818,31.4059],[35.8844,31.5054],[35.8102,31.6679],[35.8382,31.7842],[35.7083,31.7747],[35.5835,31.6808],[35.5025,31.6854],[35.4581,31.4919],[35.4571,31.4335]]]}},{"type":"Feature","properties":{"sourceId":"1159309335","regionId":"region.e888c5c4-52fb-4fa8-8015-0b422c98e827","countryId":"country.awshmp"},"geometry":{"type":"Polygon","coordinates":[[[35.3471,30.9227],[35.4751,30.9862],[35.6699,30.9699],[35.8302,30.9149],[36.0238,30.7671],[36.1409,30.9551],[36.1919,31.0948],[36.1518,31.2486],[35.8492,31.2549],[35.818,31.4059],[35.4571,31.4335],[35.3957,31.2577],[35.4385,31.1037],[35.3471,30.9227]]]}},{"type":"Feature","properties":{"sourceId":"1159309319","regionId":"region.8380c812-59c7-4ce1-a704-55c25d7a62a2","countryId":"country.awshmp"},"geometry":{"type":"Polygon","coordinates":[[[35.2639,30.72],[35.448,30.6085],[35.6624,30.6034],[35.9477,30.6564],[36.0238,30.7671],[35.8302,30.9149],[35.6699,30.9699],[35.4751,30.9862],[35.3471,30.9227],[35.2639,30.72]]]}},{"type":"Feature","properties":{"sourceId":"1159309313","regionId":"region.7ddb0cab-58e9-4585-9ee4-3f35990d4a20","countryId":"country.awshmp"},"geometry":{"type":"Polygon","coordinates":[[[34.9556,29.559],[34.9968,29.5339],[34.9494,29.3517],[35.7403,29.2317],[35.6884,29.5572],[35.6235,29.7874],[35.5187,29.9425],[35.3683,29.955],[35.2991,30.0271],[35.3795,30.2324],[35.3775,30.345],[35.448,30.6085],[35.2639,30.72],[35.14,30.4302],[35.1453,30.1549],[35.0863,30.034],[35.049,29.8423],[34.9556,29.559]]]}},{"type":"Feature","properties":{"sourceId":"1159309331","regionId":"region.8bcab747-b99b-4c5f-846c-c9bdd82b68ff","countryId":"country.awshmp"},"geometry":{"type":"Polygon","coordinates":[[[35.5025,31.6854],[35.5835,31.6808],[35.7083,31.7747],[35.6837,31.8974],[35.9412,32.0458],[35.8959,32.0957],[35.6948,32.1562],[35.6355,32.1838],[35.5596,32.1904],[35.5228,32.0578],[35.5594,31.7653],[35.5025,31.6854]]]}},{"type":"Feature","properties":{"sourceId":"1159309315","regionId":"region.41ced621-4be0-4b0e-b597-17279deaa34d","countryId":"country.awshmp"},"geometry":{"type":"Polygon","coordinates":[[[37.4946,32.6901],[36.8194,32.3168],[36.5167,32.357],[36.3731,32.3864],[36.1774,32.5273],[36.0819,32.5163],[36.0872,32.4083],[36.0172,32.346],[35.948,32.2625],[35.9907,32.1967],[36.03,32.1338],[36.4334,32.1141],[36.518,32.0634],[37.7614,31.6961],[37.9865,31.7534],[38.9633,31.9944],[39.1464,32.1181],[39.292,32.2445],[39.2358,32.3529],[39.0463,32.3085],[38.9786,32.4757],[39.0572,32.4966],[38.7745,33.3717],[38.3157,33.1312],[37.4946,32.6901]]]}},{"type":"Feature","properties":{"sourceId":"1159309321","regionId":"region.91cdad3e-47ac-4ba1-ab7d-b091ef21ed22","countryId":"country.awshmp"},"geometry":{"type":"Polygon","coordinates":[[[37.2217,31.2473],[36.1518,31.2486],[36.1919,31.0948],[36.1409,30.9551],[36.0238,30.7671],[35.9477,30.6564],[35.6624,30.6034],[35.448,30.6085],[35.3775,30.345],[35.3795,30.2324],[35.2991,30.0271],[35.3683,29.955],[35.5187,29.9425],[35.6235,29.7874],[35.6884,29.5572],[35.7403,29.2317],[36.0695,29.2],[36.4771,29.4946],[36.7049,29.8312],[36.7562,29.8655],[37.4702,29.9946],[37.6345,30.3128],[37.9811,30.4995],[37.48,31.0073],[37.2217,31.2473]]]}},{"type":"Feature","properties":{"sourceId":"1159309317","regionId":"region.884011e2-5ef0-4c6d-9a23-30d359b8dee7","countryId":"country.awshmp"},"geometry":{"type":"Polygon","coordinates":[[[36.9979,31.5008],[36.7143,31.7469],[36.5891,31.7286],[36.4675,31.8269],[36.5346,31.9038],[36.4075,32.0115],[36.3017,32.0193],[36.0545,31.951],[35.9412,32.0458],[35.6837,31.8974],[35.7083,31.7747],[35.8382,31.7842],[35.8102,31.6679],[35.8844,31.5054],[35.818,31.4059],[35.8492,31.2549],[36.1518,31.2486],[37.2217,31.2473],[36.9979,31.5008]]]}},{"type":"Feature","properties":{"sourceId":"1159309337","regionId":"region.0a07d165-db4d-4657-95bb-2f531cb97d11","countryId":"country.awshmp"},"geometry":{"type":"Polygon","coordinates":[[[37.7614,31.6961],[36.518,32.0634],[36.4334,32.1141],[36.03,32.1338],[35.9907,32.1967],[35.8959,32.0957],[35.9412,32.0458],[36.0545,31.951],[36.3017,32.0193],[36.4075,32.0115],[36.5346,31.9038],[36.4675,31.8269],[36.5891,31.7286],[36.7143,31.7469],[36.9979,31.5008],[37.7614,31.6961]]]}},{"type":"Feature","properties":{"sourceId":"1159309327","regionId":"region.d1f01dc6-5fb9-46e5-a32e-a49e9da92577","countryId":"country.awshmp"},"geometry":{"type":"Polygon","coordinates":[[[35.6948,32.1562],[35.8047,32.2227],[35.9053,32.3389],[35.8481,32.402],[35.6489,32.3554],[35.6355,32.1838],[35.6948,32.1562]]]}},{"type":"Feature","properties":{"sourceId":"1159309329","regionId":"region.4a1bd023-8e84-40fe-a845-b78bf4090784","countryId":"country.awshmp"},"geometry":{"type":"Polygon","coordinates":[[[35.6948,32.1562],[35.8959,32.0957],[35.9907,32.1967],[35.948,32.2625],[36.0172,32.346],[35.9053,32.3389],[35.8047,32.2227],[35.6948,32.1562]]]}}]}