{"type":"FeatureCollection","features":[{"type":"Feature","properties":{"sourceId":"1159309823","regionId":"region.7f7a9acc-8a24-44bc-b275-12815271c00b","countryId":"country.snc7v9"},"geometry":{"type":"Polygon","coordinates":[[[44.8778,-16.2092],[44.9461,-16.2869],[44.9586,-16.4122],[45.0213,-16.5249],[45.2468,-16.6753],[45.2593,-16.763],[45.347,-16.8632],[45.4472,-16.8882],[45.4973,-16.9759],[45.6852,-16.9383],[45.798,-16.9885],[46.0109,-16.9885],[46.1237,-17.1513],[46.2364,-17.239],[46.3492,-17.0887],[46.4745,-16.9759],[46.5872,-16.9509],[46.7045,-16.6094],[46.9881,-16.575],[47.1134,-16.5876],[47.3138,-16.6753],[47.3013,-16.55],[47.1885,-16.4623],[47.3389,-16.2994],[47.3263,-16.2117],[47.1885,-16.0113],[47.1134,-15.6355],[47.1476,-15.4465],[46.9671,-15.4923],[47.0747,-15.324],[46.9714,-15.1984],[46.8794,-15.225],[46.3327,-15.6301],[46.307,-15.694],[46.3831,-15.8349],[46.293,-15.9407],[46.1442,-15.7037],[46.0158,-15.7922],[45.8245,-15.8134],[45.6939,-15.7831],[45.6214,-15.8508],[45.6384,-15.943],[45.3794,-15.9738],[45.4063,-16.0549],[45.3289,-16.1101],[45.2664,-15.9239],[45.1387,-15.9909],[45.0402,-16.1181],[44.8778,-16.2092]]]}},{"type":"Feature","properties":{"sourceId":"1159317869","regionId":"region.6208e122-92e9-440b-95ee-92b565dcc9a1","countryId":"country.snc7v9"},"geometry":{"type":"Polygon","coordinates":[[[47.1476,-15.4465],[47.1134,-15.6355],[47.1885,-16.0113],[47.3263,-16.2117],[47.3389,-16.2994],[47.5142,-16.3997],[47.627,-16.3997],[47.7648,-16.4748],[47.9168,-16.5149],[47.9371,-16.3165],[47.9809,-16.2517],[48.1262,-16.2703],[48.2989,-16.2458],[48.4509,-16.3329],[48.6278,-16.4706],[48.6653,-16.5827],[48.6354,-16.67],[48.721,-16.7552],[48.8328,-16.6752],[48.9168,-16.6787],[48.9839,-16.6492],[49.0393,-16.4715],[49.1074,-16.4413],[49.2191,-16.2439],[49.2074,-16.1854],[49.0138,-16.1232],[49.106,-15.8854],[49.057,-15.7537],[49.1184,-15.4524],[49.1141,-15.3398],[49.3805,-15.2027],[49.4578,-15.1146],[49.5076,-14.9816],[49.5859,-14.9411],[49.4814,-14.8053],[49.3939,-14.4933],[49.1642,-14.2968],[49.0969,-14.1955],[48.9708,-14.1434],[48.8269,-14.2454],[48.7072,-14.2022],[48.5222,-14.0735],[48.3983,-14.1246],[48.2731,-14.0563],[48.1891,-13.9577],[48.0843,-13.9531],[48.0311,-14.0636],[48.0448,-14.1516],[47.9268,-14.2463],[47.8145,-14.216],[47.7095,-14.3696],[47.7529,-14.6005],[47.4824,-15.0803],[47.4207,-14.9656],[47.5034,-14.8469],[47.4961,-14.7116],[47.4448,-14.6716],[47.2899,-14.8469],[47.2918,-14.9234],[47.2057,-15.0466],[47.092,-15.1349],[47.0579,-15.2162],[47.2321,-15.4333],[47.1476,-15.4465]]]}},{"type":"Feature","properties":{"sourceId":"1159309817","regionId":"region.6395902a-8598-4f98-90d1-9813ee12c587","countryId":"country.snc7v9"},"geometry":{"type":"MultiPolygon","coordinates":[[[[48.0311,-14.0636],[48.0843,-13.9531],[48.1891,-13.9577],[48.2731,-14.0563],[48.3983,-14.1246],[48.5222,-14.0735],[48.7072,-14.2022],[48.8269,-14.2454],[48.9708,-14.1434],[49.0969,-14.1955],[49.1804,-14.1071],[49.2305,-13.9443],[49.3307,-13.9192],[49.4184,-13.5559],[49.3558,-13.3555],[49.4184,-13.2928],[49.431,-13.1175],[49.4811,-13.0298],[49.456,-12.8544],[49.6355,-12.6746],[49.5632,-12.6168],[49.5864,-12.482],[49.5394,-12.3782],[49.3494,-12.2985],[49.2492,-12.1803],[49.353,-12.1463],[49.3226,-12.0001],[49.202,-12.0481],[49.2015,-12.1467],[49.1198,-12.2426],[48.9846,-12.3334],[48.9553,-12.4692],[48.8527,-12.4138],[48.7708,-12.4548],[48.887,-12.5646],[48.8662,-12.6371],[48.9553,-12.8117],[48.9417,-12.9284],[48.8435,-13.0808],[48.8392,-13.2604],[48.7474,-13.4116],[48.5957,-13.4435],[48.532,-13.512],[48.4276,-13.5242],[48.332,-13.6614],[48.3274,-13.78],[48.1813,-13.7468],[48.1424,-13.5954],[48.0313,-13.5172],[47.9043,-13.6032],[47.8758,-13.7843],[47.9411,-14.0041],[48.0311,-14.0636]]],[[[48.332,-13.3604],[48.315,-13.2468],[48.1989,-13.2511],[48.2063,-13.3826],[48.332,-13.3604]]]]}},{"type":"Feature","properties":{"sourceId":"1159317877","regionId":"region.4cae9128-24ec-4437-a4d7-0d2b65f933b3","countryId":"country.snc7v9"},"geometry":{"type":"Polygon","coordinates":[[[49.6355,-12.6746],[49.456,-12.8544],[49.4811,-13.0298],[49.431,-13.1175],[49.4184,-13.2928],[49.3558,-13.3555],[49.4184,-13.5559],[49.3307,-13.9192],[49.2305,-13.9443],[49.1804,-14.1071],[49.0969,-14.1955],[49.1642,-14.2968],[49.3939,-14.4933],[49.4814,-14.8053],[49.5859,-14.9411],[49.7236,-15.0758],[49.9312,-15.0381],[50.0383,-15.1729],[50.0045,-15.3711],[50.0452,-15.4343],[50.0186,-15.6017],[50.1309,-15.9194],[50.2415,-15.9583],[50.3368,-15.8113],[50.4299,-15.6003],[50.5039,-15.3162],[50.4766,-15.1951],[50.3552,-15.0331],[50.2837,-14.8792],[50.2108,-14.6152],[50.1909,-14.4566],[50.2129,-14.2872],[50.1619,-14.2023],[50.1735,-14.0568],[50.1429,-13.7831],[50.0405,-13.497],[50.0329,-13.3605],[49.9727,-13.3313],[49.9353,-13.1681],[49.9421,-13.0339],[49.8643,-12.8805],[49.6355,-12.6746]]]}},{"type":"Feature","properties":{"sourceId":"1159309803","regionId":"region.3025a24f-799c-49b2-ba7f-5db44c8c90b9","countryId":"country.snc7v9"},"geometry":{"type":"Polygon","coordinates":[[[50.1309,-15.9194],[50.0186,-15.6017],[50.0452,-15.4343],[50.0045,-15.3711],[50.0383,-15.1729],[49.9312,-15.0381],[49.7236,-15.0758],[49.5859,-14.9411],[49.5076,-14.9816],[49.4578,-15.1146],[49.3805,-15.2027],[49.1141,-15.3398],[49.1184,-15.4524],[49.057,-15.7537],[49.106,-15.8854],[49.0138,-16.1232],[49.2074,-16.1854],[49.2191,-16.2439],[49.1074,-16.4413],[49.0393,-16.4715],[48.9839,-16.6492],[48.9168,-16.6787],[48.8923,-16.8757],[48.8296,-17.026],[48.8547,-17.1889],[48.8046,-17.3016],[48.8699,-17.3742],[48.8171,-17.5021],[48.7294,-17.5647],[48.8547,-17.6649],[48.8797,-17.7526],[49.1679,-17.715],[49.2932,-17.6775],[49.3307,-17.5271],[49.475,-17.5137],[49.4214,-17.3552],[49.529,-17.0417],[49.6245,-16.8857],[49.7783,-16.8556],[49.7232,-16.7081],[49.8495,-16.5524],[49.8324,-16.408],[49.8457,-16.2121],[49.7026,-16.115],[49.6831,-16.0536],[49.7337,-15.9057],[49.6384,-15.5446],[49.7503,-15.436],[49.9011,-15.4223],[49.9056,-15.5616],[49.9758,-15.6266],[49.9769,-15.7314],[50.0389,-15.8595],[50.1309,-15.9194]]]}},{"type":"Feature","properties":{"sourceId":"1159317875","regionId":"region.aa942f0b-4711-4886-a816-7b80e164dd9f","countryId":"country.snc7v9"},"geometry":{"type":"Polygon","coordinates":[[[49.475,-17.5137],[49.3307,-17.5271],[49.2932,-17.6775],[49.1679,-17.715],[48.8797,-17.7526],[48.8422,-17.8529],[48.6543,-17.8779],[48.8046,-18.0533],[48.8171,-18.1535],[48.6918,-18.2287],[48.5666,-18.2537],[48.529,-18.3915],[48.529,-18.592],[48.6668,-18.9678],[48.6668,-19.1557],[48.5791,-19.1808],[48.5666,-19.3311],[48.3912,-19.3812],[48.4288,-19.5691],[48.3411,-19.5691],[48.3035,-19.7946],[48.1406,-19.7821],[48.0655,-19.7195],[47.8499,-19.7956],[47.7723,-19.8844],[47.7178,-20.0752],[47.679,-20.2719],[47.7011,-20.3898],[47.7811,-20.4509],[48.0831,-20.3843],[48.175,-20.2216],[48.388,-20.3728],[48.6162,-20.4198],[48.8237,-19.9028],[48.8596,-19.6847],[48.9859,-19.3788],[49.0769,-19.0656],[49.1912,-18.8425],[49.2432,-18.6568],[49.3592,-18.424],[49.4139,-18.0671],[49.5096,-17.7277],[49.475,-17.5137]]]}},{"type":"Feature","properties":{"sourceId":"1159317861","regionId":"region.96a8c279-9963-48b9-af9e-f6994797b368","countryId":"country.snc7v9"},"geometry":{"type":"Polygon","coordinates":[[[48.6162,-20.4198],[48.388,-20.3728],[48.175,-20.2216],[48.0831,-20.3843],[47.7811,-20.4509],[47.6145,-20.5588],[47.5894,-20.7592],[47.4641,-20.8219],[47.4516,-20.9847],[47.3639,-21.2854],[47.4266,-21.4482],[47.3263,-21.8867],[47.3263,-22.037],[47.0633,-22.1748],[47.1134,-22.25],[47.2762,-22.3252],[47.4015,-22.3001],[47.4892,-22.3502],[47.5268,-22.463],[47.6521,-22.5131],[47.7773,-22.5131],[47.8825,-22.5956],[47.9474,-22.3482],[48.2018,-21.7962],[48.4556,-21.0141],[48.4624,-20.9322],[48.6162,-20.4198]]]}},{"type":"Feature","properties":{"sourceId":"1159317863","regionId":"region.79f08947-ac2b-48c0-83b7-f9796f4bbec8","countryId":"country.snc7v9"},"geometry":{"type":"Polygon","coordinates":[[[47.8825,-22.5956],[47.7773,-22.5131],[47.6521,-22.5131],[47.5268,-22.463],[47.4892,-22.3502],[47.4015,-22.3001],[47.2762,-22.3252],[47.1134,-22.25],[47.0633,-22.1748],[46.9881,-22.2751],[47.0382,-22.3628],[47.1008,-22.5883],[47.1885,-22.7511],[47.2011,-23.1019],[47.1259,-23.1019],[46.9129,-22.9891],[46.8127,-23.0643],[46.8628,-23.4276],[46.8378,-23.6155],[46.6749,-23.7032],[46.4859,-23.6548],[46.4119,-23.801],[46.5216,-23.9136],[46.7094,-23.983],[46.7428,-24.0853],[46.8694,-24.126],[46.9133,-24.2876],[47.0453,-24.197],[47.0166,-24.0787],[47.2081,-23.9994],[47.4281,-24.1248],[47.5687,-23.8526],[47.6195,-23.5906],[47.738,-23.2555],[47.8338,-22.901],[47.8825,-22.5956]]]}},{"type":"Feature","properties":{"sourceId":"1159317847","regionId":"region.976e28cf-9ece-402a-9a22-dad7eea57a68","countryId":"country.snc7v9"},"geometry":{"type":"Polygon","coordinates":[[[47.4281,-24.1248],[47.2081,-23.9994],[47.0166,-24.0787],[47.0453,-24.197],[46.9133,-24.2876],[46.8694,-24.126],[46.7428,-24.0853],[46.7094,-23.983],[46.5216,-23.9136],[46.4119,-23.801],[46.4859,-23.6548],[46.4982,-23.5978],[46.4167,-23.4378],[46.4743,-23.3523],[46.4679,-23.1844],[46.3801,-23.1339],[46.2026,-22.8016],[45.9955,-22.6838],[45.8021,-22.6835],[45.6112,-22.7557],[45.4152,-22.8601],[45.3587,-23.1153],[45.396,-23.2932],[45.2754,-23.4756],[45.2781,-23.5963],[45.466,-23.5838],[45.5286,-23.7091],[45.4785,-23.8845],[45.5182,-24.0092],[45.7729,-24.0414],[45.8481,-24.1041],[45.798,-24.2544],[45.8481,-24.3672],[45.9608,-24.4548],[45.9233,-24.7054],[45.9483,-24.9559],[46.1488,-25.0562],[46.2376,-25.1982],[46.3866,-25.1648],[46.6537,-25.1839],[46.9647,-25.0657],[47.1375,-24.9093],[47.3123,-24.4859],[47.3384,-24.3243],[47.4281,-24.1248]]]}},{"type":"Feature","properties":{"sourceId":"1159309825","regionId":"region.c0c181c0-4309-4fe9-bd7e-240994fd4680","countryId":"country.snc7v9"},"geometry":{"type":"Polygon","coordinates":[[[46.2376,-25.1982],[46.1488,-25.0562],[45.9483,-24.9559],[45.9233,-24.7054],[45.9608,-24.4548],[45.8481,-24.3672],[45.798,-24.2544],[45.8481,-24.1041],[45.7729,-24.0414],[45.5182,-24.0092],[45.4785,-23.8845],[45.2906,-23.922],[45.1779,-24.135],[45.1528,-24.3229],[45.1027,-24.4357],[45.1278,-24.7363],[45.0902,-24.8867],[44.777,-25.1497],[44.7278,-25.3036],[44.8347,-25.344],[44.981,-25.4719],[45.1182,-25.5296],[45.1361,-25.5842],[45.4922,-25.5737],[45.674,-25.4944],[45.7742,-25.4081],[46.2376,-25.1982]]]}},{"type":"Feature","properties":{"sourceId":"1159317843","regionId":"region.83bc1042-7518-4be4-b9f5-d6688c2f3cf3","countryId":"country.snc7v9"},"geometry":{"type":"Polygon","coordinates":[[[44.7278,-25.3036],[44.777,-25.1497],[45.0902,-24.8867],[45.1278,-24.7363],[45.1027,-24.4357],[45.1528,-24.3229],[45.1779,-24.135],[45.2906,-23.922],[45.4785,-23.8845],[45.5286,-23.7091],[45.466,-23.5838],[45.2781,-23.5963],[45.2754,-23.4756],[45.396,-23.2932],[45.3587,-23.1153],[45.2255,-23.052],[45.0888,-23.0443],[45.0062,-22.8724],[45.0456,-22.668],[45.164,-22.4329],[45.2588,-22.344],[45.3178,-22.1461],[45.2491,-21.891],[45.4148,-21.8223],[45.4376,-21.6958],[45.515,-21.6668],[45.5689,-21.5798],[45.5538,-21.4184],[45.6681,-21.2737],[45.7517,-21.244],[45.7414,-21.0908],[45.7777,-21.0351],[45.7905,-20.9291],[45.5725,-20.9722],[45.4472,-21.0975],[45.2342,-21.1726],[45.0589,-21.3606],[44.9461,-21.348],[44.8835,-21.2854],[44.7457,-21.2729],[44.6956,-21.3856],[44.6956,-21.6362],[44.6026,-21.7709],[44.4705,-21.8296],[44.2734,-21.853],[44.215,-21.8054],[43.9959,-21.9027],[43.8948,-21.861],[43.7892,-21.6983],[43.7412,-21.5536],[43.5422,-21.3095],[43.4727,-21.4052],[43.4727,-21.6721],[43.3362,-21.7688],[43.2468,-22.0351],[43.2952,-22.1661],[43.2229,-22.2548],[43.278,-22.4259],[43.2849,-22.5875],[43.3567,-22.8297],[43.4876,-23.0016],[43.5832,-23.0759],[43.6286,-23.3393],[43.758,-23.454],[43.7483,-23.5701],[43.6416,-23.6389],[43.6641,-23.8671],[43.6563,-24.1853],[43.7067,-24.4062],[43.8399,-24.5058],[43.928,-24.6524],[43.9285,-24.7746],[44.001,-24.8654],[44.0288,-24.999],[44.1872,-25.067],[44.3695,-25.2568],[44.7278,-25.3036]]]}},{"type":"Feature","properties":{"sourceId":"1159317845","regionId":"region.3a9a5bb9-885e-401b-8b01-caae9ee3eaf4","countryId":"country.snc7v9"},"geometry":{"type":"Polygon","coordinates":[[[43.5422,-21.3095],[43.7412,-21.5536],[43.7892,-21.6983],[43.8948,-21.861],[43.9959,-21.9027],[44.215,-21.8054],[44.2734,-21.853],[44.4705,-21.8296],[44.6026,-21.7709],[44.6956,-21.6362],[44.6956,-21.3856],[44.7457,-21.2729],[44.8835,-21.2854],[44.9461,-21.348],[45.0589,-21.3606],[45.2342,-21.1726],[45.4472,-21.0975],[45.5725,-20.9722],[45.7905,-20.9291],[45.7814,-20.8504],[45.844,-20.66],[45.8182,-20.5537],[45.8438,-20.368],[45.7848,-20.1145],[45.816,-20.0004],[45.7839,-19.8827],[45.8553,-19.7679],[45.8029,-19.5599],[45.8075,-19.4522],[45.8395,-19.3387],[45.7386,-19.2461],[45.5019,-18.9177],[45.5004,-18.72],[45.6223,-18.594],[45.6143,-18.3894],[45.5748,-18.2877],[45.4033,-18.2997],[45.1982,-18.2148],[45.1179,-18.2441],[45.0372,-18.1904],[44.8172,-18.373],[44.9061,-18.5363],[45.0134,-18.8415],[44.9927,-18.9066],[45.0576,-19.0692],[44.9528,-19.2391],[44.8749,-19.2991],[44.5486,-19.2491],[44.4643,-19.1646],[44.2718,-19.1461],[44.4596,-19.4177],[44.4837,-19.5232],[44.405,-19.6101],[44.3709,-19.774],[44.4793,-19.9128],[44.439,-20.0554],[44.3557,-20.1381],[44.2547,-20.3761],[44.1258,-20.4983],[44.0364,-20.7255],[43.9015,-20.8829],[43.8128,-21.2243],[43.7346,-21.2817],[43.5422,-21.3095]]]}},{"type":"Feature","properties":{"sourceId":"1159317865","regionId":"region.720f699b-5a5e-4d9d-b691-871aa13bc7d4","countryId":"country.snc7v9"},"geometry":{"type":"Polygon","coordinates":[[[44.2718,-19.1461],[44.4643,-19.1646],[44.5486,-19.2491],[44.8749,-19.2991],[44.9528,-19.2391],[45.0576,-19.0692],[44.9927,-18.9066],[45.0134,-18.8415],[44.9061,-18.5363],[44.8172,-18.373],[45.0372,-18.1904],[45.1179,-18.2441],[45.1982,-18.2148],[45.4033,-18.2997],[45.5748,-18.2877],[45.6342,-18.2256],[45.7703,-18.2595],[45.9225,-17.9704],[45.97,-17.8106],[45.8481,-17.6274],[45.8731,-17.4269],[45.585,-17.4269],[45.4848,-17.0761],[45.4973,-16.9759],[45.4472,-16.8882],[45.347,-16.8632],[45.2593,-16.763],[45.2468,-16.6753],[45.0213,-16.5249],[44.9586,-16.4122],[44.9461,-16.2869],[44.8778,-16.2092],[44.537,-16.1765],[44.4528,-16.1867],[44.4006,-16.3728],[44.4629,-16.4854],[44.4168,-16.5489],[44.4307,-16.7004],[44.238,-16.971],[44.1797,-17.0951],[43.9431,-17.4557],[43.9292,-17.6017],[44.0357,-17.7695],[44.001,-17.9379],[44.0418,-18.198],[44.0497,-18.4265],[44.1859,-18.6108],[44.2573,-18.8039],[44.2276,-19.0546],[44.2718,-19.1461]]]}},{"type":"Feature","properties":{"sourceId":"1159317851","regionId":"region.2be4bb0f-2bf9-4022-9d19-e5b0ef7ff5af","countryId":"country.snc7v9"},"geometry":{"type":"Polygon","coordinates":[[[47.9028,-17.9003],[47.6741,-17.9481],[47.4488,-17.8913],[47.3678,-17.784],[47.2697,-17.7493],[47.113,-17.7937],[47.0546,-17.849],[46.9215,-17.8194],[46.8911,-17.7225],[46.5908,-17.7448],[46.6231,-17.9142],[46.7102,-18.1342],[46.944,-18.4017],[46.975,-18.5409],[47.1306,-18.7367],[47.3062,-18.7922],[47.4266,-18.9929],[47.4767,-19.1557],[47.5894,-19.1557],[47.5644,-19.4188],[47.7397,-19.494],[47.8754,-19.5943],[47.9529,-19.3291],[47.9074,-19.0895],[47.9473,-18.9853],[47.9402,-18.7361],[47.9863,-18.5784],[48.0026,-18.1005],[47.9664,-17.9641],[47.9028,-17.9003]]]}},{"type":"Feature","properties":{"sourceId":"1159317867","regionId":"region.50b7ad56-b0a2-4c6b-a09c-8669074e09ba","countryId":"country.snc7v9"},"geometry":{"type":"Polygon","coordinates":[[[46.5908,-17.7448],[46.8911,-17.7225],[46.9215,-17.8194],[47.0546,-17.849],[47.113,-17.7937],[47.2697,-17.7493],[47.3678,-17.784],[47.4488,-17.8913],[47.6741,-17.9481],[47.9028,-17.9003],[47.9903,-17.694],[48.057,-17.6485],[48.0864,-17.4333],[48.2042,-17.1637],[48.184,-17.0654],[48.0815,-17.0019],[48.0778,-16.8995],[47.9528,-16.7461],[47.9168,-16.5149],[47.7648,-16.4748],[47.627,-16.3997],[47.5142,-16.3997],[47.3389,-16.2994],[47.1885,-16.4623],[47.3013,-16.55],[47.3138,-16.6753],[47.1134,-16.5876],[46.9881,-16.575],[46.7045,-16.6094],[46.5872,-16.9509],[46.4745,-16.9759],[46.3492,-17.0887],[46.2364,-17.239],[46.1237,-17.1513],[46.0109,-16.9885],[45.798,-16.9885],[45.6852,-16.9383],[45.4973,-16.9759],[45.4848,-17.0761],[45.585,-17.4269],[45.8731,-17.4269],[45.8481,-17.6274],[45.97,-17.8106],[46.1759,-17.8819],[46.5908,-17.7448]]]}},{"type":"Feature","properties":{"sourceId":"1159317849","regionId":"region.287d9c5e-38be-4c3c-b87a-00bbf361fac6","countryId":"country.snc7v9"},"geometry":{"type":"Polygon","coordinates":[[[46.5908,-17.7448],[46.1759,-17.8819],[45.97,-17.8106],[45.9225,-17.9704],[45.7703,-18.2595],[45.6342,-18.2256],[45.5748,-18.2877],[45.6143,-18.3894],[45.6223,-18.594],[45.5004,-18.72],[45.5019,-18.9177],[45.7386,-19.2461],[45.8395,-19.3387],[45.8075,-19.4522],[45.9859,-19.4689],[46.1613,-19.4438],[46.4118,-19.1307],[46.512,-18.9803],[46.5622,-18.8049],[46.6624,-18.7172],[46.7626,-18.7047],[47.1306,-18.7367],[46.975,-18.5409],[46.944,-18.4017],[46.7102,-18.1342],[46.6231,-17.9142],[46.5908,-17.7448]]]}},{"type":"Feature","properties":{"sourceId":"1159317853","regionId":"region.8dab899e-7c43-4b48-aaac-2b1466705870","countryId":"country.snc7v9"},"geometry":{"type":"Polygon","coordinates":[[[45.7839,-19.8827],[46.0228,-19.9384],[46.1084,-20.0244],[46.2896,-20.0477],[46.3039,-20.2059],[46.5673,-20.2715],[46.6192,-20.236],[46.7994,-20.2799],[46.9562,-20.1731],[47.1943,-20.1451],[47.2086,-20.0774],[47.3517,-20.0409],[47.5256,-20.0713],[47.6174,-20.0345],[47.7178,-20.0752],[47.7723,-19.8844],[47.8499,-19.7956],[47.8754,-19.5943],[47.7397,-19.494],[47.5644,-19.4188],[47.5894,-19.1557],[47.4767,-19.1557],[47.4391,-19.2559],[47.3389,-19.3186],[47.0633,-19.2935],[47.0257,-19.2434],[46.7877,-19.2559],[46.5747,-19.4188],[46.3993,-19.4063],[46.1613,-19.4438],[45.9859,-19.4689],[45.8075,-19.4522],[45.8029,-19.5599],[45.8553,-19.7679],[45.7839,-19.8827]]]}},{"type":"Feature","properties":{"sourceId":"1159317859","regionId":"region.65084410-751e-46fc-b884-caadcde88e99","countryId":"country.snc7v9"},"geometry":{"type":"Polygon","coordinates":[[[45.7839,-19.8827],[45.816,-20.0004],[45.7848,-20.1145],[45.8438,-20.368],[45.8182,-20.5537],[45.844,-20.66],[45.7814,-20.8504],[45.7905,-20.9291],[45.7777,-21.0351],[45.9107,-21.0348],[46.1738,-20.9346],[46.3367,-20.7843],[46.4244,-20.7467],[46.5872,-20.7467],[46.7125,-20.9597],[46.8503,-21.0474],[46.9756,-21.0474],[47.0507,-20.9471],[47.2136,-20.8845],[47.3263,-20.9722],[47.4516,-20.9847],[47.4641,-20.8219],[47.5894,-20.7592],[47.6145,-20.5588],[47.7811,-20.4509],[47.7011,-20.3898],[47.679,-20.2719],[47.7178,-20.0752],[47.6174,-20.0345],[47.5256,-20.0713],[47.3517,-20.0409],[47.2086,-20.0774],[47.1943,-20.1451],[46.9562,-20.1731],[46.7994,-20.2799],[46.6192,-20.236],[46.5673,-20.2715],[46.3039,-20.2059],[46.2896,-20.0477],[46.1084,-20.0244],[46.0228,-19.9384],[45.7839,-19.8827]]]}},{"type":"Feature","properties":{"sourceId":"1159317871","regionId":"region.8bf874fd-2b70-4def-9f5d-e2263d64b18c","countryId":"country.snc7v9"},"geometry":{"type":"Polygon","coordinates":[[[47.8754,-19.5943],[47.8499,-19.7956],[48.0655,-19.7195],[48.1406,-19.7821],[48.3035,-19.7946],[48.3411,-19.5691],[48.4288,-19.5691],[48.3912,-19.3812],[48.5666,-19.3311],[48.5791,-19.1808],[48.6668,-19.1557],[48.6668,-18.9678],[48.529,-18.592],[48.529,-18.3915],[48.5666,-18.2537],[48.6918,-18.2287],[48.8171,-18.1535],[48.8046,-18.0533],[48.6543,-17.8779],[48.8422,-17.8529],[48.8797,-17.7526],[48.8547,-17.6649],[48.7294,-17.5647],[48.8171,-17.5021],[48.8699,-17.3742],[48.8046,-17.3016],[48.8547,-17.1889],[48.8296,-17.026],[48.8923,-16.8757],[48.9168,-16.6787],[48.8328,-16.6752],[48.721,-16.7552],[48.6354,-16.67],[48.6653,-16.5827],[48.6278,-16.4706],[48.4509,-16.3329],[48.2989,-16.2458],[48.1262,-16.2703],[47.9809,-16.2517],[47.9371,-16.3165],[47.9168,-16.5149],[47.9528,-16.7461],[48.0778,-16.8995],[48.0815,-17.0019],[48.184,-17.0654],[48.2042,-17.1637],[48.0864,-17.4333],[48.057,-17.6485],[47.9903,-17.694],[47.9028,-17.9003],[47.9664,-17.9641],[48.0026,-18.1005],[47.9863,-18.5784],[47.9402,-18.7361],[47.9473,-18.9853],[47.9074,-19.0895],[47.9529,-19.3291],[47.8754,-19.5943]]]}},{"type":"Feature","properties":{"sourceId":"1159317857","regionId":"region.5ae14b17-1ed9-47a5-a46d-b23836d2b0eb","countryId":"country.snc7v9"},"geometry":{"type":"Polygon","coordinates":[[[46.9881,-22.2751],[46.8628,-22.225],[46.5371,-22.2124],[46.4619,-22.1247],[46.3993,-21.9118],[46.2239,-21.8241],[46.036,-21.774],[45.6727,-21.7614],[45.515,-21.6668],[45.4376,-21.6958],[45.4148,-21.8223],[45.2491,-21.891],[45.3178,-22.1461],[45.2588,-22.344],[45.164,-22.4329],[45.0456,-22.668],[45.0062,-22.8724],[45.0888,-23.0443],[45.2255,-23.052],[45.3587,-23.1153],[45.4152,-22.8601],[45.6112,-22.7557],[45.8021,-22.6835],[45.9955,-22.6838],[46.2026,-22.8016],[46.3801,-23.1339],[46.4679,-23.1844],[46.4743,-23.3523],[46.4167,-23.4378],[46.4982,-23.5978],[46.4859,-23.6548],[46.6749,-23.7032],[46.8378,-23.6155],[46.8628,-23.4276],[46.8127,-23.0643],[46.9129,-22.9891],[47.1259,-23.1019],[47.2011,-23.1019],[47.1885,-22.7511],[47.1008,-22.5883],[47.0382,-22.3628],[46.9881,-22.2751]]]}},{"type":"Feature","properties":{"sourceId":"1159309821","regionId":"region.e1924870-5ccb-4e67-a5f7-d535aa5a1b21","countryId":"country.snc7v9"},"geometry":{"type":"Polygon","coordinates":[[[45.515,-21.6668],[45.6727,-21.7614],[46.036,-21.774],[46.2239,-21.8241],[46.3993,-21.9118],[46.4619,-22.1247],[46.5371,-22.2124],[46.8628,-22.225],[46.9881,-22.2751],[47.0633,-22.1748],[47.3263,-22.037],[47.3263,-21.8867],[47.4266,-21.4482],[47.3639,-21.2854],[47.4516,-20.9847],[47.3263,-20.9722],[47.2136,-20.8845],[47.0507,-20.9471],[46.9756,-21.0474],[46.8503,-21.0474],[46.7125,-20.9597],[46.5872,-20.7467],[46.4244,-20.7467],[46.3367,-20.7843],[46.1738,-20.9346],[45.9107,-21.0348],[45.7777,-21.0351],[45.7414,-21.0908],[45.7517,-21.244],[45.6681,-21.2737],[45.5538,-21.4184],[45.5689,-21.5798],[45.515,-21.6668]]]}},{"type":"Feature","properties":{"sourceId":"1159309819","regionId":"region.41556d20-2550-454e-889a-dc9816ea696f","countryId":"country.snc7v9"},"geometry":{"type":"Polygon","coordinates":[[[47.1306,-18.7367],[46.7626,-18.7047],[46.6624,-18.7172],[46.5622,-18.8049],[46.512,-18.9803],[46.4118,-19.1307],[46.1613,-19.4438],[46.3993,-19.4063],[46.5747,-19.4188],[46.7877,-19.2559],[47.0257,-19.2434],[47.0633,-19.2935],[47.3389,-19.3186],[47.4391,-19.2559],[47.4767,-19.1557],[47.4266,-18.9929],[47.3062,-18.7922],[47.1306,-18.7367]]]}}]}