{"type":"FeatureCollection","features":[{"type":"Feature","properties":{"sourceId":"1159308877","regionId":"region.98e754a1-0794-468b-8490-095ee68e3e3a","countryId":"country.1y5kvsv"},"geometry":{"type":"Polygon","coordinates":[[[35.9208,4.6193],[35.7004,4.5891],[35.6106,4.62],[35.5222,4.7805],[35.5708,4.9043],[35.3961,4.9264],[35.4116,5.0304],[35.2457,4.9817],[34.6663,4.765],[34.3812,4.6202],[33.9771,4.2197],[34.0693,4.088],[34.0611,4.0078],[34.2789,3.7097],[34.3371,3.7346],[34.4397,3.6677],[34.4345,3.5262],[34.3821,3.466],[34.434,3.182],[34.5456,3.0975],[34.5747,2.9461],[34.6405,2.8601],[34.7301,2.8529],[34.8187,2.598],[34.9236,2.4773],[34.8656,2.3475],[34.9223,2.2107],[34.9675,2.1019],[34.9787,1.6759],[34.7807,1.3718],[34.7979,1.2319],[34.6838,1.2091],[34.5669,1.103],[34.7971,0.8267],[35.0511,0.8837],[35.1529,0.8073],[35.1642,0.708],[35.0871,0.6328],[34.9678,0.6286],[34.845,0.5707],[34.9282,0.3721],[34.9103,0.1787],[34.7586,-0.0075],[34.8162,-0.0369],[35.113,-0.0194],[35.2134,-0.0373],[35.3256,-0.1886],[35.2676,-0.2351],[35.1208,-0.1276],[35.0491,-0.2115],[34.9987,-0.3607],[35.0319,-0.4461],[35.0724,-0.7808],[34.9756,-0.8947],[34.5732,-1.01],[34.6803,-1.2324],[34.7189,-1.4124],[35.2464,-1.7068],[36.0595,-2.161],[36.7035,-2.5204],[37.4242,-2.9228],[37.6449,-3.046],[37.68,-3.1921],[37.8346,-3.1531],[37.8504,-3.01],[37.9179,-2.7799],[37.8965,-2.7038],[37.6002,-2.3619],[37.7125,-2.1864],[37.5935,-2.1549],[37.179,-1.9075],[37.1581,-1.7798],[36.9967,-1.5826],[36.9798,-1.4607],[36.8696,-1.4132],[36.6762,-1.2982],[36.5079,-1.2519],[36.5849,-0.9974],[36.5187,-0.7774],[36.5065,-0.6153],[36.4016,-0.585],[36.3701,-0.3998],[36.2559,-0.3882],[36.2064,-0.2796],[36.2126,-0.1411],[36.2615,0.0005],[36.4832,0.111],[36.5999,0.0083],[36.5444,-0.1018],[36.6683,-0.1496],[36.8078,-0.1248],[36.8814,-0.2817],[37.0234,-0.2316],[37.0038,-0.0995],[37.0862,0.0192],[37.2116,0.068],[37.3582,0.2053],[37.3942,0.3493],[37.3309,0.5282],[36.8789,0.5862],[36.961,0.7574],[37.1045,0.7928],[37.2941,0.7331],[37.3812,0.5927],[37.5668,0.577],[37.6979,0.6727],[37.8289,0.6962],[38.0007,0.8012],[38.057,0.7945],[38.0355,1.137],[37.9426,1.2732],[37.9325,1.4083],[37.8507,1.4997],[37.5618,1.4187],[37.4788,1.5909],[37.3849,1.6937],[37.2505,1.9223],[37.1407,2.0156],[36.9666,2.0205],[36.8932,2.2258],[36.8269,2.29],[36.7459,2.5194],[36.636,2.409],[36.5322,2.4227],[36.5181,2.5516],[36.4436,2.6307],[36.381,2.8464],[36.2581,2.9427],[36.1209,3.0081],[36.1429,3.2198],[36.0455,3.2679],[36.0453,4.4437],[35.9338,4.5222],[35.9208,4.6193]]]}},{"type":"Feature","properties":{"sourceId":"1159308875","regionId":"region.fba4300f-d8d1-4760-a1f6-e60217c108bf","countryId":"country.1y5kvsv"},"geometry":{"type":"Polygon","coordinates":[[[36.6489,4.4312],[36.6195,4.4434],[36.0453,4.4437],[36.0455,3.2679],[36.1429,3.2198],[36.1209,3.0081],[36.2581,2.9427],[36.381,2.8464],[36.4436,2.6307],[36.5181,2.5516],[36.5322,2.4227],[36.636,2.409],[36.7459,2.5194],[36.8269,2.29],[36.8932,2.2258],[36.9666,2.0205],[37.1407,2.0156],[37.2505,1.9223],[37.3849,1.6937],[37.4788,1.5909],[37.5618,1.4187],[37.8507,1.4997],[37.9325,1.4083],[37.9426,1.2732],[38.0355,1.137],[38.057,0.7945],[38.0007,0.8012],[37.8289,0.6962],[37.6979,0.6727],[37.5668,0.577],[37.3812,0.5927],[37.2941,0.7331],[37.1045,0.7928],[36.961,0.7574],[36.8789,0.5862],[37.3309,0.5282],[37.3942,0.3493],[37.3582,0.2053],[37.2116,0.068],[37.0862,0.0192],[37.3165,-0.1594],[37.4292,-0.4273],[37.4769,-0.5901],[37.4802,-0.7466],[37.3478,-0.7961],[37.2555,-0.7653],[37.2428,-0.8696],[37.3643,-1.0388],[37.2158,-1.0771],[37.1315,-1.2371],[37.0702,-1.2988],[36.9743,-1.2896],[36.8696,-1.4132],[36.9798,-1.4607],[36.9967,-1.5826],[37.1581,-1.7798],[37.179,-1.9075],[37.5935,-2.1549],[37.7125,-2.1864],[37.6002,-2.3619],[37.8965,-2.7038],[37.9179,-2.7799],[38.1349,-2.69],[38.2781,-2.7908],[38.352,-2.9218],[38.4441,-2.9849],[38.5391,-2.964],[38.6567,-3.029],[38.7917,-3.0432],[39.0421,-3.0181],[38.63,-2.4114],[38.7971,-2.3337],[38.9795,-1.9689],[38.9602,-1.7643],[39.0001,-1.6868],[38.9965,-1.1463],[38.8707,-0.8652],[38.4159,-0.0806],[38.5465,-0.0242],[38.7458,-0.0652],[38.7472,0.2153],[38.6927,0.4475],[38.8259,0.5856],[39.1585,0.7111],[39.3075,0.926],[39.445,0.9989],[39.2794,1.4416],[39.4508,1.5285],[39.3409,1.6339],[39.2156,1.7066],[39.0679,1.9114],[38.9432,2.1327],[38.9441,2.2147],[38.8853,2.52],[38.9708,2.5738],[39.1129,2.9092],[39.3233,3.0423],[39.3272,3.1998],[39.2963,3.492],[39.1805,3.477],[39.0904,3.5183],[38.8952,3.5136],[38.6603,3.5945],[38.4969,3.6239],[38.3899,3.5969],[38.1019,3.6126],[37.9767,3.7264],[37.1119,4.2823],[37.0157,4.3706],[36.8441,4.4322],[36.6489,4.4312]]]}},{"type":"Feature","properties":{"sourceId":"1159308881","regionId":"region.85d0b416-d2fb-4f09-bfdd-4135ff100972","countryId":"country.1y5kvsv"},"geometry":{"type":"Polygon","coordinates":[[[41.885,3.9772],[41.8359,3.9495],[41.6998,3.9969],[41.4295,3.9489],[41.2153,3.9366],[41.1145,3.9623],[41.0059,4.0867],[40.8874,4.1561],[40.7637,4.2849],[40.7007,4.2435],[40.3827,4.1214],[39.8485,3.8673],[39.7451,3.6606],[39.575,3.4979],[39.5363,3.405],[39.2963,3.492],[39.3272,3.1998],[39.3233,3.0423],[39.1129,2.9092],[38.9708,2.5738],[38.8853,2.52],[38.9441,2.2147],[38.9432,2.1327],[39.0679,1.9114],[39.2156,1.7066],[39.3409,1.6339],[39.4508,1.5285],[39.2794,1.4416],[39.445,0.9989],[39.3075,0.926],[39.1585,0.7111],[38.8259,0.5856],[38.6927,0.4475],[38.7472,0.2153],[38.7458,-0.0652],[38.9338,-0.0931],[39.0571,-0.0379],[39.143,-0.1273],[39.3069,-0.1341],[39.4304,-0.1887],[39.5944,-0.3463],[39.6332,-0.4895],[39.7525,-0.5928],[39.8115,-0.6896],[39.8877,-1.0152],[40.0058,-1.2575],[40.0335,-1.4804],[40.1134,-1.6262],[40.1086,-1.8184],[40.1683,-2.043],[40.223,-2.0571],[40.9965,-1.7111],[41.5359,-1.6763],[41.5229,-1.5728],[40.9798,-0.8708],[40.9685,-0.0027],[40.9685,1.2303],[40.9685,1.7472],[40.9654,2.8141],[41.3427,3.2011],[41.885,3.9772]]]}},{"type":"Feature","properties":{"sourceId":"1159309927","regionId":"region.da6bbaf3-46b1-4801-8e7c-31006ae2e952","countryId":"country.1y5kvsv"},"geometry":{"type":"Polygon","coordinates":[[[41.5359,-1.6763],[40.9965,-1.7111],[40.223,-2.0571],[40.1683,-2.043],[40.1086,-1.8184],[40.1134,-1.6262],[40.0335,-1.4804],[40.0058,-1.2575],[39.8877,-1.0152],[39.8115,-0.6896],[39.7525,-0.5928],[39.6332,-0.4895],[39.5944,-0.3463],[39.4304,-0.1887],[39.3069,-0.1341],[39.143,-0.1273],[39.0571,-0.0379],[38.9338,-0.0931],[38.7458,-0.0652],[38.5465,-0.0242],[38.4159,-0.0806],[38.8707,-0.8652],[38.9965,-1.1463],[39.0001,-1.6868],[38.9602,-1.7643],[38.9795,-1.9689],[38.7971,-2.3337],[38.63,-2.4114],[39.0421,-3.0181],[38.7917,-3.0432],[38.6567,-3.029],[38.5391,-2.964],[38.4441,-2.9849],[38.352,-2.9218],[38.2781,-2.7908],[38.1349,-2.69],[37.9179,-2.7799],[37.8504,-3.01],[37.8346,-3.1531],[37.68,-3.1921],[37.7001,-3.3144],[37.5903,-3.4041],[37.5991,-3.5134],[37.7223,-3.54],[37.771,-3.6554],[38.4162,-4.12],[39.1906,-4.6775],[39.2643,-4.6066],[39.3625,-4.634],[39.5511,-4.4021],[39.6697,-4.088],[39.7864,-3.9172],[39.867,-3.6949],[39.849,-3.6252],[39.9652,-3.3992],[40.1291,-3.2519],[40.1192,-3.1835],[40.2251,-2.9937],[40.1626,-2.9343],[40.175,-2.7626],[40.2439,-2.6567],[40.3898,-2.5603],[40.5236,-2.5251],[40.6159,-2.5525],[40.8286,-2.3748],[40.8381,-2.245],[40.9248,-2.2172],[40.9043,-2.0803],[41.0287,-2.0432],[41.199,-1.9431],[41.3035,-1.9561],[41.5351,-1.6963],[41.5359,-1.6763]]]}},{"type":"Feature","properties":{"sourceId":"1159310041","regionId":"region.ffe9edde-0328-4267-8775-b5ab9806d703","countryId":"country.1y5kvsv"},"geometry":{"type":"Polygon","coordinates":[[[34.7189,-1.4124],[34.6803,-1.2324],[34.5732,-1.01],[34.9756,-0.8947],[35.0724,-0.7808],[35.0319,-0.4461],[34.9987,-0.3607],[35.0491,-0.2115],[35.1208,-0.1276],[35.2676,-0.2351],[35.3256,-0.1886],[35.2134,-0.0373],[35.113,-0.0194],[34.8162,-0.0369],[34.7586,-0.0075],[34.5058,0.0037],[34.513,0.0983],[34.3543,0.3066],[34.2276,0.3022],[34.0919,0.2067],[34.0759,0.1188],[33.9525,-0.1157],[33.8948,-0.6627],[33.9042,-1.0026],[34.0525,-1.0404],[34.7189,-1.4124]]]}},{"type":"Feature","properties":{"sourceId":"1159308879","regionId":"region.cf962075-c6f5-444f-ba9c-43211054b1b8","countryId":"country.1y5kvsv"},"geometry":{"type":"Polygon","coordinates":[[[34.5601,1.0931],[34.5075,1.1025],[34.4633,1],[34.388,0.8158],[34.2963,0.7467],[34.2521,0.655],[34.1316,0.5694],[34.088,0.3674],[33.9603,0.1987],[33.8905,0.0901],[33.9525,-0.1157],[34.0759,0.1188],[34.0919,0.2067],[34.2276,0.3022],[34.3543,0.3066],[34.513,0.0983],[34.5058,0.0037],[34.7586,-0.0075],[34.9103,0.1787],[34.9282,0.3721],[34.845,0.5707],[34.9678,0.6286],[35.0871,0.6328],[35.1642,0.708],[35.1529,0.8073],[35.0511,0.8837],[34.7971,0.8267],[34.5669,1.103],[34.5601,1.0931]]]}},{"type":"Feature","properties":{"sourceId":"1159310039","regionId":"region.97592b20-a79a-4189-b873-67f6cfea8340","countryId":"country.1y5kvsv"},"geometry":{"type":"Polygon","coordinates":[[[37.1315,-1.2371],[36.8086,-1.1703],[36.6762,-1.2982],[36.8696,-1.4132],[36.9743,-1.2896],[37.0702,-1.2988],[37.1315,-1.2371]]]}},{"type":"Feature","properties":{"sourceId":"1159310037","regionId":"region.182c2708-6958-47cd-80c1-78299b2aa347","countryId":"country.1y5kvsv"},"geometry":{"type":"Polygon","coordinates":[[[37.0862,0.0192],[37.0038,-0.0995],[37.0234,-0.2316],[36.8814,-0.2817],[36.8078,-0.1248],[36.6683,-0.1496],[36.5444,-0.1018],[36.5999,0.0083],[36.4832,0.111],[36.2615,0.0005],[36.2126,-0.1411],[36.2064,-0.2796],[36.2559,-0.3882],[36.3701,-0.3998],[36.4016,-0.585],[36.5065,-0.6153],[36.5187,-0.7774],[36.5849,-0.9974],[36.5079,-1.2519],[36.6762,-1.2982],[36.8086,-1.1703],[37.1315,-1.2371],[37.2158,-1.0771],[37.3643,-1.0388],[37.2428,-0.8696],[37.2555,-0.7653],[37.3478,-0.7961],[37.4802,-0.7466],[37.4769,-0.5901],[37.4292,-0.4273],[37.3165,-0.1594],[37.0862,0.0192]]]}}]}