{"type":"FeatureCollection","features":[{"type":"Feature","properties":{"sourceId":"1159315583","regionId":"region.af8d27e8-3763-4188-9e38-26bcf3229d5b","countryId":"country.zwicjl"},"geometry":{"type":"Polygon","coordinates":[[[33.7809,34.9763],[33.7818,34.9762],[33.8918,34.9581],[33.8294,35.0012],[33.9065,35.0691],[33.6794,35.0339],[33.7015,34.9729],[33.7809,34.9763]]]}},{"type":"Feature","properties":{"sourceId":"1159312781","regionId":"region.b515e6ae-eee4-4212-a62e-ed92525c2551","countryId":"country.zwicjl"},"geometry":{"type":"Polygon","coordinates":[[[-7.4158,54.9444],[-7.0103,54.8155],[-7.1499,55.0487],[-7.2471,55.0693],[-7.4158,54.9444]]]}},{"type":"Feature","properties":{"sourceId":"1159312823","regionId":"region.6705be1e-5d93-4ac0-830a-70c7501ff678","countryId":"country.zwicjl"},"geometry":{"type":"Polygon","coordinates":[[[-7.4158,54.9444],[-7.5517,54.7547],[-7.9066,54.6613],[-7.708,54.6048],[-7.6934,54.6008],[-7.2056,54.7527],[-6.9298,54.7677],[-6.9175,54.8158],[-7.0103,54.8155],[-7.4158,54.9444]]]}},{"type":"Feature","properties":{"sourceId":"1159312825","regionId":"region.e313ef7a-44cc-4188-b13b-c314e51279ce","countryId":"country.zwicjl"},"geometry":{"type":"Polygon","coordinates":[[[-7.708,54.6048],[-7.8871,54.5321],[-8.0022,54.5434],[-8.1685,54.4635],[-7.9421,54.2989],[-7.837,54.2043],[-7.609,54.1399],[-7.3165,54.1143],[-7.1459,54.2521],[-7.1895,54.3357],[-7.3645,54.4302],[-7.5081,54.4049],[-7.6934,54.6008],[-7.708,54.6048]]]}},{"type":"Feature","properties":{"sourceId":"1159312793","regionId":"region.c008034f-54eb-4bdf-9815-146986b30f33","countryId":"country.zwicjl"},"geometry":{"type":"Polygon","coordinates":[[[-6.87,54.326],[-6.7959,54.413],[-6.5547,54.4633],[-6.5278,54.5398],[-6.9614,54.5766],[-7.1253,54.4688],[-7.3645,54.4302],[-7.1895,54.3357],[-7.0493,54.4115],[-6.87,54.326]]]}},{"type":"Feature","properties":{"sourceId":"1159312785","regionId":"region.2ec29a80-3f62-4ea5-a1ad-5264cad45332","countryId":"country.zwicjl"},"geometry":{"type":"Polygon","coordinates":[[[-6.87,54.326],[-6.8239,54.2324],[-6.6484,54.1737],[-6.36,54.2769],[-6.4053,54.3938],[-6.5547,54.4633],[-6.7959,54.413],[-6.87,54.326]]]}},{"type":"Feature","properties":{"sourceId":"1159312787","regionId":"region.0460ea4a-9849-4f92-acae-9e26f9c847b3","countryId":"country.zwicjl"},"geometry":{"type":"Polygon","coordinates":[[[-6.6484,54.1737],[-6.6052,54.0445],[-6.2699,54.0979],[-6.0405,54.0364],[-5.912,54.0913],[-5.866,54.1841],[-6.0453,54.2466],[-6.36,54.2769],[-6.6484,54.1737]]]}},{"type":"Feature","properties":{"sourceId":"1159315581","regionId":"region.e32165dd-0710-4814-ad9d-14ae484b1d6c","countryId":"country.zwicjl"},"geometry":{"type":"Polygon","coordinates":[[[33.0156,34.6344],[32.8323,34.7009],[32.7607,34.6532],[33.0156,34.6344]]]}},{"type":"Feature","properties":{"sourceId":"1159312721","regionId":"region.ee3234a6-6de2-4e1f-b8f6-83d18da5d16b","countryId":"country.zwicjl"},"geometry":{"type":"Polygon","coordinates":[[[-3.0845,53.2586],[-3.3605,53.3511],[-3.3409,53.2188],[-3.1227,53.0664],[-2.9568,53.1446],[-3.0845,53.2586]]]}},{"type":"Feature","properties":{"sourceId":"1159317557","regionId":"region.c0f24d6a-75e5-46cb-9b53-8afcecb92009","countryId":"country.zwicjl"},"geometry":{"type":"Polygon","coordinates":[[[-2.9568,53.1446],[-2.8505,53.0172],[-2.7277,52.9665],[-2.6228,52.9858],[-2.6534,53.0907],[-2.4894,53.1473],[-2.4103,53.232],[-2.509,53.3309],[-2.5694,53.3123],[-2.7755,53.2999],[-2.9264,53.3048],[-3.0959,53.2871],[-3.0845,53.2586],[-2.9568,53.1446]]]}},{"type":"Feature","properties":{"sourceId":"1159312723","regionId":"region.0b2fb820-8847-4ebe-9cbd-7d1a83991ffb","countryId":"country.zwicjl"},"geometry":{"type":"Polygon","coordinates":[[[-2.9568,53.1446],[-3.1227,53.0664],[-3.2005,52.938],[-3.3907,52.8674],[-3.2422,52.7791],[-3.1404,52.7963],[-3.1284,52.88],[-3.0039,52.9498],[-2.7277,52.9665],[-2.8505,53.0172],[-2.9568,53.1446]]]}},{"type":"Feature","properties":{"sourceId":"1159314805","regionId":"region.63ae7d0f-be0c-4f63-8dcc-d31b974071fa","countryId":"country.zwicjl"},"geometry":{"type":"Polygon","coordinates":[[[-3.1404,52.7963],[-2.9615,52.7337],[-3.124,52.5665],[-3.1993,52.4125],[-2.9574,52.3412],[-2.8389,52.3913],[-2.6409,52.3322],[-2.3275,52.3897],[-2.2862,52.4446],[-2.2315,52.6691],[-2.324,52.7477],[-2.4246,52.607],[-2.6462,52.7585],[-2.3966,52.8216],[-2.4495,52.8855],[-2.3788,52.9896],[-2.6228,52.9858],[-2.7277,52.9665],[-3.0039,52.9498],[-3.1284,52.88],[-3.1404,52.7963]]]}},{"type":"Feature","properties":{"sourceId":"1159312699","regionId":"region.92c9426b-5758-4b09-a62b-9656096495b2","countryId":"country.zwicjl"},"geometry":{"type":"Polygon","coordinates":[[[-3.1404,52.7963],[-3.2422,52.7791],[-3.3907,52.8674],[-3.47,52.8619],[-3.5775,52.8191],[-3.6015,52.6955],[-3.797,52.6747],[-3.9275,52.5532],[-3.8292,52.5327],[-3.6623,52.3394],[-3.7312,52.3188],[-3.7412,52.1216],[-3.6436,52.0313],[-3.8,51.7853],[-3.5837,51.7513],[-3.4352,51.8166],[-3.3338,51.7899],[-3.289,51.7933],[-3.1569,51.8107],[-3.035,51.886],[-3.0512,51.9835],[-3.1077,52.1727],[-2.9574,52.3412],[-3.1993,52.4125],[-3.124,52.5665],[-2.9615,52.7337],[-3.1404,52.7963]]]}},{"type":"Feature","properties":{"sourceId":"1159314797","regionId":"region.5aa0e072-d3f5-47d6-a7c1-559eea05647d","countryId":"country.zwicjl"},"geometry":{"type":"Polygon","coordinates":[[[-3.0512,51.9835],[-2.6485,51.8214],[-2.4345,51.8966],[-2.3516,52.0139],[-2.4064,52.2058],[-2.607,52.2417],[-2.6409,52.3322],[-2.8389,52.3913],[-2.9574,52.3412],[-3.1077,52.1727],[-3.0512,51.9835]]]}},{"type":"Feature","properties":{"sourceId":"1159312733","regionId":"region.cc6c4828-63d2-448c-a456-0636c53454d4","countryId":"country.zwicjl"},"geometry":{"type":"Polygon","coordinates":[[[-3.0512,51.9835],[-3.035,51.886],[-3.1569,51.8107],[-3.1285,51.7945],[-2.9763,51.7094],[-2.9613,51.6274],[-2.7981,51.5635],[-2.6654,51.6173],[-2.6485,51.8214],[-3.0512,51.9835]]]}},{"type":"Feature","properties":{"sourceId":"1159312871","regionId":"region.f74145e8-ffed-41ce-8e09-1c92b7eeb723","countryId":"country.zwicjl"},"geometry":{"type":"Polygon","coordinates":[[[-2.6654,51.6173],[-2.5355,51.673],[-2.2716,51.5772],[-2.0573,51.6641],[-1.7497,51.6588],[-1.6833,51.6786],[-1.6525,51.9839],[-1.7578,52.1058],[-1.8278,52.0344],[-2.1433,52.0063],[-2.3516,52.0139],[-2.4345,51.8966],[-2.6485,51.8214],[-2.6654,51.6173]]]}},{"type":"Feature","properties":{"sourceId":"1159313065","regionId":"region.2b342e21-7f25-44b0-9378-72dc552d3e03","countryId":"country.zwicjl"},"geometry":{"type":"Polygon","coordinates":[[[-2.0229,55.8055],[-2.1468,55.9173],[-2.3604,55.9527],[-2.595,55.8277],[-2.8209,55.8217],[-2.9428,55.8152],[-3.1209,55.7119],[-3.3602,55.8117],[-3.3953,55.8173],[-3.4579,55.7696],[-3.5003,55.4097],[-3.345,55.4119],[-3.1045,55.3522],[-3.0345,55.273],[-2.8726,55.2619],[-2.8503,55.1113],[-2.685,55.1908],[-2.4628,55.3604],[-2.3595,55.3625],[-2.1829,55.4624],[-2.2787,55.5891],[-2.0229,55.8055]]]}},{"type":"Feature","properties":{"sourceId":"1159312859","regionId":"region.c8d8dd67-ade3-47ea-8044-dce159c82e00","countryId":"country.zwicjl"},"geometry":{"type":"Polygon","coordinates":[[[-2.685,55.1908],[-2.482,55.0391],[-2.5936,54.8827],[-2.5,54.8052],[-2.305,54.7832],[-1.8201,54.9047],[-1.7495,55.0027],[-1.6493,55.0677],[-1.4556,55.0697],[-1.5701,55.2862],[-1.6308,55.5851],[-1.8217,55.6364],[-2.0229,55.8055],[-2.2787,55.5891],[-2.1829,55.4624],[-2.3595,55.3625],[-2.4628,55.3604],[-2.685,55.1908]]]}},{"type":"Feature","properties":{"sourceId":"1159312957","regionId":"region.9bcb1cef-86a2-4797-94a8-175d4b8efd29","countryId":"country.zwicjl"},"geometry":{"type":"Polygon","coordinates":[[[-2.8503,55.1113],[-3.0503,54.9815],[-3.2765,54.9434],[-3.3879,54.8834],[-3.6342,54.5129],[-3.4743,54.3935],[-3.241,54.1121],[-3.061,54.1619],[-2.8364,54.1676],[-2.6711,54.1586],[-2.4475,54.2302],[-2.3098,54.2433],[-2.2447,54.448],[-2.1552,54.4556],[-2.3539,54.6908],[-2.305,54.7832],[-2.5,54.8052],[-2.5936,54.8827],[-2.482,55.0391],[-2.685,55.1908],[-2.8503,55.1113]]]}},{"type":"Feature","properties":{"sourceId":"1159313069","regionId":"region.237c5e1c-8b3b-4f93-8cf4-bffade0fd6de","countryId":"country.zwicjl"},"geometry":{"type":"Polygon","coordinates":[[[-2.8503,55.1113],[-2.8726,55.2619],[-3.0345,55.273],[-3.1045,55.3522],[-3.345,55.4119],[-3.5003,55.4097],[-3.6423,55.2896],[-3.8259,55.4463],[-3.9832,55.461],[-4.0856,55.3472],[-4.297,55.3077],[-4.4675,55.1578],[-4.6306,55.0538],[-5.0325,54.9937],[-5.1708,55.0087],[-5.1282,54.8489],[-4.9537,54.81],[-4.8591,54.8663],[-4.5967,54.7753],[-4.5056,54.7047],[-4.3481,54.702],[-4.3476,54.8073],[-3.9642,54.7719],[-3.8443,54.8663],[-3.5984,54.878],[-3.5836,54.9681],[-3.0503,54.9815],[-2.8503,55.1113]]]}},{"type":"Feature","properties":{"sourceId":"1159312775","regionId":"region.66d70588-fd13-4900-a51e-7c0b3b849dcd","countryId":"country.zwicjl"},"geometry":{"type":"Polygon","coordinates":[[[-7.1499,55.0487],[-7.0103,54.8155],[-6.9175,54.8158],[-6.7811,54.9111],[-6.8384,55.1754],[-7.0172,55.0711],[-7.1499,55.0487]]]}},{"type":"Feature","properties":{"sourceId":"1159312819","regionId":"region.a6348ef9-0d7c-4c45-91b5-8dcd4102e568","countryId":"country.zwicjl"},"geometry":{"type":"Polygon","coordinates":[[[-6.8384,55.1754],[-6.7811,54.9111],[-6.5204,54.9451],[-6.6139,55.0766],[-6.5153,55.1491],[-6.5461,55.2252],[-6.8384,55.1754]]]}},{"type":"Feature","properties":{"sourceId":"1159314711","regionId":"region.91aecc0d-03c8-4934-8b15-61ed009dd7c2","countryId":"country.zwicjl"},"geometry":{"type":"Polygon","coordinates":[[[-6.5461,55.2252],[-6.5153,55.1491],[-6.1925,55.0283],[-6.1019,54.9869],[-5.981,55.0557],[-6.101,55.2124],[-6.3529,55.2426],[-6.5461,55.2252]]]}},{"type":"Feature","properties":{"sourceId":"1159312807","regionId":"region.806d4691-f5f9-4c0f-b873-950743d90262","countryId":"country.zwicjl"},"geometry":{"type":"Polygon","coordinates":[[[-5.981,55.0557],[-6.1019,54.9869],[-6.0236,54.9347],[-6.007,54.7986],[-5.8892,54.7694],[-5.6921,54.7705],[-5.981,55.0557]]]}},{"type":"Feature","properties":{"sourceId":"1159312809","regionId":"region.41dfac90-42d0-41c1-992a-945e2e306485","countryId":"country.zwicjl"},"geometry":{"type":"Polygon","coordinates":[[[-5.6921,54.7705],[-5.8892,54.7694],[-5.8779,54.6823],[-5.6921,54.7705]]]}},{"type":"Feature","properties":{"sourceId":"1159312811","regionId":"region.2bc105da-3533-418b-b39d-f874d9004fa4","countryId":"country.zwicjl"},"geometry":{"type":"Polygon","coordinates":[[[-5.8779,54.6823],[-5.8892,54.7694],[-6.007,54.7986],[-6.0842,54.7919],[-6.0225,54.6625],[-5.9143,54.6468],[-5.8779,54.6823]]]}},{"type":"Feature","properties":{"sourceId":"1159312829","regionId":"region.c2590e1c-513c-4d2b-b2e5-d186f3401ad1","countryId":"country.zwicjl"},"geometry":{"type":"Polygon","coordinates":[[[-5.9143,54.6468],[-6.0225,54.6625],[-6.0659,54.6227],[-5.9547,54.5544],[-5.8078,54.6144],[-5.8705,54.6228],[-5.9143,54.6468]]]}},{"type":"Feature","properties":{"sourceId":"1159312813","regionId":"region.7142febd-984d-48eb-9c4d-8bd668f620e2","countryId":"country.zwicjl"},"geometry":{"type":"Polygon","coordinates":[[[-5.8705,54.6228],[-5.8078,54.6144],[-5.757,54.6158],[-5.565,54.6723],[-5.748,54.6804],[-5.8705,54.6228]]]}},{"type":"Feature","properties":{"sourceId":"1159312827","regionId":"region.32fdb541-3b5a-46f1-8543-4bbf158bc1d1","countryId":"country.zwicjl"},"geometry":{"type":"Polygon","coordinates":[[[-5.565,54.6723],[-5.757,54.6158],[-5.8187,54.4916],[-5.6385,54.4636],[-5.4335,54.4663],[-5.565,54.6723]]]}},{"type":"Feature","properties":{"sourceId":"1159312817","regionId":"region.14adb5b6-401a-49d3-9f6f-1ea884e44be2","countryId":"country.zwicjl"},"geometry":{"type":"Polygon","coordinates":[[[-5.6385,54.4636],[-5.8187,54.4916],[-5.8681,54.4791],[-5.9504,54.3797],[-6.0453,54.2466],[-5.866,54.1841],[-5.6126,54.2556],[-5.5505,54.3654],[-5.6385,54.4636]]]}},{"type":"Feature","properties":{"sourceId":"1159313045","regionId":"region.4069b6c0-b591-4e87-9d9f-5c9166dd8530","countryId":"country.zwicjl"},"geometry":{"type":"Polygon","coordinates":[[[-3.7465,56.0728],[-3.6306,56.1282],[-3.8244,56.1925],[-3.8375,56.1074],[-3.7465,56.0728]]]}},{"type":"Feature","properties":{"sourceId":"1159313043","regionId":"region.5a3ab2e0-ee7b-4635-8021-d42cc5469951","countryId":"country.zwicjl"},"geometry":{"type":"Polygon","coordinates":[[[-3.8375,56.1074],[-3.8244,56.1925],[-4.2195,56.3291],[-4.1756,56.5095],[-4.3228,56.5333],[-4.6394,56.4718],[-4.8331,56.3629],[-4.6492,56.3208],[-4.6805,56.1984],[-4.5981,56.0778],[-4.3648,55.9756],[-4.1257,56.0055],[-4.0113,56.0122],[-3.7391,56.0507],[-3.8375,56.1074]]]}},{"type":"Feature","properties":{"sourceId":"1159313041","regionId":"region.e5421cb4-600d-467f-bf8b-033ea0d8ae56","countryId":"country.zwicjl"},"geometry":{"type":"Polygon","coordinates":[[[-3.7391,56.0507],[-4.0113,56.0122],[-3.8089,55.8952],[-3.5053,56.0056],[-3.7391,56.0507]]]}},{"type":"Feature","properties":{"sourceId":"1159313063","regionId":"region.ea34abc2-2f5e-4d6e-b9c9-6d7feb2ae923","countryId":"country.zwicjl"},"geometry":{"type":"Polygon","coordinates":[[[-3.5053,56.0056],[-3.8089,55.8952],[-3.7334,55.7835],[-3.4579,55.7696],[-3.3953,55.8173],[-3.4498,55.9968],[-3.5053,56.0056]]]}},{"type":"Feature","properties":{"sourceId":"1159313059","regionId":"region.3b693278-0aad-4243-9b46-e9ab15f59bb0","countryId":"country.zwicjl"},"geometry":{"type":"Polygon","coordinates":[[[-3.4498,55.9968],[-3.3953,55.8173],[-3.3602,55.8117],[-3.0782,55.9468],[-3.4498,55.9968]]]}},{"type":"Feature","properties":{"sourceId":"1159313061","regionId":"region.07749992-52ea-4e93-9aa7-bf1bfcfacd27","countryId":"country.zwicjl"},"geometry":{"type":"Polygon","coordinates":[[[-3.0782,55.9468],[-3.3602,55.8117],[-3.1209,55.7119],[-2.9428,55.8152],[-2.8209,55.8217],[-3.0612,55.9478],[-3.0782,55.9468]]]}},{"type":"Feature","properties":{"sourceId":"1159313057","regionId":"region.08940f07-6be6-4b30-9b91-dbb51366dab3","countryId":"country.zwicjl"},"geometry":{"type":"Polygon","coordinates":[[[-3.0612,55.9478],[-2.8209,55.8217],[-2.595,55.8277],[-2.3604,55.9527],[-2.6351,56.0581],[-2.8028,56.0648],[-3.0612,55.9478]]]}},{"type":"Feature","properties":{"sourceId":"1159317473","regionId":"region.4963bcfa-906e-447f-a847-9b88d7d245ea","countryId":"country.zwicjl"},"geometry":{"type":"Polygon","coordinates":[[[-1.4556,55.0697],[-1.6493,55.0677],[-1.49,54.9831],[-1.4129,55.0003],[-1.4556,55.0697]]]}},{"type":"Feature","properties":{"sourceId":"1159317475","regionId":"region.9d94ea6e-5945-4929-8b4f-5641cda3b991","countryId":"country.zwicjl"},"geometry":{"type":"Polygon","coordinates":[[[-1.4129,55.0003],[-1.49,54.9831],[-1.5322,54.9539],[-1.5257,54.9214],[-1.3603,54.9171],[-1.4129,55.0003]]]}},{"type":"Feature","properties":{"sourceId":"1159317479","regionId":"region.5134b58c-fe39-4024-b89d-94bae99eca1e","countryId":"country.zwicjl"},"geometry":{"type":"Polygon","coordinates":[[[-1.3603,54.9171],[-1.5257,54.9214],[-1.5773,54.886],[-1.5064,54.7999],[-1.3408,54.8727],[-1.3603,54.9171]]]}},{"type":"Feature","properties":{"sourceId":"1159312847","regionId":"region.e187a427-89c2-426c-8356-f5ba8223436f","countryId":"country.zwicjl"},"geometry":{"type":"Polygon","coordinates":[[[-1.3408,54.8727],[-1.5064,54.7999],[-1.5773,54.886],[-1.8201,54.9047],[-2.305,54.7832],[-2.3539,54.6908],[-2.1552,54.4556],[-1.9562,54.4544],[-1.6818,54.5311],[-1.6728,54.5916],[-1.4126,54.6],[-1.3885,54.6267],[-1.2453,54.7254],[-1.3408,54.8727]]]}},{"type":"Feature","properties":{"sourceId":"1159312849","regionId":"region.5771d0e2-a2c8-4bb7-a28d-a4a1c0ad9c38","countryId":"country.zwicjl"},"geometry":{"type":"Polygon","coordinates":[[[-1.2453,54.7254],[-1.3885,54.6267],[-1.2117,54.6066],[-1.1926,54.62],[-1.2453,54.7254]]]}},{"type":"Feature","properties":{"sourceId":"1159312855","regionId":"region.a9ed55d9-b86c-4a35-89fe-1a0b0a995b60","countryId":"country.zwicjl"},"geometry":{"type":"Polygon","coordinates":[[[-1.1926,54.62],[-1.2117,54.6066],[-1.2187,54.5754],[-1.1795,54.5038],[-0.8808,54.4958],[-0.7788,54.5574],[-1.1926,54.62]]]}},{"type":"Feature","properties":{"sourceId":"1159312961","regionId":"region.270b5f0c-0675-4a3e-9b94-e82ee9619158","countryId":"country.zwicjl"},"geometry":{"type":"Polygon","coordinates":[[[-0.7788,54.5574],[-0.8808,54.4958],[-1.1795,54.5038],[-1.2508,54.4866],[-1.432,54.4811],[-1.6818,54.5311],[-1.9562,54.4544],[-2.1552,54.4556],[-2.2447,54.448],[-2.3098,54.2433],[-2.4475,54.2302],[-2.5476,54.1511],[-2.4583,54.0472],[-2.105,53.9146],[-2.0326,53.8476],[-1.9778,53.8694],[-1.9436,53.9577],[-1.7286,53.9027],[-1.2942,53.9255],[-1.3069,53.738],[-1.23,53.6207],[-1.0739,53.6477],[-0.9203,53.8077],[-0.9405,53.868],[-1.1412,53.8601],[-1.232,53.9691],[-1.1468,54.0278],[-0.928,53.9718],[-0.4467,54.1072],[-0.1999,54.1525],[-0.3976,54.2692],[-0.563,54.4774],[-0.7788,54.5574]]]}},{"type":"Feature","properties":{"sourceId":"1159312955","regionId":"region.bc8642d4-4b6d-4b6d-be22-bc31e7bc52ac","countryId":"country.zwicjl"},"geometry":{"type":"Polygon","coordinates":[[[-0.1999,54.1525],[-0.4467,54.1072],[-0.928,53.9718],[-0.9405,53.868],[-0.9203,53.8077],[-1.0739,53.6477],[-0.8607,53.6124],[-0.6993,53.6913],[-0.4497,53.7143],[-0.4261,53.774],[-0.2956,53.7388],[-0.045,53.6256],[0.1335,53.6426],[-0.1511,53.8993],[-0.2195,54.0228],[-0.1999,54.1525]]]}},{"type":"Feature","properties":{"sourceId":"1159312903","regionId":"region.c3c34bda-c64b-4ee1-b2e9-c3b1a30ef811","countryId":"country.zwicjl"},"geometry":{"type":"Polygon","coordinates":[[[-0.2956,53.7388],[-0.4261,53.774],[-0.4497,53.7143],[-0.2956,53.7388]]]}},{"type":"Feature","properties":{"sourceId":"1159312909","regionId":"region.5881270e-bf52-4fba-a2b1-a0177d41acf2","countryId":"country.zwicjl"},"geometry":{"type":"Polygon","coordinates":[[[-0.6993,53.6913],[-0.8607,53.6124],[-0.9194,53.4874],[-0.7972,53.4523],[-0.7397,53.5138],[-0.467,53.4724],[-0.2821,53.6063],[-0.1985,53.6296],[-0.3072,53.7143],[-0.6993,53.6913]]]}},{"type":"Feature","properties":{"sourceId":"1159312907","regionId":"region.0f4b5abc-f5a8-4c0e-a4e4-a3eb0a557fcd","countryId":"country.zwicjl"},"geometry":{"type":"Polygon","coordinates":[[[-0.1985,53.6296],[-0.2821,53.6063],[-0.1906,53.4774],[0.0218,53.5247],[-0.1985,53.6296]]]}},{"type":"Feature","properties":{"sourceId":"1159312983","regionId":"region.eab7d03d-9c03-4fe1-b92d-7f40d76df511","countryId":"country.zwicjl"},"geometry":{"type":"Polygon","coordinates":[[[0.0218,53.5247],[-0.1906,53.4774],[-0.2821,53.6063],[-0.467,53.4724],[-0.7397,53.5138],[-0.7972,53.4523],[-0.7765,53.2342],[-0.6886,53.0497],[-0.7667,52.9612],[-0.6511,52.7475],[-0.4907,52.6365],[-0.0495,52.6579],[0.1724,52.7243],[0.2788,52.805],[0.0221,52.9126],[0.3298,53.0865],[0.3421,53.2263],[0.2195,53.4195],[0.0218,53.5247]]]}},{"type":"Feature","properties":{"sourceId":"1159312989","regionId":"region.0d01f9f1-9d1f-4d4a-8abe-6427a5f75297","countryId":"country.zwicjl"},"geometry":{"type":"Polygon","coordinates":[[[0.2788,52.805],[0.1724,52.7243],[0.253,52.4874],[0.4472,52.4322],[0.6385,52.4397],[0.7514,52.3794],[1.2024,52.3538],[1.4422,52.4613],[1.6406,52.4535],[1.7476,52.5328],[1.7472,52.6252],[1.6442,52.7758],[1.2747,52.9292],[0.9661,52.9744],[0.5696,52.9693],[0.3792,52.7908],[0.2788,52.805]]]}},{"type":"Feature","properties":{"sourceId":"1159312987","regionId":"region.f80b1cfe-86b6-4dce-aa4d-15d503b4a000","countryId":"country.zwicjl"},"geometry":{"type":"Polygon","coordinates":[[[1.7476,52.5328],[1.6406,52.4535],[1.4422,52.4613],[1.2024,52.3538],[0.7514,52.3794],[0.6385,52.4397],[0.4472,52.4322],[0.3897,52.3902],[0.5172,52.2105],[0.4089,52.0593],[0.7011,52.0674],[0.7878,51.9547],[1.0785,51.9507],[1.3323,51.9401],[1.5823,52.0815],[1.6305,52.2705],[1.7712,52.4859],[1.7476,52.5328]]]}},{"type":"Feature","properties":{"sourceId":"1159312985","regionId":"region.dfbf31a4-ebd0-4800-b9e7-0e4ac63faf29","countryId":"country.zwicjl"},"geometry":{"type":"Polygon","coordinates":[[[1.0785,51.9507],[0.7878,51.9547],[0.7011,52.0674],[0.4089,52.0593],[0.2866,52.0849],[0.0805,52.0024],[0.158,51.7905],[0.0356,51.7683],[-0.0113,51.6772],[-0.0026,51.6466],[0.0276,51.6265],[0.1485,51.6174],[0.3199,51.5579],[0.5472,51.5177],[0.6467,51.5353],[0.6858,51.5772],[0.8283,51.5418],[0.9518,51.6784],[0.887,51.7821],[0.9888,51.8303],[1.1354,51.7817],[1.2883,51.8606],[1.2621,51.9392],[1.0785,51.9507]]]}},{"type":"Feature","properties":{"sourceId":"1159313597","regionId":"region.5c9680d8-5cc5-4320-8b61-7c3e882df6eb","countryId":"country.zwicjl"},"geometry":{"type":"Polygon","coordinates":[[[0.8283,51.5418],[0.6858,51.5772],[0.6467,51.5353],[0.8283,51.5418]]]}},{"type":"Feature","properties":{"sourceId":"1159313591","regionId":"region.84fd1ae2-c209-43cf-a08a-4ac2ed22eaf1","countryId":"country.zwicjl"},"geometry":{"type":"Polygon","coordinates":[[[0.5472,51.5177],[0.3199,51.5579],[0.2246,51.489],[0.2228,51.4719],[0.3845,51.4531],[0.5472,51.5177]]]}},{"type":"Feature","properties":{"sourceId":"1159315381","regionId":"region.9f1f6ed5-e6e8-4250-ba0c-0e123009c075","countryId":"country.zwicjl"},"geometry":{"type":"Polygon","coordinates":[[[0.3845,51.4531],[0.2228,51.4719],[0.1662,51.3985],[0.0544,51.2899],[0.0627,51.1358],[0.3355,51.1069],[0.5697,50.9999],[0.7867,50.9883],[0.8698,50.9251],[1.0276,51.0417],[1.3572,51.131],[1.4131,51.2217],[1.4238,51.3921],[0.9772,51.3492],[0.6719,51.3911],[0.4469,51.3385],[0.5116,51.4877],[0.3845,51.4531]]]}},{"type":"Feature","properties":{"sourceId":"1159313595","regionId":"region.9925b99a-4dde-4658-9548-78ae4f9b1539","countryId":"country.zwicjl"},"geometry":{"type":"Polygon","coordinates":[[[0.5116,51.4877],[0.4469,51.3385],[0.6719,51.3911],[0.6948,51.477],[0.5116,51.4877]]]}},{"type":"Feature","properties":{"sourceId":"1159313593","regionId":"region.3e213eef-02b6-4a70-9425-21c0d95514ff","countryId":"country.zwicjl"},"geometry":{"type":"Polygon","coordinates":[[[0.8698,50.9251],[0.7867,50.9883],[0.5697,50.9999],[0.3355,51.1069],[0.0627,51.1358],[0.0213,51.1358],[-0.0159,50.9819],[-0.1286,50.8826],[0.0175,50.7849],[0.271,50.7474],[0.3703,50.8188],[0.8698,50.9251]]]}},{"type":"Feature","properties":{"sourceId":"1159313585","regionId":"region.ede132a8-dcb7-4d35-9c81-083ffae2a451","countryId":"country.zwicjl"},"geometry":{"type":"Polygon","coordinates":[[[0.0175,50.7849],[-0.1286,50.8826],[-0.2089,50.8301],[0.0175,50.7849]]]}},{"type":"Feature","properties":{"sourceId":"1159314745","regionId":"region.4600a9b6-f5ab-43d8-b6da-9594001e4edc","countryId":"country.zwicjl"},"geometry":{"type":"Polygon","coordinates":[[[-0.2089,50.8301],[-0.1286,50.8826],[-0.0159,50.9819],[0.0213,51.1358],[-0.182,51.1613],[-0.5414,51.0791],[-0.7537,51.0887],[-0.8626,51.0436],[-0.9298,50.84],[-0.8128,50.7348],[-0.569,50.8021],[-0.2089,50.8301]]]}},{"type":"Feature","properties":{"sourceId":"1159312861","regionId":"region.3e29bbee-ace5-4720-b6f0-be88a07febde","countryId":"country.zwicjl"},"geometry":{"type":"Polygon","coordinates":[[[-0.9298,50.84],[-0.8626,51.0436],[-0.7537,51.0887],[-0.84,51.2039],[-0.7653,51.3313],[-0.8529,51.3501],[-1.032,51.3547],[-1.3995,51.3705],[-1.487,51.3324],[-1.655,51.1713],[-1.6106,50.9597],[-1.9501,50.9883],[-1.8057,50.8677],[-1.7865,50.7687],[-1.6729,50.7401],[-1.4049,50.7747],[-1.3231,50.8258],[-1.4493,50.9121],[-1.3087,50.9213],[-1.3186,50.8569],[-1.1511,50.7814],[-1.0881,50.8498],[-0.9949,50.8471],[-0.9298,50.84]]]}},{"type":"Feature","properties":{"sourceId":"1159314671","regionId":"region.09c8b4dc-657d-45ba-877c-1ac4c1c38ebe","countryId":"country.zwicjl"},"geometry":{"type":"Polygon","coordinates":[[[-0.9949,50.8471],[-1.0881,50.8498],[-1.0562,50.783],[-0.9949,50.8471]]]}},{"type":"Feature","properties":{"sourceId":"1159312863","regionId":"region.4c653a7d-7274-4766-8269-6fc4712466ac","countryId":"country.zwicjl"},"geometry":{"type":"Polygon","coordinates":[[[-1.3186,50.8569],[-1.3087,50.9213],[-1.4493,50.9121],[-1.3186,50.8569]]]}},{"type":"Feature","properties":{"sourceId":"1159312895","regionId":"region.6fd74576-ff03-420a-8130-0ce2e00037c4","countryId":"country.zwicjl"},"geometry":{"type":"Polygon","coordinates":[[[-1.6729,50.7401],[-1.7865,50.7687],[-1.8057,50.8677],[-1.9501,50.9883],[-2.0992,50.9558],[-2.3217,51.0833],[-2.6531,50.8866],[-2.9485,50.8225],[-2.9456,50.7258],[-2.6929,50.6928],[-2.4835,50.5904],[-2.4359,50.6375],[-1.9837,50.5966],[-2.0262,50.7251],[-1.9204,50.75],[-1.7975,50.7232],[-1.6729,50.7401]]]}},{"type":"Feature","properties":{"sourceId":"1159312893","regionId":"region.fb959b4e-1fd3-435c-8b55-18cc03d0b2b4","countryId":"country.zwicjl"},"geometry":{"type":"Polygon","coordinates":[[[-1.7975,50.7232],[-1.9204,50.75],[-1.8969,50.716],[-1.7975,50.7232]]]}},{"type":"Feature","properties":{"sourceId":"1159312897","regionId":"region.d6473d86-d0bb-4048-87ed-b8cecb7e9016","countryId":"country.zwicjl"},"geometry":{"type":"Polygon","coordinates":[[[-1.8969,50.716],[-1.9204,50.75],[-2.0262,50.7251],[-1.8969,50.716]]]}},{"type":"Feature","properties":{"sourceId":"1159312687","regionId":"region.2cb7b350-b76d-40b1-b80a-99b36d6c6940","countryId":"country.zwicjl"},"geometry":{"type":"Polygon","coordinates":[[[-2.9456,50.7258],[-2.9485,50.8225],[-3.4223,51.0294],[-3.7156,51.083],[-3.7122,51.2383],[-4.1523,51.2116],[-4.2347,51.0553],[-4.3377,50.9966],[-4.5264,51.015],[-4.5481,50.923],[-4.4584,50.9211],[-4.335,50.6427],[-4.2037,50.4514],[-4.187,50.426],[-4.0418,50.3993],[-4.116,50.3479],[-3.9499,50.319],[-3.8263,50.2342],[-3.6456,50.226],[-3.632,50.3123],[-3.5187,50.3762],[-3.6425,50.4639],[-3.5054,50.5082],[-3.4673,50.5856],[-3.2598,50.6745],[-2.9456,50.7258]]]}},{"type":"Feature","properties":{"sourceId":"1159312965","regionId":"region.306e38e0-603c-44f1-b176-56eb79aa10a4","countryId":"country.zwicjl"},"geometry":{"type":"Polygon","coordinates":[[[-3.5054,50.5082],[-3.6425,50.4639],[-3.5187,50.3762],[-3.5054,50.5082]]]}},{"type":"Feature","properties":{"sourceId":"1159312963","regionId":"region.01d1e56e-4ae2-41cc-b030-b4e2990d77d3","countryId":"country.zwicjl"},"geometry":{"type":"Polygon","coordinates":[[[-4.116,50.3479],[-4.0418,50.3993],[-4.187,50.426],[-4.116,50.3479]]]}},{"type":"Feature","properties":{"sourceId":"1159312667","regionId":"region.6f0c65b4-6a0a-499c-99c7-f994d2b7e48b","countryId":"country.zwicjl"},"geometry":{"type":"Polygon","coordinates":[[[-4.2037,50.4514],[-4.335,50.6427],[-4.4584,50.9211],[-4.5481,50.923],[-4.5501,50.8096],[-4.7925,50.5952],[-5.0253,50.5242],[-5.0503,50.4287],[-5.438,50.1943],[-5.6846,50.1615],[-5.5784,50.0548],[-5.4748,50.1304],[-5.324,50.0895],[-5.2104,49.9667],[-5.0981,50.0144],[-5.0204,50.192],[-4.8002,50.2296],[-4.7521,50.3303],[-4.2523,50.3564],[-4.2037,50.4514]]]}},{"type":"Feature","properties":{"sourceId":"1159312889","regionId":"region.cee14542-4351-4035-a708-ad3dce4767d6","countryId":"country.zwicjl"},"geometry":{"type":"Polygon","coordinates":[[[-3.7122,51.2383],[-3.7156,51.083],[-3.4223,51.0294],[-2.9485,50.8225],[-2.6531,50.8866],[-2.3217,51.0833],[-2.2362,51.2641],[-2.2901,51.3249],[-2.4581,51.273],[-2.7127,51.3198],[-2.9922,51.3219],[-3.0575,51.2082],[-3.385,51.1862],[-3.7122,51.2383]]]}},{"type":"Feature","properties":{"sourceId":"1159312883","regionId":"region.b498bfcc-13aa-4f33-81b9-dbf810e31411","countryId":"country.zwicjl"},"geometry":{"type":"Polygon","coordinates":[[[-2.9922,51.3219],[-2.7127,51.3198],[-2.6335,51.3821],[-2.7294,51.4962],[-2.8164,51.4736],[-2.9922,51.3219]]]}},{"type":"Feature","properties":{"sourceId":"1159312881","regionId":"region.e1eac48d-fd0c-42ef-8e8f-60b5dd44282b","countryId":"country.zwicjl"},"geometry":{"type":"Polygon","coordinates":[[[-2.7294,51.4962],[-2.6335,51.3821],[-2.5227,51.4188],[-2.6788,51.5313],[-2.7294,51.4962]]]}},{"type":"Feature","properties":{"sourceId":"1159312885","regionId":"region.c5b6cc63-81b9-4280-adc8-88d99e372cd9","countryId":"country.zwicjl"},"geometry":{"type":"Polygon","coordinates":[[[-2.6788,51.5313],[-2.5227,51.4188],[-2.2807,51.4203],[-2.2716,51.5772],[-2.5355,51.673],[-2.6788,51.5313]]]}},{"type":"Feature","properties":{"sourceId":"1159312735","regionId":"region.1e698ca5-445e-478d-8845-f02c786d4218","countryId":"country.zwicjl"},"geometry":{"type":"Polygon","coordinates":[[[-2.7981,51.5635],[-2.9613,51.6274],[-3.0319,51.6057],[-3.1024,51.5431],[-3.0765,51.5078],[-2.7981,51.5635]]]}},{"type":"Feature","properties":{"sourceId":"1159312711","regionId":"region.08e0c6de-8739-46ec-ab4d-a23d31b511e4","countryId":"country.zwicjl"},"geometry":{"type":"Polygon","coordinates":[[[-3.0765,51.5078],[-3.1024,51.5431],[-3.2275,51.5451],[-3.2914,51.5004],[-3.1727,51.4531],[-3.0765,51.5078]]]}},{"type":"Feature","properties":{"sourceId":"1159312713","regionId":"region.bdb16069-efc1-4d87-8a65-75c418dae58d","countryId":"country.zwicjl"},"geometry":{"type":"Polygon","coordinates":[[[-3.1727,51.4531],[-3.2914,51.5004],[-3.4752,51.5104],[-3.5753,51.4204],[-3.2894,51.3842],[-3.1727,51.4531]]]}},{"type":"Feature","properties":{"sourceId":"1159312701","regionId":"region.3882a9a0-dbcc-4329-8eda-154bde3d7449","countryId":"country.zwicjl"},"geometry":{"type":"Polygon","coordinates":[[[-3.5753,51.4204],[-3.4752,51.5104],[-3.5492,51.6418],[-3.6536,51.6399],[-3.7519,51.5331],[-3.5753,51.4204]]]}},{"type":"Feature","properties":{"sourceId":"1159312715","regionId":"region.b2b3370b-36c8-4f2b-9e52-187d3f34b289","countryId":"country.zwicjl"},"geometry":{"type":"Polygon","coordinates":[[[-3.7519,51.5331],[-3.6536,51.6399],[-3.5492,51.6418],[-3.5837,51.7513],[-3.8,51.7853],[-3.9331,51.7622],[-3.8299,51.6876],[-3.8868,51.6214],[-3.7519,51.5331]]]}},{"type":"Feature","properties":{"sourceId":"1159312717","regionId":"region.7606adff-ed6c-4d21-a3a4-e5119c97f8d5","countryId":"country.zwicjl"},"geometry":{"type":"Polygon","coordinates":[[[-3.8868,51.6214],[-3.8299,51.6876],[-3.9331,51.7622],[-4.0705,51.676],[-4.2899,51.617],[-4.2724,51.5548],[-3.9746,51.563],[-3.8868,51.6214]]]}},{"type":"Feature","properties":{"sourceId":"1159312693","regionId":"region.a7367bb7-114d-48f7-a604-38a22f280d15","countryId":"country.zwicjl"},"geometry":{"type":"Polygon","coordinates":[[[-4.0705,51.676],[-3.9331,51.7622],[-3.8,51.7853],[-3.6436,52.0313],[-3.7412,52.1216],[-4.06,52.1061],[-4.2357,52.0319],[-4.5587,52.0377],[-4.4947,51.9691],[-4.7402,51.8689],[-4.6393,51.7332],[-4.3793,51.7269],[-4.2937,51.6723],[-4.0705,51.676]]]}},{"type":"Feature","properties":{"sourceId":"1159312697","regionId":"region.4ea32d0b-606e-4c60-8de0-9d8ef15ca98c","countryId":"country.zwicjl"},"geometry":{"type":"Polygon","coordinates":[[[-4.6393,51.7332],[-4.7402,51.8689],[-4.4947,51.9691],[-4.5587,52.0377],[-4.6938,52.1073],[-4.9617,52.0075],[-5.2889,51.9169],[-5.1259,51.856],[-4.941,51.5965],[-4.7123,51.6501],[-4.6393,51.7332]]]}},{"type":"Feature","properties":{"sourceId":"1159312695","regionId":"region.5f9f08f5-35ec-41f2-8237-e966e2660a69","countryId":"country.zwicjl"},"geometry":{"type":"Polygon","coordinates":[[[-4.6938,52.1073],[-4.5587,52.0377],[-4.2357,52.0319],[-4.06,52.1061],[-3.7412,52.1216],[-3.7312,52.3188],[-3.6623,52.3394],[-3.8292,52.5327],[-3.9275,52.5532],[-3.9473,52.5509],[-4.0565,52.4879],[-4.1971,52.2793],[-4.5138,52.1357],[-4.6938,52.1073]]]}},{"type":"Feature","properties":{"sourceId":"1159312729","regionId":"region.700c9b05-a07a-4267-8a48-1914e7d46fe9","countryId":"country.zwicjl"},"geometry":{"type":"Polygon","coordinates":[[[-3.9473,52.5509],[-3.9275,52.5532],[-3.797,52.6747],[-3.6015,52.6955],[-3.5775,52.8191],[-3.47,52.8619],[-3.4615,52.9764],[-3.6011,53.0069],[-3.788,52.9367],[-4.0044,53.1106],[-4.0004,53.2487],[-4.1515,53.2281],[-4.2345,53.164],[-4.3409,53.1127],[-4.3582,53.0285],[-4.5961,52.9284],[-4.4066,52.8925],[-4.1299,52.8892],[-4.0488,52.7216],[-4.1222,52.6287],[-3.9473,52.5509]]]}},{"type":"Feature","properties":{"sourceId":"1159312727","regionId":"region.75a47cc3-1a9a-4c83-9eaf-56f7cff7b967","countryId":"country.zwicjl"},"geometry":{"type":"Polygon","coordinates":[[[-4.0004,53.2487],[-4.0044,53.1106],[-3.788,52.9367],[-3.6011,53.0069],[-3.4615,52.9764],[-3.5135,53.3089],[-3.7689,53.3192],[-4.0004,53.2487]]]}},{"type":"Feature","properties":{"sourceId":"1159312719","regionId":"region.6a67bc40-84c2-4db5-bed3-5575c8f6080d","countryId":"country.zwicjl"},"geometry":{"type":"Polygon","coordinates":[[[-3.5135,53.3089],[-3.4615,52.9764],[-3.47,52.8619],[-3.3907,52.8674],[-3.2005,52.938],[-3.1227,53.0664],[-3.3409,53.2188],[-3.3605,53.3511],[-3.5135,53.3089]]]}},{"type":"Feature","properties":{"sourceId":"1159312839","regionId":"region.ade3f40e-98df-4e22-a5b6-8e6c7d64815b","countryId":"country.zwicjl"},"geometry":{"type":"Polygon","coordinates":[[[-3.0959,53.2871],[-2.9264,53.3048],[-3.0583,53.4348],[-3.1852,53.3773],[-3.0959,53.2871]]]}},{"type":"Feature","properties":{"sourceId":"1159317559","regionId":"region.755a5c0e-029b-47d8-8ac1-e6954a5b9f9c","countryId":"country.zwicjl"},"geometry":{"type":"Polygon","coordinates":[[[-2.7755,53.2999],[-2.5694,53.3123],[-2.6806,53.3788],[-2.7547,53.3781],[-2.8103,53.3217],[-2.7755,53.2999]]]}},{"type":"Feature","properties":{"sourceId":"1159312837","regionId":"region.dfffdf17-d98d-4339-8abe-4bfb07066c9c","countryId":"country.zwicjl"},"geometry":{"type":"Polygon","coordinates":[[[-2.8103,53.3217],[-2.7547,53.3781],[-2.8156,53.4911],[-2.8961,53.5224],[-2.9328,53.4933],[-2.8759,53.3312],[-2.8103,53.3217]]]}},{"type":"Feature","properties":{"sourceId":"1159317487","regionId":"region.34079838-f60f-4327-8f69-a84cd93c8d8c","countryId":"country.zwicjl"},"geometry":{"type":"Polygon","coordinates":[[[-2.8759,53.3312],[-2.9328,53.4933],[-3.0482,53.481],[-2.8759,53.3312]]]}},{"type":"Feature","properties":{"sourceId":"1159317485","regionId":"region.7c59fafb-e668-46e8-acb5-4dfcbb7ef39f","countryId":"country.zwicjl"},"geometry":{"type":"Polygon","coordinates":[[[-3.0482,53.481],[-2.9328,53.4933],[-2.8961,53.5224],[-3.0317,53.5419],[-2.9485,53.7094],[-3.0995,53.572],[-3.0482,53.481]]]}},{"type":"Feature","properties":{"sourceId":"1159312953","regionId":"region.89c9ad90-0551-4ab9-ab27-df57dee7a5d7","countryId":"country.zwicjl"},"geometry":{"type":"Polygon","coordinates":[[[-2.9485,53.7094],[-3.0317,53.5419],[-2.8961,53.5224],[-2.8156,53.4911],[-2.752,53.5111],[-2.6867,53.5997],[-2.5589,53.5991],[-2.5044,53.627],[-2.3566,53.6646],[-2.2581,53.6141],[-2.1514,53.6965],[-2.0326,53.8476],[-2.105,53.9146],[-2.4583,54.0472],[-2.5476,54.1511],[-2.4475,54.2302],[-2.6711,54.1586],[-2.8364,54.1676],[-3.0176,53.932],[-2.9541,53.8078],[-3.0215,53.7458],[-2.9485,53.7094]]]}},{"type":"Feature","properties":{"sourceId":"1159317483","regionId":"region.8fb8ef1c-b041-49af-8a61-c46bfabb68ed","countryId":"country.zwicjl"},"geometry":{"type":"Polygon","coordinates":[[[-3.0215,53.7458],[-2.9541,53.8078],[-3.0176,53.932],[-3.0215,53.7458]]]}},{"type":"Feature","properties":{"sourceId":"1159313027","regionId":"region.fe092fc7-9d25-43b4-9ce0-a5570666417f","countryId":"country.zwicjl"},"geometry":{"type":"Polygon","coordinates":[[[-5.0325,54.9937],[-4.6306,55.0538],[-4.4675,55.1578],[-4.4431,55.5448],[-4.5821,55.5913],[-4.6662,55.5622],[-4.6263,55.4684],[-4.7493,55.4138],[-4.8824,55.2186],[-5.0078,55.1412],[-5.0325,54.9937]]]}},{"type":"Feature","properties":{"sourceId":"1159313021","regionId":"region.7b8b0019-78b2-4e3e-b194-4a8fb1b0acd0","countryId":"country.zwicjl"},"geometry":{"type":"Polygon","coordinates":[[[-4.6662,55.5622],[-4.5821,55.5913],[-4.6182,55.677],[-4.5179,55.7593],[-4.5164,55.7628],[-4.7517,55.8572],[-4.8888,55.8653],[-4.9205,55.7086],[-4.6662,55.5622]]]}},{"type":"Feature","properties":{"sourceId":"1159313019","regionId":"region.c0aea591-9abf-454d-8862-4ebdc861172e","countryId":"country.zwicjl"},"geometry":{"type":"Polygon","coordinates":[[[-4.8888,55.8653],[-4.7517,55.8572],[-4.6268,55.9298],[-4.7858,55.957],[-4.8888,55.8653]]]}},{"type":"Feature","properties":{"sourceId":"1159313025","regionId":"region.55a4fe2f-cea9-4818-9ff2-3fa8290d65fe","countryId":"country.zwicjl"},"geometry":{"type":"Polygon","coordinates":[[[-4.6268,55.9298],[-4.7517,55.8572],[-4.5164,55.7628],[-4.3568,55.8191],[-4.3558,55.864],[-4.4886,55.9257],[-4.6268,55.9298]]]}},{"type":"Feature","properties":{"sourceId":"1159313033","regionId":"region.e47285a6-59f3-47de-ad81-fc25f7d9bd29","countryId":"country.zwicjl"},"geometry":{"type":"Polygon","coordinates":[[[-4.4886,55.9257],[-4.3558,55.864],[-4.3517,55.9052],[-4.3648,55.9756],[-4.5981,56.0778],[-4.5906,55.9415],[-4.4886,55.9257]]]}},{"type":"Feature","properties":{"sourceId":"1159314743","regionId":"region.a3d0f5ff-9198-4eff-a4a4-f700dc74c1d2","countryId":"country.zwicjl"},"geometry":{"type":"MultiPolygon","coordinates":[[[[-4.5906,55.9415],[-4.5981,56.0778],[-4.6805,56.1984],[-4.6492,56.3208],[-4.8331,56.3629],[-4.6394,56.4718],[-4.7086,56.6415],[-4.9244,56.6594],[-5.0752,56.6072],[-5.3045,56.6402],[-5.4109,56.5521],[-5.3943,56.4655],[-5.5096,56.4006],[-5.5981,56.2586],[-5.5225,56.1658],[-5.5868,56.012],[-5.6964,55.916],[-5.5812,55.7576],[-5.7218,55.5646],[-5.7723,55.3013],[-5.64,55.3039],[-5.455,55.5919],[-5.4335,55.721],[-5.3178,55.783],[-5.4072,55.8663],[-5.4476,56.0094],[-5.3136,56.0124],[-4.9831,55.871],[-4.898,56.0012],[-4.5906,55.9415]]],[[[-5.0708,55.5093],[-5.16,55.6762],[-5.3552,55.6896],[-5.3457,55.4827],[-5.1636,55.4349],[-5.0708,55.5093]]],[[[-6.0304,55.7291],[-6.1202,55.9294],[-6.4091,55.8636],[-6.4932,55.7392],[-6.321,55.7335],[-6.2153,55.6267],[-6.0304,55.7291]]],[[[-5.7976,56.1126],[-6.0752,55.916],[-5.9621,55.8048],[-5.7402,56.0765],[-5.7976,56.1126]]],[[[-5.6883,56.4348],[-5.7218,56.4901],[-5.9521,56.5242],[-6.0583,56.6402],[-6.2884,56.608],[-6.2885,56.5323],[-6.1274,56.4744],[-6.3275,56.2772],[-6.147,56.2839],[-5.72,56.3528],[-5.6883,56.4348]]]]}},{"type":"Feature","properties":{"sourceId":"1159314817","regionId":"region.9b5347b4-3a61-4088-bf66-16685688d141","countryId":"country.zwicjl"},"geometry":{"type":"MultiPolygon","coordinates":[[[[-5.3045,56.6402],[-5.0752,56.6072],[-4.9244,56.6594],[-4.7086,56.6415],[-4.5783,56.7549],[-4.4366,56.7784],[-4.1642,56.9086],[-3.7964,56.9302],[-3.6795,57.0955],[-3.4525,57.178],[-3.3845,57.3814],[-3.4981,57.4574],[-3.6664,57.4308],[-3.7546,57.6263],[-4.035,57.5569],[-4.1186,57.593],[-3.9148,57.8077],[-4.1391,57.8469],[-4.0301,57.9532],[-3.2205,58.3056],[-3.0863,58.4142],[-3.1293,58.5126],[-3.0191,58.6403],[-3.2041,58.6611],[-3.8101,58.5731],[-4.1606,58.5626],[-4.3824,58.5246],[-4.9882,58.6283],[-5.0501,58.4538],[-5.1732,58.3539],[-5.0964,58.2768],[-5.3108,58.2434],[-5.2926,57.9806],[-5.487,57.8559],[-5.6126,57.9288],[-5.8074,57.8439],[-5.7628,57.634],[-5.8697,57.5009],[-5.8078,57.3549],[-5.5994,57.2792],[-5.8317,56.9971],[-5.7355,56.8941],[-5.9136,56.7637],[-6.0034,56.6187],[-5.6674,56.4985],[-5.3402,56.6931],[-5.3045,56.6402]]],[[[-6.5641,57.3466],[-6.3183,57.161],[-6.0235,57.1957],[-5.9189,57.0501],[-5.6909,57.1895],[-6.1066,57.3235],[-6.1539,57.5895],[-6.3143,57.6992],[-6.7065,57.5109],[-6.7148,57.3766],[-6.5641,57.3466]]]]}},{"type":"Feature","properties":{"sourceId":"1159313039","regionId":"region.82ce5db7-bfca-46db-b452-571e61a7b310","countryId":"country.zwicjl"},"geometry":{"type":"Polygon","coordinates":[[[-3.7546,57.6263],[-3.6664,57.4308],[-3.4981,57.4574],[-3.3845,57.3814],[-3.4525,57.178],[-3.6795,57.0955],[-3.3454,57.0893],[-3.3322,57.1759],[-2.9668,57.3271],[-2.9918,57.4768],[-2.7057,57.5296],[-2.8212,57.7028],[-3.0787,57.6694],[-3.2847,57.7204],[-3.7546,57.6263]]]}},{"type":"Feature","properties":{"sourceId":"1159313037","regionId":"region.740b2d2a-4058-49a6-9c26-071f0230a5fb","countryId":"country.zwicjl"},"geometry":{"type":"Polygon","coordinates":[[[-2.8212,57.7028],[-2.7057,57.5296],[-2.9918,57.4768],[-2.9668,57.3271],[-3.3322,57.1759],[-3.3454,57.0893],[-3.6795,57.0955],[-3.7964,56.9302],[-3.3951,56.8815],[-3.2747,56.9302],[-3.1078,56.8975],[-2.8726,56.9846],[-2.6542,56.8891],[-2.6197,56.785],[-2.4359,56.7404],[-2.2199,56.8726],[-2.0653,57.1005],[-2.3341,57.0825],[-2.3001,57.2194],[-2.0447,57.2265],[-1.9803,57.3193],[-1.7593,57.4736],[-1.8295,57.6135],[-2.1081,57.705],[-2.4329,57.6681],[-2.8212,57.7028]]]}},{"type":"Feature","properties":{"sourceId":"1159313035","regionId":"region.1c010eb4-771c-4bb3-9491-186771cb3c17","countryId":"country.zwicjl"},"geometry":{"type":"Polygon","coordinates":[[[-2.0447,57.2265],[-2.3001,57.2194],[-2.3341,57.0825],[-2.0653,57.1005],[-2.0447,57.2265]]]}},{"type":"Feature","properties":{"sourceId":"1159313051","regionId":"region.c429d025-d7db-46b5-9df0-831444beffc7","countryId":"country.zwicjl"},"geometry":{"type":"Polygon","coordinates":[[[-2.4359,56.7404],[-2.6197,56.785],[-2.6542,56.8891],[-2.8726,56.9846],[-3.1078,56.8975],[-3.2747,56.9302],[-3.3951,56.8815],[-3.335,56.7238],[-3.1294,56.6159],[-3.0793,56.4749],[-2.8193,56.4713],[-2.53,56.5808],[-2.4359,56.7404]]]}},{"type":"Feature","properties":{"sourceId":"1159313053","regionId":"region.54901a1d-00e8-424e-94c9-2af975be3e64","countryId":"country.zwicjl"},"geometry":{"type":"Polygon","coordinates":[[[-2.8193,56.4713],[-3.0793,56.4749],[-3.0557,56.4521],[-2.8193,56.4713]]]}},{"type":"Feature","properties":{"sourceId":"1159313047","regionId":"region.7dd6552b-5a0f-40aa-9886-8ec000f7185f","countryId":"country.zwicjl"},"geometry":{"type":"Polygon","coordinates":[[[-3.0557,56.4521],[-3.0793,56.4749],[-3.1294,56.6159],[-3.335,56.7238],[-3.3951,56.8815],[-3.7964,56.9302],[-4.1642,56.9086],[-4.4366,56.7784],[-4.5783,56.7549],[-4.7086,56.6415],[-4.6394,56.4718],[-4.3228,56.5333],[-4.1756,56.5095],[-4.2195,56.3291],[-3.8244,56.1925],[-3.6306,56.1282],[-3.387,56.1371],[-3.3628,56.2647],[-3.2624,56.3528],[-3.0557,56.4521]]]}},{"type":"Feature","properties":{"sourceId":"1159313055","regionId":"region.9a24819e-5090-4e39-8161-69a2701d85c3","countryId":"country.zwicjl"},"geometry":{"type":"Polygon","coordinates":[[[-3.2624,56.3528],[-3.3628,56.2647],[-3.387,56.1371],[-3.6306,56.1282],[-3.7465,56.0728],[-3.421,56.0249],[-3.1784,56.0581],[-2.9643,56.2056],[-2.7836,56.192],[-2.5768,56.2839],[-2.8216,56.3762],[-2.885,56.458],[-3.2624,56.3528]]]}},{"type":"Feature","properties":{"sourceId":"1159314667","regionId":"region.3a2115db-883b-4f20-b492-d549a666c1a1","countryId":"country.zwicjl"},"geometry":{"type":"Polygon","coordinates":[[[-1.0828,50.7133],[-1.2958,50.7732],[-1.5059,50.7077],[-1.3155,50.5892],[-1.1684,50.6035],[-1.0828,50.7133]]]}},{"type":"Feature","properties":{"sourceId":"1159312691","regionId":"region.6184f999-046d-4bc1-994f-fde686abf341","countryId":"country.zwicjl"},"geometry":{"type":"Polygon","coordinates":[[[-4.0981,53.3096],[-4.2767,53.401],[-4.5535,53.4006],[-4.571,53.2755],[-4.496,53.1826],[-4.3439,53.1321],[-4.2294,53.1822],[-4.1955,53.2203],[-4.0981,53.2501],[-4.0981,53.3096]]]}},{"type":"Feature","properties":{"sourceId":"1159314815","regionId":"region.4f9e5e86-f847-4324-923f-642c0120c1ea","countryId":"country.zwicjl"},"geometry":{"type":"MultiPolygon","coordinates":[[[[-7.2438,57.3255],[-7.353,57.408],[-7.4554,57.2367],[-7.2711,57.1479],[-7.2438,57.3255]]],[[[-7.1294,57.6529],[-7.1817,57.6885],[-7.5448,57.593],[-7.2875,57.5088],[-7.1339,57.5384],[-7.1294,57.6529]]],[[[-6.9551,57.7438],[-6.5375,57.9213],[-6.3524,58.0386],[-6.394,58.1018],[-6.3179,58.2683],[-6.1669,58.4195],[-6.3456,58.4632],[-6.8186,58.2851],[-6.8971,58.1721],[-7.0561,58.2257],[-7.1265,58.124],[-7.0363,57.9606],[-6.8971,57.9356],[-7.0793,57.8127],[-6.9551,57.7438]]]]}},{"type":"Feature","properties":{"sourceId":"1159314819","regionId":"region.90da1c55-a657-4b12-ae21-03ef8fdbd8aa","countryId":"country.zwicjl"},"geometry":{"type":"Polygon","coordinates":[[[-2.7277,58.9709],[-3.012,59.0174],[-3.0845,59.128],[-3.3238,59.1274],[-3.3667,59.0161],[-3.2028,58.9159],[-2.9736,58.9538],[-2.8393,58.8826],[-2.7277,58.9709]]]}},{"type":"Feature","properties":{"sourceId":"1159314821","regionId":"region.200035c7-ed08-4cf6-a7d7-318bc9236704","countryId":"country.zwicjl"},"geometry":{"type":"Polygon","coordinates":[[[-1.097,60.4165],[-1.3361,60.5332],[-1.4381,60.4605],[-1.3964,60.3218],[-1.6574,60.3062],[-1.6697,60.2396],[-1.2626,60.1151],[-1.376,59.9086],[-1.2746,59.8821],[-1.0753,60.321],[-1.097,60.4165]]]}},{"type":"Feature","properties":{"sourceId":"1159318099","regionId":"region.70340477-c3fd-4222-bc5f-2b3de848d8cf","countryId":"country.zwicjl"},"geometry":{"type":"Polygon","coordinates":[[[-6.2988,49.9355],[-6.3092,49.9136],[-6.2842,49.9228],[-6.2988,49.9355]]]}},{"type":"Feature","properties":{"sourceId":"1159312703","regionId":"region.c49832ac-15f7-44af-afa0-28f69278fd99","countryId":"country.zwicjl"},"geometry":{"type":"Polygon","coordinates":[[[-3.0319,51.6057],[-3.1147,51.7008],[-3.289,51.7933],[-3.3338,51.7899],[-3.3017,51.6486],[-3.2275,51.5451],[-3.1024,51.5431],[-3.0319,51.6057]]]}},{"type":"Feature","properties":{"sourceId":"1159312709","regionId":"region.64bfbfa4-d249-4da2-af4b-67795e75130b","countryId":"country.zwicjl"},"geometry":{"type":"Polygon","coordinates":[[[-3.3017,51.6486],[-3.4352,51.8166],[-3.5837,51.7513],[-3.5492,51.6418],[-3.4752,51.5104],[-3.2914,51.5004],[-3.2275,51.5451],[-3.3017,51.6486]]]}},{"type":"Feature","properties":{"sourceId":"1159312731","regionId":"region.8424d199-56e5-4747-8969-b8a52073483e","countryId":"country.zwicjl"},"geometry":{"type":"Polygon","coordinates":[[[-3.289,51.7933],[-3.1147,51.7008],[-3.1285,51.7945],[-3.1569,51.8107],[-3.289,51.7933]]]}},{"type":"Feature","properties":{"sourceId":"1159312737","regionId":"region.7b9f3e29-71e6-4e58-87f4-02a1a60e1697","countryId":"country.zwicjl"},"geometry":{"type":"Polygon","coordinates":[[[-3.0319,51.6057],[-2.9613,51.6274],[-2.9763,51.7094],[-3.1285,51.7945],[-3.1147,51.7008],[-3.0319,51.6057]]]}},{"type":"Feature","properties":{"sourceId":"1159312705","regionId":"region.6f98d4c1-ae31-4b2b-bd9e-cef4cff35c9c","countryId":"country.zwicjl"},"geometry":{"type":"Polygon","coordinates":[[[-3.3338,51.7899],[-3.4352,51.8166],[-3.3017,51.6486],[-3.3338,51.7899]]]}},{"type":"Feature","properties":{"sourceId":"1159313023","regionId":"region.ca153086-ce71-4a93-a103-92375a4a74eb","countryId":"country.zwicjl"},"geometry":{"type":"Polygon","coordinates":[[[-4.0113,56.0122],[-4.1257,56.0055],[-4.1619,55.8917],[-4.0843,55.8272],[-3.8977,55.7343],[-3.7334,55.7835],[-3.8089,55.8952],[-4.0113,56.0122]]]}},{"type":"Feature","properties":{"sourceId":"1159313011","regionId":"region.c97fda2a-27d1-4dec-b7cd-07ebc06cb35b","countryId":"country.zwicjl"},"geometry":{"type":"Polygon","coordinates":[[[-4.1257,56.0055],[-4.3648,55.9756],[-4.3517,55.9052],[-4.1619,55.8917],[-4.1257,56.0055]]]}},{"type":"Feature","properties":{"sourceId":"1159313017","regionId":"region.fa56efe2-fcb6-4445-b05c-0e85cd941806","countryId":"country.zwicjl"},"geometry":{"type":"Polygon","coordinates":[[[-4.3558,55.864],[-4.3568,55.8191],[-4.2404,55.7934],[-4.0843,55.8272],[-4.1619,55.8917],[-4.3517,55.9052],[-4.3558,55.864]]]}},{"type":"Feature","properties":{"sourceId":"1159313015","regionId":"region.94808055-87f2-4686-8841-5660271b1a4e","countryId":"country.zwicjl"},"geometry":{"type":"Polygon","coordinates":[[[-4.5179,55.7593],[-4.251,55.686],[-4.2404,55.7934],[-4.3568,55.8191],[-4.5164,55.7628],[-4.5179,55.7593]]]}},{"type":"Feature","properties":{"sourceId":"1159313009","regionId":"region.deacb95c-a8fc-4428-9a07-0f5a1ae7215c","countryId":"country.zwicjl"},"geometry":{"type":"Polygon","coordinates":[[[-4.5821,55.5913],[-4.4431,55.5448],[-4.4675,55.1578],[-4.297,55.3077],[-4.0856,55.3472],[-3.9832,55.461],[-3.9608,55.5403],[-4.1967,55.5523],[-4.251,55.686],[-4.5179,55.7593],[-4.6182,55.677],[-4.5821,55.5913]]]}},{"type":"Feature","properties":{"sourceId":"1159313029","regionId":"region.2864a2c8-dd3e-43cb-b2c8-b921e60c45b1","countryId":"country.zwicjl"},"geometry":{"type":"Polygon","coordinates":[[[-3.9832,55.461],[-3.8259,55.4463],[-3.6423,55.2896],[-3.5003,55.4097],[-3.4579,55.7696],[-3.7334,55.7835],[-3.8977,55.7343],[-4.0843,55.8272],[-4.2404,55.7934],[-4.251,55.686],[-4.1967,55.5523],[-3.9608,55.5403],[-3.9832,55.461]]]}},{"type":"Feature","properties":{"sourceId":"1159312803","regionId":"region.e93ab389-d308-46df-aae2-dd675f953a4e","countryId":"country.zwicjl"},"geometry":{"type":"Polygon","coordinates":[[[-6.9298,54.7677],[-6.9697,54.7416],[-6.4986,54.7062],[-6.4807,54.7827],[-6.5069,54.916],[-6.5204,54.9451],[-6.7811,54.9111],[-6.9175,54.8158],[-6.9298,54.7677]]]}},{"type":"Feature","properties":{"sourceId":"1159312783","regionId":"region.0d71e301-aa0c-44a9-9b42-68ad5be17a73","countryId":"country.zwicjl"},"geometry":{"type":"Polygon","coordinates":[[[-7.6934,54.6008],[-7.5081,54.4049],[-7.3645,54.4302],[-7.1253,54.4688],[-6.9614,54.5766],[-6.9697,54.7416],[-6.9298,54.7677],[-7.2056,54.7527],[-7.6934,54.6008]]]}},{"type":"Feature","properties":{"sourceId":"1159312799","regionId":"region.952e76cf-da0c-448e-8659-98e93f5aad86","countryId":"country.zwicjl"},"geometry":{"type":"Polygon","coordinates":[[[-6.9614,54.5766],[-6.5278,54.5398],[-6.437,54.5688],[-6.4986,54.7062],[-6.9697,54.7416],[-6.9614,54.5766]]]}},{"type":"Feature","properties":{"sourceId":"1159312791","regionId":"region.6c75a995-6a6e-455f-b353-d2b553de70f4","countryId":"country.zwicjl"},"geometry":{"type":"Polygon","coordinates":[[[-6.5547,54.4633],[-6.4053,54.3938],[-6.2105,54.4332],[-6.2641,54.5925],[-6.437,54.5688],[-6.5278,54.5398],[-6.5547,54.4633]]]}},{"type":"Feature","properties":{"sourceId":"1159312789","regionId":"region.27f5659c-1870-4fca-b8db-7b0627014f8e","countryId":"country.zwicjl"},"geometry":{"type":"Polygon","coordinates":[[[-6.36,54.2769],[-6.0453,54.2466],[-5.9504,54.3797],[-6.2105,54.4332],[-6.4053,54.3938],[-6.36,54.2769]]]}},{"type":"Feature","properties":{"sourceId":"1159312801","regionId":"region.400f6e45-5c58-4914-847c-eef5a0ac1236","countryId":"country.zwicjl"},"geometry":{"type":"Polygon","coordinates":[[[-6.4986,54.7062],[-6.437,54.5688],[-6.2641,54.5925],[-6.0659,54.6227],[-6.0225,54.6625],[-6.0842,54.7919],[-6.4807,54.7827],[-6.4986,54.7062]]]}},{"type":"Feature","properties":{"sourceId":"1159312795","regionId":"region.8e1e179c-8913-4cc3-aaf3-e3bbd368f6ca","countryId":"country.zwicjl"},"geometry":{"type":"Polygon","coordinates":[[[-5.8681,54.4791],[-5.9547,54.5544],[-6.0659,54.6227],[-6.2641,54.5925],[-6.2105,54.4332],[-5.9504,54.3797],[-5.8681,54.4791]]]}},{"type":"Feature","properties":{"sourceId":"1159312821","regionId":"region.d4e01d7d-799e-4cbd-9f75-857f3e1a611f","countryId":"country.zwicjl"},"geometry":{"type":"Polygon","coordinates":[[[-6.5069,54.916],[-6.1925,55.0283],[-6.5153,55.1491],[-6.6139,55.0766],[-6.5204,54.9451],[-6.5069,54.916]]]}},{"type":"Feature","properties":{"sourceId":"1159312805","regionId":"region.b6b65c2a-8e13-452e-bf57-7b1b717adca0","countryId":"country.zwicjl"},"geometry":{"type":"Polygon","coordinates":[[[-6.4807,54.7827],[-6.0842,54.7919],[-6.007,54.7986],[-6.0236,54.9347],[-6.1019,54.9869],[-6.1925,55.0283],[-6.5069,54.916],[-6.4807,54.7827]]]}},{"type":"Feature","properties":{"sourceId":"1159312777","regionId":"region.790a882f-462e-409f-ac92-e6aedae7c821","countryId":"country.zwicjl"},"geometry":{"type":"Polygon","coordinates":[[[-5.8187,54.4916],[-5.757,54.6158],[-5.8078,54.6144],[-5.9547,54.5544],[-5.8681,54.4791],[-5.8187,54.4916]]]}},{"type":"Feature","properties":{"sourceId":"1159312979","regionId":"region.8a45b3e1-3cdc-47d3-9f2f-e4c2f73e0b7f","countryId":"country.zwicjl"},"geometry":{"type":"Polygon","coordinates":[[[-0.1317,51.4177],[-0.1279,51.4921],[-0.1429,51.4837],[-0.1712,51.4726],[-0.2127,51.4729],[-0.2443,51.4325],[-0.1317,51.4177]]]}},{"type":"Feature","properties":{"sourceId":"1159312945","regionId":"region.a4a63e9b-3115-494e-b49f-1a5fe4a96c64","countryId":"country.zwicjl"},"geometry":{"type":"Polygon","coordinates":[[[-0.1317,51.4177],[-0.2443,51.4325],[-0.2248,51.3853],[-0.1313,51.3872],[-0.1269,51.408],[-0.1317,51.4177]]]}},{"type":"Feature","properties":{"sourceId":"1159312981","regionId":"region.323a1485-1e62-4207-ad52-5f98efab3fce","countryId":"country.zwicjl"},"geometry":{"type":"Polygon","coordinates":[[[-0.1279,51.4921],[-0.1122,51.5024],[-0.179,51.5283],[-0.2111,51.522],[-0.1429,51.4837],[-0.1279,51.4921]]]}},{"type":"Feature","properties":{"sourceId":"1159312943","regionId":"region.47009f36-581f-43d6-9a5a-a6b264a20e06","countryId":"country.zwicjl"},"geometry":{"type":"Polygon","coordinates":[[[-0.2111,51.522],[-0.1712,51.4726],[-0.1429,51.4837],[-0.2111,51.522]]]}},{"type":"Feature","properties":{"sourceId":"1159312937","regionId":"region.55ebed13-d8a5-46f9-bdd8-47b78e7f75d9","countryId":"country.zwicjl"},"geometry":{"type":"Polygon","coordinates":[[[-0.2445,51.4944],[-0.3927,51.4936],[-0.4414,51.4539],[-0.3844,51.4137],[-0.2367,51.4872],[-0.2445,51.4944]]]}},{"type":"Feature","properties":{"sourceId":"1159312929","regionId":"region.153c2a97-f4fb-4bce-85fe-87547dd0443f","countryId":"country.zwicjl"},"geometry":{"type":"Polygon","coordinates":[[[-0.3927,51.4936],[-0.2445,51.4944],[-0.2366,51.5265],[-0.3255,51.5493],[-0.3678,51.5484],[-0.3927,51.4936]]]}},{"type":"Feature","properties":{"sourceId":"1159312935","regionId":"region.e14fb3af-5561-4592-8be9-99c675ac7be9","countryId":"country.zwicjl"},"geometry":{"type":"Polygon","coordinates":[[[-0.2127,51.4729],[-0.1712,51.4726],[-0.2111,51.522],[-0.2366,51.5265],[-0.2445,51.4944],[-0.2367,51.4872],[-0.2127,51.4729]]]}},{"type":"Feature","properties":{"sourceId":"1159312857","regionId":"region.ca70e714-66ca-45da-ba3e-b4c71add8fee","countryId":"country.zwicjl"},"geometry":{"type":"Polygon","coordinates":[[[-1.432,54.4811],[-1.2508,54.4866],[-1.2187,54.5754],[-1.2117,54.6066],[-1.3885,54.6267],[-1.4126,54.6],[-1.432,54.4811]]]}},{"type":"Feature","properties":{"sourceId":"1159312845","regionId":"region.ff5ef92f-6471-4ea7-9d3d-24d3502f289d","countryId":"country.zwicjl"},"geometry":{"type":"Polygon","coordinates":[[[-1.4126,54.6],[-1.6728,54.5916],[-1.6818,54.5311],[-1.432,54.4811],[-1.4126,54.6]]]}},{"type":"Feature","properties":{"sourceId":"1159312853","regionId":"region.65a33cd5-4d34-4fd4-acc6-ce2f3dcec6c0","countryId":"country.zwicjl"},"geometry":{"type":"Polygon","coordinates":[[[-1.2187,54.5754],[-1.2508,54.4866],[-1.1795,54.5038],[-1.2187,54.5754]]]}},{"type":"Feature","properties":{"sourceId":"1159312969","regionId":"region.537be84b-4007-400d-8d7c-d8ca7539a0c0","countryId":"country.zwicjl"},"geometry":{"type":"Polygon","coordinates":[[[-0.2127,51.4729],[-0.2367,51.4872],[-0.3844,51.4137],[-0.3067,51.3844],[-0.2443,51.4325],[-0.2127,51.4729]]]}},{"type":"Feature","properties":{"sourceId":"1159315835","regionId":"region.79a8fc9e-bb65-4373-adfd-047a4bb1b21f","countryId":"country.zwicjl"},"geometry":{"type":"Polygon","coordinates":[[[-0.072,51.516],[-0.0874,51.5269],[-0.1025,51.5235],[-0.0973,51.5097],[-0.0669,51.5079],[-0.072,51.516]]]}},{"type":"Feature","properties":{"sourceId":"1159312973","regionId":"region.f73be2e1-2603-48dd-b2cf-6220136bbdaa","countryId":"country.zwicjl"},"geometry":{"type":"Polygon","coordinates":[[[-0.0669,51.5079],[-0.0231,51.4887],[0.0194,51.5026],[-0.011,51.5435],[-0.072,51.516],[-0.0669,51.5079]]]}},{"type":"Feature","properties":{"sourceId":"1159317481","regionId":"region.01847c0d-f7f2-4017-bfa9-d924a11832ef","countryId":"country.zwicjl"},"geometry":{"type":"Polygon","coordinates":[[[-1.8201,54.9047],[-1.5773,54.886],[-1.5257,54.9214],[-1.5322,54.9539],[-1.7495,55.0027],[-1.8201,54.9047]]]}},{"type":"Feature","properties":{"sourceId":"1159312843","regionId":"region.7d902c14-74b5-4c42-9c01-0fcac4db65b6","countryId":"country.zwicjl"},"geometry":{"type":"Polygon","coordinates":[[[-1.6493,55.0677],[-1.7495,55.0027],[-1.5322,54.9539],[-1.49,54.9831],[-1.6493,55.0677]]]}},{"type":"Feature","properties":{"sourceId":"1159312947","regionId":"region.1838f554-1287-468c-a233-cef8f19f4cf3","countryId":"country.zwicjl"},"geometry":{"type":"Polygon","coordinates":[[[-0.928,53.9718],[-1.1468,54.0278],[-1.232,53.9691],[-1.1412,53.8601],[-0.9405,53.868],[-0.928,53.9718]]]}},{"type":"Feature","properties":{"sourceId":"1159317489","regionId":"region.5d6103fb-c846-495d-921f-c3e9c243c7a2","countryId":"country.zwicjl"},"geometry":{"type":"Polygon","coordinates":[[[-2.6806,53.3788],[-2.5664,53.4356],[-2.752,53.5111],[-2.8156,53.4911],[-2.7547,53.3781],[-2.6806,53.3788]]]}},{"type":"Feature","properties":{"sourceId":"1159312931","regionId":"region.495278ec-bb7d-424e-a296-3bc12abefa3e","countryId":"country.zwicjl"},"geometry":{"type":"Polygon","coordinates":[[[-0.0113,51.6772],[-0.1654,51.6713],[-0.1305,51.6078],[-0.03,51.6011],[-0.0026,51.6466],[-0.0113,51.6772]]]}},{"type":"Feature","properties":{"sourceId":"1159312877","regionId":"region.048d9bc7-5087-46f7-83c6-3bbeb0d6b258","countryId":"country.zwicjl"},"geometry":{"type":"Polygon","coordinates":[[[-0.0113,51.6772],[0.0356,51.7683],[0.158,51.7905],[0.0805,52.0024],[-0.1461,52.0697],[-0.3852,51.9211],[-0.3353,51.851],[-0.4527,51.8474],[-0.5336,51.8194],[-0.4935,51.5909],[-0.3998,51.6148],[-0.2936,51.6383],[-0.1654,51.6713],[-0.0113,51.6772]]]}},{"type":"Feature","properties":{"sourceId":"1159317555","regionId":"region.0f7469b1-9308-46b7-8e9e-534351453591","countryId":"country.zwicjl"},"geometry":{"type":"Polygon","coordinates":[[[-0.1654,51.6713],[-0.2936,51.6383],[-0.2668,51.601],[-0.2047,51.5515],[-0.1627,51.5664],[-0.1305,51.6078],[-0.1654,51.6713]]]}},{"type":"Feature","properties":{"sourceId":"1159312975","regionId":"region.79248425-984b-497d-8119-cd4ad2b74abe","countryId":"country.zwicjl"},"geometry":{"type":"Polygon","coordinates":[[[-0.03,51.6011],[-0.0527,51.5736],[-0.0106,51.5524],[0.0239,51.5543],[0.0276,51.6265],[-0.0026,51.6466],[-0.03,51.6011]]]}},{"type":"Feature","properties":{"sourceId":"1159312967","regionId":"region.a3629e38-9494-4403-ae21-72f55dce4554","countryId":"country.zwicjl"},"geometry":{"type":"Polygon","coordinates":[[[0.1485,51.6174],[0.0276,51.6265],[0.0239,51.5543],[0.0746,51.5421],[0.1524,51.5989],[0.1485,51.6174]]]}},{"type":"Feature","properties":{"sourceId":"1159313587","regionId":"region.fdc60b09-c9fd-4820-a442-1d78c03d35cf","countryId":"country.zwicjl"},"geometry":{"type":"Polygon","coordinates":[[[0.1524,51.5989],[0.166,51.5001],[0.2246,51.489],[0.3199,51.5579],[0.1485,51.6174],[0.1524,51.5989]]]}},{"type":"Feature","properties":{"sourceId":"1159312899","regionId":"region.9c991975-4491-485e-a7b2-69efbe83d2df","countryId":"country.zwicjl"},"geometry":{"type":"Polygon","coordinates":[[[-0.1461,52.0697],[0.0805,52.0024],[0.2866,52.0849],[0.4089,52.0593],[0.5172,52.2105],[0.3897,52.3902],[0.4472,52.4322],[0.253,52.4874],[0.1724,52.7243],[-0.0495,52.6579],[-0.0628,52.5854],[-0.2868,52.5041],[-0.4144,52.5596],[-0.3356,52.4555],[-0.4588,52.3088],[-0.2531,52.1919],[-0.1461,52.0697]]]}},{"type":"Feature","properties":{"sourceId":"1159312917","regionId":"region.f2e5fb05-693e-4a50-a902-b3e94b3a9ec5","countryId":"country.zwicjl"},"geometry":{"type":"Polygon","coordinates":[[[0.166,51.5001],[0.1205,51.5028],[0.0803,51.4315],[0.1662,51.3985],[0.2228,51.4719],[0.2246,51.489],[0.166,51.5001]]]}},{"type":"Feature","properties":{"sourceId":"1159312971","regionId":"region.31740ac3-1d01-47ff-914e-587244c1b2a9","countryId":"country.zwicjl"},"geometry":{"type":"Polygon","coordinates":[[[-0.1313,51.3872],[-0.2248,51.3853],[-0.2431,51.3736],[-0.1637,51.3196],[-0.1313,51.3872]]]}},{"type":"Feature","properties":{"sourceId":"1159312867","regionId":"region.e4006f76-ba61-4d11-ab4a-185357e3c3fe","countryId":"country.zwicjl"},"geometry":{"type":"Polygon","coordinates":[[[-0.8674,52.0338],[-0.6572,51.9479],[-0.5737,52.0966],[-0.6545,52.1925],[-0.8784,52.116],[-0.8674,52.0338]]]}},{"type":"Feature","properties":{"sourceId":"1159312873","regionId":"region.ad563d6b-bd0d-4baa-a3f3-3cb05e4d677b","countryId":"country.zwicjl"},"geometry":{"type":"Polygon","coordinates":[[[-0.8674,52.0338],[-1.1082,52.0092],[-1.0472,51.9397],[-1.1162,51.838],[-1.0659,51.7513],[-0.8845,51.7163],[-0.9445,51.6191],[-0.8871,51.5481],[-0.8463,51.5425],[-0.6362,51.4937],[-0.5128,51.4758],[-0.4972,51.4778],[-0.4935,51.5909],[-0.5336,51.8194],[-0.6572,51.9479],[-0.8674,52.0338]]]}},{"type":"Feature","properties":{"sourceId":"1159314755","regionId":"region.8a89cf2b-9e41-4c95-8a56-7e1af4c328c7","countryId":"country.zwicjl"},"geometry":{"type":"Polygon","coordinates":[[[-0.3678,51.5484],[-0.3998,51.6148],[-0.4935,51.5909],[-0.4972,51.4778],[-0.4414,51.4539],[-0.3927,51.4936],[-0.3678,51.5484]]]}},{"type":"Feature","properties":{"sourceId":"1159312919","regionId":"region.1e151de6-b79d-4c8c-8e81-d9a9c8303447","countryId":"country.zwicjl"},"geometry":{"type":"Polygon","coordinates":[[[-0.179,51.5283],[-0.2047,51.5515],[-0.2668,51.601],[-0.3255,51.5493],[-0.2366,51.5265],[-0.2111,51.522],[-0.179,51.5283]]]}},{"type":"Feature","properties":{"sourceId":"1159314753","regionId":"region.c201636c-937c-40d5-947b-72f98fafa9ce","countryId":"country.zwicjl"},"geometry":{"type":"Polygon","coordinates":[[[-0.3852,51.9211],[-0.4527,51.8474],[-0.3353,51.851],[-0.3852,51.9211]]]}},{"type":"Feature","properties":{"sourceId":"1159314783","regionId":"region.74fdfde9-8f7d-48e5-a933-0e0b08004fd7","countryId":"country.zwicjl"},"geometry":{"type":"Polygon","coordinates":[[[-0.3255,51.5493],[-0.2668,51.601],[-0.2936,51.6383],[-0.3998,51.6148],[-0.3678,51.5484],[-0.3255,51.5493]]]}},{"type":"Feature","properties":{"sourceId":"1159312875","regionId":"region.2b9065a1-d9dd-4ea5-9136-9072846ac18e","countryId":"country.zwicjl"},"geometry":{"type":"Polygon","coordinates":[[[-0.6572,51.9479],[-0.5336,51.8194],[-0.4527,51.8474],[-0.3852,51.9211],[-0.1461,52.0697],[-0.2531,52.1919],[-0.3935,52.0665],[-0.5737,52.0966],[-0.6572,51.9479]]]}},{"type":"Feature","properties":{"sourceId":"1159317553","regionId":"region.97a4b5b1-8dc4-4791-84b2-cf585127cb89","countryId":"country.zwicjl"},"geometry":{"type":"Polygon","coordinates":[[[-0.5737,52.0966],[-0.3935,52.0665],[-0.2531,52.1919],[-0.4588,52.3088],[-0.6414,52.2591],[-0.6545,52.1925],[-0.5737,52.0966]]]}},{"type":"Feature","properties":{"sourceId":"1159314771","regionId":"region.f88ab070-4ccf-4317-8e2f-b74128e01d19","countryId":"country.zwicjl"},"geometry":{"type":"Polygon","coordinates":[[[-0.6511,52.7475],[-0.8051,52.7087],[-0.7299,52.5067],[-0.4907,52.6365],[-0.6511,52.7475]]]}},{"type":"Feature","properties":{"sourceId":"1159314775","regionId":"region.4c5d125f-8476-4b7e-a9b5-b177a3f465c0","countryId":"country.zwicjl"},"geometry":{"type":"Polygon","coordinates":[[[-0.9194,53.4874],[-1.1181,53.3786],[-1.176,53.2929],[-1.1909,53.1677],[-1.3297,53.0502],[-1.2628,52.8616],[-1.1882,52.7723],[-0.9795,52.8077],[-0.7667,52.9612],[-0.6886,53.0497],[-0.7765,53.2342],[-0.7972,53.4523],[-0.9194,53.4874]],[[-1.171,52.8723],[-1.2288,52.9159],[-1.1923,52.992],[-1.1041,52.9189],[-1.171,52.8723]]]}},{"type":"Feature","properties":{"sourceId":"1159314747","regionId":"region.d08809a3-6eb0-436a-8501-b18bbb230200","countryId":"country.zwicjl"},"geometry":{"type":"Polygon","coordinates":[[[-0.6545,52.1925],[-0.6414,52.2591],[-0.4588,52.3088],[-0.3356,52.4555],[-0.4144,52.5596],[-0.4907,52.6365],[-0.7299,52.5067],[-0.8708,52.505],[-1.1866,52.3813],[-1.2081,52.2499],[-1.3212,52.1615],[-1.265,51.9797],[-1.1082,52.0092],[-0.8674,52.0338],[-0.8784,52.116],[-0.6545,52.1925]]]}},{"type":"Feature","properties":{"sourceId":"1159312925","regionId":"region.58f525d1-2f05-4cab-935e-08c0badccdbc","countryId":"country.zwicjl"},"geometry":{"type":"Polygon","coordinates":[[[-0.131,51.5641],[-0.1627,51.5664],[-0.2047,51.5515],[-0.179,51.5283],[-0.1122,51.5024],[-0.1079,51.5053],[-0.0973,51.5097],[-0.1025,51.5235],[-0.131,51.5641]]]}},{"type":"Feature","properties":{"sourceId":"1159312939","regionId":"region.0adc64a1-f3b2-464e-a84f-db58a227a169","countryId":"country.zwicjl"},"geometry":{"type":"Polygon","coordinates":[[[-0.1025,51.5235],[-0.0874,51.5269],[-0.0941,51.5601],[-0.131,51.5641],[-0.1025,51.5235]]]}},{"type":"Feature","properties":{"sourceId":"1159314767","regionId":"region.4fbb15e0-96cd-4992-8e19-547ec142cd03","countryId":"country.zwicjl"},"geometry":{"type":"Polygon","coordinates":[[[-0.0495,52.6579],[-0.4907,52.6365],[-0.4144,52.5596],[-0.2868,52.5041],[-0.0628,52.5854],[-0.0495,52.6579]]]}},{"type":"Feature","properties":{"sourceId":"1159314785","regionId":"region.1c37e4bd-e79f-48e4-a018-a4da7fbf9e6e","countryId":"country.zwicjl"},"geometry":{"type":"Polygon","coordinates":[[[-0.1269,51.408],[-0.0764,51.4143],[-0.0746,51.4192],[-0.1079,51.5053],[-0.1122,51.5024],[-0.1279,51.4921],[-0.1317,51.4177],[-0.1269,51.408]]]}},{"type":"Feature","properties":{"sourceId":"1159314791","regionId":"region.74b6a633-4c4c-4a30-8076-349b2e43c1a4","countryId":"country.zwicjl"},"geometry":{"type":"Polygon","coordinates":[[[-0.0669,51.5079],[-0.0973,51.5097],[-0.1079,51.5053],[-0.0746,51.4192],[-0.0667,51.421],[-0.0231,51.4887],[-0.0669,51.5079]]]}},{"type":"Feature","properties":{"sourceId":"1159317525","regionId":"region.75896abe-21db-4b5a-a4c6-8c6e9c29b7d7","countryId":"country.zwicjl"},"geometry":{"type":"Polygon","coordinates":[[[-1.0739,53.6477],[-1.23,53.6207],[-1.3445,53.5808],[-1.3254,53.4778],[-1.1181,53.3786],[-0.9194,53.4874],[-0.8607,53.6124],[-1.0739,53.6477]]]}},{"type":"Feature","properties":{"sourceId":"1159312927","regionId":"region.82a267cb-225a-42c2-96af-fe8f27ee1252","countryId":"country.zwicjl"},"geometry":{"type":"Polygon","coordinates":[[[-0.1313,51.3872],[-0.1637,51.3196],[0.0131,51.3207],[-0.0764,51.4143],[-0.1269,51.408],[-0.1313,51.3872]]]}},{"type":"Feature","properties":{"sourceId":"1159314787","regionId":"region.467238aa-45f5-4bda-92b6-7a778b00d77d","countryId":"country.zwicjl"},"geometry":{"type":"Polygon","coordinates":[[[-0.0231,51.4887],[-0.0667,51.421],[0.0255,51.438],[-0.0231,51.4887]]]}},{"type":"Feature","properties":{"sourceId":"1159314781","regionId":"region.88d37221-ec66-4422-bdce-c35eaa741412","countryId":"country.zwicjl"},"geometry":{"type":"Polygon","coordinates":[[[-0.0941,51.5601],[-0.0527,51.5736],[-0.03,51.6011],[-0.1305,51.6078],[-0.1627,51.5664],[-0.131,51.5641],[-0.0941,51.5601]]]}},{"type":"Feature","properties":{"sourceId":"1159314757","regionId":"region.a4c261fa-ad8a-4b27-9da3-0768f3a8f0f6","countryId":"country.zwicjl"},"geometry":{"type":"Polygon","coordinates":[[[-0.2443,51.4325],[-0.3067,51.3844],[-0.2431,51.3736],[-0.2248,51.3853],[-0.2443,51.4325]]]}},{"type":"Feature","properties":{"sourceId":"1159314789","regionId":"region.dba75e57-75c8-47b0-b2bc-c8fbadcef6b9","countryId":"country.zwicjl"},"geometry":{"type":"Polygon","coordinates":[[[0.0194,51.5026],[0.0969,51.4977],[0.0746,51.5421],[0.0239,51.5543],[-0.0106,51.5524],[-0.011,51.5435],[0.0194,51.5026]]]}},{"type":"Feature","properties":{"sourceId":"1159312933","regionId":"region.450237f4-9db8-4de9-abea-37ad9d35aeec","countryId":"country.zwicjl"},"geometry":{"type":"Polygon","coordinates":[[[0.0194,51.5026],[-0.0231,51.4887],[0.0255,51.438],[0.0803,51.4315],[0.1205,51.5028],[0.0969,51.4977],[0.0194,51.5026]]]}},{"type":"Feature","properties":{"sourceId":"1159314779","regionId":"region.daa3c366-431f-42d5-bea2-cce8152b110e","countryId":"country.zwicjl"},"geometry":{"type":"Polygon","coordinates":[[[-0.0874,51.5269],[-0.072,51.516],[-0.011,51.5435],[-0.0106,51.5524],[-0.0527,51.5736],[-0.0941,51.5601],[-0.0874,51.5269]]]}},{"type":"Feature","properties":{"sourceId":"1159312915","regionId":"region.2713c668-946f-485c-9bf9-7a670364a5f1","countryId":"country.zwicjl"},"geometry":{"type":"Polygon","coordinates":[[[0.1524,51.5989],[0.0746,51.5421],[0.0969,51.4977],[0.1205,51.5028],[0.166,51.5001],[0.1524,51.5989]]]}},{"type":"Feature","properties":{"sourceId":"1159312901","regionId":"region.42adf889-71e7-459b-87e4-e235f149c3d2","countryId":"country.zwicjl"},"geometry":{"type":"Polygon","coordinates":[[[-0.7667,52.9612],[-0.9795,52.8077],[-1.1882,52.7723],[-1.2628,52.8616],[-1.5831,52.685],[-1.58,52.6769],[-1.5458,52.5808],[-1.2934,52.4794],[-1.1866,52.3813],[-0.8708,52.505],[-0.7299,52.5067],[-0.8051,52.7087],[-0.6511,52.7475],[-0.7667,52.9612]],[[-1.1221,52.5653],[-1.1799,52.6382],[-1.0718,52.6483],[-1.1221,52.5653]]]}},{"type":"Feature","properties":{"sourceId":"1159312841","regionId":"region.3e433cc4-fb52-4365-8862-0936a7e1eca1","countryId":"country.zwicjl"},"geometry":{"type":"Polygon","coordinates":[[[-2.0168,53.3704],[-2.2603,53.3449],[-2.3167,53.3599],[-2.4288,53.3803],[-2.509,53.3309],[-2.4103,53.232],[-2.4894,53.1473],[-2.6534,53.0907],[-2.6228,52.9858],[-2.3788,52.9896],[-2.2437,53.0859],[-2.2049,53.1136],[-1.9769,53.2073],[-2.0168,53.3704]]]}},{"type":"Feature","properties":{"sourceId":"1159312913","regionId":"region.f4d97425-354b-4948-afe6-b6a54b545931","countryId":"country.zwicjl"},"geometry":{"type":"Polygon","coordinates":[[[-1.9769,53.2073],[-1.7717,53.0902],[-1.8239,52.8755],[-1.5909,52.8108],[-1.5831,52.685],[-1.2628,52.8616],[-1.3297,53.0502],[-1.1909,53.1677],[-1.176,53.2929],[-1.3937,53.3252],[-1.5314,53.2897],[-1.7342,53.4108],[-1.8161,53.5161],[-1.8972,53.533],[-1.9778,53.4688],[-2.0117,53.4125],[-2.0168,53.3704],[-1.9769,53.2073]],[[-1.4316,52.8418],[-1.546,52.8764],[-1.4867,52.9378],[-1.4015,52.9098],[-1.4316,52.8418]]]}},{"type":"Feature","properties":{"sourceId":"1159314811","regionId":"region.689c4fd1-28ff-498b-817c-6f58d3617c35","countryId":"country.zwicjl"},"geometry":{"type":"Polygon","coordinates":[[[-1.3937,53.3252],[-1.176,53.2929],[-1.1181,53.3786],[-1.3254,53.4778],[-1.4061,53.411],[-1.3937,53.3252]]]}},{"type":"Feature","properties":{"sourceId":"1159317521","regionId":"region.f0974bfe-5d0e-42ef-9524-dca58c0ff90a","countryId":"country.zwicjl"},"geometry":{"type":"Polygon","coordinates":[[[-1.3937,53.3252],[-1.4061,53.411],[-1.4645,53.4694],[-1.8161,53.5161],[-1.7342,53.4108],[-1.5314,53.2897],[-1.3937,53.3252]]]}},{"type":"Feature","properties":{"sourceId":"1159314803","regionId":"region.de93b449-533e-4e4e-9a1e-ea1b1fab8063","countryId":"country.zwicjl"},"geometry":{"type":"Polygon","coordinates":[[[-2.2437,53.0859],[-2.2015,52.9637],[-2.0982,52.9891],[-2.2049,53.1136],[-2.2437,53.0859]]]}},{"type":"Feature","properties":{"sourceId":"1159312949","regionId":"region.336b0a45-bdc7-42e9-af92-dbc76eb65a3b","countryId":"country.zwicjl"},"geometry":{"type":"Polygon","coordinates":[[[-2.3966,52.8216],[-2.6462,52.7585],[-2.4246,52.607],[-2.324,52.7477],[-2.3966,52.8216]]]}},{"type":"Feature","properties":{"sourceId":"1159314801","regionId":"region.d206cc17-4cdb-453f-8a81-d60d27b842b2","countryId":"country.zwicjl"},"geometry":{"type":"Polygon","coordinates":[[[-2.324,52.7477],[-2.2315,52.6691],[-2.2862,52.4446],[-2.1539,52.423],[-2.1261,52.5444],[-2.0509,52.6174],[-1.8556,52.5755],[-1.7777,52.5753],[-1.6348,52.588],[-1.58,52.6769],[-1.5831,52.685],[-1.5909,52.8108],[-1.8239,52.8755],[-1.7717,53.0902],[-1.9769,53.2073],[-2.2049,53.1136],[-2.0982,52.9891],[-2.2015,52.9637],[-2.2437,53.0859],[-2.3788,52.9896],[-2.4495,52.8855],[-2.3966,52.8216],[-2.324,52.7477]]]}},{"type":"Feature","properties":{"sourceId":"1159312921","regionId":"region.69d34179-4643-43ee-b35f-2479aba26b35","countryId":"country.zwicjl"},"geometry":{"type":"Polygon","coordinates":[[[0.1662,51.3985],[0.0803,51.4315],[0.0255,51.438],[-0.0667,51.421],[-0.0746,51.4192],[-0.0764,51.4143],[0.0131,51.3207],[0.0544,51.2899],[0.1662,51.3985]]]}},{"type":"Feature","properties":{"sourceId":"1159314799","regionId":"region.db7c033f-cd77-4ad5-80a1-43a24a92b42c","countryId":"country.zwicjl"},"geometry":{"type":"Polygon","coordinates":[[[-1.7578,52.1058],[-1.9445,52.1647],[-1.8445,52.3836],[-2.0306,52.4369],[-2.1539,52.423],[-2.2862,52.4446],[-2.3275,52.3897],[-2.6409,52.3322],[-2.607,52.2417],[-2.4064,52.2058],[-2.3516,52.0139],[-2.1433,52.0063],[-1.8278,52.0344],[-1.7578,52.1058]]]}},{"type":"Feature","properties":{"sourceId":"1159314749","regionId":"region.3503b67a-7d3e-463c-b73c-007bccd5c0a7","countryId":"country.zwicjl"},"geometry":{"type":"Polygon","coordinates":[[[-1.7578,52.1058],[-1.6525,51.9839],[-1.3212,52.1615],[-1.2081,52.2499],[-1.1866,52.3813],[-1.2934,52.4794],[-1.5458,52.5808],[-1.58,52.6769],[-1.6348,52.588],[-1.7777,52.5753],[-1.7411,52.4975],[-1.6195,52.4444],[-1.455,52.438],[-1.4628,52.3658],[-1.64,52.3508],[-1.8353,52.3806],[-1.8445,52.3836],[-1.9445,52.1647],[-1.7578,52.1058]]]}},{"type":"Feature","properties":{"sourceId":"1159314751","regionId":"region.a4898608-50cc-4002-b029-a4b711b57809","countryId":"country.zwicjl"},"geometry":{"type":"Polygon","coordinates":[[[-1.6525,51.9839],[-1.6833,51.6786],[-1.5845,51.5174],[-1.322,51.55],[-1.0811,51.4891],[-0.9645,51.4547],[-0.8871,51.5481],[-0.9445,51.6191],[-0.8845,51.7163],[-1.0659,51.7513],[-1.1162,51.838],[-1.0472,51.9397],[-1.1082,52.0092],[-1.265,51.9797],[-1.3212,52.1615],[-1.6525,51.9839]]]}},{"type":"Feature","properties":{"sourceId":"1159317491","regionId":"region.5b7c682a-f16d-4972-9efe-0b3d40611e7a","countryId":"country.zwicjl"},"geometry":{"type":"Polygon","coordinates":[[[-2.752,53.5111],[-2.5664,53.4356],[-2.485,53.4622],[-2.5114,53.5382],[-2.5589,53.5991],[-2.6867,53.5997],[-2.752,53.5111]]]}},{"type":"Feature","properties":{"sourceId":"1159317505","regionId":"region.da9f4862-ecd9-42e5-9e87-ab654c40084e","countryId":"country.zwicjl"},"geometry":{"type":"Polygon","coordinates":[[[-2.0117,53.4125],[-2.2254,53.4373],[-2.2603,53.3449],[-2.0168,53.3704],[-2.0117,53.4125]]]}},{"type":"Feature","properties":{"sourceId":"1159314793","regionId":"region.59af009a-5ee8-4057-99c1-6668eebd6f71","countryId":"country.zwicjl"},"geometry":{"type":"Polygon","coordinates":[[[-2.5664,53.4356],[-2.6806,53.3788],[-2.5694,53.3123],[-2.509,53.3309],[-2.4288,53.3803],[-2.4467,53.4188],[-2.485,53.4622],[-2.5664,53.4356]]]}},{"type":"Feature","properties":{"sourceId":"1159317541","regionId":"region.0d1468ff-72ee-45e5-a22f-77bd63f8778a","countryId":"country.zwicjl"},"geometry":{"type":"Polygon","coordinates":[[[-1.032,51.3547],[-1.0535,51.4119],[-1.0811,51.4891],[-1.322,51.55],[-1.5845,51.5174],[-1.5804,51.503],[-1.487,51.3324],[-1.3995,51.3705],[-1.032,51.3547]]]}},{"type":"Feature","properties":{"sourceId":"1159317543","regionId":"region.ab358909-e509-4b23-8456-6ce3f7eb5f30","countryId":"country.zwicjl"},"geometry":{"type":"Polygon","coordinates":[[[-1.032,51.3547],[-0.8529,51.3501],[-0.828,51.4697],[-0.8463,51.5425],[-0.8871,51.5481],[-0.9645,51.4547],[-1.0535,51.4119],[-1.032,51.3547]]]}},{"type":"Feature","properties":{"sourceId":"1159317545","regionId":"region.ae351c38-9b70-484f-99ab-3c5708f67000","countryId":"country.zwicjl"},"geometry":{"type":"Polygon","coordinates":[[[-0.7653,51.3313],[-0.6987,51.3669],[-0.828,51.4697],[-0.8529,51.3501],[-0.7653,51.3313]]]}},{"type":"Feature","properties":{"sourceId":"1159317547","regionId":"region.c18ccc86-1285-474f-a260-ca427d220eb2","countryId":"country.zwicjl"},"geometry":{"type":"Polygon","coordinates":[[[-0.6362,51.4937],[-0.8463,51.5425],[-0.828,51.4697],[-0.6987,51.3669],[-0.5757,51.4456],[-0.6362,51.4937]]]}},{"type":"Feature","properties":{"sourceId":"1159317551","regionId":"region.6243619f-8037-4cfc-a6af-295560d4ba53","countryId":"country.zwicjl"},"geometry":{"type":"Polygon","coordinates":[[[-0.5128,51.4758],[-0.6362,51.4937],[-0.5757,51.4456],[-0.5128,51.4758]]]}},{"type":"Feature","properties":{"sourceId":"1159312891","regionId":"region.f9dc924a-0c7e-41fe-acfc-6bddb8a282dc","countryId":"country.zwicjl"},"geometry":{"type":"Polygon","coordinates":[[[-1.0811,51.4891],[-1.0535,51.4119],[-0.9645,51.4547],[-1.0811,51.4891]]]}},{"type":"Feature","properties":{"sourceId":"1159314761","regionId":"region.25a78b8b-e19d-4497-828f-859e19a510d9","countryId":"country.zwicjl"},"geometry":{"type":"Polygon","coordinates":[[[-0.4414,51.4539],[-0.4972,51.4778],[-0.5128,51.4758],[-0.5757,51.4456],[-0.6987,51.3669],[-0.7653,51.3313],[-0.84,51.2039],[-0.7537,51.0887],[-0.5414,51.0791],[-0.182,51.1613],[0.0213,51.1358],[0.0627,51.1358],[0.0544,51.2899],[0.0131,51.3207],[-0.1637,51.3196],[-0.2431,51.3736],[-0.3067,51.3844],[-0.3844,51.4137],[-0.4414,51.4539]]]}},{"type":"Feature","properties":{"sourceId":"1159312951","regionId":"region.d7c66f87-7d71-4a6f-8572-59c8b444f337","countryId":"country.zwicjl"},"geometry":{"type":"Polygon","coordinates":[[[-2.3566,53.6646],[-2.5044,53.627],[-2.3764,53.6349],[-2.3566,53.6646]]]}},{"type":"Feature","properties":{"sourceId":"1159314763","regionId":"region.00a30ea6-772d-4061-9a03-d1e4297c9eb5","countryId":"country.zwicjl"},"geometry":{"type":"Polygon","coordinates":[[[-1.6833,51.6786],[-1.7497,51.6588],[-1.8347,51.5078],[-1.6977,51.4601],[-1.5804,51.503],[-1.5845,51.5174],[-1.6833,51.6786]]]}},{"type":"Feature","properties":{"sourceId":"1159312879","regionId":"region.d2ea704a-b152-43ad-84c7-10a112cd04ec","countryId":"country.zwicjl"},"geometry":{"type":"Polygon","coordinates":[[[-2.2901,51.3249],[-2.2807,51.4203],[-2.5227,51.4188],[-2.6335,51.3821],[-2.7127,51.3198],[-2.4581,51.273],[-2.2901,51.3249]]]}},{"type":"Feature","properties":{"sourceId":"1159314765","regionId":"region.c1e63158-b370-4dab-8615-d5e0440b66d4","countryId":"country.zwicjl"},"geometry":{"type":"Polygon","coordinates":[[[-1.7497,51.6588],[-2.0573,51.6641],[-2.2716,51.5772],[-2.2807,51.4203],[-2.2901,51.3249],[-2.2362,51.2641],[-2.3217,51.0833],[-2.0992,50.9558],[-1.9501,50.9883],[-1.6106,50.9597],[-1.655,51.1713],[-1.487,51.3324],[-1.5804,51.503],[-1.6977,51.4601],[-1.8347,51.5078],[-1.7497,51.6588]]]}},{"type":"Feature","properties":{"sourceId":"1159317511","regionId":"region.95a668e1-6630-4701-8dfd-a57678969eec","countryId":"country.zwicjl"},"geometry":{"type":"Polygon","coordinates":[[[-2.1514,53.6965],[-2.0239,53.6394],[-1.8227,53.6706],[-1.7564,53.7388],[-1.9778,53.8694],[-2.0326,53.8476],[-2.1514,53.6965]]]}},{"type":"Feature","properties":{"sourceId":"1159314807","regionId":"region.1e3be533-9a14-4eac-a93e-5dbe08d5efb6","countryId":"country.zwicjl"},"geometry":{"type":"Polygon","coordinates":[[[-1.8161,53.5161],[-1.6003,53.5741],[-1.581,53.7018],[-1.6472,53.7641],[-1.7564,53.7388],[-1.8227,53.6706],[-2.0239,53.6394],[-1.9881,53.6147],[-1.8972,53.533],[-1.8161,53.5161]]]}},{"type":"Feature","properties":{"sourceId":"1159314773","regionId":"region.d99acc73-d869-43d3-96ea-56057e9fff43","countryId":"country.zwicjl"},"geometry":{"type":"Polygon","coordinates":[[[-1.171,52.8723],[-1.1041,52.9189],[-1.1923,52.992],[-1.2288,52.9159],[-1.171,52.8723]]]}},{"type":"Feature","properties":{"sourceId":"1159314769","regionId":"region.22407406-f309-4444-a84b-3ce80d3d0548","countryId":"country.zwicjl"},"geometry":{"type":"Polygon","coordinates":[[[-1.1221,52.5653],[-1.0718,52.6483],[-1.1799,52.6382],[-1.1221,52.5653]]]}},{"type":"Feature","properties":{"sourceId":"1159312911","regionId":"region.60f7010c-7155-4a8f-8cad-2c7182a11a09","countryId":"country.zwicjl"},"geometry":{"type":"Polygon","coordinates":[[[-1.4316,52.8418],[-1.4015,52.9098],[-1.4867,52.9378],[-1.546,52.8764],[-1.4316,52.8418]]]}},{"type":"Feature","properties":{"sourceId":"1159317517","regionId":"region.90666e25-ae05-4858-aee2-f5aa75cb2624","countryId":"country.zwicjl"},"geometry":{"type":"Polygon","coordinates":[[[-1.6472,53.7641],[-1.581,53.7018],[-1.3069,53.738],[-1.2942,53.9255],[-1.7286,53.9027],[-1.6472,53.7641]]]}},{"type":"Feature","properties":{"sourceId":"1159317515","regionId":"region.c0df9c18-beec-4412-be54-95872148c570","countryId":"country.zwicjl"},"geometry":{"type":"Polygon","coordinates":[[[-1.7286,53.9027],[-1.9436,53.9577],[-1.9778,53.8694],[-1.7564,53.7388],[-1.6472,53.7641],[-1.7286,53.9027]]]}},{"type":"Feature","properties":{"sourceId":"1159317519","regionId":"region.690ab6a7-a18a-40b1-93e0-06a9cce4c92b","countryId":"country.zwicjl"},"geometry":{"type":"Polygon","coordinates":[[[-1.6003,53.5741],[-1.3445,53.5808],[-1.23,53.6207],[-1.3069,53.738],[-1.581,53.7018],[-1.6003,53.5741]]]}},{"type":"Feature","properties":{"sourceId":"1159317523","regionId":"region.b8564b4f-ca77-4535-bd84-e7ae15b06d3e","countryId":"country.zwicjl"},"geometry":{"type":"Polygon","coordinates":[[[-1.8161,53.5161],[-1.4645,53.4694],[-1.4061,53.411],[-1.3254,53.4778],[-1.3445,53.5808],[-1.6003,53.5741],[-1.8161,53.5161]]]}},{"type":"Feature","properties":{"sourceId":"1159314809","regionId":"region.f666ead1-1dd5-4add-8b88-a36544fcc82d","countryId":"country.zwicjl"},"geometry":{"type":"Polygon","coordinates":[[[-2.485,53.4622],[-2.4467,53.4188],[-2.3204,53.4524],[-2.3053,53.5041],[-2.3355,53.5343],[-2.5114,53.5382],[-2.485,53.4622]]]}},{"type":"Feature","properties":{"sourceId":"1159317493","regionId":"region.53d6aab6-72f5-4073-982f-2ff6bf0a51ac","countryId":"country.zwicjl"},"geometry":{"type":"Polygon","coordinates":[[[-2.5114,53.5382],[-2.3355,53.5343],[-2.3764,53.6349],[-2.5044,53.627],[-2.5589,53.5991],[-2.5114,53.5382]]]}},{"type":"Feature","properties":{"sourceId":"1159317509","regionId":"region.e6c018ce-b3cf-44bf-b250-8af367cee9e7","countryId":"country.zwicjl"},"geometry":{"type":"Polygon","coordinates":[[[-2.3204,53.4524],[-2.4467,53.4188],[-2.4288,53.3803],[-2.3167,53.3599],[-2.3204,53.4524]]]}},{"type":"Feature","properties":{"sourceId":"1159317507","regionId":"region.e0e1a183-568a-47a6-b0fe-b851b469a3cc","countryId":"country.zwicjl"},"geometry":{"type":"Polygon","coordinates":[[[-2.3167,53.3599],[-2.2603,53.3449],[-2.2254,53.4373],[-2.2039,53.4761],[-2.1823,53.5257],[-2.2513,53.5494],[-2.3053,53.5041],[-2.3204,53.4524],[-2.3167,53.3599]]]}},{"type":"Feature","properties":{"sourceId":"1159317501","regionId":"region.378fc59a-a7c6-44ec-a778-c7b2555a2620","countryId":"country.zwicjl"},"geometry":{"type":"Polygon","coordinates":[[[-2.1823,53.5257],[-2.2039,53.4761],[-1.9778,53.4688],[-1.8972,53.533],[-1.9881,53.6147],[-2.1823,53.5257]]]}},{"type":"Feature","properties":{"sourceId":"1159317499","regionId":"region.6329e9e6-4901-4eb4-ad9a-c1591c2ba357","countryId":"country.zwicjl"},"geometry":{"type":"Polygon","coordinates":[[[-1.9881,53.6147],[-2.0239,53.6394],[-2.1514,53.6965],[-2.2581,53.6141],[-2.2513,53.5494],[-2.1823,53.5257],[-1.9881,53.6147]]]}},{"type":"Feature","properties":{"sourceId":"1159317503","regionId":"region.1f1be60d-bc12-401f-8ddc-4078b24087c1","countryId":"country.zwicjl"},"geometry":{"type":"Polygon","coordinates":[[[-1.9778,53.4688],[-2.2039,53.4761],[-2.2254,53.4373],[-2.0117,53.4125],[-1.9778,53.4688]]]}},{"type":"Feature","properties":{"sourceId":"1159317497","regionId":"region.977be301-6579-46c3-a3d6-85b5fd0e3db8","countryId":"country.zwicjl"},"geometry":{"type":"Polygon","coordinates":[[[-2.3053,53.5041],[-2.2513,53.5494],[-2.2581,53.6141],[-2.3566,53.6646],[-2.3764,53.6349],[-2.3355,53.5343],[-2.3053,53.5041]]]}},{"type":"Feature","properties":{"sourceId":"1159317537","regionId":"region.fbe4a93a-9f30-4e59-b3ff-ed117d30a4a2","countryId":"country.zwicjl"},"geometry":{"type":"Polygon","coordinates":[[[-1.6195,52.4444],[-1.7411,52.4975],[-1.8353,52.3806],[-1.64,52.3508],[-1.6195,52.4444]]]}},{"type":"Feature","properties":{"sourceId":"1159317539","regionId":"region.85963dae-c819-47d8-8f52-05be0c994f1e","countryId":"country.zwicjl"},"geometry":{"type":"Polygon","coordinates":[[[-1.64,52.3508],[-1.4628,52.3658],[-1.455,52.438],[-1.6195,52.4444],[-1.64,52.3508]]]}},{"type":"Feature","properties":{"sourceId":"1159312865","regionId":"region.78ac0819-e64c-43b9-a76d-4b6bcd1be297","countryId":"country.zwicjl"},"geometry":{"type":"Polygon","coordinates":[[[-1.7411,52.4975],[-1.7777,52.5753],[-1.8556,52.5755],[-1.9028,52.5468],[-2.0261,52.4638],[-2.0306,52.4369],[-1.8445,52.3836],[-1.8353,52.3806],[-1.7411,52.4975]]]}},{"type":"Feature","properties":{"sourceId":"1159317527","regionId":"region.b4e9b09a-d35e-48f2-b188-fbbaf6b6cd06","countryId":"country.zwicjl"},"geometry":{"type":"Polygon","coordinates":[[[-2.0782,52.5574],[-2.0261,52.4638],[-1.9028,52.5468],[-2.0557,52.5681],[-2.0782,52.5574]]]}},{"type":"Feature","properties":{"sourceId":"1159317529","regionId":"region.b9c63719-ae48-468c-a312-2cae60e0abcd","countryId":"country.zwicjl"},"geometry":{"type":"Polygon","coordinates":[[[-2.0782,52.5574],[-2.1261,52.5444],[-2.1539,52.423],[-2.0306,52.4369],[-2.0261,52.4638],[-2.0782,52.5574]]]}},{"type":"Feature","properties":{"sourceId":"1159317535","regionId":"region.46b08100-e8f9-470d-a565-9fac0e812fc4","countryId":"country.zwicjl"},"geometry":{"type":"Polygon","coordinates":[[[-2.0557,52.5681],[-1.9028,52.5468],[-1.8556,52.5755],[-2.0509,52.6174],[-2.0557,52.5681]]]}},{"type":"Feature","properties":{"sourceId":"1159317533","regionId":"region.58ca7de7-4eb4-4221-bb5d-38fc7b42f503","countryId":"country.zwicjl"},"geometry":{"type":"Polygon","coordinates":[[[-2.0509,52.6174],[-2.1261,52.5444],[-2.0782,52.5574],[-2.0557,52.5681],[-2.0509,52.6174]]]}}]}