{"type":"FeatureCollection","features":[{"type":"Feature","properties":{"sourceId":"1159312445","regionId":"region.d51b3af3-b651-425e-a660-3635cd5bed6c","countryId":"country.kb8qjm"},"geometry":{"type":"Polygon","coordinates":[[[27.0479,42.0829],[27.2734,42.0917],[27.5332,41.9081],[27.808,41.9935],[28.0168,41.9726],[27.9866,42.0721],[27.7512,42.277],[27.6917,42.4283],[27.4727,42.4619],[27.5115,42.553],[27.7432,42.7161],[27.8923,42.7105],[27.884,42.8484],[27.8018,42.8221],[27.6206,42.9094],[27.4952,42.8757],[27.2365,42.9884],[27.1191,42.9537],[27.0237,42.9288],[26.801,42.9469],[26.6897,42.8889],[26.5724,42.9238],[26.5931,42.6756],[26.6608,42.6958],[26.7194,42.6892],[26.87,42.4715],[27.0895,42.3373],[27.0199,42.1845],[27.0479,42.0829]]]}},{"type":"Feature","properties":{"sourceId":"1159312447","regionId":"region.9268bc00-3600-47a3-ace0-c48d19ea3abb","countryId":"country.kb8qjm"},"geometry":{"type":"Polygon","coordinates":[[[27.0479,42.0829],[27.0199,42.1845],[27.0895,42.3373],[26.87,42.4715],[26.7194,42.6892],[26.6608,42.6958],[26.5488,42.5776],[26.3782,42.549],[26.2453,42.463],[26.1301,42.157],[26.1428,42.0457],[26.4616,41.9493],[26.5529,41.8816],[26.6236,41.969],[26.8379,41.9752],[27.0479,42.0829]]]}},{"type":"Feature","properties":{"sourceId":"1159312467","regionId":"region.7399c7ce-9ffa-496e-842d-2d3d9235afa5","countryId":"country.kb8qjm"},"geometry":{"type":"Polygon","coordinates":[[[26.5529,41.8816],[26.4616,41.9493],[26.1428,42.0457],[26.057,42.0196],[25.9498,42.1081],[25.7566,42.0615],[25.5889,42.1927],[25.3295,42.1245],[25.3104,41.9879],[25.2226,41.9037],[25.2472,41.817],[25.3893,41.8466],[25.5316,41.7867],[25.7147,41.6211],[25.7822,41.6646],[25.9169,41.5627],[26.0595,41.6438],[26.1084,41.7279],[26.3334,41.713],[26.3755,41.8166],[26.5529,41.8816]]]}},{"type":"Feature","properties":{"sourceId":"1159312503","regionId":"region.2f11be72-1624-4ddf-95be-9cd317db0e71","countryId":"country.kb8qjm"},"geometry":{"type":"Polygon","coordinates":[[[22.6916,44.2284],[22.6047,44.0794],[22.4659,44.0176],[22.3996,43.9933],[22.3495,43.8079],[22.4729,43.6359],[22.5189,43.4742],[22.6589,43.4013],[22.7243,43.3861],[22.7975,43.4909],[22.9381,43.5811],[23.0526,43.8428],[22.9196,43.8342],[22.8505,43.897],[22.8859,43.9945],[23.0083,44.1004],[22.6916,44.2284]]]}},{"type":"Feature","properties":{"sourceId":"1159312485","regionId":"region.db94550d-3e93-4a67-a5d1-c6317da159c1","countryId":"country.kb8qjm"},"geometry":{"type":"Polygon","coordinates":[[[22.7396,42.8989],[22.5448,42.8717],[22.4304,42.8171],[22.4814,42.7398],[22.4413,42.6329],[22.5685,42.6324],[22.8501,42.3602],[23.0001,42.3968],[23.2157,42.3732],[23.2785,42.5323],[23.0595,42.7099],[23.0249,42.7627],[22.7984,42.8391],[22.7396,42.8989]]]}},{"type":"Feature","properties":{"sourceId":"1159312483","regionId":"region.7fa9b748-fcbb-4bd1-80ed-da827c39f13d","countryId":"country.kb8qjm"},"geometry":{"type":"Polygon","coordinates":[[[22.7396,42.8989],[22.7984,42.8391],[23.0249,42.7627],[23.0595,42.7099],[23.1772,42.7289],[23.2737,42.898],[23.4006,42.8478],[23.5963,42.8349],[23.5028,42.6579],[23.6544,42.4359],[23.5588,42.4208],[23.2785,42.5323],[23.2157,42.3732],[23.2939,42.3736],[23.4936,42.0991],[23.7631,42.1776],[23.8481,42.2257],[23.9594,42.3923],[23.9214,42.5075],[24.2289,42.6297],[24.4082,42.5621],[24.3967,42.7549],[24.1586,42.7809],[24.1514,42.9087],[23.9775,43.0599],[23.6344,43.053],[23.5526,43.0092],[23.3989,43.1629],[23.1273,43.1172],[22.9829,43.1873],[22.9353,43.0856],[22.7396,42.8989]]]}},{"type":"Feature","properties":{"sourceId":"1159312497","regionId":"region.e7977fb1-64fd-49d7-ada7-9902d5609b71","countryId":"country.kb8qjm"},"geometry":{"type":"Polygon","coordinates":[[[22.9829,43.1873],[23.1273,43.1172],[23.3989,43.1629],[23.3272,43.2757],[23.4108,43.4559],[23.551,43.5838],[23.6225,43.7141],[23.6209,43.834],[23.3252,43.8866],[23.0526,43.8428],[22.9381,43.5811],[22.7975,43.4909],[22.7243,43.3861],[22.8332,43.2746],[22.9829,43.1873]]]}},{"type":"Feature","properties":{"sourceId":"1159312501","regionId":"region.41d3a493-41ea-4e2b-9be4-e3cfda2e67c7","countryId":"country.kb8qjm"},"geometry":{"type":"Polygon","coordinates":[[[22.345,42.3134],[22.5069,42.1489],[22.6272,42.0791],[22.8456,42.0074],[22.9336,42.086],[23.0607,42.0487],[23.2006,42.0917],[23.3872,42.0623],[23.4936,42.0991],[23.2939,42.3736],[23.2157,42.3732],[23.0001,42.3968],[22.8501,42.3602],[22.5685,42.6324],[22.4413,42.6329],[22.5249,42.5077],[22.5088,42.4049],[22.345,42.3134]]]}},{"type":"Feature","properties":{"sourceId":"1159314603","regionId":"region.c42e91ed-0315-4900-a947-5f9e5c915639","countryId":"country.kb8qjm"},"geometry":{"type":"Polygon","coordinates":[[[22.917,41.3358],[23.1152,41.3127],[23.2877,41.3982],[23.6248,41.3771],[24.0473,41.5257],[24.1977,41.5477],[24.0726,41.6863],[23.8217,41.8238],[23.7666,41.9765],[23.8205,42.0453],[23.7631,42.1776],[23.4936,42.0991],[23.3872,42.0623],[23.2006,42.0917],[23.0607,42.0487],[22.9336,42.086],[22.8456,42.0074],[22.8821,41.8716],[22.9854,41.6772],[22.9436,41.5232],[22.917,41.3358]]]}},{"type":"Feature","properties":{"sourceId":"1159312461","regionId":"region.0b82ae4f-990a-4d8c-82c7-1f02f10253e4","countryId":"country.kb8qjm"},"geometry":{"type":"Polygon","coordinates":[[[27.2527,44.1215],[27.0275,44.177],[26.7895,44.116],[26.4158,44.0638],[26.3323,44.0549],[26.3963,43.9496],[26.5457,43.9449],[26.6172,43.8694],[26.8598,43.8062],[27.0008,43.6996],[27.2001,43.6689],[27.2964,43.8025],[27.5215,43.8521],[27.6825,43.9873],[27.6563,44.0239],[27.3838,44.0151],[27.2527,44.1215]]]}},{"type":"Feature","properties":{"sourceId":"1159312463","regionId":"region.cff9d112-7f24-42b6-89d5-076dd9f7767d","countryId":"country.kb8qjm"},"geometry":{"type":"Polygon","coordinates":[[[25.7329,43.7188],[25.4825,43.6697],[25.4701,43.5459],[25.6057,43.4126],[25.9354,43.3752],[26.0205,43.3189],[25.9461,43.4166],[26.0392,43.5073],[26.1842,43.5359],[26.1799,43.6616],[26.2953,43.6584],[26.3578,43.7629],[26.2539,43.8321],[26.3963,43.9496],[26.3323,44.0549],[26.1507,44.0124],[25.7329,43.7188]]]}},{"type":"Feature","properties":{"sourceId":"1159312457","regionId":"region.42320be4-222c-42d2-b531-e8d51d3f44b0","countryId":"country.kb8qjm"},"geometry":{"type":"Polygon","coordinates":[[[27.6825,43.9873],[27.5215,43.8521],[27.2964,43.8025],[27.2001,43.6689],[27.4189,43.5712],[27.6038,43.5419],[27.8677,43.3654],[28.087,43.3552],[28.3216,43.4283],[28.4595,43.3807],[28.6035,43.5382],[28.5784,43.7413],[28.2213,43.762],[27.981,43.8493],[27.9358,43.9644],[27.6825,43.9873]]]}},{"type":"Feature","properties":{"sourceId":"1159312499","regionId":"region.d1026d1f-0e53-41b1-b72f-d5f530486ab0","countryId":"country.kb8qjm"},"geometry":{"type":"Polygon","coordinates":[[[23.6209,43.834],[23.6225,43.7141],[23.551,43.5838],[23.4108,43.4559],[23.3272,43.2757],[23.3989,43.1629],[23.5526,43.0092],[23.6344,43.053],[23.9775,43.0599],[24.0268,43.2117],[23.9786,43.2946],[24.2281,43.3431],[24.2432,43.4375],[24.1202,43.589],[24.2875,43.6652],[24.3367,43.7593],[24.1496,43.7547],[23.6209,43.834]]]}},{"type":"Feature","properties":{"sourceId":"1159312493","regionId":"region.9340ba00-c0da-4be1-aff1-f416eb323101","countryId":"country.kb8qjm"},"geometry":{"type":"Polygon","coordinates":[[[24.6618,43.7557],[24.5001,43.7995],[24.3367,43.7593],[24.2875,43.6652],[24.1202,43.589],[24.2432,43.4375],[24.2281,43.3431],[23.9786,43.2946],[24.0268,43.2117],[24.2352,43.2263],[24.3925,43.278],[24.5898,43.2054],[24.7528,43.3087],[24.9801,43.3107],[25.1116,43.2799],[25.2257,43.3365],[25.1874,43.5891],[25.2854,43.6904],[24.9637,43.7496],[24.6618,43.7557]]]}},{"type":"Feature","properties":{"sourceId":"1159312495","regionId":"region.96b8696e-db34-4df6-875b-65910ad3a09c","countryId":"country.kb8qjm"},"geometry":{"type":"Polygon","coordinates":[[[25.2854,43.6904],[25.1874,43.5891],[25.2257,43.3365],[25.1116,43.2799],[25.0725,43.1811],[25.1437,43.1096],[25.3068,43.0601],[25.5594,43.0332],[25.6276,42.8885],[25.6201,42.767],[25.8109,42.7828],[26.0568,42.8172],[26.172,42.9491],[26.0573,43.0985],[26.0962,43.2149],[26.0205,43.3189],[25.9354,43.3752],[25.6057,43.4126],[25.4701,43.5459],[25.4825,43.6697],[25.2854,43.6904]]]}},{"type":"Feature","properties":{"sourceId":"1159312479","regionId":"region.690bb378-454a-4c4a-8feb-edf886c20d39","countryId":"country.kb8qjm"},"geometry":{"type":"Polygon","coordinates":[[[26.0595,41.6438],[25.9169,41.5627],[25.7822,41.6646],[25.7147,41.6211],[25.5316,41.7867],[25.3893,41.8466],[25.2472,41.817],[25.2226,41.9037],[25.0671,41.795],[25.1421,41.5235],[25.1538,41.3075],[25.2857,41.2394],[25.5515,41.3157],[25.882,41.304],[26.1209,41.3578],[26.1743,41.446],[26.0595,41.6438]]]}},{"type":"Feature","properties":{"sourceId":"1159312477","regionId":"region.460d61b5-c47a-41bf-a174-f1a506be8a6a","countryId":"country.kb8qjm"},"geometry":{"type":"Polygon","coordinates":[[[24.1977,41.5477],[24.2868,41.5176],[24.5309,41.5475],[24.5958,41.4298],[24.8864,41.4006],[25.1538,41.3075],[25.1421,41.5235],[25.0671,41.795],[24.8088,41.931],[24.5626,41.8852],[24.4511,41.9494],[24.424,41.8895],[24.2143,41.7407],[24.0726,41.6863],[24.1977,41.5477]]]}},{"type":"Feature","properties":{"sourceId":"1159312459","regionId":"region.1ec2fb14-855f-4cf4-bae0-92b883adaf1d","countryId":"country.kb8qjm"},"geometry":{"type":"Polygon","coordinates":[[[28.087,43.3552],[27.8677,43.3654],[27.6038,43.5419],[27.4189,43.5712],[27.3385,43.5544],[27.2487,43.2524],[27.1627,43.12],[27.2091,43.0474],[27.1191,42.9537],[27.2365,42.9884],[27.4952,42.8757],[27.6206,42.9094],[27.8018,42.8221],[27.884,42.8484],[27.8854,43.0086],[27.9443,43.1571],[28.087,43.3552]]]}},{"type":"Feature","properties":{"sourceId":"1159312475","regionId":"region.33aa3f58-7947-40cb-bad1-4815447c59d8","countryId":"country.kb8qjm"},"geometry":{"type":"Polygon","coordinates":[[[25.0115,42.7483],[25.0112,42.7585],[24.9247,42.714],[24.704,42.7167],[24.5,42.792],[24.3967,42.7549],[24.4082,42.5621],[24.3944,42.4641],[24.4888,42.2409],[24.4414,42.0709],[24.4511,41.9494],[24.5626,41.8852],[24.8088,41.931],[25.0671,41.795],[25.2226,41.9037],[25.3104,41.9879],[25.3295,42.1245],[25.088,42.188],[25.1491,42.2862],[25.1084,42.4011],[25.1759,42.4895],[25.026,42.5413],[25.0115,42.7483]]]}},{"type":"Feature","properties":{"sourceId":"1159312469","regionId":"region.bee1cc82-5bd4-4f9f-ade6-ec0b2538edcd","countryId":"country.kb8qjm"},"geometry":{"type":"Polygon","coordinates":[[[25.0115,42.7483],[25.026,42.5413],[25.1759,42.4895],[25.1084,42.4011],[25.1491,42.2862],[25.088,42.188],[25.3295,42.1245],[25.5889,42.1927],[25.7566,42.0615],[25.9498,42.1081],[26.057,42.0196],[26.1428,42.0457],[26.1301,42.157],[26.0246,42.1527],[25.8727,42.4498],[25.883,42.5683],[25.8109,42.7828],[25.6201,42.767],[25.394,42.7358],[25.2163,42.7726],[25.0115,42.7483]]]}},{"type":"Feature","properties":{"sourceId":"1159312465","regionId":"region.051a84df-4bf3-495a-b801-92d1d2b6773d","countryId":"country.kb8qjm"},"geometry":{"type":"Polygon","coordinates":[[[25.8109,42.7828],[25.883,42.5683],[25.8727,42.4498],[26.0246,42.1527],[26.1301,42.157],[26.2453,42.463],[26.3782,42.549],[26.5488,42.5776],[26.6608,42.6958],[26.5931,42.6756],[26.5724,42.9238],[26.5743,42.9866],[26.3358,43.0415],[26.172,42.9491],[26.0568,42.8172],[25.8109,42.7828]]]}},{"type":"Feature","properties":{"sourceId":"1159312453","regionId":"region.7d21dd61-2dc3-4f88-bad9-38062bb57d72","countryId":"country.kb8qjm"},"geometry":{"type":"Polygon","coordinates":[[[26.5724,42.9238],[26.6897,42.8889],[26.801,42.9469],[27.0237,42.9288],[27.1191,42.9537],[27.2091,43.0474],[27.1627,43.12],[27.2487,43.2524],[27.3385,43.5544],[27.4189,43.5712],[27.2001,43.6689],[27.0008,43.6996],[26.7233,43.4847],[26.7231,43.4109],[26.766,43.2522],[26.5743,42.9866],[26.5724,42.9238]]]}},{"type":"Feature","properties":{"sourceId":"1159312449","regionId":"region.8fcfc0b7-af0e-4bad-8db2-6d0afe201ee1","countryId":"country.kb8qjm"},"geometry":{"type":"Polygon","coordinates":[[[27.0008,43.6996],[26.8598,43.8062],[26.6172,43.8694],[26.5457,43.9449],[26.3963,43.9496],[26.2539,43.8321],[26.3578,43.7629],[26.2953,43.6584],[26.1799,43.6616],[26.1842,43.5359],[26.3228,43.5151],[26.3738,43.4357],[26.5984,43.3422],[26.7231,43.4109],[26.7233,43.4847],[27.0008,43.6996]]]}},{"type":"Feature","properties":{"sourceId":"1159312451","regionId":"region.4bc42a6e-4bc5-4a8a-8c03-4893b7701164","countryId":"country.kb8qjm"},"geometry":{"type":"Polygon","coordinates":[[[26.172,42.9491],[26.3358,43.0415],[26.5743,42.9866],[26.766,43.2522],[26.7231,43.4109],[26.5984,43.3422],[26.3738,43.4357],[26.3228,43.5151],[26.1842,43.5359],[26.0392,43.5073],[25.9461,43.4166],[26.0205,43.3189],[26.0962,43.2149],[26.0573,43.0985],[26.172,42.9491]]]}},{"type":"Feature","properties":{"sourceId":"1159312487","regionId":"region.d78a2c69-6e2a-4ed3-bf23-ec48520d37ba","countryId":"country.kb8qjm"},"geometry":{"type":"Polygon","coordinates":[[[25.0115,42.7483],[25.2163,42.7726],[25.394,42.7358],[25.6201,42.767],[25.6276,42.8885],[25.5594,43.0332],[25.3068,43.0601],[25.1437,43.1096],[25.0725,43.1811],[24.9854,43.1959],[24.8675,42.9868],[24.8948,42.8888],[25.0112,42.7585],[25.0115,42.7483]]]}},{"type":"Feature","properties":{"sourceId":"1159312471","regionId":"region.ac7a424e-9332-4225-94df-45b03a84e881","countryId":"country.kb8qjm"},"geometry":{"type":"Polygon","coordinates":[[[24.4082,42.5621],[24.2289,42.6297],[23.9214,42.5075],[23.9594,42.3923],[23.8481,42.2257],[23.7631,42.1776],[23.8205,42.0453],[23.7666,41.9765],[23.8217,41.8238],[24.0726,41.6863],[24.2143,41.7407],[24.424,41.8895],[24.4511,41.9494],[24.4414,42.0709],[24.4888,42.2409],[24.3944,42.4641],[24.4082,42.5621]]]}},{"type":"Feature","properties":{"sourceId":"1159312489","regionId":"region.1f3dae89-a1c7-46a7-926a-2d34ee86321b","countryId":"country.kb8qjm"},"geometry":{"type":"Polygon","coordinates":[[[24.3967,42.7549],[24.5,42.792],[24.704,42.7167],[24.9247,42.714],[25.0112,42.7585],[24.8948,42.8888],[24.8675,42.9868],[24.9854,43.1959],[25.0725,43.1811],[25.1116,43.2799],[24.9801,43.3107],[24.7528,43.3087],[24.5898,43.2054],[24.3925,43.278],[24.2352,43.2263],[24.0268,43.2117],[23.9775,43.0599],[24.1514,42.9087],[24.1586,42.7809],[24.3967,42.7549]]]}},{"type":"Feature","properties":{"sourceId":"1159312481","regionId":"region.3c98eca3-ea35-4490-9cb2-c493d526bff3","countryId":"country.kb8qjm"},"geometry":{"type":"Polygon","coordinates":[[[23.2785,42.5323],[23.5588,42.4208],[23.6544,42.4359],[23.5028,42.6579],[23.5963,42.8349],[23.4006,42.8478],[23.2737,42.898],[23.1772,42.7289],[23.0595,42.7099],[23.2785,42.5323]]]}}]}