{"type":"FeatureCollection","features":[{"type":"Feature","properties":{"sourceId":"1159308813","regionId":"region.8079e2a2-84e1-4668-9aa4-dc1183081a89","countryId":"country.zsxuo0"},"geometry":{"type":"Polygon","coordinates":[[[22.8776,47.9467],[22.7458,47.825],[22.563,47.7572],[22.2617,47.7158],[22.1676,47.5949],[22.3602,47.401],[22.4723,47.4124],[22.5807,47.3214],[22.7547,47.3879],[23.051,47.3161],[23.0905,47.4043],[22.9688,47.4445],[23.1168,47.5765],[23.268,47.5381],[23.3595,47.6426],[23.2718,47.7492],[23.4792,47.743],[23.6207,47.8162],[23.4855,47.9742],[23.3601,47.9931],[23.2314,48.0797],[22.8776,47.9467]]]}},{"type":"Feature","properties":{"sourceId":"1159308787","regionId":"region.fde15274-2c7c-49fd-b5e0-65761509da98","countryId":"country.zsxuo0"},"geometry":{"type":"Polygon","coordinates":[[[21.4235,46.6582],[21.3162,46.6166],[21.1645,46.3183],[21.0515,46.2361],[20.7874,46.2634],[20.7044,46.1685],[20.9196,46.0371],[21.3687,45.9729],[21.431,46.034],[21.7367,45.9497],[21.9552,45.9822],[22.229,45.8928],[22.3549,45.9499],[22.4196,46.0253],[22.4336,46.1761],[22.6007,46.2109],[22.7553,46.3338],[22.7067,46.3687],[22.4203,46.3902],[22.2094,46.4949],[22.1455,46.5827],[21.8258,46.6581],[21.4235,46.6582]]]}},{"type":"Feature","properties":{"sourceId":"1159308789","regionId":"region.648238aa-35a9-426d-b440-557569aab391","countryId":"country.zsxuo0"},"geometry":{"type":"Polygon","coordinates":[[[21.4235,46.6582],[21.8258,46.6581],[22.1455,46.5827],[22.2094,46.4949],[22.4203,46.3902],[22.7067,46.3687],[22.7025,46.5321],[22.8028,46.5569],[22.8034,46.6274],[22.6688,46.7753],[22.7657,46.8844],[22.7194,46.9794],[22.5905,47.0586],[22.4943,47.1942],[22.5807,47.3214],[22.4723,47.4124],[22.3602,47.401],[22.1676,47.5949],[22.1542,47.5822],[21.9889,47.4929],[22.0016,47.3938],[21.8622,47.2974],[21.826,47.1851],[21.6343,47.0194],[21.6485,46.943],[21.5029,46.8053],[21.4235,46.6582]]]}},{"type":"Feature","properties":{"sourceId":"1159308793","regionId":"region.bee4d5a2-623a-422f-87a1-0914d40e0b86","countryId":"country.zsxuo0"},"geometry":{"type":"Polygon","coordinates":[[[20.7044,46.1685],[20.6076,46.1295],[20.2832,46.1438],[20.2428,46.1081],[20.3386,45.9928],[20.5721,45.8877],[20.6435,45.7951],[20.7857,45.7526],[20.7544,45.6056],[20.816,45.4629],[21.0167,45.3215],[21.4844,45.1527],[21.5418,45.3233],[21.4855,45.4495],[21.5918,45.5487],[21.8107,45.5281],[22.1662,45.6037],[22.2702,45.5893],[22.4454,45.6629],[22.486,45.786],[22.3549,45.9499],[22.229,45.8928],[21.9552,45.9822],[21.7367,45.9497],[21.431,46.034],[21.3687,45.9729],[20.9196,46.0371],[20.7044,46.1685]]]}},{"type":"Feature","properties":{"sourceId":"1159307695","regionId":"region.8f6fe3db-5eb1-4b82-9c90-4424874b185d","countryId":"country.zsxuo0"},"geometry":{"type":"Polygon","coordinates":[[[23.0083,44.1004],[23.0906,44.1623],[23.2189,44.4516],[23.4894,44.5503],[23.3189,44.6642],[23.1454,44.6996],[22.9374,44.8416],[22.9178,44.973],[22.6411,45.0924],[22.5666,45.0239],[22.4418,44.7694],[22.2219,44.8062],[22.1499,44.5977],[22.0342,44.5962],[22.0362,44.5895],[22.1851,44.5151],[22.3197,44.6853],[22.4837,44.724],[22.6212,44.6374],[22.6212,44.5692],[22.4841,44.4998],[22.5051,44.4041],[22.6815,44.3053],[22.6916,44.2284],[23.0083,44.1004]]]}},{"type":"Feature","properties":{"sourceId":"1159307691","regionId":"region.b9ff4d90-ef21-47cb-9432-b8b586f9fa46","countryId":"country.zsxuo0"},"geometry":{"type":"Polygon","coordinates":[[[23.0083,44.1004],[22.8859,43.9945],[22.8505,43.897],[22.9196,43.8342],[23.0526,43.8428],[23.3252,43.8866],[23.6209,43.834],[24.1496,43.7547],[24.2719,43.9199],[24.2509,44.2195],[23.9057,44.4655],[23.9582,44.5297],[23.7755,44.7225],[23.7367,44.6294],[23.4894,44.5503],[23.2189,44.4516],[23.0906,44.1623],[23.0083,44.1004]]]}},{"type":"Feature","properties":{"sourceId":"1159307705","regionId":"region.006e519e-b0de-4332-833f-0587adce7505","countryId":"country.zsxuo0"},"geometry":{"type":"Polygon","coordinates":[[[26.4158,44.0638],[26.7895,44.116],[27.0275,44.177],[27.2527,44.1215],[27.4449,44.1341],[27.608,44.2055],[27.934,44.266],[28.0228,44.3547],[27.7025,44.4646],[27.4658,44.5065],[27.0734,44.4921],[26.7837,44.5263],[26.4341,44.5233],[26.4383,44.4429],[26.28,44.3215],[26.4597,44.1851],[26.4158,44.0638]]]}},{"type":"Feature","properties":{"sourceId":"1159307699","regionId":"region.c44dfdc3-8b5d-467c-ba52-5168b97eb31d","countryId":"country.zsxuo0"},"geometry":{"type":"Polygon","coordinates":[[[25.7329,43.7188],[25.6424,44.0738],[25.7194,44.1598],[25.7095,44.2823],[25.5501,44.3295],[25.5136,44.5059],[25.3958,44.528],[25.2785,44.4373],[25.1901,44.4535],[24.9812,44.3911],[24.8513,44.3899],[24.8413,44.1158],[24.6577,44.0448],[24.6316,43.991],[24.7452,43.8071],[24.6618,43.7557],[24.9637,43.7496],[25.2854,43.6904],[25.4825,43.6697],[25.7329,43.7188]]]}},{"type":"Feature","properties":{"sourceId":"1159307709","regionId":"region.c51010f5-2e3c-4a03-bf2e-b61a381bbe71","countryId":"country.zsxuo0"},"geometry":{"type":"Polygon","coordinates":[[[26.3323,44.0549],[26.4158,44.0638],[26.4597,44.1851],[26.28,44.3215],[26.1314,44.2632],[25.9051,44.3693],[25.9071,44.5659],[25.5991,44.5529],[25.5136,44.5059],[25.5501,44.3295],[25.7095,44.2823],[25.7194,44.1598],[25.6424,44.0738],[25.7329,43.7188],[26.1507,44.0124],[26.3323,44.0549]]]}},{"type":"Feature","properties":{"sourceId":"1159307713","regionId":"region.54d15cff-d843-46eb-a812-f5973e730260","countryId":"country.zsxuo0"},"geometry":{"type":"Polygon","coordinates":[[[27.2527,44.1215],[27.3838,44.0151],[27.6563,44.0239],[27.6825,43.9873],[27.9358,43.9644],[27.981,43.8493],[28.2213,43.762],[28.5784,43.7413],[28.6712,44.0033],[28.6309,44.1545],[28.6409,44.3286],[28.844,44.4937],[28.7742,44.5523],[28.7854,44.6797],[28.5269,44.6961],[28.4045,44.7609],[28.282,44.7105],[28.0548,44.777],[27.9109,44.7753],[27.9164,44.6945],[28.0345,44.631],[28.0072,44.532],[28.109,44.4578],[28.0228,44.3547],[27.934,44.266],[27.608,44.2055],[27.4449,44.1341],[27.2527,44.1215]]]}},{"type":"Feature","properties":{"sourceId":"1159307697","regionId":"region.0bf71b03-9b3c-48bd-bb40-d82130612479","countryId":"country.zsxuo0"},"geometry":{"type":"Polygon","coordinates":[[[24.1496,43.7547],[24.3367,43.7593],[24.5001,43.7995],[24.6618,43.7557],[24.7452,43.8071],[24.6316,43.991],[24.6577,44.0448],[24.8413,44.1158],[24.8513,44.3899],[24.7654,44.4165],[24.7177,44.7416],[24.6217,44.7685],[24.546,44.8883],[24.4378,44.85],[24.2864,44.7459],[24.3332,44.5832],[24.0957,44.5206],[23.9582,44.5297],[23.9057,44.4655],[24.2509,44.2195],[24.2719,43.9199],[24.1496,43.7547]]]}},{"type":"Feature","properties":{"sourceId":"1159308791","regionId":"region.e12bd2ab-e46a-4047-9c9c-8c12a37100e3","countryId":"country.zsxuo0"},"geometry":{"type":"Polygon","coordinates":[[[21.4844,45.1527],[21.3598,44.8267],[21.5584,44.7817],[21.6563,44.6877],[21.8554,44.6985],[22.0342,44.5962],[22.1499,44.5977],[22.2219,44.8062],[22.4418,44.7694],[22.5666,45.0239],[22.6411,45.0924],[22.5727,45.1708],[22.6691,45.2405],[22.7069,45.3223],[22.6533,45.5202],[22.4454,45.6629],[22.2702,45.5893],[22.1662,45.6037],[21.8107,45.5281],[21.5918,45.5487],[21.4855,45.4495],[21.5418,45.3233],[21.4844,45.1527]]]}},{"type":"Feature","properties":{"sourceId":"1159308795","regionId":"region.0687f898-da76-4a26-b240-ec9ad723c2dc","countryId":"country.zsxuo0"},"geometry":{"type":"Polygon","coordinates":[[[27.048,48.1214],[26.8049,48.2583],[26.6179,48.259],[26.3035,48.212],[26.287,48.1247],[26.1025,47.9783],[26.1416,47.8963],[26.2833,47.8263],[26.5267,47.614],[26.5676,47.4681],[26.6585,47.4267],[26.7437,47.4927],[26.9569,47.4767],[27.0925,47.5183],[27.232,47.4911],[27.4313,47.5726],[27.4294,47.5781],[27.2881,47.7507],[27.1783,47.9421],[27.048,48.1214]]]}},{"type":"Feature","properties":{"sourceId":"1159308829","regionId":"region.3a9036c4-8e29-46b9-838e-66a89a94fb3e","countryId":"country.zsxuo0"},"geometry":{"type":"Polygon","coordinates":[[[27.4313,47.5726],[27.232,47.4911],[27.0925,47.5183],[26.9569,47.4767],[26.7437,47.4927],[26.6585,47.4267],[26.5727,47.2857],[26.4823,47.2536],[26.6484,47.0764],[26.8724,47.0113],[27.148,47.0751],[27.2395,46.9917],[27.2048,46.8596],[27.4758,46.8508],[27.7096,46.9373],[27.9557,46.8171],[28.1226,46.8423],[28.105,46.9202],[28.0381,47.0155],[27.8066,47.1446],[27.7228,47.2833],[27.5887,47.3674],[27.5632,47.4683],[27.4313,47.5726]]]}},{"type":"Feature","properties":{"sourceId":"1159308847","regionId":"region.b1071779-f99f-4535-9999-2326d02eef7c","countryId":"country.zsxuo0"},"geometry":{"type":"Polygon","coordinates":[[[28.1226,46.8423],[27.9557,46.8171],[27.7096,46.9373],[27.4758,46.8508],[27.2048,46.8596],[27.2255,46.7428],[27.479,46.3975],[27.5199,46.1626],[27.5332,46.1165],[27.9182,46.1249],[28.1078,46.0961],[28.1105,46.1015],[28.111,46.2256],[28.2268,46.3955],[28.2451,46.6315],[28.1226,46.8423]]]}},{"type":"Feature","properties":{"sourceId":"1159308845","regionId":"region.32885b30-248d-4753-8c01-ffebede758b4","countryId":"country.zsxuo0"},"geometry":{"type":"Polygon","coordinates":[[[28.1078,46.0961],[27.9182,46.1249],[27.5332,46.1165],[27.349,46.0729],[27.2591,45.9426],[27.3848,45.7185],[27.5141,45.6107],[27.5801,45.4933],[27.8202,45.4124],[28.0302,45.3954],[28.2151,45.4504],[28.1995,45.4618],[28.1409,45.5602],[28.155,45.7618],[28.0861,46.0006],[28.1078,46.0961]]]}},{"type":"Feature","properties":{"sourceId":"1159308835","regionId":"region.f5df7e0d-8701-4c33-81a1-5abbfcbf99ca","countryId":"country.zsxuo0"},"geometry":{"type":"Polygon","coordinates":[[[26.1025,47.9783],[25.7525,47.9346],[25.2617,47.8986],[25.0799,47.7429],[24.9424,47.7156],[24.9562,47.5823],[25.0905,47.4715],[25.004,47.3792],[25.0765,47.2283],[25.0686,47.103],[25.2047,47.0764],[25.4069,47.1348],[25.5836,47.0473],[25.6713,47.0579],[25.8194,47.2246],[25.9821,47.2575],[26.2229,47.2537],[26.3531,47.2932],[26.4823,47.2536],[26.5727,47.2857],[26.6585,47.4267],[26.5676,47.4681],[26.5267,47.614],[26.2833,47.8263],[26.1416,47.8963],[26.1025,47.9783]]]}},{"type":"Feature","properties":{"sourceId":"1159308807","regionId":"region.21d80eb0-8d44-4eaf-ba53-e095061e89d0","countryId":"country.zsxuo0"},"geometry":{"type":"Polygon","coordinates":[[[24.5698,47.9373],[24.4285,47.9525],[24.231,47.897],[23.9773,47.9623],[23.5632,48.0058],[23.4855,47.9742],[23.6207,47.8162],[23.4792,47.743],[23.2718,47.7492],[23.3595,47.6426],[23.268,47.5381],[23.1168,47.5765],[22.9688,47.4445],[23.0905,47.4043],[23.2453,47.4164],[23.4571,47.3652],[23.6335,47.3674],[23.8129,47.3165],[24.0075,47.3246],[24.1209,47.4515],[24.3833,47.5621],[24.7592,47.5365],[24.9562,47.5823],[24.9424,47.7156],[24.9289,47.7139],[24.6615,47.8539],[24.5698,47.9373]]]}},{"type":"Feature","properties":{"sourceId":"1159315923","regionId":"region.8c48cc4f-cb16-4e94-91bb-dee756b41bf8","countryId":"country.zsxuo0"},"geometry":{"type":"Polygon","coordinates":[[[29.659,45.2159],[29.6503,45.3461],[29.5697,45.395],[29.3221,45.4438],[28.9665,45.3199],[28.8163,45.3261],[28.7101,45.227],[28.3302,45.3229],[28.2151,45.4504],[28.0302,45.3954],[27.9867,45.2923],[28.1308,45.2377],[28.125,44.8916],[28.0548,44.777],[28.282,44.7105],[28.4045,44.7609],[28.5269,44.6961],[28.7854,44.6797],[28.9238,44.7578],[28.8801,44.9548],[29.0452,45.0048],[29.0441,44.8655],[29.0982,44.7754],[29.511,44.8205],[29.6112,44.8493],[29.6765,45.1446],[29.659,45.2159]]]}},{"type":"Feature","properties":{"sourceId":"1159308803","regionId":"region.ed683061-52d4-4d0c-8e4d-f1800bb983f2","countryId":"country.zsxuo0"},"geometry":{"type":"Polygon","coordinates":[[[24.0075,47.3246],[23.8129,47.3165],[23.8119,47.2274],[23.5096,47.1269],[23.4097,46.9843],[23.2056,46.8781],[23.0108,46.8791],[22.8892,46.9626],[22.7194,46.9794],[22.7657,46.8844],[22.6688,46.7753],[22.8034,46.6274],[22.8028,46.5569],[23.0107,46.525],[23.0633,46.4633],[23.4037,46.5271],[23.6182,46.4143],[23.9954,46.4497],[24.0455,46.6177],[24.1968,46.7845],[24.2387,46.8993],[24.1608,46.955],[24.127,47.0823],[23.9858,47.1324],[23.9363,47.2457],[24.0075,47.3246]]]}},{"type":"Feature","properties":{"sourceId":"1159308799","regionId":"region.9beacdd1-f67b-435c-aae7-102e349e7f99","countryId":"country.zsxuo0"},"geometry":{"type":"Polygon","coordinates":[[[24.1968,46.7845],[24.3835,46.7466],[24.4979,46.7736],[24.5612,46.8758],[24.7241,46.8901],[24.816,47.0218],[25.0686,47.103],[25.0765,47.2283],[25.004,47.3792],[25.0905,47.4715],[24.9562,47.5823],[24.7592,47.5365],[24.3833,47.5621],[24.1209,47.4515],[24.0075,47.3246],[23.9363,47.2457],[23.9858,47.1324],[24.127,47.0823],[24.1608,46.955],[24.2387,46.8993],[24.1968,46.7845]]]}},{"type":"Feature","properties":{"sourceId":"1159308811","regionId":"region.2d1efc22-cefe-45e3-b816-a81a0f2a95b2","countryId":"country.zsxuo0"},"geometry":{"type":"Polygon","coordinates":[[[23.8129,47.3165],[23.6335,47.3674],[23.4571,47.3652],[23.2453,47.4164],[23.0905,47.4043],[23.051,47.3161],[22.7547,47.3879],[22.5807,47.3214],[22.4943,47.1942],[22.5905,47.0586],[22.7194,46.9794],[22.8892,46.9626],[23.0108,46.8791],[23.2056,46.8781],[23.4097,46.9843],[23.5096,47.1269],[23.8119,47.2274],[23.8129,47.3165]]]}},{"type":"Feature","properties":{"sourceId":"1159307707","regionId":"region.d27fe5da-fdb6-45d1-92c8-a8bfa67d07bd","countryId":"country.zsxuo0"},"geometry":{"type":"Polygon","coordinates":[[[26.0289,44.7381],[25.8175,44.847],[25.8139,44.9218],[25.5257,45.2238],[25.4298,45.4523],[25.3092,45.3885],[25.2709,45.192],[25.1741,45.0903],[25.231,44.9978],[25.1907,44.6548],[25.313,44.5731],[25.2785,44.4373],[25.3958,44.528],[25.5136,44.5059],[25.5991,44.5529],[25.9071,44.5659],[26.0289,44.7381]]]}},{"type":"Feature","properties":{"sourceId":"1159315917","regionId":"region.ea133961-acfb-487c-a305-f970d6eb6c47","countryId":"country.zsxuo0"},"geometry":{"type":"Polygon","coordinates":[[[25.9071,44.5659],[25.9051,44.3693],[26.1314,44.2632],[26.28,44.3215],[26.4383,44.4429],[26.4341,44.5233],[26.431,44.6509],[26.2696,44.7598],[26.0289,44.7381],[25.9071,44.5659]],[[26.1957,44.4027],[26.097,44.3713],[25.9758,44.4311],[26.0372,44.5747],[26.1957,44.4027]]]}},{"type":"Feature","properties":{"sourceId":"1159308815","regionId":"region.03737593-e346-45fe-bdac-75b0ec66ccc1","countryId":"country.zsxuo0"},"geometry":{"type":"Polygon","coordinates":[[[25.3092,45.3885],[25.2208,45.5034],[25.0951,45.5696],[24.831,45.5662],[24.7091,45.5988],[24.5272,45.5618],[24.4932,45.2285],[24.5374,45.1361],[24.4378,44.85],[24.546,44.8883],[24.6217,44.7685],[24.7177,44.7416],[24.7654,44.4165],[24.8513,44.3899],[24.9812,44.3911],[25.1901,44.4535],[25.2785,44.4373],[25.313,44.5731],[25.1907,44.6548],[25.231,44.9978],[25.1741,45.0903],[25.2709,45.192],[25.3092,45.3885]]]}},{"type":"Feature","properties":{"sourceId":"1159307693","regionId":"region.9f00695f-1f1d-4794-ab97-3474f63d12a7","countryId":"country.zsxuo0"},"geometry":{"type":"Polygon","coordinates":[[[23.5858,45.3526],[23.027,45.2597],[22.8814,45.2949],[22.6691,45.2405],[22.5727,45.1708],[22.6411,45.0924],[22.9178,44.973],[22.9374,44.8416],[23.1454,44.6996],[23.3189,44.6642],[23.4894,44.5503],[23.7367,44.6294],[23.7755,44.7225],[23.7788,44.9482],[23.8433,45.1891],[23.8357,45.3066],[23.5858,45.3526]]]}},{"type":"Feature","properties":{"sourceId":"1159308805","regionId":"region.5a95c96a-172c-487a-91bb-e6f0050a2a86","countryId":"country.zsxuo0"},"geometry":{"type":"Polygon","coordinates":[[[23.5858,45.3526],[23.5842,45.4473],[23.423,45.5899],[23.3161,45.8768],[23.2256,45.9997],[23.0745,46.1046],[22.9043,46.3173],[22.7553,46.3338],[22.6007,46.2109],[22.4336,46.1761],[22.4196,46.0253],[22.3549,45.9499],[22.486,45.786],[22.4454,45.6629],[22.6533,45.5202],[22.7069,45.3223],[22.6691,45.2405],[22.8814,45.2949],[23.027,45.2597],[23.5858,45.3526]]]}},{"type":"Feature","properties":{"sourceId":"1159308821","regionId":"region.382f136d-c8be-409a-b56a-b3d9b5a9139d","countryId":"country.zsxuo0"},"geometry":{"type":"Polygon","coordinates":[[[23.5858,45.3526],[23.8357,45.3066],[23.8433,45.1891],[23.7788,44.9482],[23.7755,44.7225],[23.9582,44.5297],[24.0957,44.5206],[24.3332,44.5832],[24.2864,44.7459],[24.4378,44.85],[24.5374,45.1361],[24.4932,45.2285],[24.5272,45.5618],[24.3218,45.563],[24.0683,45.4964],[23.794,45.508],[23.6261,45.4519],[23.5842,45.4473],[23.5858,45.3526]]]}},{"type":"Feature","properties":{"sourceId":"1159308833","regionId":"region.b5b947b3-6fbd-4935-9d4e-e6a20b65790a","countryId":"country.zsxuo0"},"geometry":{"type":"Polygon","coordinates":[[[26.0289,44.7381],[26.2696,44.7598],[26.5202,44.8072],[26.6039,44.8651],[26.5779,44.9774],[26.4692,45.1176],[26.2621,45.2182],[26.174,45.3865],[26.046,45.4823],[25.8627,45.4416],[25.6278,45.4847],[25.4298,45.4523],[25.5257,45.2238],[25.8139,44.9218],[25.8175,44.847],[26.0289,44.7381]]]}},{"type":"Feature","properties":{"sourceId":"1159308825","regionId":"region.fb6c7820-da0a-4311-9fa3-6d1011e6b276","countryId":"country.zsxuo0"},"geometry":{"type":"Polygon","coordinates":[[[26.4848,46.0212],[26.325,46.1794],[26.2516,46.1503],[25.9917,46.1109],[25.7959,46.1756],[25.6781,46.2911],[25.4545,46.1059],[25.5548,46.0457],[25.554,45.8697],[25.669,45.785],[25.8947,45.7178],[26.1005,45.5644],[26.3286,45.6181],[26.3804,45.8029],[26.4848,46.0212]]]}},{"type":"Feature","properties":{"sourceId":"1159308849","regionId":"region.d79b0171-05db-4f3a-b4af-3d1144f5fe1a","countryId":"country.zsxuo0"},"geometry":{"type":"Polygon","coordinates":[[[26.3804,45.8029],[26.569,45.6248],[26.6694,45.6212],[26.8315,45.5284],[26.9758,45.5333],[27.4235,45.3865],[27.5801,45.4933],[27.5141,45.6107],[27.3848,45.7185],[27.2591,45.9426],[27.349,46.0729],[27.5332,46.1165],[27.5199,46.1626],[27.2331,46.163],[27.0998,46.0794],[26.7671,46.081],[26.4848,46.0212],[26.3804,45.8029]]]}},{"type":"Feature","properties":{"sourceId":"1159308843","regionId":"region.102cad50-2c24-4e09-983e-e540f8f99da3","countryId":"country.zsxuo0"},"geometry":{"type":"Polygon","coordinates":[[[26.3804,45.8029],[26.3286,45.6181],[26.1005,45.5644],[26.046,45.4823],[26.174,45.3865],[26.2621,45.2182],[26.4692,45.1176],[26.5779,44.9774],[26.6039,44.8651],[26.6602,44.836],[27.0003,44.8025],[27.2006,44.8194],[27.2702,45.0392],[27.2059,45.0687],[27.1672,45.238],[27.3048,45.2344],[27.4235,45.3865],[26.9758,45.5333],[26.8315,45.5284],[26.6694,45.6212],[26.569,45.6248],[26.3804,45.8029]]]}},{"type":"Feature","properties":{"sourceId":"1159308823","regionId":"region.d0bc113e-4b46-4736-aaa1-b12978f2e667","countryId":"country.zsxuo0"},"geometry":{"type":"Polygon","coordinates":[[[25.4298,45.4523],[25.6278,45.4847],[25.8627,45.4416],[26.046,45.4823],[26.1005,45.5644],[25.8947,45.7178],[25.669,45.785],[25.554,45.8697],[25.5548,46.0457],[25.4545,46.1059],[25.3302,46.1646],[25.1881,46.1434],[25.0463,46.1327],[24.9819,46.0636],[24.7216,45.9135],[24.741,45.813],[24.6499,45.7665],[24.7091,45.5988],[24.831,45.5662],[25.0951,45.5696],[25.2208,45.5034],[25.3092,45.3885],[25.4298,45.4523]]]}},{"type":"Feature","properties":{"sourceId":"1159308817","regionId":"region.0d6a1740-1a9f-43ce-a7e0-1c7788629d34","countryId":"country.zsxuo0"},"geometry":{"type":"Polygon","coordinates":[[[24.7091,45.5988],[24.6499,45.7665],[24.741,45.813],[24.7216,45.9135],[24.9819,46.0636],[24.6899,46.1002],[24.663,46.242],[24.1918,46.2442],[24.1918,46.1596],[24.0404,46.0558],[23.8528,46.0028],[23.7634,45.8549],[23.6095,45.6933],[23.6261,45.4519],[23.794,45.508],[24.0683,45.4964],[24.3218,45.563],[24.5272,45.5618],[24.7091,45.5988]]]}},{"type":"Feature","properties":{"sourceId":"1159308809","regionId":"region.257026f0-263b-4c3a-ab1e-7e6f3c099a84","countryId":"country.zsxuo0"},"geometry":{"type":"Polygon","coordinates":[[[23.9954,46.4497],[24.0265,46.369],[24.1918,46.2442],[24.663,46.242],[24.6899,46.1002],[24.9819,46.0636],[25.0463,46.1327],[25.1881,46.1434],[24.8767,46.3163],[24.9672,46.3712],[25.0348,46.5059],[25.2722,46.6574],[25.2574,46.9943],[25.2047,47.0764],[25.0686,47.103],[24.816,47.0218],[24.7241,46.8901],[24.5612,46.8758],[24.4979,46.7736],[24.3835,46.7466],[24.1968,46.7845],[24.0455,46.6177],[23.9954,46.4497]]]}},{"type":"Feature","properties":{"sourceId":"1159308827","regionId":"region.c3c0eaae-fe51-45b8-b025-5bbea6a8c4fb","countryId":"country.zsxuo0"},"geometry":{"type":"Polygon","coordinates":[[[25.4545,46.1059],[25.6781,46.2911],[25.7959,46.1756],[25.9917,46.1109],[26.2516,46.1503],[26.2927,46.3197],[26.0387,46.4033],[26.0691,46.4986],[26.0088,46.668],[25.8282,46.6936],[25.8165,46.8592],[25.8658,46.9128],[25.6713,47.0579],[25.5836,47.0473],[25.4069,47.1348],[25.2047,47.0764],[25.2574,46.9943],[25.2722,46.6574],[25.0348,46.5059],[24.9672,46.3712],[24.8767,46.3163],[25.1881,46.1434],[25.3302,46.1646],[25.4545,46.1059]]]}},{"type":"Feature","properties":{"sourceId":"1159308831","regionId":"region.7703d460-bb30-4efb-a6cd-7b16d40bae7b","countryId":"country.zsxuo0"},"geometry":{"type":"Polygon","coordinates":[[[25.6713,47.0579],[25.8658,46.9128],[25.8165,46.8592],[25.8282,46.6936],[26.0088,46.668],[26.2754,46.6952],[26.3112,46.6331],[26.5818,46.667],[26.8827,46.78],[26.9712,46.7437],[27.2255,46.7428],[27.2048,46.8596],[27.2395,46.9917],[27.148,47.0751],[26.8724,47.0113],[26.6484,47.0764],[26.4823,47.2536],[26.3531,47.2932],[26.2229,47.2537],[25.9821,47.2575],[25.8194,47.2246],[25.6713,47.0579]]]}},{"type":"Feature","properties":{"sourceId":"1159308839","regionId":"region.4ac1559a-9651-43ad-a73c-d090a5458ce1","countryId":"country.zsxuo0"},"geometry":{"type":"Polygon","coordinates":[[[26.4848,46.0212],[26.7671,46.081],[27.0998,46.0794],[27.2331,46.163],[27.5199,46.1626],[27.479,46.3975],[27.2255,46.7428],[26.9712,46.7437],[26.8827,46.78],[26.5818,46.667],[26.3112,46.6331],[26.2754,46.6952],[26.0088,46.668],[26.0691,46.4986],[26.0387,46.4033],[26.2927,46.3197],[26.2516,46.1503],[26.325,46.1794],[26.4848,46.0212]]]}},{"type":"Feature","properties":{"sourceId":"1159308797","regionId":"region.33dbf227-6632-490e-956b-5d6447518b78","countryId":"country.zsxuo0"},"geometry":{"type":"Polygon","coordinates":[[[22.7553,46.3338],[22.9043,46.3173],[23.0745,46.1046],[23.2256,45.9997],[23.3161,45.8768],[23.423,45.5899],[23.5842,45.4473],[23.6261,45.4519],[23.6095,45.6933],[23.7634,45.8549],[23.8528,46.0028],[24.0404,46.0558],[24.1918,46.1596],[24.1918,46.2442],[24.0265,46.369],[23.9954,46.4497],[23.6182,46.4143],[23.4037,46.5271],[23.0633,46.4633],[23.0107,46.525],[22.8028,46.5569],[22.7025,46.5321],[22.7067,46.3687],[22.7553,46.3338]]]}},{"type":"Feature","properties":{"sourceId":"1159308841","regionId":"region.4dc0c639-30e6-4fe7-886f-87aee0ef1709","countryId":"country.zsxuo0"},"geometry":{"type":"Polygon","coordinates":[[[27.4235,45.3865],[27.3048,45.2344],[27.1672,45.238],[27.2059,45.0687],[27.2702,45.0392],[27.2006,44.8194],[27.2832,44.7954],[27.9109,44.7753],[28.0548,44.777],[28.125,44.8916],[28.1308,45.2377],[27.9867,45.2923],[28.0302,45.3954],[27.8202,45.4124],[27.5801,45.4933],[27.4235,45.3865]]]}},{"type":"Feature","properties":{"sourceId":"1159307711","regionId":"region.33c9115a-b07c-4db3-9167-a63dfd8ed4c3","countryId":"country.zsxuo0"},"geometry":{"type":"Polygon","coordinates":[[[26.4341,44.5233],[26.7837,44.5263],[27.0734,44.4921],[27.4658,44.5065],[27.7025,44.4646],[28.0228,44.3547],[28.109,44.4578],[28.0072,44.532],[28.0345,44.631],[27.9164,44.6945],[27.9109,44.7753],[27.2832,44.7954],[27.2006,44.8194],[27.0003,44.8025],[26.6602,44.836],[26.6039,44.8651],[26.5202,44.8072],[26.2696,44.7598],[26.431,44.6509],[26.4341,44.5233]]]}},{"type":"Feature","properties":{"sourceId":"1159307701","regionId":"region.06e5495b-345c-4b81-997f-4aee8504d393","countryId":"country.zsxuo0"},"geometry":{"type":"Polygon","coordinates":[[[26.1957,44.4027],[26.0372,44.5747],[25.9758,44.4311],[26.097,44.3713],[26.1957,44.4027]]]}}]}