{"type":"FeatureCollection","features":[{"type":"Feature","properties":{"sourceId":"1159314207","regionId":"region.9855a4a8-c50e-4980-948d-ac2d45cf8788","countryId":"country.14p3bj2"},"geometry":{"type":"Polygon","coordinates":[[[35.2888,33.0992],[35.4801,33.0874],[35.6046,33.2444],[35.8211,33.4067],[35.8451,33.4187],[35.7161,33.4807],[35.6349,33.4333],[35.5289,33.4999],[35.4199,33.4767],[35.3147,33.3739],[35.4207,33.2768],[35.2888,33.0992]]]}},{"type":"Feature","properties":{"sourceId":"1159314209","regionId":"region.d8d742b7-0871-41e6-8b4f-4d72853cc0d7","countryId":"country.14p3bj2"},"geometry":{"type":"Polygon","coordinates":[[[35.2888,33.0992],[35.4207,33.2768],[35.3147,33.3739],[35.4199,33.4767],[35.5289,33.4999],[35.6349,33.4333],[35.6136,33.5097],[35.5964,33.6062],[35.3771,33.5895],[35.271,33.4575],[35.1747,33.1702],[35.1052,33.089],[35.2888,33.0992]]]}},{"type":"Feature","properties":{"sourceId":"1159314197","regionId":"region.97283d2a-1ce7-40c8-8015-16a197ade2e9","countryId":"country.14p3bj2"},"geometry":{"type":"Polygon","coordinates":[[[35.8701,33.4312],[36.0129,33.608],[35.9216,33.6403],[36.0504,33.8164],[36.2672,33.9104],[36.3911,34.0447],[36.6036,34.2001],[36.4197,34.4983],[36.3299,34.4986],[36.0113,34.1522],[35.9531,33.9931],[35.7701,33.8081],[35.6136,33.5097],[35.6349,33.4333],[35.7161,33.4807],[35.8451,33.4187],[35.8701,33.4312]]]}},{"type":"Feature","properties":{"sourceId":"1159314199","regionId":"region.9dcc6a47-575b-47c3-bc22-a41781ceb74b","countryId":"country.14p3bj2"},"geometry":{"type":"Polygon","coordinates":[[[36.3299,34.4986],[36.3889,34.5962],[36.1121,34.6295],[35.9699,34.6498],[35.9832,34.5386],[35.8054,34.4587],[35.645,34.2177],[36.0113,34.1522],[36.3299,34.4986]]]}},{"type":"Feature","properties":{"sourceId":"1159314205","regionId":"region.f47452a8-77eb-422b-901a-82e764ba5edf","countryId":"country.14p3bj2"},"geometry":{"type":"Polygon","coordinates":[[[35.5481,33.9062],[35.483,33.8652],[35.3771,33.5895],[35.5964,33.6062],[35.6136,33.5097],[35.7701,33.8081],[35.9531,33.9931],[36.0113,34.1522],[35.645,34.2177],[35.6135,33.9932],[35.5481,33.9062]]]}},{"type":"Feature","properties":{"sourceId":"1159314203","regionId":"region.cac902b9-2281-41f1-8803-6abb57402834","countryId":"country.14p3bj2"},"geometry":{"type":"Polygon","coordinates":[[[35.483,33.8652],[35.5481,33.9062],[35.4705,33.9021],[35.483,33.8652]]]}}]}