{"type":"FeatureCollection","features":[{"type":"Feature","properties":{"sourceId":"1159308985","regionId":"region.291ab08f-d939-49b3-beea-0d9e76493008","countryId":"country.1akiyqe"},"geometry":{"type":"Polygon","coordinates":[[[-0.1661,11.135],[0.0162,11.0626],[-0.0321,10.8132],[-0.0916,10.7003],[-0.0881,10.6335],[0.0203,10.588],[0.177,10.3977],[0.2831,10.3968],[0.3666,10.3045],[0.3536,10.1155],[0.3946,10.0356],[0.422,9.9657],[0.5504,9.8795],[0.6679,9.9426],[0.7369,10.1699],[0.9666,10.1811],[0.9971,10.2165],[0.7688,10.3671],[0.7813,10.693],[0.8629,10.7961],[0.9015,10.9927],[0.6753,10.9885],[0.4876,10.9332],[0.4866,11.0032],[0.3748,11.0258],[-0.1151,11.1247],[-0.1661,11.135]]]}},{"type":"Feature","properties":{"sourceId":"1159308979","regionId":"region.d6b4fb40-d287-434f-b86d-5c3eb1314888","countryId":"country.1akiyqe"},"geometry":{"type":"Polygon","coordinates":[[[0.3946,10.0356],[0.3224,9.7607],[0.3546,9.5711],[0.2302,9.5757],[0.2314,9.419],[0.4304,9.4892],[0.5376,9.3776],[0.5047,9.1872],[0.4313,9.0276],[0.4931,8.9152],[0.4836,8.835],[0.5849,8.8768],[0.7363,9.05],[0.8797,9.0046],[0.9966,9.062],[1.0007,9.2058],[1.2064,9.2135],[1.4201,9.2923],[1.3513,9.5951],[1.3439,9.9548],[1.331,9.9965],[0.9971,10.2165],[0.9666,10.1811],[0.7369,10.1699],[0.6679,9.9426],[0.5504,9.8795],[0.422,9.9657],[0.3946,10.0356]]]}},{"type":"Feature","properties":{"sourceId":"1159308983","regionId":"region.162c22f1-b354-461e-b852-fcbc5387de01","countryId":"country.1akiyqe"},"geometry":{"type":"Polygon","coordinates":[[[0.4836,8.835],[0.3681,8.7615],[0.4435,8.6069],[0.6163,8.4888],[0.7052,8.2828],[0.5738,8.2039],[0.6027,7.8931],[0.835,7.9664],[1.0956,7.9528],[1.2403,8],[1.2646,8.1637],[1.2364,8.372],[1.6039,8.3675],[1.6404,8.4758],[1.6072,8.5886],[1.6012,9.0495],[1.5673,9.1367],[1.4201,9.2923],[1.2064,9.2135],[1.0007,9.2058],[0.9966,9.062],[0.8797,9.0046],[0.7363,9.05],[0.5849,8.8768],[0.4836,8.835]]]}},{"type":"Feature","properties":{"sourceId":"1159308975","regionId":"region.d3473c95-76cb-46a8-a552-36a2897e3431","countryId":"country.1akiyqe"},"geometry":{"type":"Polygon","coordinates":[[[0.6027,7.8931],[0.6123,7.6994],[0.4994,7.5624],[0.5006,7.4551],[0.6457,7.3236],[0.5977,7.1589],[0.598,7.0312],[0.4946,6.9731],[0.5193,6.8322],[0.6343,6.7116],[0.6267,6.6449],[0.7131,6.5339],[0.8164,6.5694],[0.8875,6.6512],[0.9526,6.8181],[1.1159,6.8089],[1.2409,6.7217],[1.3665,6.8283],[1.4827,6.8318],[1.5642,6.9031],[1.6257,6.9968],[1.6233,7.5364],[1.6229,7.6225],[1.6256,8.2705],[1.6039,8.3675],[1.2364,8.372],[1.2646,8.1637],[1.2403,8],[1.0956,7.9528],[0.835,7.9664],[0.6027,7.8931]]]}},{"type":"Feature","properties":{"sourceId":"1159308977","regionId":"region.157c7ffd-6de5-4921-8251-8894655e8ba4","countryId":"country.1akiyqe"},"geometry":{"type":"Polygon","coordinates":[[[1.1854,6.1005],[1.4295,6.182],[1.6196,6.2139],[1.7824,6.2773],[1.7441,6.4257],[1.5941,6.611],[1.5892,6.7205],[1.5642,6.9031],[1.4827,6.8318],[1.3665,6.8283],[1.2409,6.7217],[1.1159,6.8089],[0.9526,6.8181],[0.8875,6.6512],[0.8164,6.5694],[0.7131,6.5339],[0.7668,6.4194],[0.9073,6.3249],[1.1854,6.1005]]]}}]}