{"type":"FeatureCollection","features":[{"type":"Feature","properties":{"sourceId":"1159310915","regionId":"region.21152688-7391-418d-92dd-f8dbd583e0dc","countryId":"country.1onsv24"},"geometry":{"type":"Polygon","coordinates":[[[7.0221,45.9253],[6.8008,45.8265],[6.7839,45.765],[6.9634,45.6407],[6.9828,45.5111],[7.0754,45.4663],[7.3855,45.5244],[7.5459,45.5898],[7.7493,45.5641],[7.8802,45.6027],[7.9163,45.7297],[7.8559,45.9193],[7.8496,45.9397],[7.694,45.9287],[7.5411,45.9841],[7.3618,45.9078],[7.1837,45.8805],[7.0221,45.9253]]]}},{"type":"Feature","properties":{"sourceId":"1159316907","regionId":"region.878a18be-6c93-47b9-9ea7-c5a901fc2c0b","countryId":"country.1onsv24"},"geometry":{"type":"Polygon","coordinates":[[[7.8496,45.9397],[7.8559,45.9193],[7.957,45.9024],[8.1872,45.9477],[8.3223,45.854],[8.3499,45.7724],[8.4608,45.8689],[8.5984,45.826],[8.5931,45.9175],[8.7207,46.012],[8.729,46.1082],[8.6018,46.1228],[8.4272,46.2514],[8.4416,46.4349],[8.3859,46.4502],[8.0773,46.262],[8.1106,46.127],[7.9858,45.9993],[7.8496,45.9397]]]}},{"type":"Feature","properties":{"sourceId":"1159316941","regionId":"region.5be7d993-00e3-49ef-900b-94f0c280c171","countryId":"country.1onsv24"},"geometry":{"type":"Polygon","coordinates":[[[8.729,46.1082],[8.7207,46.012],[8.5931,45.9175],[8.5984,45.826],[8.5654,45.7986],[8.7052,45.5568],[9.053,45.6232],[9.0587,45.6614],[8.932,45.6512],[8.9089,45.8283],[8.8344,46.0664],[8.729,46.1082]]]}},{"type":"Feature","properties":{"sourceId":"1159316943","regionId":"region.f973495c-08dd-4c20-b46d-1504ab08bb30","countryId":"country.1onsv24"},"geometry":{"type":"Polygon","coordinates":[[[8.9089,45.8283],[8.932,45.6512],[9.0587,45.6614],[9.2472,45.7426],[9.3285,45.8599],[9.2633,45.9613],[9.304,46.133],[9.4246,46.16],[9.2248,46.2312],[9.1638,46.173],[9.0021,46.0393],[9.0593,45.882],[8.9089,45.8283]]]}},{"type":"Feature","properties":{"sourceId":"1159316925","regionId":"region.62116c19-dc1e-4f42-8b78-ed54d9ea6a81","countryId":"country.1onsv24"},"geometry":{"type":"Polygon","coordinates":[[[9.2248,46.2312],[9.4246,46.16],[9.5269,46.0114],[9.6259,46.0515],[9.8718,46.044],[10.0969,46.0909],[10.1695,46.057],[10.1785,46.173],[10.4459,46.3481],[10.5279,46.3426],[10.6247,46.4545],[10.4518,46.5467],[10.2954,46.5511],[10.0975,46.608],[10.0263,46.4463],[10.1334,46.414],[10.0427,46.2205],[9.899,46.3722],[9.6743,46.2918],[9.5597,46.2927],[9.4516,46.3704],[9.4379,46.492],[9.2632,46.4851],[9.269,46.3094],[9.2248,46.2312]]]}},{"type":"Feature","properties":{"sourceId":"1159310921","regionId":"region.51a773b5-7e56-4fdf-b9c4-1a916581af4e","countryId":"country.1onsv24"},"geometry":{"type":"Polygon","coordinates":[[[10.4518,46.5467],[10.6247,46.4545],[10.7452,46.4849],[10.8399,46.4307],[11.0553,46.5156],[11.2145,46.4693],[11.242,46.2312],[11.5953,46.3862],[11.6841,46.5077],[11.8322,46.504],[12.022,46.5394],[12.0991,46.6678],[12.214,46.5961],[12.4696,46.6758],[12.2691,46.7886],[12.1112,46.993],[12.2039,47.067],[12.1331,47.0788],[11.7464,46.9725],[11.5965,47.0004],[11.3138,46.9873],[11.0919,46.9124],[10.9969,46.7691],[10.7548,46.7908],[10.6625,46.861],[10.4538,46.8644],[10.3692,46.6724],[10.4518,46.5467]]]}},{"type":"Feature","properties":{"sourceId":"1159316921","regionId":"region.de759b57-534d-48ce-92cc-222512a3cf13","countryId":"country.1onsv24"},"geometry":{"type":"Polygon","coordinates":[[[7.5023,43.7922],[7.695,43.7912],[7.9597,43.8529],[8.1302,43.9403],[7.9922,44.0213],[8.0021,44.1184],[7.74,44.1337],[7.6879,44.0908],[7.6309,43.9935],[7.4779,43.8655],[7.5023,43.7922]]]}},{"type":"Feature","properties":{"sourceId":"1159316915","regionId":"region.3ca947dc-0317-4a60-8b8d-6b50da551928","countryId":"country.1onsv24"},"geometry":{"type":"Polygon","coordinates":[[[7.6879,44.0908],[7.74,44.1337],[8.0021,44.1184],[8.0775,44.1858],[8.0716,44.3115],[8.2058,44.4224],[8.2498,44.5346],[8.1975,44.6328],[8.2655,44.7028],[8.1309,44.8025],[7.9434,44.8463],[7.7534,44.8151],[7.6054,44.8341],[7.4951,44.7641],[7.3258,44.7855],[7.0388,44.7121],[6.9383,44.658],[6.8388,44.5029],[6.9178,44.4363],[6.8784,44.3546],[7.0335,44.2429],[7.3808,44.1229],[7.6247,44.1801],[7.6879,44.0908]]]}},{"type":"Feature","properties":{"sourceId":"1159310913","regionId":"region.6e0f4866-8642-434f-ba34-5961049d8594","countryId":"country.1onsv24"},"geometry":{"type":"Polygon","coordinates":[[[7.0388,44.7121],[7.3258,44.7855],[7.4951,44.7641],[7.6054,44.8341],[7.7534,44.8151],[7.9434,44.8463],[7.8907,44.8999],[7.9389,45.0495],[8.0289,45.1327],[8.129,45.123],[8.1519,45.1686],[8.0596,45.1825],[7.9727,45.3424],[8.027,45.4031],[7.8822,45.5341],[7.8802,45.6027],[7.7493,45.5641],[7.5459,45.5898],[7.3855,45.5244],[7.0754,45.4663],[7.1607,45.4109],[7.0622,45.2185],[6.8441,45.1301],[6.6294,45.1235],[6.7279,44.9287],[6.9828,44.847],[7.0388,44.7121]]]}},{"type":"Feature","properties":{"sourceId":"1159316987","regionId":"region.4987be00-1bf1-4e2f-9828-30e29ce73f07","countryId":"country.1onsv24"},"geometry":{"type":"Polygon","coordinates":[[[12.4907,43.965],[12.4915,43.9491],[12.4831,43.9292],[12.6331,43.8425],[12.7538,43.9724],[12.458,44.1664],[12.4564,44.0943],[12.3262,43.9586],[12.1642,43.9282],[12.1022,43.759],[12.2858,43.7689],[12.4211,43.8952],[12.39,43.9179],[12.3856,43.9245],[12.4166,43.9637],[12.4272,43.9694],[12.4907,43.965]]]}},{"type":"Feature","properties":{"sourceId":"1159317021","regionId":"region.08e3f3dc-e6a2-461d-9e09-6cdf338b53b3","countryId":"country.1onsv24"},"geometry":{"type":"Polygon","coordinates":[[[12.478,43.9232],[12.4644,43.9001],[12.4413,43.8933],[12.4211,43.8952],[12.2858,43.7689],[12.3576,43.7226],[12.2048,43.6168],[12.3199,43.5462],[12.5105,43.5125],[12.6047,43.4303],[12.7582,43.4612],[12.9691,43.6062],[13.0776,43.7272],[13.1772,43.7515],[12.9473,43.8976],[12.7538,43.9724],[12.6331,43.8425],[12.4831,43.9292],[12.478,43.9232]]]}},{"type":"Feature","properties":{"sourceId":"1159316963","regionId":"region.5f44a66b-7021-4901-9995-2fb31a9f5ff9","countryId":"country.1onsv24"},"geometry":{"type":"Polygon","coordinates":[[[12.4696,46.6758],[12.214,46.5961],[12.0991,46.6678],[12.022,46.5394],[11.8322,46.504],[11.8039,46.3453],[11.9694,46.1963],[11.8965,46.1327],[11.7121,46.1011],[11.6848,45.9843],[11.7997,45.8806],[11.9614,45.9542],[12.1916,46.0041],[12.3309,46.0822],[12.4224,46.0431],[12.502,46.111],[12.4565,46.2064],[12.3359,46.2695],[12.5001,46.4042],[12.6637,46.5165],[12.7485,46.641],[12.6714,46.6525],[12.4696,46.6758]]]}},{"type":"Feature","properties":{"sourceId":"1159310919","regionId":"region.833c8c95-7b02-425d-9c22-06caef40cbd7","countryId":"country.1onsv24"},"geometry":{"type":"Polygon","coordinates":[[[12.7485,46.641],[12.6637,46.5165],[12.5001,46.4042],[12.642,46.3393],[12.9657,46.3289],[12.978,46.2561],[12.9057,45.962],[12.9729,45.8426],[13.0956,45.6523],[13.1314,45.7689],[13.4226,45.7241],[13.4036,45.8894],[13.4618,46.0064],[13.5226,46.0753],[13.6411,46.1714],[13.6274,46.1817],[13.4101,46.208],[13.3956,46.3067],[13.6859,46.464],[13.701,46.5197],[13.478,46.5636],[13.2311,46.5522],[12.7485,46.641]]]}},{"type":"Feature","properties":{"sourceId":"1159316967","regionId":"region.ef6a5ae6-27fd-43f2-8273-bd3e71332817","countryId":"country.1onsv24"},"geometry":{"type":"Polygon","coordinates":[[[13.4618,46.0064],[13.4036,45.8894],[13.4226,45.7241],[13.5833,45.7868],[13.5885,45.8065],[13.5742,45.819],[13.5993,45.9123],[13.6153,45.9459],[13.6007,45.9846],[13.4618,46.0064]]]}},{"type":"Feature","properties":{"sourceId":"1159316969","regionId":"region.806854df-ef44-4c9c-9b52-bf54abbf74e2","countryId":"country.1onsv24"},"geometry":{"type":"Polygon","coordinates":[[[13.5885,45.8065],[13.5833,45.7868],[13.7262,45.7038],[13.7118,45.5932],[13.8679,45.6022],[13.8936,45.6338],[13.6999,45.7705],[13.5885,45.8065]]]}},{"type":"Feature","properties":{"sourceId":"1159308507","regionId":"region.e2138b42-242b-4fde-9458-e64100109537","countryId":"country.1onsv24"},"geometry":{"type":"MultiPolygon","coordinates":[[[[13.0956,45.6523],[12.9729,45.8426],[12.6728,45.8021],[12.663,45.7019],[12.5225,45.6857],[12.2311,45.5367],[12.0924,45.5984],[11.9759,45.3977],[12.1491,45.2922],[12.2727,45.4636],[12.4419,45.5303],[12.4878,45.4567],[12.9439,45.6286],[13.0956,45.6523]]],[[[12.1994,45.2746],[12.1525,45.1942],[11.9619,45.1432],[12.1485,45.0582],[12.3213,45.1648],[12.1994,45.2746]]]]}},{"type":"Feature","properties":{"sourceId":"1159316953","regionId":"region.64c56e91-91d1-4ad1-9047-a85e4cd7ab30","countryId":"country.1onsv24"},"geometry":{"type":"Polygon","coordinates":[[[12.1491,45.2922],[11.9759,45.3977],[12.0924,45.5984],[11.9547,45.6106],[11.8218,45.6871],[11.6494,45.6354],[11.7459,45.4882],[11.6167,45.387],[11.6024,45.2439],[11.4872,45.2659],[11.4186,45.1318],[11.7538,45.0987],[11.9619,45.1432],[12.1525,45.1942],[12.1994,45.2746],[12.1491,45.2922]]]}},{"type":"Feature","properties":{"sourceId":"1159316951","regionId":"region.be047eb2-c592-4729-8d8c-f7fd09c384bc","countryId":"country.1onsv24"},"geometry":{"type":"Polygon","coordinates":[[[12.3213,45.1648],[12.1485,45.0582],[11.9619,45.1432],[11.7538,45.0987],[11.4186,45.1318],[11.2103,45.1043],[11.1957,45.0634],[11.4215,44.9499],[11.6063,44.8988],[11.7973,44.9776],[11.9907,44.9839],[12.272,44.9364],[12.3934,44.7935],[12.527,44.9433],[12.3762,45.039],[12.3213,45.1648]]]}},{"type":"Feature","properties":{"sourceId":"1159316981","regionId":"region.ec58ec55-1b36-4cae-a244-d970be0ee74b","countryId":"country.1onsv24"},"geometry":{"type":"Polygon","coordinates":[[[12.3934,44.7935],[12.272,44.9364],[11.9907,44.9839],[11.7973,44.9776],[11.6063,44.8988],[11.4215,44.9499],[11.257,44.9473],[11.2933,44.8027],[11.6063,44.6964],[11.7893,44.5544],[12.0056,44.5967],[12.1777,44.5642],[12.2696,44.6298],[12.2923,44.8432],[12.3934,44.7935]]]}},{"type":"Feature","properties":{"sourceId":"1159316983","regionId":"region.a3324c90-5ca1-4fa0-b2f2-3a72e769cbe7","countryId":"country.1onsv24"},"geometry":{"type":"Polygon","coordinates":[[[12.2696,44.6298],[12.1777,44.5642],[12.0056,44.5967],[11.7893,44.5544],[11.8203,44.3957],[11.6834,44.3182],[11.5263,44.1622],[11.72,44.1317],[11.8942,44.1808],[12.0316,44.3303],[12.2188,44.2149],[12.3856,44.2285],[12.3182,44.3612],[12.2696,44.6298]]]}},{"type":"Feature","properties":{"sourceId":"1159316985","regionId":"region.06b0381d-0817-4ab7-a4b7-e8a8482c2b39","countryId":"country.1onsv24"},"geometry":{"type":"Polygon","coordinates":[[[12.3856,44.2285],[12.2188,44.2149],[12.0316,44.3303],[11.8942,44.1808],[11.72,44.1317],[11.6507,43.9909],[11.7163,43.8791],[11.9686,43.7731],[12.1022,43.759],[12.1642,43.9282],[12.3262,43.9586],[12.4564,44.0943],[12.458,44.1664],[12.3856,44.2285]]]}},{"type":"Feature","properties":{"sourceId":"1159309567","regionId":"region.1db1efb2-e7c3-4a06-b938-d3586c721202","countryId":"country.1onsv24"},"geometry":{"type":"Polygon","coordinates":[[[13.1772,43.7515],[13.0776,43.7272],[12.9691,43.6062],[12.7582,43.4612],[12.7465,43.3788],[12.8517,43.2061],[13.0109,43.3087],[13.0982,43.4309],[13.2952,43.4087],[13.647,43.4753],[13.6156,43.5605],[13.1772,43.7515]]]}},{"type":"Feature","properties":{"sourceId":"1159317023","regionId":"region.9006f27a-7b6e-497c-8c83-b62d69f1decc","countryId":"country.1onsv24"},"geometry":{"type":"Polygon","coordinates":[[[13.647,43.4753],[13.2952,43.4087],[13.0982,43.4309],[13.0109,43.3087],[12.8517,43.2061],[12.9131,42.9634],[13.2243,42.8477],[13.2418,42.892],[13.3435,43.038],[13.4588,43.03],[13.4525,43.1548],[13.601,43.2678],[13.745,43.2922],[13.647,43.4753]]]}},{"type":"Feature","properties":{"sourceId":"1159317025","regionId":"region.c25db5fa-3906-44b2-be5b-3a5320704ea9","countryId":"country.1onsv24"},"geometry":{"type":"Polygon","coordinates":[[[13.745,43.2922],[13.601,43.2678],[13.4525,43.1548],[13.4588,43.03],[13.3435,43.038],[13.2418,42.892],[13.407,42.9693],[13.7799,43.0765],[13.8535,43.0674],[13.745,43.2922]]]}},{"type":"Feature","properties":{"sourceId":"1159317029","regionId":"region.1ffd2565-0d1a-419a-b8a9-5c507817e79a","countryId":"country.1onsv24"},"geometry":{"type":"Polygon","coordinates":[[[13.8535,43.0674],[13.7799,43.0765],[13.407,42.9693],[13.2418,42.892],[13.2243,42.8477],[13.1945,42.7346],[13.3376,42.6877],[13.4298,42.7017],[13.5304,42.8075],[13.9055,42.9016],[13.8535,43.0674]]]}},{"type":"Feature","properties":{"sourceId":"1159317031","regionId":"region.10205b63-05a3-4760-8243-5c88be25ba4b","countryId":"country.1onsv24"},"geometry":{"type":"Polygon","coordinates":[[[13.9055,42.9016],[13.5304,42.8075],[13.4298,42.7017],[13.3376,42.6877],[13.3759,42.6038],[13.5316,42.4441],[13.7654,42.4201],[13.8251,42.4952],[13.9946,42.5405],[14.1513,42.5316],[14.0754,42.5988],[13.9055,42.9016]]]}},{"type":"Feature","properties":{"sourceId":"1159309563","regionId":"region.4f15ec40-4b76-4c8f-a9aa-77e38f12a249","countryId":"country.1onsv24"},"geometry":{"type":"Polygon","coordinates":[[[14.1513,42.5316],[13.9946,42.5405],[13.8251,42.4952],[13.7654,42.4201],[13.8893,42.163],[14.0854,42.0867],[14.1255,42.2317],[14.0736,42.3141],[14.1675,42.4262],[14.2572,42.4461],[14.1513,42.5316]]]}},{"type":"Feature","properties":{"sourceId":"1159317035","regionId":"region.44786970-cffe-4c00-a2e0-da483439cd41","countryId":"country.1onsv24"},"geometry":{"type":"Polygon","coordinates":[[[14.2572,42.4461],[14.1675,42.4262],[14.0736,42.3141],[14.1255,42.2317],[14.0854,42.0867],[14.1172,41.8895],[14.2294,41.8774],[14.2829,41.9062],[14.4904,41.7761],[14.7443,42.013],[14.7634,42.0779],[14.7171,42.1601],[14.5602,42.2257],[14.2572,42.4461]]]}},{"type":"Feature","properties":{"sourceId":"1159309581","regionId":"region.e4274cb5-2d10-437a-8f76-b89b15c73520","countryId":"country.1onsv24"},"geometry":{"type":"Polygon","coordinates":[[[14.7634,42.0779],[14.7443,42.013],[14.4904,41.7761],[14.5004,41.6045],[14.3827,41.442],[14.5138,41.389],[14.6024,41.3731],[14.9953,41.4821],[14.935,41.526],[15.1073,41.7275],[15.1435,41.9312],[14.9937,42.0106],[14.7634,42.0779]]]}},{"type":"Feature","properties":{"sourceId":"1159317049","regionId":"region.0de7d190-7383-42c3-9924-66d98f2e9045","countryId":"country.1onsv24"},"geometry":{"type":"Polygon","coordinates":[[[15.1435,41.9312],[15.1073,41.7275],[14.935,41.526],[14.9953,41.4821],[15.0936,41.4302],[15.0719,41.3354],[15.1435,41.2746],[15.2521,41.2588],[15.2089,41.1494],[15.5586,41.0551],[15.5964,41.1094],[15.8583,41.1368],[16.0202,41.2352],[15.9717,41.4539],[15.8914,41.5769],[16.1929,41.7909],[16.1405,41.9199],[16.0271,41.9441],[15.4461,41.9069],[15.1435,41.9312]]]}},{"type":"Feature","properties":{"sourceId":"1159317051","regionId":"region.b3221b58-15bd-4c5b-9c2d-ae796f960eef","countryId":"country.1onsv24"},"geometry":{"type":"Polygon","coordinates":[[[15.9717,41.4539],[16.0202,41.2352],[15.8583,41.1368],[16.0313,41.0169],[15.9876,40.9499],[16.1966,40.9114],[16.3353,41.1535],[16.5004,41.1519],[16.5442,41.2352],[15.9717,41.4539]]]}},{"type":"Feature","properties":{"sourceId":"1159309583","regionId":"region.f9a324db-1592-48ad-88cf-c6f6b93694b8","countryId":"country.1onsv24"},"geometry":{"type":"Polygon","coordinates":[[[16.5442,41.2352],[16.5004,41.1519],[16.3353,41.1535],[16.1966,40.9114],[16.2454,40.8375],[16.3964,40.713],[16.4978,40.7578],[16.7157,40.7154],[16.9231,40.7009],[17.3537,40.7486],[17.3179,40.8328],[17.3923,40.8937],[17.2764,40.9802],[17.0571,41.0819],[16.5939,41.207],[16.5442,41.2352]]]}},{"type":"Feature","properties":{"sourceId":"1159317053","regionId":"region.d54c09d4-4bc5-4f7c-ae98-a644c48ca3ad","countryId":"country.1onsv24"},"geometry":{"type":"Polygon","coordinates":[[[17.3923,40.8937],[17.3179,40.8328],[17.3537,40.7486],[17.465,40.593],[17.4853,40.4875],[17.7985,40.3796],[18.0989,40.5179],[18.007,40.6507],[17.4761,40.8301],[17.3923,40.8937]]]}},{"type":"Feature","properties":{"sourceId":"1159317055","regionId":"region.c13a2c9d-cceb-4433-9873-bb9e5e28d694","countryId":"country.1onsv24"},"geometry":{"type":"Polygon","coordinates":[[[18.0989,40.5179],[17.7985,40.3796],[17.764,40.2934],[17.9128,40.2553],[17.9972,40.1204],[18.0073,39.9861],[18.2113,39.8393],[18.384,39.8139],[18.4341,40.0225],[18.5174,40.1142],[18.4373,40.2679],[18.3032,40.3999],[18.0989,40.5179]]]}},{"type":"Feature","properties":{"sourceId":"1159317057","regionId":"region.3a95c982-7b4f-4562-b5df-96c21226830d","countryId":"country.1onsv24"},"geometry":{"type":"Polygon","coordinates":[[[17.764,40.2934],[17.7985,40.3796],[17.4853,40.4875],[17.465,40.593],[17.3537,40.7486],[16.9231,40.7009],[16.7157,40.7154],[16.7113,40.5515],[16.8633,40.3909],[17.0496,40.5191],[17.2474,40.5028],[17.2129,40.4062],[17.5121,40.3037],[17.764,40.2934]]]}},{"type":"Feature","properties":{"sourceId":"1159309577","regionId":"region.47af7d96-fb4b-41ca-845f-761990980b2e","countryId":"country.1onsv24"},"geometry":{"type":"Polygon","coordinates":[[[16.8633,40.3909],[16.7113,40.5515],[16.7157,40.7154],[16.4978,40.7578],[16.3964,40.713],[16.2454,40.8375],[16.1215,40.7961],[16.1458,40.6957],[16.0562,40.6564],[16.1757,40.2988],[16.3193,40.2801],[16.3942,40.1577],[16.3988,40.0555],[16.4176,40.1293],[16.64,40.1187],[16.8633,40.3909]]]}},{"type":"Feature","properties":{"sourceId":"1159309579","regionId":"region.c4012391-db64-4880-9d65-bc4940764936","countryId":"country.1onsv24"},"geometry":{"type":"Polygon","coordinates":[[[16.64,40.1187],[16.4176,40.1293],[16.3988,40.0555],[16.3453,39.9326],[16.0689,39.9067],[15.9519,40.0044],[15.8583,40.0082],[15.7458,39.9246],[15.8675,39.5639],[15.9954,39.4388],[16.0969,39.0504],[16.2616,39.1041],[16.4809,39.0647],[16.4985,39.1555],[16.6132,39.1943],[16.7656,39.2158],[16.7332,39.3592],[16.8572,39.3486],[17.0192,39.4792],[16.7498,39.62],[16.6248,39.6253],[16.5156,39.6896],[16.4917,39.8055],[16.6316,39.9662],[16.64,40.1187]]]}},{"type":"Feature","properties":{"sourceId":"1159317061","regionId":"region.dbe987cd-36e8-40e5-8663-862762094fe6","countryId":"country.1onsv24"},"geometry":{"type":"Polygon","coordinates":[[[17.0192,39.4792],[16.8572,39.3486],[16.7332,39.3592],[16.7656,39.2158],[16.6132,39.1943],[16.6772,39.0948],[16.8745,39.0151],[16.8922,38.9296],[17.1277,38.9288],[17.1724,39.0052],[17.1245,39.0909],[17.1222,39.3383],[17.1587,39.4062],[17.0192,39.4792]]]}},{"type":"Feature","properties":{"sourceId":"1159317065","regionId":"region.30cb294a-f5cc-4ada-b0f3-f5080d2b62e2","countryId":"country.1onsv24"},"geometry":{"type":"Polygon","coordinates":[[[16.8922,38.9296],[16.8745,39.0151],[16.6772,39.0948],[16.6132,39.1943],[16.4985,39.1555],[16.4809,39.0647],[16.2616,39.1041],[16.0969,39.0504],[16.2201,38.8991],[16.2137,38.8104],[16.3725,38.7675],[16.3322,38.6608],[16.4199,38.554],[16.5735,38.4673],[16.5388,38.7233],[16.6106,38.8166],[16.8922,38.9296]]]}},{"type":"Feature","properties":{"sourceId":"1159317069","regionId":"region.0235dd8c-6fff-4d66-82db-25612e085899","countryId":"country.1onsv24"},"geometry":{"type":"Polygon","coordinates":[[[16.5735,38.4673],[16.4199,38.554],[16.2763,38.4412],[16.083,38.5547],[15.9144,38.5056],[15.7865,38.278],[15.6506,38.241],[15.6275,38.1074],[15.6658,37.9669],[15.7615,37.9252],[16.09,37.9492],[16.1694,38.1432],[16.3399,38.3008],[16.4671,38.3487],[16.5735,38.4673]]]}},{"type":"Feature","properties":{"sourceId":"1159317067","regionId":"region.aa370100-d265-45d8-bd1e-0100802ed0f3","countryId":"country.1onsv24"},"geometry":{"type":"Polygon","coordinates":[[[15.9144,38.5056],[16.083,38.5547],[16.2763,38.4412],[16.4199,38.554],[16.3322,38.6608],[16.3725,38.7675],[16.2137,38.8104],[16.1209,38.7209],[16.0026,38.7254],[15.8445,38.6604],[15.9144,38.5056]]]}},{"type":"Feature","properties":{"sourceId":"1159317059","regionId":"region.cacce002-d644-4393-a74f-e99246ee49c6","countryId":"country.1onsv24"},"geometry":{"type":"Polygon","coordinates":[[[15.7458,39.9246],[15.8583,40.0082],[15.9519,40.0044],[16.0689,39.9067],[16.3453,39.9326],[16.3988,40.0555],[16.3942,40.1577],[16.3193,40.2801],[16.1757,40.2988],[16.0562,40.6564],[16.1458,40.6957],[16.1215,40.7961],[16.2454,40.8375],[16.1966,40.9114],[15.9876,40.9499],[16.0313,41.0169],[15.8583,41.1368],[15.5964,41.1094],[15.5586,41.0551],[15.544,40.9439],[15.3692,40.899],[15.3443,40.8207],[15.3785,40.7294],[15.4895,40.6537],[15.5922,40.4333],[15.7063,40.3743],[15.7854,40.2689],[15.6467,40.0469],[15.7458,39.9246]]]}},{"type":"Feature","properties":{"sourceId":"1159317047","regionId":"region.209753d3-d3b9-462e-b985-e6320216abad","countryId":"country.1onsv24"},"geometry":{"type":"Polygon","coordinates":[[[15.6467,40.0469],[15.7854,40.2689],[15.7063,40.3743],[15.5922,40.4333],[15.4895,40.6537],[15.3785,40.7294],[15.3443,40.8207],[15.2374,40.7235],[14.9078,40.807],[14.6055,40.8476],[14.5253,40.7776],[14.5822,40.6868],[14.4714,40.6247],[14.7522,40.6767],[14.8888,40.5731],[14.9983,40.3976],[14.9111,40.2416],[15.1272,40.1696],[15.2831,40.0299],[15.4101,39.994],[15.5349,40.0778],[15.6467,40.0469]]]}},{"type":"Feature","properties":{"sourceId":"1159317039","regionId":"region.18a84045-431a-4d15-b412-cd4c3127a1ed","countryId":"country.1onsv24"},"geometry":{"type":"Polygon","coordinates":[[[14.4714,40.6247],[14.5822,40.6868],[14.5253,40.7776],[14.6055,40.8476],[14.572,41.0095],[14.5313,41.0134],[14.3149,41.0048],[14.0101,40.9368],[14.0523,40.8376],[14.2035,40.8012],[14.2942,40.8388],[14.4741,40.7297],[14.4714,40.6247]]]}},{"type":"Feature","properties":{"sourceId":"1159309403","regionId":"region.cfd91014-7314-4cd6-8391-24940b56319c","countryId":"country.1onsv24"},"geometry":{"type":"Polygon","coordinates":[[[14.0101,40.9368],[14.3149,41.0048],[14.5313,41.0134],[14.422,41.0606],[14.4204,41.2431],[14.5138,41.389],[14.3827,41.442],[14.1209,41.4957],[13.9618,41.4707],[13.8597,41.4192],[13.8726,41.3354],[13.7437,41.2376],[13.8517,41.1473],[14.0101,40.9368]]]}},{"type":"Feature","properties":{"sourceId":"1159317019","regionId":"region.2e67cf56-c100-4fdf-9ece-283452054bbd","countryId":"country.1onsv24"},"geometry":{"type":"Polygon","coordinates":[[[13.7437,41.2376],[13.8726,41.3354],[13.6087,41.3314],[13.5496,41.4154],[13.3181,41.4017],[13.2658,41.5277],[13.1752,41.5836],[13.0201,41.5778],[12.9345,41.7096],[12.747,41.5738],[12.6028,41.5556],[12.7744,41.4209],[12.8936,41.3993],[13.0446,41.2275],[13.3244,41.2948],[13.5144,41.2297],[13.7437,41.2376]]]}},{"type":"Feature","properties":{"sourceId":"1159309565","regionId":"region.8f72788d-7cca-43fd-a78d-6128d0fc46d6","countryId":"country.1onsv24"},"geometry":{"type":"Polygon","coordinates":[[[12.7744,41.4209],[12.6028,41.5556],[12.747,41.5738],[12.9345,41.7096],[13.0201,41.5778],[13.1752,41.5836],[13.0186,41.7529],[13.0826,41.858],[13.1844,41.8482],[13.2979,41.947],[13.0284,42.0319],[13.0296,42.1156],[12.8656,42.1065],[12.765,42.1873],[12.6247,42.1747],[12.5204,42.2958],[12.4348,42.1859],[12.1166,42.1508],[11.9141,42.2334],[11.7398,42.1599],[11.8275,42.0342],[11.9168,42.0379],[12.1475,41.9035],[12.239,41.7363],[12.448,41.6308],[12.6194,41.4591],[12.7744,41.4209]],[[12.453,41.9039],[12.454,41.9039],[12.454,41.9028],[12.4527,41.903],[12.453,41.9039]]]}},{"type":"Feature","properties":{"sourceId":"1159317013","regionId":"region.0dd1857d-373b-47b7-9b1a-c17c10a29473","countryId":"country.1onsv24"},"geometry":{"type":"Polygon","coordinates":[[[11.7398,42.1599],[11.9141,42.2334],[12.1166,42.1508],[12.4348,42.1859],[12.5204,42.2958],[12.4651,42.3869],[12.2802,42.5104],[12.2358,42.6476],[12.0337,42.646],[11.889,42.8504],[11.7472,42.7985],[11.7869,42.6512],[11.5882,42.5661],[11.5902,42.442],[11.4515,42.3744],[11.6582,42.2794],[11.7398,42.1599]]]}},{"type":"Feature","properties":{"sourceId":"1159309441","regionId":"region.234f9d7a-2cd2-4aee-a1d7-7b3e42360a1a","countryId":"country.1onsv24"},"geometry":{"type":"Polygon","coordinates":[[[11.4515,42.3744],[11.5902,42.442],[11.5882,42.5661],[11.7869,42.6512],[11.7472,42.7985],[11.635,42.7998],[11.6119,42.9479],[11.3589,42.9996],[11.361,43.0833],[11.0809,43.088],[11.0595,43.1765],[10.9117,43.1626],[10.7173,43.1085],[10.7877,43.0557],[10.7051,42.9409],[10.7313,42.8044],[10.99,42.7103],[11.1869,42.5208],[11.1642,42.4398],[11.4515,42.3744]]]}},{"type":"Feature","properties":{"sourceId":"1159316989","regionId":"region.cd3727b6-3fe4-45c8-b88d-31d9f61fb8e3","countryId":"country.1onsv24"},"geometry":{"type":"Polygon","coordinates":[[[10.7051,42.9409],[10.7877,43.0557],[10.7173,43.1085],[10.6457,43.1582],[10.6784,43.3096],[10.5414,43.3183],[10.4927,43.4004],[10.4675,43.6363],[10.2934,43.5791],[10.3172,43.4926],[10.437,43.3886],[10.5466,43.1471],[10.4995,42.9405],[10.7051,42.9409]]]}},{"type":"Feature","properties":{"sourceId":"1159316993","regionId":"region.d5194a27-c859-4d1d-b21a-d4d3cb7087d3","countryId":"country.1onsv24"},"geometry":{"type":"Polygon","coordinates":[[[10.2934,43.5791],[10.4675,43.6363],[10.4927,43.4004],[10.5414,43.3183],[10.6784,43.3096],[10.6457,43.1582],[10.7173,43.1085],[10.9117,43.1626],[10.9521,43.4522],[10.8605,43.472],[10.8289,43.6227],[10.9073,43.6801],[10.7111,43.7863],[10.4795,43.7556],[10.4207,43.8247],[10.2618,43.8161],[10.2934,43.5791]]]}},{"type":"Feature","properties":{"sourceId":"1159316997","regionId":"region.6fdd0757-53bd-47fb-8d94-f57c4119f8c8","countryId":"country.1onsv24"},"geometry":{"type":"Polygon","coordinates":[[[10.2618,43.8161],[10.4207,43.8247],[10.4795,43.7556],[10.7111,43.7863],[10.7278,43.8141],[10.6528,43.8695],[10.7359,44.0321],[10.6105,44.1257],[10.4712,44.2246],[10.2539,44.2706],[10.1925,44.2115],[10.2321,44.0834],[10.1433,43.9751],[10.2618,43.8161]]]}},{"type":"Feature","properties":{"sourceId":"1159316995","regionId":"region.52ab7344-d261-433e-b079-da3205a6ec2c","countryId":"country.1onsv24"},"geometry":{"type":"Polygon","coordinates":[[[10.1433,43.9751],[10.2321,44.0834],[10.1925,44.2115],[10.2539,44.2706],[10.1357,44.3418],[9.9356,44.4704],[9.8356,44.4763],[9.6898,44.3577],[9.8521,44.2526],[10.0285,44.0493],[10.1433,43.9751]]]}},{"type":"Feature","properties":{"sourceId":"1159316923","regionId":"region.19c23ca7-af86-4787-9462-3f1f8cad35f3","countryId":"country.1onsv24"},"geometry":{"type":"Polygon","coordinates":[[[10.0285,44.0493],[9.8521,44.2526],[9.6898,44.3577],[9.5985,44.4272],[9.4764,44.4125],[9.5623,44.2834],[9.5112,44.2152],[9.7718,44.0794],[9.8447,44.1086],[10.0285,44.0493]]]}},{"type":"Feature","properties":{"sourceId":"1159309573","regionId":"region.72b6b008-2951-4d46-9765-752bf03fec1b","countryId":"country.1onsv24"},"geometry":{"type":"Polygon","coordinates":[[[9.5112,44.2152],[9.5623,44.2834],[9.4764,44.4125],[9.4913,44.551],[9.4142,44.5941],[9.2031,44.6138],[9.1485,44.5811],[8.9592,44.6826],[8.8332,44.561],[8.613,44.5875],[8.5642,44.5162],[8.6306,44.3819],[8.827,44.4285],[9.2306,44.3537],[9.5112,44.2152]]]}},{"type":"Feature","properties":{"sourceId":"1159316917","regionId":"region.7153f5f3-001c-4db9-88a7-5ef2db9ad724","countryId":"country.1onsv24"},"geometry":{"type":"Polygon","coordinates":[[[8.6306,44.3819],[8.5642,44.5162],[8.2655,44.5217],[8.2498,44.5346],[8.2058,44.4224],[8.0716,44.3115],[8.0775,44.1858],[8.0021,44.1184],[7.9922,44.0213],[8.1302,43.9403],[8.2332,44.1036],[8.4082,44.1935],[8.4661,44.3043],[8.6306,44.3819]]]}},{"type":"Feature","properties":{"sourceId":"1159309345","regionId":"region.d9751653-59b0-4f4d-ac62-04574cdf7257","countryId":"country.1onsv24"},"geometry":{"type":"Polygon","coordinates":[[[12.8939,37.5733],[12.9061,37.689],[13.0275,37.7407],[12.9463,37.8433],[13.0482,37.954],[12.9761,38.0442],[12.9011,38.0281],[12.7254,38.1259],[12.5042,38.0112],[12.427,37.797],[12.489,37.6827],[12.6978,37.5627],[12.8939,37.5733]]]}},{"type":"Feature","properties":{"sourceId":"1159317073","regionId":"region.701385cb-af55-4302-998a-0d97f9203aed","countryId":"country.1onsv24"},"geometry":{"type":"Polygon","coordinates":[[[14.1796,38.0257],[14.2764,37.9208],[14.2799,37.8402],[14.5356,37.8694],[14.6029,37.8083],[14.7422,37.8182],[14.761,37.9299],[14.929,37.9566],[15.097,37.904],[15.2599,37.8078],[15.5003,38.0849],[15.5838,38.2404],[15.5129,38.2976],[15.3997,38.2326],[15.2454,38.2172],[15.0879,38.1282],[14.9071,38.1877],[14.7337,38.1576],[14.5117,38.0444],[14.1796,38.0257]]]}},{"type":"Feature","properties":{"sourceId":"1159317071","regionId":"region.fafa7d56-c3ae-4b5f-9804-884beebe3695","countryId":"country.1onsv24"},"geometry":{"type":"Polygon","coordinates":[[[12.9761,38.0442],[13.0482,37.954],[12.9463,37.8433],[13.0275,37.7407],[13.2277,37.6289],[13.5996,37.644],[13.7324,37.683],[13.8113,37.7269],[13.9747,37.5832],[14.1349,37.6168],[14.2648,37.703],[14.2799,37.8402],[14.2764,37.9208],[14.1796,38.0257],[14.0205,38.0494],[13.7908,37.9736],[13.6511,38.001],[13.5135,38.1105],[13.3914,38.1032],[13.3102,38.2196],[13.1009,38.1901],[13.0697,38.0911],[12.9761,38.0442]]]}},{"type":"Feature","properties":{"sourceId":"1159317087","regionId":"region.ff93ec7a-abd0-4193-954d-989e8656a86f","countryId":"country.1onsv24"},"geometry":{"type":"Polygon","coordinates":[[[14.0393,37.1145],[14.0195,37.2778],[13.8821,37.3603],[13.8388,37.4362],[13.6854,37.4989],[13.7324,37.683],[13.5996,37.644],[13.2277,37.6289],[13.0275,37.7407],[12.9061,37.689],[12.8939,37.5733],[13.0264,37.4932],[13.1741,37.487],[13.278,37.3937],[13.4526,37.2988],[13.5692,37.2735],[13.6834,37.1894],[13.8944,37.1008],[14.0393,37.1145]]]}},{"type":"Feature","properties":{"sourceId":"1159317085","regionId":"region.bcc814ac-1251-4f3c-9972-cd4a095ed96a","countryId":"country.1onsv24"},"geometry":{"type":"Polygon","coordinates":[[[14.3346,37.0006],[14.444,37.0529],[14.3525,37.306],[14.0901,37.346],[14.1424,37.4835],[14.1349,37.6168],[13.9747,37.5832],[13.8113,37.7269],[13.7324,37.683],[13.6854,37.4989],[13.8388,37.4362],[13.8821,37.3603],[14.0195,37.2778],[14.0393,37.1145],[14.1263,37.1123],[14.3346,37.0006]]]}},{"type":"Feature","properties":{"sourceId":"1159317083","regionId":"region.a80151a9-e591-412e-ab64-cc080c16d61c","countryId":"country.1onsv24"},"geometry":{"type":"Polygon","coordinates":[[[15.0003,36.7024],[14.9018,36.9906],[14.7937,37.132],[14.5708,37.0559],[14.444,37.0529],[14.3346,37.0006],[14.4873,36.7934],[14.7808,36.6994],[15.0003,36.7024]]]}},{"type":"Feature","properties":{"sourceId":"1159317079","regionId":"region.e04a8a80-2ce0-4e01-8ad8-335081dce030","countryId":"country.1onsv24"},"geometry":{"type":"Polygon","coordinates":[[[15.0925,37.3588],[14.9011,37.4103],[14.8075,37.317],[14.7937,37.132],[14.9018,36.9906],[15.0003,36.7024],[15.1747,36.9441],[15.3294,37.0277],[15.1834,37.2075],[15.2175,37.285],[15.0925,37.3588]]]}},{"type":"Feature","properties":{"sourceId":"1159317077","regionId":"region.8a5b72a8-0eaa-43c8-b9aa-bd075574daaa","countryId":"country.1onsv24"},"geometry":{"type":"Polygon","coordinates":[[[15.2599,37.8078],[15.097,37.904],[14.929,37.9566],[14.761,37.9299],[14.7422,37.8182],[14.7149,37.6974],[14.8356,37.5966],[14.5429,37.5425],[14.5708,37.3618],[14.3525,37.306],[14.444,37.0529],[14.5708,37.0559],[14.7937,37.132],[14.8075,37.317],[14.9011,37.4103],[15.0925,37.3588],[15.0967,37.4945],[15.1638,37.5677],[15.2599,37.8078]]]}},{"type":"Feature","properties":{"sourceId":"1159315799","regionId":"region.2cf5005a-08d8-40b6-9f16-b6cdf8da6b39","countryId":"country.1onsv24"},"geometry":{"type":"Polygon","coordinates":[[[8.6103,38.9549],[8.6576,39.0356],[8.849,39.0874],[8.7555,39.206],[8.6993,39.3749],[8.5306,39.4794],[8.3981,39.4465],[8.4264,39.2833],[8.3718,39.2306],[8.6103,38.9549]]]}},{"type":"Feature","properties":{"sourceId":"1159317093","regionId":"region.b59c67d8-ae8e-4733-bdd9-154f585e8d84","countryId":"country.1onsv24"},"geometry":{"type":"Polygon","coordinates":[[[8.3921,40.4123],[8.5296,40.4119],[8.6203,40.3188],[8.9413,40.3728],[9.0002,40.317],[9.1833,40.3711],[9.2585,40.5052],[9.1895,40.5368],[9.1822,40.6473],[9.019,40.6782],[9.0259,40.783],[8.9666,40.9528],[8.8113,40.9408],[8.5205,40.827],[8.3102,40.8507],[8.2332,40.9101],[8.1338,40.7289],[8.1406,40.6252],[8.312,40.5781],[8.3921,40.4123]]]}},{"type":"Feature","properties":{"sourceId":"1159317097","regionId":"region.17bd3b72-b523-43f9-9b12-04fdb0f4f24b","countryId":"country.1onsv24"},"geometry":{"type":"Polygon","coordinates":[[[9.7488,40.6603],[9.5744,40.6898],[9.424,40.6535],[9.3191,40.5502],[9.1895,40.5368],[9.2585,40.5052],[9.1833,40.3711],[9.0002,40.317],[8.9413,40.3728],[8.6203,40.3188],[8.6716,40.2226],[9.0009,40.1997],[9.0031,39.9174],[9.1593,39.8296],[9.2804,39.9173],[9.3003,40.0426],[9.4272,40.1028],[9.5329,40.2162],[9.6272,40.2245],[9.8267,40.5196],[9.7488,40.6603]]]}},{"type":"Feature","properties":{"sourceId":"1159317095","regionId":"region.02f8ceec-b9ae-484d-aaf8-760f6bc01a6f","countryId":"country.1onsv24"},"geometry":{"type":"Polygon","coordinates":[[[8.8113,40.9408],[8.9666,40.9528],[9.0259,40.783],[9.019,40.6782],[9.1822,40.6473],[9.1895,40.5368],[9.3191,40.5502],[9.424,40.6535],[9.5744,40.6898],[9.7488,40.6603],[9.5733,40.9064],[9.5462,41.1209],[9.2306,41.2626],[9.1576,41.1689],[9.0247,41.1289],[8.8113,40.9408]]]}},{"type":"Feature","properties":{"sourceId":"1159317091","regionId":"region.0f5d2d95-5e62-4e30-95a5-2d70ccaf7b9f","countryId":"country.1onsv24"},"geometry":{"type":"Polygon","coordinates":[[[8.5485,39.6979],[8.6771,39.634],[8.8438,39.6675],[9.0033,39.7605],[9.1593,39.8296],[9.0031,39.9174],[9.0009,40.1997],[8.6716,40.2226],[8.6203,40.3188],[8.5296,40.4119],[8.3921,40.4123],[8.4629,40.3145],[8.49,40.1045],[8.4014,40.0499],[8.3983,39.9053],[8.5552,39.8527],[8.5485,39.6979]]]}},{"type":"Feature","properties":{"sourceId":"1159317089","regionId":"region.5047b849-8cf1-477d-811e-44784220bd05","countryId":"country.1onsv24"},"geometry":{"type":"Polygon","coordinates":[[[8.3981,39.4465],[8.5306,39.4794],[8.6993,39.3749],[8.93,39.3995],[9.0578,39.7529],[9.0033,39.7605],[8.8438,39.6675],[8.6771,39.634],[8.5485,39.6979],[8.3981,39.4465]]]}},{"type":"Feature","properties":{"sourceId":"1159317103","regionId":"region.f1422706-d749-4550-875d-7b61836afb20","countryId":"country.1onsv24"},"geometry":{"type":"Polygon","coordinates":[[[9.6463,39.5491],[9.3994,39.6498],[9.2804,39.9173],[9.1593,39.8296],[9.0033,39.7605],[9.0578,39.7529],[8.93,39.3995],[8.6993,39.3749],[8.7555,39.206],[8.849,39.0874],[8.6576,39.0356],[8.6103,38.9549],[8.8415,38.8806],[9.0183,38.9953],[9.0183,39.1461],[9.0789,39.2123],[9.2525,39.2252],[9.4504,39.1244],[9.5578,39.1397],[9.6463,39.5491]]]}},{"type":"Feature","properties":{"sourceId":"1159317101","regionId":"region.765b5f18-4133-4a43-8032-c95dc68d2c19","countryId":"country.1onsv24"},"geometry":{"type":"Polygon","coordinates":[[[9.6272,40.2245],[9.5329,40.2162],[9.4272,40.1028],[9.3003,40.0426],[9.2804,39.9173],[9.3994,39.6498],[9.6463,39.5491],[9.7323,40.0839],[9.6272,40.2245]]]}},{"type":"Feature","properties":{"sourceId":"1159317075","regionId":"region.812f387b-ebfe-42d3-a261-4da6596ec09e","countryId":"country.1onsv24"},"geometry":{"type":"Polygon","coordinates":[[[14.7422,37.8182],[14.6029,37.8083],[14.5356,37.8694],[14.2799,37.8402],[14.2648,37.703],[14.1349,37.6168],[14.1424,37.4835],[14.0901,37.346],[14.3525,37.306],[14.5708,37.3618],[14.5429,37.5425],[14.8356,37.5966],[14.7149,37.6974],[14.7422,37.8182]]]}},{"type":"Feature","properties":{"sourceId":"1159317041","regionId":"region.cde55c22-6c55-4b68-aeea-ea6d03bcedc4","countryId":"country.1onsv24"},"geometry":{"type":"Polygon","coordinates":[[[14.5138,41.389],[14.4204,41.2431],[14.422,41.0606],[14.5313,41.0134],[14.572,41.0095],[14.5997,41.0511],[14.835,41.0385],[14.9937,41.1065],[14.9916,41.272],[15.1435,41.2746],[15.0719,41.3354],[15.0936,41.4302],[14.9953,41.4821],[14.6024,41.3731],[14.5138,41.389]]]}},{"type":"Feature","properties":{"sourceId":"1159316913","regionId":"region.e2fb1040-b035-47b5-a003-80b37a6f258c","countryId":"country.1onsv24"},"geometry":{"type":"Polygon","coordinates":[[[7.9434,44.8463],[8.1309,44.8025],[8.2655,44.7028],[8.1975,44.6328],[8.2498,44.5346],[8.2655,44.5217],[8.3463,44.6898],[8.4989,44.7674],[8.3723,44.864],[8.3884,44.9634],[8.3032,45.0722],[8.129,45.123],[8.0289,45.1327],[7.9389,45.0495],[7.8907,44.8999],[7.9434,44.8463]]]}},{"type":"Feature","properties":{"sourceId":"1159310917","regionId":"region.d5793da2-bed1-4a21-941c-d73229c784fb","countryId":"country.1onsv24"},"geometry":{"type":"Polygon","coordinates":[[[10.1695,46.057],[10.0969,46.0909],[9.8718,46.044],[9.6259,46.0515],[9.5269,46.0114],[9.5401,45.9456],[9.4478,45.7499],[9.4828,45.6718],[9.4964,45.6453],[9.5103,45.512],[9.5649,45.4582],[9.8915,45.4267],[9.8567,45.5797],[9.9289,45.6654],[10.0725,45.7159],[10.1695,46.057]]]}},{"type":"Feature","properties":{"sourceId":"1159316927","regionId":"region.52bce4fe-d862-4bb2-8db2-058d8a170493","countryId":"country.1onsv24"},"geometry":{"type":"Polygon","coordinates":[[[9.8915,45.4267],[10.0083,45.2954],[10.3178,45.2047],[10.5059,45.409],[10.6618,45.419],[10.6442,45.6096],[10.8449,45.8341],[10.7286,45.8488],[10.5792,45.7947],[10.4604,45.9816],[10.5902,46.2334],[10.5279,46.3426],[10.4459,46.3481],[10.1785,46.173],[10.1695,46.057],[10.0725,45.7159],[9.9289,45.6654],[9.8567,45.5797],[9.8915,45.4267]]]}},{"type":"Feature","properties":{"sourceId":"1159316931","regionId":"region.b94c05f6-ce24-4357-9363-93db8f41f3fd","countryId":"country.1onsv24"},"geometry":{"type":"Polygon","coordinates":[[[9.8915,45.4267],[9.5649,45.4582],[9.5103,45.512],[9.4735,45.4512],[9.4683,45.3799],[9.7069,45.2646],[9.8829,45.1341],[9.9866,45.1287],[10.0719,45.0375],[10.1835,45.0466],[10.5015,44.9194],[10.5349,45.0695],[10.4147,45.0818],[10.3178,45.2047],[10.0083,45.2954],[9.8915,45.4267]]]}},{"type":"Feature","properties":{"sourceId":"1159316929","regionId":"region.ad46ed62-f6c6-4b02-b879-7316d71a3b0e","countryId":"country.1onsv24"},"geometry":{"type":"Polygon","coordinates":[[[10.3178,45.2047],[10.4147,45.0818],[10.5349,45.0695],[10.5015,44.9194],[10.6803,44.9871],[10.8878,44.914],[11.0831,44.9619],[11.257,44.9473],[11.4215,44.9499],[11.1957,45.0634],[11.2103,45.1043],[11.0773,45.0995],[10.9931,45.1939],[10.7064,45.3295],[10.6618,45.419],[10.5059,45.409],[10.3178,45.2047]]]}},{"type":"Feature","properties":{"sourceId":"1159316939","regionId":"region.e8394380-ba8f-40e3-a180-8349c8783890","countryId":"country.1onsv24"},"geometry":{"type":"Polygon","coordinates":[[[9.4964,45.6453],[9.3065,45.5392],[9.053,45.6232],[8.7052,45.5568],[8.832,45.4082],[8.983,45.265],[9.2204,45.3276],[9.3388,45.3129],[9.4735,45.4512],[9.5103,45.512],[9.4964,45.6453]]]}},{"type":"Feature","properties":{"sourceId":"1159316945","regionId":"region.69764571-39aa-4261-9bf3-874e2e581b1d","countryId":"country.1onsv24"},"geometry":{"type":"Polygon","coordinates":[[[9.5269,46.0114],[9.4246,46.16],[9.304,46.133],[9.2633,45.9613],[9.3285,45.8599],[9.2472,45.7426],[9.3152,45.666],[9.4828,45.6718],[9.4478,45.7499],[9.5401,45.9456],[9.5269,46.0114]]]}},{"type":"Feature","properties":{"sourceId":"1159316947","regionId":"region.333c838a-bcb1-4572-9cf2-95df281ef1c6","countryId":"country.1onsv24"},"geometry":{"type":"Polygon","coordinates":[[[9.4828,45.6718],[9.3152,45.666],[9.2472,45.7426],[9.0587,45.6614],[9.053,45.6232],[9.3065,45.5392],[9.4964,45.6453],[9.4828,45.6718]]]}},{"type":"Feature","properties":{"sourceId":"1159316933","regionId":"region.d60c5121-e83c-4715-8620-8e467bdc7b40","countryId":"country.1onsv24"},"geometry":{"type":"Polygon","coordinates":[[[9.4735,45.4512],[9.3388,45.3129],[9.3155,45.2564],[9.546,45.1327],[9.6814,45.0753],[9.8829,45.1341],[9.7069,45.2646],[9.4683,45.3799],[9.4735,45.4512]]]}},{"type":"Feature","properties":{"sourceId":"1159317007","regionId":"region.9cbfcf5c-b0ee-464f-bb9a-e6fee71fe160","countryId":"country.1onsv24"},"geometry":{"type":"Polygon","coordinates":[[[11.9527,43.1738],[11.8839,43.1603],[11.5355,43.3929],[11.5366,43.4519],[11.3975,43.5482],[11.194,43.4867],[11.0505,43.5377],[10.9521,43.4522],[10.9117,43.1626],[11.0595,43.1765],[11.0809,43.088],[11.361,43.0833],[11.3589,42.9996],[11.6119,42.9479],[11.635,42.7998],[11.7472,42.7985],[11.889,42.8504],[11.9317,42.8717],[11.9778,43.0464],[11.9527,43.1738]]]}},{"type":"Feature","properties":{"sourceId":"1159317005","regionId":"region.f4965739-f9f7-41f3-b846-912c515db65f","countryId":"country.1onsv24"},"geometry":{"type":"Polygon","coordinates":[[[11.3975,43.5482],[11.5366,43.4519],[11.5355,43.3929],[11.8839,43.1603],[11.9527,43.1738],[12.023,43.2419],[12.1584,43.2627],[12.0371,43.4165],[12.1341,43.4888],[12.2048,43.6168],[12.3576,43.7226],[12.2858,43.7689],[12.1022,43.759],[11.9686,43.7731],[11.7163,43.8791],[11.6321,43.8453],[11.6084,43.6977],[11.5075,43.5873],[11.3975,43.5482]]]}},{"type":"Feature","properties":{"sourceId":"1159317003","regionId":"region.a911a13e-7a6d-4d99-af32-5ff416db5e74","countryId":"country.1onsv24"},"geometry":{"type":"Polygon","coordinates":[[[10.7111,43.7863],[10.9073,43.6801],[10.8289,43.6227],[10.8605,43.472],[10.9521,43.4522],[11.0505,43.5377],[11.194,43.4867],[11.3975,43.5482],[11.5075,43.5873],[11.6084,43.6977],[11.6321,43.8453],[11.7163,43.8791],[11.6507,43.9909],[11.72,44.1317],[11.5263,44.1622],[11.392,44.2324],[11.2001,44.1047],[11.139,43.8539],[10.9641,43.8125],[10.7278,43.8141],[10.7111,43.7863]]]}},{"type":"Feature","properties":{"sourceId":"1159316905","regionId":"region.bf841067-7c12-428e-95a0-1e8f0f0a9b7e","countryId":"country.1onsv24"},"geometry":{"type":"Polygon","coordinates":[[[8.027,45.4031],[7.9727,45.3424],[8.0596,45.1825],[8.1519,45.1686],[8.4047,45.2045],[8.5566,45.1648],[8.5126,45.3135],[8.4068,45.4242],[8.3914,45.6062],[8.3105,45.6971],[8.3499,45.7724],[8.3223,45.854],[8.1872,45.9477],[7.957,45.9024],[7.8559,45.9193],[7.9163,45.7297],[8.1822,45.7419],[8.2804,45.6618],[8.263,45.5043],[8.1122,45.3782],[8.027,45.4031]]]}},{"type":"Feature","properties":{"sourceId":"1159316935","regionId":"region.e357152f-5079-4704-a478-34c1935b5a5b","countryId":"country.1onsv24"},"geometry":{"type":"Polygon","coordinates":[[[8.832,45.4082],[8.6587,45.3164],[8.5126,45.3135],[8.5566,45.1648],[8.6691,45.0248],[8.8824,45.0005],[9.1406,44.8156],[9.2014,44.6821],[9.3091,44.6957],[9.3552,44.8265],[9.3026,44.8962],[9.425,45.1012],[9.546,45.1327],[9.3155,45.2564],[9.3388,45.3129],[9.2204,45.3276],[8.983,45.265],[8.832,45.4082]]]}},{"type":"Feature","properties":{"sourceId":"1159317015","regionId":"region.5ff9a89a-caad-49a9-b6fd-8161c52c6a3c","countryId":"country.1onsv24"},"geometry":{"type":"Polygon","coordinates":[[[12.4651,42.3869],[12.5204,42.2958],[12.6247,42.1747],[12.765,42.1873],[12.8656,42.1065],[13.0296,42.1156],[13.0988,42.1737],[13.2339,42.1291],[13.317,42.1969],[13.1633,42.3386],[13.1353,42.5383],[13.1861,42.5869],[13.3759,42.6038],[13.3376,42.6877],[13.1945,42.7346],[13.1539,42.6451],[12.902,42.6096],[12.5284,42.3695],[12.4651,42.3869]]]}},{"type":"Feature","properties":{"sourceId":"1159316909","regionId":"region.42ef74a9-bfe7-425c-b2fa-cdd4ce92ec14","countryId":"country.1onsv24"},"geometry":{"type":"Polygon","coordinates":[[[8.3499,45.7724],[8.3105,45.6971],[8.3914,45.6062],[8.4068,45.4242],[8.5126,45.3135],[8.6587,45.3164],[8.832,45.4082],[8.7052,45.5568],[8.5654,45.7986],[8.5984,45.826],[8.4608,45.8689],[8.3499,45.7724]]]}},{"type":"Feature","properties":{"sourceId":"1159316911","regionId":"region.c0466e92-ed75-482b-9997-2f2d411f7ace","countryId":"country.1onsv24"},"geometry":{"type":"Polygon","coordinates":[[[8.5566,45.1648],[8.4047,45.2045],[8.1519,45.1686],[8.129,45.123],[8.3032,45.0722],[8.3884,44.9634],[8.3723,44.864],[8.4989,44.7674],[8.3463,44.6898],[8.2655,44.5217],[8.5642,44.5162],[8.613,44.5875],[8.8332,44.561],[8.9592,44.6826],[9.1485,44.5811],[9.2031,44.6138],[9.2014,44.6821],[9.1406,44.8156],[8.8824,45.0005],[8.6691,45.0248],[8.5566,45.1648]]]}},{"type":"Feature","properties":{"sourceId":"1159316949","regionId":"region.e76ca477-de91-4d1d-96f1-c48b789356d8","countryId":"country.1onsv24"},"geometry":{"type":"Polygon","coordinates":[[[11.8322,46.504],[11.6841,46.5077],[11.5953,46.3862],[11.242,46.2312],[11.2145,46.4693],[11.0553,46.5156],[10.8399,46.4307],[10.7452,46.4849],[10.6247,46.4545],[10.5279,46.3426],[10.5902,46.2334],[10.4604,45.9816],[10.5792,45.7947],[10.7286,45.8488],[10.8449,45.8341],[10.8767,45.7158],[11.1307,45.6996],[11.2787,45.919],[11.495,46.0124],[11.6848,45.9843],[11.7121,46.1011],[11.8965,46.1327],[11.9694,46.1963],[11.8039,46.3453],[11.8322,46.504]]]}},{"type":"Feature","properties":{"sourceId":"1159316959","regionId":"region.5a7059aa-bf0e-415f-87ac-86f8fca47d35","countryId":"country.1onsv24"},"geometry":{"type":"Polygon","coordinates":[[[11.1307,45.6996],[11.3301,45.4834],[11.3593,45.3569],[11.4872,45.2659],[11.6024,45.2439],[11.6167,45.387],[11.7459,45.4882],[11.6494,45.6354],[11.8218,45.6871],[11.7997,45.8806],[11.6848,45.9843],[11.495,46.0124],[11.2787,45.919],[11.1307,45.6996]]]}},{"type":"Feature","properties":{"sourceId":"1159316957","regionId":"region.7d2f4f36-f722-4639-bca5-9188570e4364","countryId":"country.1onsv24"},"geometry":{"type":"Polygon","coordinates":[[[11.1307,45.6996],[10.8767,45.7158],[10.8449,45.8341],[10.6442,45.6096],[10.6618,45.419],[10.7064,45.3295],[10.9931,45.1939],[11.0773,45.0995],[11.2103,45.1043],[11.4186,45.1318],[11.4872,45.2659],[11.3593,45.3569],[11.3301,45.4834],[11.1307,45.6996]]]}},{"type":"Feature","properties":{"sourceId":"1159316961","regionId":"region.40cecf62-500e-4ea3-8633-8c594ae772c8","countryId":"country.1onsv24"},"geometry":{"type":"Polygon","coordinates":[[[12.4224,46.0431],[12.3309,46.0822],[12.1916,46.0041],[11.9614,45.9542],[11.7997,45.8806],[11.8218,45.6871],[11.9547,45.6106],[12.0924,45.5984],[12.2311,45.5367],[12.5225,45.6857],[12.663,45.7019],[12.6728,45.8021],[12.5679,45.8389],[12.4224,46.0431]]]}},{"type":"Feature","properties":{"sourceId":"1159316977","regionId":"region.005668bb-da70-4639-b11f-38b38e084e0d","countryId":"country.1onsv24"},"geometry":{"type":"Polygon","coordinates":[[[10.0719,45.0375],[9.9866,45.1287],[9.8829,45.1341],[9.6814,45.0753],[9.546,45.1327],[9.425,45.1012],[9.3026,44.8962],[9.3552,44.8265],[9.3091,44.6957],[9.2014,44.6821],[9.2031,44.6138],[9.4142,44.5941],[9.4913,44.551],[9.6392,44.6674],[9.7663,44.7064],[10.007,44.8718],[10.0719,45.0375]]]}},{"type":"Feature","properties":{"sourceId":"1159316975","regionId":"region.abdb4353-e556-47fb-8451-48a4ee4a9c40","countryId":"country.1onsv24"},"geometry":{"type":"Polygon","coordinates":[[[10.0719,45.0375],[10.007,44.8718],[9.7663,44.7064],[9.6392,44.6674],[9.4913,44.551],[9.4764,44.4125],[9.5985,44.4272],[9.6898,44.3577],[9.8356,44.4763],[9.9356,44.4704],[10.1357,44.3418],[10.4005,44.5687],[10.4631,44.8939],[10.5015,44.9194],[10.1835,45.0466],[10.0719,45.0375]]]}},{"type":"Feature","properties":{"sourceId":"1159316971","regionId":"region.fc18b7ce-7ce2-4f30-b66d-534a063748e7","countryId":"country.1onsv24"},"geometry":{"type":"Polygon","coordinates":[[[10.1357,44.3418],[10.2539,44.2706],[10.4712,44.2246],[10.7731,44.5585],[10.8151,44.8072],[10.8878,44.914],[10.6803,44.9871],[10.5015,44.9194],[10.4631,44.8939],[10.4005,44.5687],[10.1357,44.3418]]]}},{"type":"Feature","properties":{"sourceId":"1159309571","regionId":"region.226103c0-8235-4e45-bab4-765bf44febfe","countryId":"country.1onsv24"},"geometry":{"type":"Polygon","coordinates":[[[10.4712,44.2246],[10.6105,44.1257],[10.8159,44.1135],[10.8657,44.2309],[10.9606,44.2325],[11.118,44.5344],[11.0781,44.647],[11.1296,44.7808],[11.2933,44.8027],[11.257,44.9473],[11.0831,44.9619],[10.8878,44.914],[10.8151,44.8072],[10.7731,44.5585],[10.4712,44.2246]]]}},{"type":"Feature","properties":{"sourceId":"1159316979","regionId":"region.90cab2d1-cb26-49ef-b7b2-8102b329ac34","countryId":"country.1onsv24"},"geometry":{"type":"Polygon","coordinates":[[[11.2933,44.8027],[11.1296,44.7808],[11.0781,44.647],[11.118,44.5344],[10.9606,44.2325],[10.8657,44.2309],[10.8159,44.1135],[10.9232,44.068],[11.0483,44.0924],[11.2001,44.1047],[11.392,44.2324],[11.5263,44.1622],[11.6834,44.3182],[11.8203,44.3957],[11.7893,44.5544],[11.6063,44.6964],[11.2933,44.8027]]]}},{"type":"Feature","properties":{"sourceId":"1159316999","regionId":"region.06d8990d-4b4f-438b-96f5-0434c1927a7d","countryId":"country.1onsv24"},"geometry":{"type":"Polygon","coordinates":[[[10.6105,44.1257],[10.7359,44.0321],[10.6528,43.8695],[10.7278,43.8141],[10.9641,43.8125],[11.0049,43.8286],[11.0483,44.0924],[10.9232,44.068],[10.8159,44.1135],[10.6105,44.1257]]]}},{"type":"Feature","properties":{"sourceId":"1159317011","regionId":"region.8471b996-46ec-4ad2-8423-cdfda814ab6f","countryId":"country.1onsv24"},"geometry":{"type":"Polygon","coordinates":[[[12.902,42.6096],[12.7336,42.6022],[12.4982,42.7327],[12.2981,42.748],[12.3009,42.9148],[12.0683,42.9385],[11.9317,42.8717],[11.889,42.8504],[12.0337,42.646],[12.2358,42.6476],[12.2802,42.5104],[12.4651,42.3869],[12.5284,42.3695],[12.902,42.6096]]]}},{"type":"Feature","properties":{"sourceId":"1159309569","regionId":"region.593adecd-e470-48cc-b6e8-fef2f6c4ba11","countryId":"country.1onsv24"},"geometry":{"type":"Polygon","coordinates":[[[11.9317,42.8717],[12.0683,42.9385],[12.3009,42.9148],[12.2981,42.748],[12.4982,42.7327],[12.7336,42.6022],[12.902,42.6096],[13.1539,42.6451],[13.1945,42.7346],[13.2243,42.8477],[12.9131,42.9634],[12.8517,43.2061],[12.7465,43.3788],[12.7582,43.4612],[12.6047,43.4303],[12.5105,43.5125],[12.3199,43.5462],[12.2048,43.6168],[12.1341,43.4888],[12.0371,43.4165],[12.1584,43.2627],[12.023,43.2419],[11.9527,43.1738],[11.9778,43.0464],[11.9317,42.8717]]]}},{"type":"Feature","properties":{"sourceId":"1159317017","regionId":"region.9071de8b-beb3-4bcc-944e-71c82e9a0e3d","countryId":"country.1onsv24"},"geometry":{"type":"Polygon","coordinates":[[[13.1752,41.5836],[13.2658,41.5277],[13.3181,41.4017],[13.5496,41.4154],[13.6087,41.3314],[13.8726,41.3354],[13.8597,41.4192],[13.9618,41.4707],[14.0101,41.5289],[13.9457,41.6882],[13.6466,41.8105],[13.5788,41.7699],[13.4052,41.8316],[13.2979,41.947],[13.1844,41.8482],[13.0826,41.858],[13.0186,41.7529],[13.1752,41.5836]]]}},{"type":"Feature","properties":{"sourceId":"1159317043","regionId":"region.9e05d4d2-9e7d-4270-8d78-f35f280d234b","countryId":"country.1onsv24"},"geometry":{"type":"Polygon","coordinates":[[[14.572,41.0095],[14.6055,40.8476],[14.9078,40.807],[15.2374,40.7235],[15.3443,40.8207],[15.3692,40.899],[15.544,40.9439],[15.5586,41.0551],[15.2089,41.1494],[15.2521,41.2588],[15.1435,41.2746],[14.9916,41.272],[14.9937,41.1065],[14.835,41.0385],[14.5997,41.0511],[14.572,41.0095]]]}},{"type":"Feature","properties":{"sourceId":"1159317033","regionId":"region.c63cb940-3201-4820-b05d-3ed75d7fc643","countryId":"country.1onsv24"},"geometry":{"type":"Polygon","coordinates":[[[13.3759,42.6038],[13.1861,42.5869],[13.1353,42.5383],[13.1633,42.3386],[13.317,42.1969],[13.2339,42.1291],[13.0988,42.1737],[13.0296,42.1156],[13.0284,42.0319],[13.2979,41.947],[13.4052,41.8316],[13.5788,41.7699],[13.6466,41.8105],[13.9457,41.6882],[14.1752,41.7601],[14.2294,41.8774],[14.1172,41.8895],[14.0854,42.0867],[13.8893,42.163],[13.7654,42.4201],[13.5316,42.4441],[13.3759,42.6038]]]}},{"type":"Feature","properties":{"sourceId":"1159316965","regionId":"region.317a3f49-b57a-412a-8a75-9d912a4d6fab","countryId":"country.1onsv24"},"geometry":{"type":"Polygon","coordinates":[[[12.5001,46.4042],[12.3359,46.2695],[12.4565,46.2064],[12.502,46.111],[12.4224,46.0431],[12.5679,45.8389],[12.6728,45.8021],[12.9729,45.8426],[12.9057,45.962],[12.978,46.2561],[12.9657,46.3289],[12.642,46.3393],[12.5001,46.4042]]]}},{"type":"Feature","properties":{"sourceId":"1159317037","regionId":"region.8d2f0054-1345-4726-9474-cb04ae8967ac","countryId":"country.1onsv24"},"geometry":{"type":"Polygon","coordinates":[[[14.4904,41.7761],[14.2829,41.9062],[14.2294,41.8774],[14.1752,41.7601],[13.9457,41.6882],[14.0101,41.5289],[13.9618,41.4707],[14.1209,41.4957],[14.3827,41.442],[14.5004,41.6045],[14.4904,41.7761]]]}},{"type":"Feature","properties":{"sourceId":"1159316903","regionId":"region.c74d93f3-c90b-4a05-8f20-15b992fcd789","countryId":"country.1onsv24"},"geometry":{"type":"Polygon","coordinates":[[[8.027,45.4031],[8.1122,45.3782],[8.263,45.5043],[8.2804,45.6618],[8.1822,45.7419],[7.9163,45.7297],[7.8802,45.6027],[7.8822,45.5341],[8.027,45.4031]]]}},{"type":"Feature","properties":{"sourceId":"1159317001","regionId":"region.37b11660-bc3f-4dd2-9e88-a67ac521edb8","countryId":"country.1onsv24"},"geometry":{"type":"Polygon","coordinates":[[[11.2001,44.1047],[11.0483,44.0924],[11.0049,43.8286],[10.9641,43.8125],[11.139,43.8539],[11.2001,44.1047]]]}}]}