{"type":"FeatureCollection","features":[{"type":"Feature","properties":{"sourceId":"1159309453","regionId":"region.87bf928c-7f62-4ed6-9633-c9ad36e96589","countryId":"country.1rdws0z"},"geometry":{"type":"Polygon","coordinates":[[[20.539,41.4029],[20.4816,41.4683],[20.5347,41.5873],[20.5004,41.7341],[20.5501,41.8001],[20.5408,41.8449],[20.4046,41.8454],[20.2072,41.8992],[20.1557,41.7617],[20.0247,41.7005],[19.8135,41.7069],[19.8362,41.5667],[19.9111,41.5098],[20.0511,41.391],[20.2357,41.3444],[20.4494,41.3883],[20.4781,41.3216],[20.539,41.4029]]]}},{"type":"Feature","properties":{"sourceId":"1159310595","regionId":"region.47808b74-cdb8-407a-a789-cf86c8851753","countryId":"country.1rdws0z"},"geometry":{"type":"Polygon","coordinates":[[[20.5671,41.8732],[20.5993,41.9479],[20.5522,42.0738],[20.4737,42.2371],[20.2496,42.3186],[20.1527,42.4934],[20.065,42.5468],[19.8291,42.4687],[19.7892,42.4141],[19.8309,42.2678],[20.0369,42.2565],[20.2356,42.1924],[20.1593,42.1043],[20.2126,42.0282],[20.2072,41.8992],[20.4046,41.8454],[20.5408,41.8449],[20.5671,41.8732]]]}},{"type":"Feature","properties":{"sourceId":"1159309443","regionId":"region.cffb7654-80b2-4213-baf5-83dba94aac03","countryId":"country.1rdws0z"},"geometry":{"type":"Polygon","coordinates":[[[20.5974,41.0863],[20.4229,40.9881],[20.3985,40.8889],[20.4685,40.7997],[20.2932,40.726],[20.4184,40.5314],[20.4426,40.4397],[20.5268,40.1581],[20.6154,40.081],[20.7396,40.3092],[20.769,40.4126],[20.9119,40.4595],[21.0367,40.6397],[20.9635,40.7361],[20.9653,40.8494],[20.8365,40.9239],[20.7027,40.9363],[20.6641,41.0591],[20.6539,41.0753],[20.5974,41.0863]]]}},{"type":"Feature","properties":{"sourceId":"1159309447","regionId":"region.c154dabd-cee4-4d98-ae00-cdcdb5c39ca6","countryId":"country.1rdws0z"},"geometry":{"type":"Polygon","coordinates":[[[20.5127,41.2101],[20.4954,41.2503],[20.4781,41.3216],[20.4494,41.3883],[20.2357,41.3444],[19.9712,41.1948],[19.7462,41.1218],[19.6709,41.0566],[19.8119,40.9995],[19.8672,40.8684],[20.0131,40.8285],[20.2219,40.7157],[20.2932,40.726],[20.4685,40.7997],[20.3985,40.8889],[20.4229,40.9881],[20.5974,41.0863],[20.5127,41.2101]]]}},{"type":"Feature","properties":{"sourceId":"1159309451","regionId":"region.9c0ce626-a033-4fc7-97a2-d22a857de360","countryId":"country.1rdws0z"},"geometry":{"type":"Polygon","coordinates":[[[20.6154,40.081],[20.5268,40.1581],[20.4426,40.4397],[20.2486,40.3724],[20.1484,40.4726],[19.9049,40.5273],[19.7764,40.423],[19.8102,40.2954],[19.9394,40.0653],[20.0413,40.0496],[20.205,39.9386],[20.2996,39.8051],[20.318,39.9184],[20.4328,40.0638],[20.6154,40.081]]]}},{"type":"Feature","properties":{"sourceId":"1159310597","regionId":"region.e6cbc684-30df-49e2-81cf-c9331e4a1ec9","countryId":"country.1rdws0z"},"geometry":{"type":"Polygon","coordinates":[[[20.2996,39.8051],[20.205,39.9386],[20.0413,40.0496],[19.9394,40.0653],[19.8102,40.2954],[19.7764,40.423],[19.7111,40.5261],[19.4115,40.6413],[19.3047,40.6526],[19.4788,40.4539],[19.4749,40.3484],[19.3811,40.2952],[19.4762,40.2137],[19.8552,40.0499],[19.9064,39.9127],[20.0163,39.845],[19.9998,39.6935],[20.1999,39.6401],[20.2995,39.7282],[20.2996,39.8051]]]}},{"type":"Feature","properties":{"sourceId":"1159310593","regionId":"region.15cf8a9c-92dc-4543-9f52-4a0cfc28a2b0","countryId":"country.1rdws0z"},"geometry":{"type":"Polygon","coordinates":[[[19.7469,42.5889],[19.658,42.6346],[19.2834,42.198],[19.37,42.1065],[19.3651,41.8524],[19.5295,41.8357],[19.5601,41.9387],[19.7229,41.8953],[19.9017,41.9689],[19.9532,41.8762],[20.2126,42.0282],[20.1593,42.1043],[20.2356,42.1924],[20.0369,42.2565],[19.8309,42.2678],[19.7892,42.4141],[19.8291,42.4687],[19.7469,42.5889]]]}},{"type":"Feature","properties":{"sourceId":"1159312429","regionId":"region.d6272bd4-a389-4642-a7ca-2a48a072f399","countryId":"country.1rdws0z"},"geometry":{"type":"Polygon","coordinates":[[[19.3047,40.6526],[19.4115,40.6413],[19.7111,40.5261],[19.7764,40.423],[19.9049,40.5273],[19.7562,40.7166],[19.7319,40.812],[19.8672,40.8684],[19.8119,40.9995],[19.6709,41.0566],[19.448,41.0093],[19.5252,40.9453],[19.4142,40.8688],[19.3047,40.6526]]]}},{"type":"Feature","properties":{"sourceId":"1159309457","regionId":"region.ed39bf1e-0dfa-4ec1-ae1a-cb4e57c84f58","countryId":"country.1rdws0z"},"geometry":{"type":"Polygon","coordinates":[[[19.448,41.0093],[19.6709,41.0566],[19.7462,41.1218],[19.9712,41.1948],[20.2357,41.3444],[20.0511,41.391],[19.9111,41.5098],[19.7373,41.4072],[19.6422,41.3071],[19.516,41.2605],[19.4688,41.1876],[19.448,41.0093]]]}},{"type":"Feature","properties":{"sourceId":"1159312427","regionId":"region.1832f428-b7b6-4cdf-b576-eab0c8d3f628","countryId":"country.1rdws0z"},"geometry":{"type":"Polygon","coordinates":[[[19.516,41.2605],[19.6422,41.3071],[19.7373,41.4072],[19.9111,41.5098],[19.8362,41.5667],[19.5564,41.5831],[19.4142,41.3828],[19.516,41.2605]]]}},{"type":"Feature","properties":{"sourceId":"1159309455","regionId":"region.46e06f1d-0d00-40f2-8e2c-80aa36de7324","countryId":"country.1rdws0z"},"geometry":{"type":"Polygon","coordinates":[[[19.5564,41.5831],[19.8362,41.5667],[19.8135,41.7069],[20.0247,41.7005],[20.1557,41.7617],[20.2072,41.8992],[20.2126,42.0282],[19.9532,41.8762],[19.9017,41.9689],[19.7229,41.8953],[19.5601,41.9387],[19.5295,41.8357],[19.605,41.6321],[19.5564,41.5831]]]}},{"type":"Feature","properties":{"sourceId":"1159309445","regionId":"region.655b7a02-3f0d-47d8-a1ec-be042de9cb0e","countryId":"country.1rdws0z"},"geometry":{"type":"Polygon","coordinates":[[[20.2932,40.726],[20.2219,40.7157],[20.0131,40.8285],[19.8672,40.8684],[19.7319,40.812],[19.7562,40.7166],[19.9049,40.5273],[20.1484,40.4726],[20.2486,40.3724],[20.4426,40.4397],[20.4184,40.5314],[20.2932,40.726]]]}}]}