{"type":"FeatureCollection","features":[{"type":"Feature","properties":{"sourceId":"1159310951","regionId":"region.2f728901-cb18-4b60-b143-825469b97afd","countryId":"country.qo855j"},"geometry":{"type":"Polygon","coordinates":[[[6.1175,50.1205],[6.023,50.1508],[5.8724,50.0969],[5.7149,49.8819],[5.7383,49.7888],[5.8564,49.7058],[5.994,49.7289],[6.0431,49.8245],[6.2463,49.7906],[6.2956,49.8486],[6.154,49.9512],[6.1175,50.1205]]]}},{"type":"Feature","properties":{"sourceId":"1159310953","regionId":"region.52f3d0c8-aed1-4ab3-8312-72a57e58756d","countryId":"country.qo855j"},"geometry":{"type":"Polygon","coordinates":[[[6.2956,49.8486],[6.2463,49.7906],[6.2856,49.6743],[6.2511,49.4895],[6.3453,49.4553],[6.3488,49.5253],[6.4917,49.7008],[6.5001,49.7945],[6.2956,49.8486]]]}},{"type":"Feature","properties":{"sourceId":"1159310955","regionId":"region.89127de4-b6d8-4716-ba7a-5b2f2f4a4927","countryId":"country.qo855j"},"geometry":{"type":"Polygon","coordinates":[[[5.7907,49.5378],[5.9281,49.4823],[6.0633,49.4485],[6.2511,49.4895],[6.2856,49.6743],[6.2463,49.7906],[6.0431,49.8245],[5.994,49.7289],[5.8564,49.7058],[5.8855,49.6435],[5.7907,49.5378]]]}}]}