{"type":"FeatureCollection","features":[{"type":"Feature","properties":{"sourceId":"1159315773","regionId":"region.b4200118-6893-4d0f-85d2-23e7c2db6e79","countryId":"country.i9fek6"},"geometry":{"type":"Polygon","coordinates":[[[14.6083,50.8531],[14.5743,50.9755],[14.2875,51.0368],[14.3819,50.9209],[13.8345,50.7237],[13.6019,50.7122],[13.4479,50.5973],[13.2323,50.582],[13.1601,50.497],[13.0096,50.4927],[12.9606,50.4092],[13.2248,50.3268],[13.2899,50.1085],[13.4057,50.0872],[13.6625,50.2175],[13.8472,50.2435],[13.9964,50.3295],[14.3491,50.3493],[14.4753,50.4944],[14.34,50.6673],[14.4614,50.8212],[14.6083,50.8531]]]}},{"type":"Feature","properties":{"sourceId":"1159312681","regionId":"region.c8d29cac-6ccf-4513-9079-237de78a1f65","countryId":"country.i9fek6"},"geometry":{"type":"Polygon","coordinates":[[[14.6083,50.8531],[14.4614,50.8212],[14.34,50.6673],[14.4753,50.4944],[14.7043,50.4884],[14.9093,50.6019],[15.1309,50.5146],[15.4538,50.5173],[15.6058,50.4929],[15.5221,50.7824],[15.3497,50.7837],[15.2271,50.9774],[14.9965,51.0078],[14.9821,50.8591],[14.8104,50.8584],[14.6083,50.8531]]]}},{"type":"Feature","properties":{"sourceId":"1159312669","regionId":"region.850d51fa-f436-4517-ac3d-7702df9768cc","countryId":"country.i9fek6"},"geometry":{"type":"Polygon","coordinates":[[[12.9606,50.4092],[12.8258,50.4414],[12.5102,50.3888],[12.3365,50.2586],[12.1013,50.314],[12.2469,50.045],[12.4682,49.9702],[12.5241,49.905],[12.7291,49.9428],[12.9295,49.9322],[13.0814,50.0352],[13.2233,50.0053],[13.2899,50.1085],[13.2248,50.3268],[12.9606,50.4092]]]}},{"type":"Feature","properties":{"sourceId":"1159315775","regionId":"region.6be80184-1414-4d1e-8413-fcf17855c8ea","countryId":"country.i9fek6"},"geometry":{"type":"Polygon","coordinates":[[[12.5241,49.905],[12.3836,49.7429],[12.623,49.5098],[12.6435,49.4295],[12.7978,49.3278],[12.9998,49.2949],[13.1785,49.1183],[13.2995,49.0936],[13.3842,48.993],[13.5224,48.9693],[13.7818,49.3436],[13.7556,49.4895],[13.689,49.6822],[13.7821,49.7571],[13.8121,49.9242],[13.5635,49.9996],[13.4057,50.0872],[13.2899,50.1085],[13.2233,50.0053],[13.0814,50.0352],[12.9295,49.9322],[12.7291,49.9428],[12.5241,49.905]]]}},{"type":"Feature","properties":{"sourceId":"1159312673","regionId":"region.11f32d17-ca12-4aa4-8fea-2b67fbcf6c78","countryId":"country.i9fek6"},"geometry":{"type":"Polygon","coordinates":[[[13.5224,48.9693],[13.7247,48.8673],[13.8157,48.7664],[13.9823,48.7065],[14.0748,48.5917],[14.3157,48.5579],[14.4436,48.6365],[14.6911,48.5865],[14.8004,48.7765],[14.9193,48.7616],[14.9821,49.0079],[15.2629,48.9826],[15.5442,48.9026],[15.5747,48.9662],[15.4971,49.0078],[15.5427,49.1292],[15.4015,49.1251],[15.3317,49.2046],[15.1634,49.2097],[14.9206,49.3003],[14.8852,49.3755],[14.9228,49.5443],[14.7707,49.6134],[14.6342,49.5196],[14.2844,49.5479],[14.0121,49.5357],[13.7556,49.4895],[13.7818,49.3436],[13.5224,48.9693]]]}},{"type":"Feature","properties":{"sourceId":"1159312683","regionId":"region.2082a524-46d2-49bf-88a9-bb63a0d20686","countryId":"country.i9fek6"},"geometry":{"type":"Polygon","coordinates":[[[15.5221,50.7824],[15.6058,50.4929],[15.4538,50.5173],[15.1309,50.5146],[15.1228,50.3431],[15.3468,50.2786],[15.4099,50.1032],[15.7174,50.1125],[15.7912,50.1602],[15.977,50.1525],[16.1888,50.0223],[16.5842,50.1274],[16.535,50.2077],[16.3342,50.3719],[16.1902,50.4242],[16.3826,50.5142],[16.3316,50.644],[15.8482,50.6752],[15.5221,50.7824]]]}},{"type":"Feature","properties":{"sourceId":"1159315781","regionId":"region.e9dab4cd-da29-4eb5-9252-9caa18624b86","countryId":"country.i9fek6"},"geometry":{"type":"Polygon","coordinates":[[[16.944,50.4203],[16.8659,50.4084],[16.9603,50.232],[16.8698,50.1897],[16.8049,50.0315],[16.7268,49.9933],[16.7331,49.8286],[16.8337,49.7116],[16.7892,49.6079],[16.7891,49.4135],[17.0351,49.365],[17.1484,49.2723],[17.4595,49.3653],[17.6273,49.44],[17.7594,49.437],[17.9063,49.5273],[17.6231,49.7343],[17.4249,49.7374],[17.1335,49.85],[17.2351,50.1394],[17.4038,50.2136],[17.388,50.2726],[17.1854,50.3757],[16.944,50.4203]]]}},{"type":"Feature","properties":{"sourceId":"1159315783","regionId":"region.2cf35063-500c-45b9-bc13-c49453520a23","countryId":"country.i9fek6"},"geometry":{"type":"Polygon","coordinates":[[[16.5842,50.1274],[16.1888,50.0223],[15.977,50.1525],[15.7912,50.1602],[15.7174,50.1125],[15.4099,50.1032],[15.359,50.0175],[15.5061,49.9505],[15.485,49.8756],[15.5897,49.8055],[15.7559,49.7792],[15.8588,49.6998],[15.9946,49.7316],[16.392,49.5973],[16.5636,49.6339],[16.7892,49.6079],[16.8337,49.7116],[16.7331,49.8286],[16.7268,49.9933],[16.8049,50.0315],[16.8698,50.1897],[16.7012,50.0949],[16.5842,50.1274]]]}},{"type":"Feature","properties":{"sourceId":"1159312685","regionId":"region.89d08a82-8cc6-42f7-85ae-a6a0de71437c","countryId":"country.i9fek6"},"geometry":{"type":"Polygon","coordinates":[[[18.0191,50.0441],[17.8394,49.9736],[17.5842,50.1459],[17.6064,50.2582],[17.388,50.2726],[17.4038,50.2136],[17.2351,50.1394],[17.1335,49.85],[17.4249,49.7374],[17.6231,49.7343],[17.9063,49.5273],[17.9897,49.4938],[18.2679,49.4866],[18.387,49.3776],[18.5356,49.4817],[18.8332,49.5103],[18.7735,49.6758],[18.6373,49.7003],[18.4818,49.8966],[18.2559,49.946],[18.0191,50.0441]]]}},{"type":"Feature","properties":{"sourceId":"1159315777","regionId":"region.2a5199d1-f411-4d14-883a-1d0f56d0ce72","countryId":"country.i9fek6"},"geometry":{"type":"Polygon","coordinates":[[[15.5442,48.9026],[15.8185,48.8723],[16.0323,48.7581],[16.3583,48.7273],[16.4357,48.7945],[16.873,48.719],[16.945,48.6042],[17.0253,48.7463],[17.1675,48.8598],[17.4112,48.8302],[17.646,48.8418],[17.5232,48.9483],[17.4173,48.9477],[17.2218,49.0423],[17.1484,49.2723],[17.0351,49.365],[16.7891,49.4135],[16.7892,49.6079],[16.5636,49.6339],[16.392,49.5973],[16.3875,49.3548],[16.3003,49.32],[16.2277,49.0849],[15.9745,49.0381],[15.7358,48.9544],[15.5747,48.9662],[15.5442,48.9026]]]}},{"type":"Feature","properties":{"sourceId":"1159315779","regionId":"region.9960bc69-2a03-42b1-b613-f9927e51fb67","countryId":"country.i9fek6"},"geometry":{"type":"Polygon","coordinates":[[[18.3616,49.3302],[18.387,49.3776],[18.2679,49.4866],[17.9897,49.4938],[17.9063,49.5273],[17.7594,49.437],[17.6273,49.44],[17.4595,49.3653],[17.1484,49.2723],[17.2218,49.0423],[17.4173,48.9477],[17.5232,48.9483],[17.646,48.8418],[17.9141,49.0105],[18.1029,49.0923],[18.19,49.2769],[18.3616,49.3302]]]}},{"type":"Feature","properties":{"sourceId":"1159312675","regionId":"region.a3968fb9-5ac9-4a60-aa41-bf2d020f50c6","countryId":"country.i9fek6"},"geometry":{"type":"Polygon","coordinates":[[[16.392,49.5973],[15.9946,49.7316],[15.8588,49.6998],[15.7559,49.7792],[15.5897,49.8055],[15.485,49.8756],[15.4364,49.7986],[15.2176,49.7444],[15.1571,49.5906],[14.9824,49.5983],[14.9228,49.5443],[14.8852,49.3755],[14.9206,49.3003],[15.1634,49.2097],[15.3317,49.2046],[15.4015,49.1251],[15.5427,49.1292],[15.4971,49.0078],[15.5747,48.9662],[15.7358,48.9544],[15.9745,49.0381],[16.2277,49.0849],[16.3003,49.32],[16.3875,49.3548],[16.392,49.5973]]]}},{"type":"Feature","properties":{"sourceId":"1159312679","regionId":"region.56cbe1f9-9def-4f0e-9742-0a7f41d1be55","countryId":"country.i9fek6"},"geometry":{"type":"Polygon","coordinates":[[[15.485,49.8756],[15.5061,49.9505],[15.359,50.0175],[15.4099,50.1032],[15.3468,50.2786],[15.1228,50.3431],[15.1309,50.5146],[14.9093,50.6019],[14.7043,50.4884],[14.4753,50.4944],[14.3491,50.3493],[13.9964,50.3295],[13.8472,50.2435],[13.6625,50.2175],[13.4057,50.0872],[13.5635,49.9996],[13.8121,49.9242],[13.7821,49.7571],[13.689,49.6822],[13.7556,49.4895],[14.0121,49.5357],[14.2844,49.5479],[14.6342,49.5196],[14.7707,49.6134],[14.9228,49.5443],[14.9824,49.5983],[15.1571,49.5906],[15.2176,49.7444],[15.4364,49.7986],[15.485,49.8756]],[[14.5881,49.995],[14.3172,49.9568],[14.2169,50.1026],[14.4776,50.1652],[14.6831,50.0924],[14.5881,49.995]]]}},{"type":"Feature","properties":{"sourceId":"1159312677","regionId":"region.f1b9c527-be0e-453d-a512-b264578575d6","countryId":"country.i9fek6"},"geometry":{"type":"Polygon","coordinates":[[[14.5881,49.995],[14.6831,50.0924],[14.4776,50.1652],[14.2169,50.1026],[14.3172,49.9568],[14.5881,49.995]]]}}]}