{"type":"FeatureCollection","features":[{"type":"Feature","properties":{"sourceId":"1159315565","regionId":"region.c68fb93c-1fc9-4605-99e7-4e3b4ef60b09","countryId":"country.1slft1c"},"geometry":{"type":"Polygon","coordinates":[[[-75.095,19.8972],[-75.137,19.9716],[-75.1644,19.9137],[-75.095,19.8972]]]}},{"type":"Feature","properties":{"sourceId":"1159310365","regionId":"region.b69aced8-796f-400b-9194-f5842f03a96d","countryId":"country.1slft1c"},"geometry":{"type":"Polygon","coordinates":[[[-75.095,19.8972],[-74.9779,19.923],[-74.813,20.0373],[-74.5805,20.0476],[-74.393,20.081],[-74.2674,20.0683],[-74.142,20.1826],[-74.2136,20.311],[-74.4011,20.3073],[-74.495,20.3552],[-74.6052,20.4857],[-74.7152,20.5561],[-74.845,20.4082],[-74.9688,20.4721],[-75.0483,20.4337],[-75.1897,20.4717],[-75.2405,20.3968],[-75.3755,20.4229],[-75.4791,20.34],[-75.4333,20.0947],[-75.4883,20.0246],[-75.3821,19.8825],[-75.2329,19.9001],[-75.1602,19.9706],[-75.137,19.9716],[-75.095,19.8972]]]}},{"type":"Feature","properties":{"sourceId":"1159310333","regionId":"region.f2a2871d-7908-4dbb-a775-01b281160668","countryId":"country.1slft1c"},"geometry":{"type":"MultiPolygon","coordinates":[[[[-77.6342,22.0543],[-77.8085,22.0996],[-77.9018,22.0152],[-77.6951,21.9481],[-77.6342,22.0543]]],[[[-78.0818,22.0828],[-78.0753,22.0377],[-78.2458,21.9081],[-78.1832,21.7692],[-78.3338,21.7846],[-78.3784,21.6693],[-78.6416,21.5339],[-78.5633,21.3835],[-78.4947,21.0479],[-78.4039,20.958],[-78.272,20.9011],[-78.0655,20.7117],[-77.8311,20.7256],[-77.7658,20.8762],[-77.5874,20.9378],[-77.4679,21.0537],[-77.2918,20.995],[-77.2489,21.0784],[-77.1311,21.1735],[-77.1005,21.4165],[-76.9448,21.4578],[-77.0699,21.5958],[-77.1531,21.4953],[-77.258,21.4764],[-77.2497,21.6098],[-77.1417,21.6456],[-77.5076,21.8625],[-77.6647,21.7812],[-77.895,21.8769],[-78.0818,22.0828]]]]}},{"type":"Feature","properties":{"sourceId":"1159310337","regionId":"region.dd0181ec-a412-491a-8753-fa320e0838cf","countryId":"country.1slft1c"},"geometry":{"type":"Polygon","coordinates":[[[-78.9272,22.3987],[-79.0347,22.1765],[-79.0464,22.0964],[-78.9648,22.044],[-79.1221,21.7499],[-79.109,21.6654],[-78.9707,21.6902],[-78.96,21.5996],[-78.7665,21.6397],[-78.6416,21.5339],[-78.3784,21.6693],[-78.3338,21.7846],[-78.1832,21.7692],[-78.2458,21.9081],[-78.0753,22.0377],[-78.0818,22.0828],[-78.1636,22.1394],[-78.3014,22.1638],[-78.3815,22.2466],[-78.7818,22.3906],[-78.9272,22.3987]]]}},{"type":"Feature","properties":{"sourceId":"1159310339","regionId":"region.a349ae87-4811-4918-8b28-d762f44eefd5","countryId":"country.1slft1c"},"geometry":{"type":"Polygon","coordinates":[[[-76.3135,21.2519],[-76.3439,21.1275],[-76.5172,20.9813],[-76.6873,20.9361],[-76.7219,20.7223],[-76.2531,20.5136],[-76.1797,20.4376],[-76.0945,20.4994],[-75.9698,20.503],[-75.8247,20.4076],[-75.6588,20.4415],[-75.5116,20.5509],[-75.3755,20.4229],[-75.2405,20.3968],[-75.1897,20.4717],[-75.0483,20.4337],[-74.9688,20.4721],[-74.845,20.4082],[-74.7152,20.5561],[-74.7512,20.6196],[-74.9984,20.7008],[-75.1491,20.6831],[-75.3942,20.739],[-75.4978,20.6934],[-75.7089,20.6906],[-75.7839,20.7464],[-75.5785,21.0134],[-75.6359,21.0764],[-75.8218,21.1369],[-75.8734,21.1021],[-76.1168,21.0915],[-76.1378,21.1672],[-76.3135,21.2519]]]}},{"type":"Feature","properties":{"sourceId":"1159310343","regionId":"region.613d5958-fe5f-4f00-aa21-11573034a5e7","countryId":"country.1slft1c"},"geometry":{"type":"Polygon","coordinates":[[[-82.568,21.6365],[-82.6902,21.8818],[-82.9895,21.9484],[-83.0752,21.8432],[-83.0735,21.7606],[-82.9692,21.5913],[-83.0785,21.4692],[-82.8356,21.4447],[-82.5946,21.5418],[-82.568,21.6365]]]}},{"type":"Feature","properties":{"sourceId":"1159310355","regionId":"region.b5f018cb-628d-4bc1-9572-cd04632ab326","countryId":"country.1slft1c"},"geometry":{"type":"Polygon","coordinates":[[[-79.4167,22.4725],[-79.4354,22.4165],[-79.3535,22.2968],[-79.542,22.1507],[-79.7729,22.1493],[-79.7298,22.0624],[-79.7907,21.9818],[-79.905,22.0102],[-80.024,21.9385],[-80.101,21.8248],[-80.0032,21.7209],[-79.8954,21.76],[-79.8158,21.7112],[-79.6393,21.6877],[-79.4503,21.5955],[-79.1693,21.5517],[-78.96,21.5996],[-78.9707,21.6902],[-79.109,21.6654],[-79.1221,21.7499],[-78.9648,22.044],[-79.0464,22.0964],[-79.0347,22.1765],[-78.9272,22.3987],[-79.1487,22.3776],[-79.3418,22.4132],[-79.4167,22.4725]]]}},{"type":"Feature","properties":{"sourceId":"1159311759","regionId":"region.dbe78eb0-6c2f-4d5d-b5be-30d1c283632b","countryId":"country.1slft1c"},"geometry":{"type":"Polygon","coordinates":[[[-80.5931,23.068],[-80.618,22.9873],[-80.7294,22.9664],[-80.7468,22.8776],[-80.553,22.7482],[-80.5626,22.6352],[-80.5197,22.542],[-80.4594,22.5846],[-80.318,22.536],[-80.2208,22.4278],[-80.233,22.3703],[-80.0841,22.2456],[-80.0999,22.1234],[-80.024,21.9385],[-79.905,22.0102],[-79.7907,21.9818],[-79.7298,22.0624],[-79.7729,22.1493],[-79.542,22.1507],[-79.3535,22.2968],[-79.4354,22.4165],[-79.4167,22.4725],[-79.5118,22.5346],[-79.7002,22.7469],[-79.9879,22.8841],[-80.0246,22.9467],[-80.2796,22.912],[-80.5568,23.0074],[-80.5931,23.068]]]}},{"type":"Feature","properties":{"sourceId":"1159310347","regionId":"region.c32aeb62-516f-4a3d-a0cd-f63aa29e8491","countryId":"country.1slft1c"},"geometry":{"type":"Polygon","coordinates":[[[-81.6839,23.1569],[-81.6806,23.0645],[-81.7472,22.9868],[-81.6955,22.8506],[-81.5981,22.705],[-81.6507,22.5751],[-81.6835,22.4636],[-81.8411,22.4308],[-82.1187,22.4318],[-82.0882,22.3422],[-81.8797,22.2604],[-81.8245,22.1889],[-81.6515,22.213],[-81.3961,22.1707],[-81.2913,22.0976],[-81.1976,22.2125],[-81.1037,22.0959],[-80.9921,22.0543],[-80.5934,22.0542],[-80.6182,22.1213],[-80.8323,22.1575],[-80.9309,22.2691],[-80.9407,22.3601],[-80.8371,22.482],[-80.6237,22.4595],[-80.5197,22.542],[-80.5626,22.6352],[-80.553,22.7482],[-80.7468,22.8776],[-80.7294,22.9664],[-80.618,22.9873],[-80.5931,23.068],[-80.7593,23.097],[-80.9594,23.059],[-81.0781,23.1038],[-81.1849,23.0521],[-81.2722,23.142],[-81.4807,23.1003],[-81.5812,23.1578],[-81.6839,23.1569]]]}},{"type":"Feature","properties":{"sourceId":"1159310357","regionId":"region.c847fc71-05b3-42f3-bcac-3abeba5ac752","countryId":"country.1slft1c"},"geometry":{"type":"Polygon","coordinates":[[[-76.9448,21.4578],[-77.1005,21.4165],[-77.1311,21.1735],[-77.2489,21.0784],[-77.2918,20.995],[-77.4679,21.0537],[-77.5874,20.9378],[-77.7658,20.8762],[-77.8311,20.7256],[-77.7784,20.7008],[-77.4934,20.6775],[-77.3367,20.7163],[-77.2322,20.7842],[-77.0381,20.739],[-76.7219,20.7223],[-76.6873,20.9361],[-76.5172,20.9813],[-76.3439,21.1275],[-76.3135,21.2519],[-76.3876,21.2843],[-76.6536,21.2941],[-76.6561,21.3496],[-76.9448,21.4578]]]}},{"type":"Feature","properties":{"sourceId":"1159317123","regionId":"region.d054cd30-f2d6-4a0b-89f6-43c8cd3088cf","countryId":"country.1slft1c"},"geometry":{"type":"Polygon","coordinates":[[[-82.1001,23.1876],[-82.2093,23.0861],[-82.2498,22.9726],[-82.4359,22.9573],[-82.4578,22.8021],[-82.3916,22.6884],[-82.1989,22.6858],[-82.0988,22.6549],[-81.8775,22.6797],[-81.6507,22.5751],[-81.5981,22.705],[-81.6955,22.8506],[-81.7472,22.9868],[-81.6806,23.0645],[-81.6839,23.1569],[-81.8624,23.151],[-82.1001,23.1876]]]}},{"type":"Feature","properties":{"sourceId":"1159310361","regionId":"region.9455744f-a1b5-421f-8933-186653518f37","countryId":"country.1slft1c"},"geometry":{"type":"Polygon","coordinates":[[[-82.5387,23.0736],[-82.4359,22.9573],[-82.2498,22.9726],[-82.2093,23.0861],[-82.1001,23.1876],[-82.2193,23.1942],[-82.4069,23.1474],[-82.5387,23.0736]]]}},{"type":"Feature","properties":{"sourceId":"1159310353","regionId":"region.580c9cd6-b921-4bde-a9eb-95dbef2c4499","countryId":"country.1slft1c"},"geometry":{"type":"Polygon","coordinates":[[[-82.9444,22.9851],[-82.9159,22.8406],[-82.9719,22.8108],[-82.8246,22.6106],[-82.7807,22.6961],[-82.3916,22.6884],[-82.4578,22.8021],[-82.4359,22.9573],[-82.5387,23.0736],[-82.7127,23.0349],[-82.9176,23.0325],[-82.9444,22.9851]]]}},{"type":"Feature","properties":{"sourceId":"1159310345","regionId":"region.93c8d36d-c5ba-42f6-96b0-4fde0146aad4","countryId":"country.1slft1c"},"geometry":{"type":"Polygon","coordinates":[[[-82.8246,22.6106],[-82.9719,22.8108],[-82.9159,22.8406],[-82.9444,22.9851],[-83.0611,23.0196],[-83.2076,23.0027],[-83.3694,22.894],[-83.8728,22.7508],[-84.0211,22.6787],[-84.2303,22.5036],[-84.2918,22.4863],[-84.391,22.3528],[-84.4293,22.2017],[-84.3358,22.1306],[-84.3221,22.048],[-84.5833,22.0075],[-84.9473,21.8603],[-84.7997,21.8321],[-84.66,21.9121],[-84.536,21.9402],[-84.4735,21.9046],[-84.4662,21.7705],[-84.3052,21.8845],[-84.1422,21.9403],[-83.993,21.9514],[-84.0018,22.0576],[-83.9254,22.1715],[-83.6144,22.1957],[-83.4155,22.1861],[-83.2874,22.3187],[-83.1669,22.3395],[-83.0861,22.4628],[-82.8246,22.6106]]]}},{"type":"Feature","properties":{"sourceId":"1159310363","regionId":"region.df8868d2-dd0b-4dba-ae82-035ad4ee6b08","countryId":"country.1slft1c"},"geometry":{"type":"Polygon","coordinates":[[[-80.101,21.8248],[-80.024,21.9385],[-80.0999,22.1234],[-80.0841,22.2456],[-80.233,22.3703],[-80.2208,22.4278],[-80.318,22.536],[-80.4594,22.5846],[-80.5197,22.542],[-80.6237,22.4595],[-80.8371,22.482],[-80.9407,22.3601],[-80.9309,22.2691],[-80.8323,22.1575],[-80.6182,22.1213],[-80.5934,22.0542],[-80.4372,22.0412],[-80.2699,21.887],[-80.101,21.8248]]]}},{"type":"Feature","properties":{"sourceId":"1159310369","regionId":"region.69f2760b-c215-45d5-9729-d12def61df47","countryId":"country.1slft1c"},"geometry":{"type":"Polygon","coordinates":[[[-77.0346,19.8878],[-76.9307,20.0011],[-76.5625,20.0038],[-76.4083,20.1053],[-76.4196,20.2311],[-76.3695,20.3566],[-76.1797,20.4376],[-76.2531,20.5136],[-76.7219,20.7223],[-77.0381,20.739],[-77.2322,20.7842],[-77.3367,20.7163],[-77.1954,20.6365],[-77.2399,20.5631],[-77.1134,20.5124],[-77.1134,20.3685],[-77.1818,20.2949],[-77.4014,20.1981],[-77.6204,20.0203],[-77.7372,19.8557],[-77.3585,19.8645],[-77.189,19.9126],[-77.0346,19.8878]]]}},{"type":"Feature","properties":{"sourceId":"1159310359","regionId":"region.c574df82-3420-4973-af89-68b36a0a1bc6","countryId":"country.1slft1c"},"geometry":{"type":"Polygon","coordinates":[[[-75.3821,19.8825],[-75.4883,20.0246],[-75.4333,20.0947],[-75.4791,20.34],[-75.3755,20.4229],[-75.5116,20.5509],[-75.6588,20.4415],[-75.8247,20.4076],[-75.9698,20.503],[-76.0945,20.4994],[-76.1797,20.4376],[-76.3695,20.3566],[-76.4196,20.2311],[-76.4083,20.1053],[-76.5625,20.0038],[-76.9307,20.0011],[-77.0346,19.8878],[-76.8664,19.9377],[-76.5244,19.9439],[-76.2482,19.9906],[-75.9801,19.9524],[-75.7218,19.9575],[-75.6047,19.892],[-75.3821,19.8825]]]}}]}