{"type":"FeatureCollection","features":[{"type":"Feature","properties":{"sourceId":"1159315541","regionId":"region.3cf5449d-8212-43c5-97a7-1d477508cf6c","countryId":"country.5805152e-6b76-4319-a310-703e8e668877"},"geometry":{"type":"Polygon","coordinates":[[[145.2057,14.1814],[145.1307,14.1469],[145.21,14.1107],[145.2057,14.1814]]]}},{"type":"Feature","properties":{"sourceId":"1159316103","regionId":"region.0cb5797b-389f-4d1d-9af1-c5890cde757b","countryId":"country.5805152e-6b76-4319-a310-703e8e668877"},"geometry":{"type":"Polygon","coordinates":[[[145.6473,15.0721],[145.5785,15.0175],[145.6065,14.9281],[145.6678,14.9827],[145.6473,15.0721]]]}},{"type":"Feature","properties":{"sourceId":"1159316105","regionId":"region.d3408ec9-7e9f-4909-9b26-e8093acd5124","countryId":"country.5805152e-6b76-4319-a310-703e8e668877"},"geometry":{"type":"Polygon","coordinates":[[[145.7879,15.2673],[145.6983,15.2032],[145.7388,15.1367],[145.7879,15.2673]]]}},{"type":"Feature","properties":{"sourceId":"1159316107","regionId":"region.2510faff-dac5-415a-93d8-63c6604a846e","countryId":"country.5805152e-6b76-4319-a310-703e8e668877"},"geometry":{"type":"Polygon","coordinates":[[[145.7711,18.1752],[145.7395,18.091],[145.8356,18.1283],[145.7711,18.1752]]]}}]}