{"type":"FeatureCollection","features":[{"type":"Feature","properties":{"sourceId":"1159312649","regionId":"region.0934c450-cb02-4e73-9980-05fd949f443d","countryId":"country.alucm0"},"geometry":{"type":"Polygon","coordinates":[[[15.5442,48.9026],[15.2629,48.9826],[14.9821,49.0079],[14.9193,48.7616],[14.8004,48.7765],[14.6911,48.5865],[14.9064,48.5271],[14.9686,48.2474],[14.6755,48.1825],[14.4849,48.2184],[14.4454,48.043],[14.7507,47.9019],[14.6993,47.7689],[14.8834,47.7247],[15.3391,47.8254],[15.7261,47.6902],[15.9167,47.5332],[16.0804,47.5165],[16.1479,47.443],[16.3245,47.5013],[16.3758,47.6449],[16.2897,47.7936],[16.4393,47.9281],[16.5732,47.9198],[16.7045,48.0092],[17.0625,48.1127],[16.8445,48.3656],[16.9491,48.5448],[16.945,48.6042],[16.873,48.719],[16.4357,48.7945],[16.3583,48.7273],[16.0323,48.7581],[15.8185,48.8723],[15.5442,48.9026]],[[16.4826,48.2885],[16.5714,48.1531],[16.2326,48.1492],[16.1882,48.2301],[16.4464,48.3281],[16.4826,48.2885]]]}},{"type":"Feature","properties":{"sourceId":"1159312643","regionId":"region.4ad11bfa-32c0-4825-877d-3f3f292ebced","countryId":"country.alucm0"},"geometry":{"type":"Polygon","coordinates":[[[14.6911,48.5865],[14.4436,48.6365],[14.3157,48.5579],[14.0748,48.5917],[13.9823,48.7065],[13.8157,48.7664],[13.8024,48.6117],[13.7143,48.5232],[13.5207,48.5846],[13.4056,48.3766],[13.2742,48.3071],[13.0328,48.2636],[12.745,48.1206],[12.8482,47.9824],[12.9684,48.0316],[13.2713,47.9122],[13.3168,47.825],[13.4976,47.7979],[13.5256,47.7175],[13.4889,47.5358],[13.5818,47.4864],[13.7303,47.546],[13.6872,47.664],[13.8233,47.7205],[13.9967,47.6986],[14.0597,47.626],[14.195,47.6577],[14.3473,47.6257],[14.6993,47.7689],[14.7507,47.9019],[14.4454,48.043],[14.4849,48.2184],[14.6755,48.1825],[14.9686,48.2474],[14.9064,48.5271],[14.6911,48.5865]]]}},{"type":"Feature","properties":{"sourceId":"1159312637","regionId":"region.8f21e226-dda9-467b-94fa-4d4ef6711883","countryId":"country.alucm0"},"geometry":{"type":"Polygon","coordinates":[[[17.1483,48.0054],[17.0625,48.1127],[16.7045,48.0092],[16.5732,47.9198],[16.4393,47.9281],[16.2897,47.7936],[16.3758,47.6449],[16.3245,47.5013],[16.1479,47.443],[16.02,47.3724],[16.1363,47.0249],[16.0186,46.9228],[16.0284,46.8369],[16.0529,46.8461],[16.094,46.8628],[16.2749,47.0043],[16.4372,47.0318],[16.5095,47.1375],[16.4128,47.1872],[16.425,47.3511],[16.627,47.4455],[16.688,47.5226],[16.5578,47.6298],[16.6098,47.7506],[16.7168,47.697],[17.0548,47.702],[17.0395,47.8374],[17.1483,48.0054]]]}},{"type":"Feature","properties":{"sourceId":"1159312633","regionId":"region.62cc7bfa-7bdb-4e47-a8e6-7fda430f8d5b","countryId":"country.alucm0"},"geometry":{"type":"Polygon","coordinates":[[[9.5812,47.0569],[9.858,47.0155],[9.8624,46.9398],[10.1252,46.8468],[10.1382,47.0773],[10.2021,47.161],[10.175,47.2724],[10.1909,47.3792],[9.9487,47.5242],[9.5541,47.5327],[9.5475,47.5345],[9.5531,47.5169],[9.6495,47.4097],[9.5212,47.2628],[9.5342,47.2512],[9.5431,47.2348],[9.5543,47.2116],[9.5619,47.1906],[9.552,47.1756],[9.5521,47.1669],[9.5671,47.1608],[9.6095,47.1224],[9.6142,47.1107],[9.6051,47.0776],[9.5883,47.063],[9.5812,47.0569]]]}},{"type":"Feature","properties":{"sourceId":"1159312647","regionId":"region.f63cceca-2db3-40da-859d-3f760d6b6a49","countryId":"country.alucm0"},"geometry":{"type":"MultiPolygon","coordinates":[[[[10.1252,46.8468],[10.3679,46.9955],[10.4538,46.8644],[10.6625,46.861],[10.7548,46.7908],[10.9969,46.7691],[11.0919,46.9124],[11.3138,46.9873],[11.5965,47.0004],[11.7464,46.9725],[12.1331,47.0788],[12.096,47.2799],[12.4574,47.3334],[12.6788,47.4989],[12.5634,47.6418],[12.4241,47.6916],[12.2023,47.6778],[12.1656,47.604],[11.9359,47.6107],[11.8203,47.5753],[11.6205,47.5897],[11.5512,47.5137],[11.4126,47.5061],[11.2588,47.4007],[11.0837,47.3895],[10.7903,47.5161],[10.6079,47.5623],[10.431,47.5422],[10.452,47.4388],[10.3059,47.3022],[10.175,47.2724],[10.2021,47.161],[10.1382,47.0773],[10.1252,46.8468]]],[[[12.4696,46.6758],[12.6714,46.6525],[12.7243,46.7489],[12.9453,46.7752],[12.8288,46.876],[12.6338,47.112],[12.38,47.1442],[12.2039,47.067],[12.1112,46.993],[12.2691,46.7886],[12.4696,46.6758]]]]}},{"type":"Feature","properties":{"sourceId":"1159312645","regionId":"region.278301e4-0584-493e-bb82-09da11232819","countryId":"country.alucm0"},"geometry":{"type":"Polygon","coordinates":[[[12.2039,47.067],[12.38,47.1442],[12.6338,47.112],[12.9144,47.076],[13.0595,47.0288],[13.3082,47.0872],[13.6062,47.0442],[13.7823,46.9542],[13.9372,47.1506],[13.7967,47.3021],[13.6307,47.3056],[13.5818,47.4864],[13.4889,47.5358],[13.5256,47.7175],[13.4976,47.7979],[13.3168,47.825],[13.2713,47.9122],[12.9684,48.0316],[12.8482,47.9824],[12.9912,47.8471],[12.892,47.7235],[13.0748,47.6467],[13.0373,47.493],[12.9425,47.4705],[12.7789,47.5548],[12.7448,47.6654],[12.5634,47.6418],[12.6788,47.4989],[12.4574,47.3334],[12.096,47.2799],[12.1331,47.0788],[12.2039,47.067]]]}},{"type":"Feature","properties":{"sourceId":"1159312641","regionId":"region.868cbebf-a577-4122-9aad-cd4425c51ba4","countryId":"country.alucm0"},"geometry":{"type":"Polygon","coordinates":[[[12.6714,46.6525],[12.7485,46.641],[13.2311,46.5522],[13.478,46.5636],[13.701,46.5197],[14.0149,46.4825],[14.1479,46.4404],[14.2423,46.4382],[14.4371,46.4189],[14.5621,46.3917],[14.6725,46.4598],[14.7967,46.5194],[14.8145,46.5513],[14.8941,46.6052],[14.9195,46.615],[15.0857,46.6478],[15.1056,46.6463],[15.0347,46.7033],[15.0083,46.9112],[14.8499,47.0413],[14.3946,46.9982],[14.2006,47.0567],[14.0267,47.0175],[13.8439,46.9227],[13.7823,46.9542],[13.6062,47.0442],[13.3082,47.0872],[13.0595,47.0288],[12.9144,47.076],[12.6338,47.112],[12.8288,46.876],[12.9453,46.7752],[12.7243,46.7489],[12.6714,46.6525]]]}},{"type":"Feature","properties":{"sourceId":"1159312639","regionId":"region.f90b6ad4-e201-4bf8-b4fb-9f8679e80f25","countryId":"country.alucm0"},"geometry":{"type":"Polygon","coordinates":[[[16.0284,46.8369],[16.0186,46.9228],[16.1363,47.0249],[16.02,47.3724],[16.1479,47.443],[16.0804,47.5165],[15.9167,47.5332],[15.7261,47.6902],[15.3391,47.8254],[14.8834,47.7247],[14.6993,47.7689],[14.3473,47.6257],[14.195,47.6577],[14.0597,47.626],[13.9967,47.6986],[13.8233,47.7205],[13.6872,47.664],[13.7303,47.546],[13.5818,47.4864],[13.6307,47.3056],[13.7967,47.3021],[13.9372,47.1506],[13.7823,46.9542],[13.8439,46.9227],[14.0267,47.0175],[14.2006,47.0567],[14.3946,46.9982],[14.8499,47.0413],[15.0083,46.9112],[15.0347,46.7033],[15.1056,46.6463],[15.1726,46.6414],[15.3328,46.6436],[15.4354,46.6272],[15.5139,46.6325],[15.5203,46.6477],[15.6217,46.6782],[15.7846,46.7122],[15.9676,46.6946],[16.0167,46.6707],[15.971,46.7751],[16.0284,46.8369]]]}},{"type":"Feature","properties":{"sourceId":"1159312651","regionId":"region.174da556-9a06-42c1-abf5-a56aec652b99","countryId":"country.alucm0"},"geometry":{"type":"Polygon","coordinates":[[[16.4826,48.2885],[16.4464,48.3281],[16.1882,48.2301],[16.2326,48.1492],[16.5714,48.1531],[16.4826,48.2885]]]}}]}