{"type":"FeatureCollection","features":[{"type":"Feature","properties":{"sourceId":"1159309797","regionId":"region.a81e2b4a-f593-4d9b-b6b3-c9dab7ffcf6a","countryId":"country.1hnoduz"},"geometry":{"type":"MultiPolygon","coordinates":[[[[169.4328,-19.4929],[169.3665,-19.4697],[169.3529,-19.3281],[169.2434,-19.342],[169.2185,-19.4902],[169.2783,-19.5783],[169.4362,-19.6573],[169.4956,-19.5398],[169.4328,-19.4929]]],[[[169.3366,-18.9348],[169.2205,-18.825],[169.1524,-18.6363],[169.0384,-18.6292],[168.9888,-18.6906],[168.9873,-18.8766],[169.2549,-18.9848],[169.3366,-18.9348]]]]}},{"type":"Feature","properties":{"sourceId":"1159309805","regionId":"region.973ad4d5-be41-4584-8a90-3846bc51365c","countryId":"country.1hnoduz"},"geometry":{"type":"MultiPolygon","coordinates":[[[[168.5496,-17.691],[168.4534,-17.5463],[168.323,-17.5326],[168.179,-17.6562],[168.2866,-17.7109],[168.396,-17.8235],[168.5402,-17.7966],[168.5496,-17.691]]],[[[168.1921,-16.8139],[168.3703,-16.767],[168.2473,-16.6904],[168.1541,-16.5792],[168.1204,-16.7092],[168.1921,-16.8139]]]]}},{"type":"Feature","properties":{"sourceId":"1159309807","regionId":"region.47be093d-7d08-4431-8c5a-de8074b8d601","countryId":"country.1hnoduz"},"geometry":{"type":"MultiPolygon","coordinates":[[[[168.1824,-16.3478],[168.2883,-16.344],[168.1716,-16.0803],[168.0695,-16.1798],[167.9209,-16.2589],[168.14,-16.3619],[168.1824,-16.3478]]],[[[167.8125,-16.4195],[167.603,-16.2243],[167.3976,-16.0871],[167.3361,-15.9089],[167.1853,-15.8907],[167.1475,-16.0829],[167.2331,-16.1696],[167.3224,-16.115],[167.3771,-16.2006],[167.3845,-16.3683],[167.4588,-16.568],[167.521,-16.5805],[167.6219,-16.4942],[167.7266,-16.5178],[167.8125,-16.4195]]]]}},{"type":"Feature","properties":{"sourceId":"1159309811","regionId":"region.cdccfd20-bb36-4122-b68b-ad94cff31a99","countryId":"country.1hnoduz"},"geometry":{"type":"MultiPolygon","coordinates":[[[[167.2057,-15.7512],[167.2336,-15.6415],[167.127,-15.6215],[167.0891,-15.7035],[167.2057,-15.7512]]],[[[167.1406,-15.5356],[167.2334,-15.5236],[167.1717,-15.3664],[167.1917,-15.3056],[167.1394,-15.1464],[167.0568,-15.002],[166.9719,-14.9799],[166.9198,-15.1559],[166.8018,-15.1523],[166.7373,-14.8295],[166.6099,-14.6347],[166.5562,-14.6459],[166.5226,-14.8321],[166.6501,-15.2647],[166.6161,-15.385],[166.7931,-15.6563],[166.9463,-15.5768],[167.1027,-15.58],[167.1406,-15.5356]]]]}},{"type":"Feature","properties":{"sourceId":"1159309813","regionId":"region.a68fc5aa-c089-4ddc-8391-1fc3c8e1194f","countryId":"country.1hnoduz"},"geometry":{"type":"MultiPolygon","coordinates":[[[[168.1858,-15.5178],[168.1196,-15.6628],[168.1875,-15.9711],[168.264,-15.8571],[168.1858,-15.5178]]],[[[167.9395,-15.3919],[167.9769,-15.2778],[167.8045,-15.32],[167.6824,-15.4325],[167.8386,-15.4848],[167.9395,-15.3919]]],[[[168.0964,-14.9804],[168.1301,-15.1576],[168.1311,-15.3951],[168.179,-15.3951],[168.1921,-15.2063],[168.1414,-14.9601],[168.0964,-14.9804]]]]}},{"type":"Feature","properties":{"sourceId":"1159309815","regionId":"region.7d0350a4-46f2-4946-9523-ed8ecda9fb02","countryId":"country.1hnoduz"},"geometry":{"type":"MultiPolygon","coordinates":[[[[167.5149,-14.1406],[167.4075,-14.1949],[167.4309,-14.3185],[167.5261,-14.3199],[167.603,-14.1891],[167.5149,-14.1406]]],[[[167.4528,-13.9186],[167.5337,-13.8805],[167.5497,-13.7895],[167.4889,-13.7082],[167.3892,-13.8043],[167.4528,-13.9186]]]]}}]}