{"type":"FeatureCollection","features":[{"type":"Feature","properties":{"sourceId":"1159309651","regionId":"region.36c4d0db-7740-4508-bbfc-56f61edf91ff","countryId":"country.1ddp0cj"},"geometry":{"type":"Polygon","coordinates":[[[7.1946,53.245],[6.9006,53.3518],[6.7302,53.4606],[6.186,53.411],[6.2789,53.3359],[6.1691,53.1529],[6.3095,53.0921],[6.4684,53.2045],[6.6315,53.1056],[6.7406,53.1119],[7.039,52.9039],[7.0722,52.8413],[7.1836,52.9661],[7.1946,53.245]]]}},{"type":"Feature","properties":{"sourceId":"1159309641","regionId":"region.7454dcd2-01bc-4913-8d60-553d13dd49a2","countryId":"country.1ddp0cj"},"geometry":{"type":"Polygon","coordinates":[[[7.0722,52.8413],[7.039,52.9039],[6.7406,53.1119],[6.6315,53.1056],[6.4684,53.2045],[6.3095,53.0921],[6.4295,52.9594],[6.1295,52.8534],[6.2069,52.7967],[6.1649,52.6934],[6.3826,52.6196],[6.6242,52.6723],[6.7191,52.6268],[7.0367,52.6474],[7.0722,52.8413]]]}},{"type":"Feature","properties":{"sourceId":"1159309649","regionId":"region.6a94df85-4c40-4d21-aca5-083ee6d784a5","countryId":"country.1ddp0cj"},"geometry":{"type":"Polygon","coordinates":[[[6.7191,52.6268],[6.6242,52.6723],[6.3826,52.6196],[6.1649,52.6934],[6.2069,52.7967],[6.1295,52.8534],[5.7852,52.8037],[5.9234,52.7399],[5.8442,52.6053],[5.8669,52.5218],[6.0307,52.511],[6.1327,52.4213],[6.068,52.3218],[6.1441,52.2488],[6.4114,52.2446],[6.4952,52.1772],[6.7716,52.1088],[7.0266,52.2386],[7.0482,52.3651],[6.6951,52.4756],[6.7191,52.6268]]]}},{"type":"Feature","properties":{"sourceId":"1159309643","regionId":"region.2dfb3a3c-b5d8-44d3-8771-edec178d4066","countryId":"country.1ddp0cj"},"geometry":{"type":"Polygon","coordinates":[[[6.7716,52.1088],[6.4952,52.1772],[6.4114,52.2446],[6.1441,52.2488],[6.068,52.3218],[6.1327,52.4213],[6.0307,52.511],[5.8669,52.5218],[5.771,52.4138],[5.4089,52.2677],[5.4301,52.1686],[5.5648,52.0733],[5.5051,51.982],[5.1826,51.9669],[5.0093,51.8252],[5.1349,51.7348],[5.318,51.7474],[5.3811,51.8116],[5.6432,51.8238],[5.8628,51.7594],[5.9461,51.7463],[5.928,51.8067],[6.2252,51.8625],[6.3825,51.8276],[6.7167,51.8993],[6.804,51.9844],[6.7716,52.1088]]]}},{"type":"Feature","properties":{"sourceId":"1159309645","regionId":"region.31d29d81-b7b8-4054-befe-2d5687c181d3","countryId":"country.1ddp0cj"},"geometry":{"type":"Polygon","coordinates":[[[5.9461,51.7463],[5.8628,51.7594],[5.96,51.7124],[6.0493,51.5665],[5.8378,51.567],[5.875,51.3541],[5.6758,51.3164],[5.5514,51.2168],[5.8405,51.1389],[5.6223,50.8527],[5.6574,50.8076],[5.7328,50.7589],[5.8913,50.7512],[5.9949,50.7499],[6.0637,50.9075],[5.9829,51.0747],[6.1324,51.1398],[6.0652,51.2316],[6.1836,51.3357],[6.1933,51.5093],[6.0992,51.6445],[5.9461,51.7463]]]}},{"type":"Feature","properties":{"sourceId":"1159310959","regionId":"region.0c4f74b4-9e5f-47ca-b1aa-3bfaeef32898","countryId":"country.1ddp0cj"},"geometry":{"type":"MultiPolygon","coordinates":[[[[3.3988,51.2447],[3.6351,51.2878],[3.927,51.2063],[4.119,51.2724],[4.2215,51.368],[3.7555,51.3501],[3.5414,51.4167],[3.3494,51.3752],[3.3988,51.2447]]],[[[4.2811,51.3689],[4.2638,51.4445],[3.8289,51.6127],[3.5604,51.5946],[3.4575,51.5551],[3.5354,51.4592],[3.6897,51.4543],[3.8272,51.3911],[3.9431,51.4504],[4.2611,51.3694],[4.2811,51.3689]]],[[[4.1861,51.6168],[4.1978,51.6379],[4.1109,51.647],[4.1861,51.6168]]]]}},{"type":"Feature","properties":{"sourceId":"1159315441","regionId":"region.d5848b73-8d5c-47e6-9dc1-d36ecb6b8440","countryId":"country.1ddp0cj"},"geometry":{"type":"Polygon","coordinates":[[[4.2811,51.3689],[4.5252,51.4759],[4.7312,51.4856],[4.9103,51.3919],[5.0121,51.4743],[5.1229,51.3134],[5.2395,51.2569],[5.4716,51.2881],[5.5514,51.2168],[5.6758,51.3164],[5.875,51.3541],[5.8378,51.567],[6.0493,51.5665],[5.96,51.7124],[5.8628,51.7594],[5.6432,51.8238],[5.3811,51.8116],[5.318,51.7474],[5.1349,51.7348],[5.0093,51.8252],[4.7904,51.8027],[4.6756,51.7194],[4.4031,51.7083],[4.1978,51.6379],[4.1861,51.6168],[4.2068,51.5906],[4.2305,51.5196],[4.2638,51.4445],[4.2811,51.3689]]]}},{"type":"Feature","properties":{"sourceId":"1159315447","regionId":"region.3442af72-7a93-48ba-bd01-2cbb315bccb4","countryId":"country.1ddp0cj"},"geometry":{"type":"Polygon","coordinates":[[[4.1109,51.647],[4.1978,51.6379],[4.4031,51.7083],[4.6756,51.7194],[4.7904,51.8027],[5.0093,51.8252],[5.1826,51.9669],[5.1049,52.0038],[4.8873,51.9412],[4.8333,51.9873],[4.7679,52.2212],[4.5467,52.2278],[4.5081,52.3364],[4.1419,52.0056],[4.01,51.9801],[4.0339,51.7842],[4.1109,51.647]]]}},{"type":"Feature","properties":{"sourceId":"1159315439","regionId":"region.cff815c9-53b8-400f-ab71-898d4e225b97","countryId":"country.1ddp0cj"},"geometry":{"type":"Polygon","coordinates":[[[4.5081,52.3364],[4.5467,52.2278],[4.7679,52.2212],[5.0253,52.2816],[5.045,52.1681],[5.202,52.1874],[5.3661,52.2832],[5.1599,52.3282],[5.168,52.4722],[5.0952,52.5822],[5.3589,52.689],[5.3703,52.7903],[5.2602,52.8654],[5.1798,53.009],[4.9131,52.9056],[4.7455,52.9676],[4.6694,52.7966],[4.5969,52.5066],[4.5081,52.3364]]]}},{"type":"Feature","properties":{"sourceId":"1159309639","regionId":"region.5645ea3d-7afd-48fd-b574-97c3c2c04ecc","countryId":"country.1ddp0cj"},"geometry":{"type":"Polygon","coordinates":[[[5.1798,53.009],[5.2602,52.8654],[5.3703,52.7903],[5.7852,52.8037],[6.1295,52.8534],[6.4295,52.9594],[6.3095,53.0921],[6.1691,53.1529],[6.2789,53.3359],[6.186,53.411],[5.9808,53.4061],[5.5916,53.3028],[5.4474,53.2209],[5.3792,53.0974],[5.1798,53.009]]]}},{"type":"Feature","properties":{"sourceId":"1159315527","regionId":"region.98c67d3b-1355-4ed9-b422-bae757ada162","countryId":"country.1ddp0cj"},"geometry":{"type":"Polygon","coordinates":[[[-68.2115,12.2281],[-68.4001,12.3044],[-68.4174,12.257],[-68.3026,12.2029],[-68.2115,12.2281]]]}},{"type":"Feature","properties":{"sourceId":"1159316513","regionId":"region.636c5f7b-3403-481e-835a-5b1da531cdde","countryId":"country.1ddp0cj"},"geometry":{"type":"Polygon","coordinates":[[[-62.9971,17.5256],[-62.9811,17.4677],[-62.9451,17.4854],[-62.9971,17.5256]]]}},{"type":"Feature","properties":{"sourceId":"1159316511","regionId":"region.8707887a-3157-4eec-a382-fca8ef5f059d","countryId":"country.1ddp0cj"},"geometry":{"type":"Polygon","coordinates":[[[-63.2384,17.6469],[-63.2513,17.6238],[-63.2384,17.6147],[-63.2237,17.6292],[-63.2384,17.6469]]]}},{"type":"Feature","properties":{"sourceId":"1159310967","regionId":"region.e46cfc71-6170-4719-ab32-b88d265f4659","countryId":"country.1ddp0cj"},"geometry":{"type":"Polygon","coordinates":[[[5.7852,52.8037],[5.3703,52.7903],[5.3589,52.689],[5.0952,52.5822],[5.168,52.4722],[5.1599,52.3282],[5.3661,52.2832],[5.4089,52.2677],[5.771,52.4138],[5.8669,52.5218],[5.8442,52.6053],[5.9234,52.7399],[5.7852,52.8037]]]}},{"type":"Feature","properties":{"sourceId":"1159315445","regionId":"region.8f9ff475-0854-4d3a-913b-a135c7d24bc6","countryId":"country.1ddp0cj"},"geometry":{"type":"Polygon","coordinates":[[[5.4089,52.2677],[5.3661,52.2832],[5.202,52.1874],[5.045,52.1681],[5.0253,52.2816],[4.7679,52.2212],[4.8333,51.9873],[4.8873,51.9412],[5.1049,52.0038],[5.1826,51.9669],[5.5051,51.982],[5.5648,52.0733],[5.4301,52.1686],[5.4089,52.2677]]]}}]}