{"type":"FeatureCollection","features":[{"type":"Feature","properties":{"sourceId":"1159310409","regionId":"region.ebe01085-6d28-4225-bc5d-2933e7559c11","countryId":"country.113l9xv"},"geometry":{"type":"Polygon","coordinates":[[[120.9717,24.9518],[121.3022,24.7636],[121.287,24.6569],[121.4123,24.5955],[121.4833,24.6811],[121.4491,24.7973],[121.3501,24.8553],[121.3302,24.9726],[121.4086,25.0402],[121.2874,25.1237],[121.0593,25.0502],[120.9717,24.9518]]]}},{"type":"Feature","properties":{"sourceId":"1159310395","regionId":"region.108a5089-e434-456d-bc5d-95337f4c09aa","countryId":"country.113l9xv"},"geometry":{"type":"Polygon","coordinates":[[[120.9146,24.8534],[121.0242,24.8146],[120.9602,24.715],[121.0785,24.5963],[121.0696,24.5027],[121.2252,24.5037],[121.2626,24.4333],[121.3165,24.436],[121.4123,24.5955],[121.287,24.6569],[121.3022,24.7636],[120.9717,24.9518],[120.9146,24.8534]]]}},{"type":"Feature","properties":{"sourceId":"1159310393","regionId":"region.307f4db9-33aa-4578-9571-cb932fa58382","countryId":"country.113l9xv"},"geometry":{"type":"Polygon","coordinates":[[[120.8727,24.7478],[120.9602,24.715],[121.0242,24.8146],[120.9146,24.8534],[120.8727,24.7478]]]}},{"type":"Feature","properties":{"sourceId":"1159310401","regionId":"region.d55e7548-9f92-47c0-a500-a4c8b5d9ad77","countryId":"country.113l9xv"},"geometry":{"type":"Polygon","coordinates":[[[120.6213,24.456],[120.7556,24.3317],[120.8526,24.292],[120.943,24.3409],[121.0431,24.3033],[121.2626,24.4333],[121.2252,24.5037],[121.0696,24.5027],[121.0785,24.5963],[120.9602,24.715],[120.8727,24.7478],[120.7022,24.607],[120.6213,24.456]]]}},{"type":"Feature","properties":{"sourceId":"1159310419","regionId":"region.e94dc122-a6f8-4a89-8d10-407d3a39b0ef","countryId":"country.113l9xv"},"geometry":{"type":"Polygon","coordinates":[[[120.4754,24.2071],[120.6672,24.0201],[120.7866,24.0296],[120.8294,24.109],[120.9826,24.1255],[121.1675,24.2228],[121.3435,24.2355],[121.4567,24.3728],[121.3165,24.436],[121.2626,24.4333],[121.0431,24.3033],[120.943,24.3409],[120.8526,24.292],[120.7556,24.3317],[120.6213,24.456],[120.4754,24.2071]]]}},{"type":"Feature","properties":{"sourceId":"1159310411","regionId":"region.d667afc0-6119-404e-ab23-46514d7799ac","countryId":"country.113l9xv"},"geometry":{"type":"Polygon","coordinates":[[[120.2439,23.8385],[120.3851,23.8309],[120.6474,23.7749],[120.6266,23.8542],[120.6672,24.0201],[120.4754,24.2071],[120.3401,24.0218],[120.2439,23.8385]]]}},{"type":"Feature","properties":{"sourceId":"1159310423","regionId":"region.31c54776-3aea-416d-ad22-0793d8a8b8a8","countryId":"country.113l9xv"},"geometry":{"type":"Polygon","coordinates":[[[120.1243,23.52],[120.2382,23.5191],[120.3926,23.6237],[120.4941,23.6401],[120.6539,23.5721],[120.7407,23.6163],[120.6363,23.6436],[120.6474,23.7749],[120.3851,23.8309],[120.2439,23.8385],[120.1892,23.7748],[120.1243,23.52]]]}},{"type":"Feature","properties":{"sourceId":"1159308289","regionId":"region.84a9180a-8f7d-45f5-9cad-63591054a6f3","countryId":"country.113l9xv"},"geometry":{"type":"Polygon","coordinates":[[[120.1165,23.3179],[120.1977,23.3],[120.3192,23.3901],[120.4389,23.4139],[120.5336,23.3294],[120.5307,23.2535],[120.6534,23.2287],[120.7068,23.2969],[120.9622,23.4754],[120.8324,23.4815],[120.8248,23.5911],[120.7407,23.6163],[120.6539,23.5721],[120.4941,23.6401],[120.3926,23.6237],[120.2382,23.5191],[120.1243,23.52],[120.1165,23.3179]],[[120.4546,23.4453],[120.3769,23.4753],[120.4531,23.5173],[120.4546,23.4453]]]}},{"type":"Feature","properties":{"sourceId":"1159308285","regionId":"region.ae19d628-25b6-4971-bcbd-763860b9e8b6","countryId":"country.113l9xv"},"geometry":{"type":"Polygon","coordinates":[[[120.1675,22.9319],[120.3477,22.8961],[120.567,23.0931],[120.6534,23.2287],[120.5307,23.2535],[120.5336,23.3294],[120.4389,23.4139],[120.3192,23.3901],[120.1977,23.3],[120.1165,23.3179],[120.0594,23.151],[120.1703,23.0134],[120.1675,22.9319]]]}},{"type":"Feature","properties":{"sourceId":"1159310389","regionId":"region.1fdcc97e-9c4d-41c3-a400-9f306eb2c93c","countryId":"country.113l9xv"},"geometry":{"type":"Polygon","coordinates":[[[120.4119,22.4829],[120.4728,22.8372],[120.6309,22.8839],[120.8533,22.8583],[120.8322,22.9784],[120.881,23.0243],[120.9209,23.2405],[121.0496,23.2994],[121.0193,23.4367],[120.9622,23.4754],[120.7068,23.2969],[120.6534,23.2287],[120.567,23.0931],[120.3477,22.8961],[120.1675,22.9319],[120.2396,22.6591],[120.3312,22.5197],[120.4119,22.4829]]]}},{"type":"Feature","properties":{"sourceId":"1159310391","regionId":"region.dcc05a07-5ae4-4551-a5ac-27adbace8a15","countryId":"country.113l9xv"},"geometry":{"type":"Polygon","coordinates":[[[120.876,22.2377],[120.7535,22.3676],[120.7522,22.5989],[120.8918,22.7169],[120.8533,22.8583],[120.6309,22.8839],[120.4728,22.8372],[120.4119,22.4829],[120.5697,22.3738],[120.697,22.1132],[120.7044,21.9814],[120.8416,21.9255],[120.8792,22.0558],[120.876,22.2377]]]}},{"type":"Feature","properties":{"sourceId":"1159310351","regionId":"region.c09a31a8-ec2b-41e3-8138-e5f75030634d","countryId":"country.113l9xv"},"geometry":{"type":"Polygon","coordinates":[[[121.4795,23.4352],[121.329,23.1646],[121.27,23.1105],[121.0496,23.2994],[120.9209,23.2405],[120.881,23.0243],[120.8322,22.9784],[120.8533,22.8583],[120.8918,22.7169],[120.7522,22.5989],[120.7535,22.3676],[120.876,22.2377],[120.8866,22.366],[121.021,22.6479],[121.1414,22.7418],[121.2996,22.9592],[121.4001,23.1455],[121.4089,23.2546],[121.4795,23.4352]]]}},{"type":"Feature","properties":{"sourceId":"1159310415","regionId":"region.1f9828d4-b94f-4fee-be80-2db661efb5e8","countryId":"country.113l9xv"},"geometry":{"type":"Polygon","coordinates":[[[121.7633,24.3258],[121.6044,24.3306],[121.4567,24.3728],[121.3435,24.2355],[121.3268,24.0892],[121.216,23.7713],[121.2213,23.6085],[121.0193,23.4367],[121.0496,23.2994],[121.27,23.1105],[121.329,23.1646],[121.4795,23.4352],[121.5215,23.6587],[121.6289,24.0262],[121.6074,24.0769],[121.7633,24.3258]]]}},{"type":"Feature","properties":{"sourceId":"1159310397","regionId":"region.c8c6ed61-2187-4331-8eef-c32a669d78b9","countryId":"country.113l9xv"},"geometry":{"type":"Polygon","coordinates":[[[121.9723,24.9871],[121.8458,24.9614],[121.7747,24.8733],[121.5986,24.7864],[121.4833,24.6811],[121.4123,24.5955],[121.3165,24.436],[121.4567,24.3728],[121.6044,24.3306],[121.7633,24.3258],[121.78,24.4327],[121.856,24.5505],[121.815,24.6444],[121.8235,24.8549],[121.9723,24.9871]]]}},{"type":"Feature","properties":{"sourceId":"1159310407","regionId":"region.3dc23110-15be-4122-a5ee-5a605b25c720","countryId":"country.113l9xv"},"geometry":{"type":"Polygon","coordinates":[[[121.7613,25.1426],[121.6888,25.0751],[121.6331,25.1412],[121.6893,25.1695],[121.5979,25.2714],[121.4363,25.2414],[121.2874,25.1237],[121.4086,25.0402],[121.3302,24.9726],[121.3501,24.8553],[121.4491,24.7973],[121.4833,24.6811],[121.5986,24.7864],[121.7747,24.8733],[121.8458,24.9614],[121.9723,24.9871],[121.8928,25.1137],[121.7613,25.1426]],[[121.6028,24.9706],[121.497,25.0395],[121.4622,25.1202],[121.5645,25.2059],[121.6552,25.0244],[121.6028,24.9706]]]}},{"type":"Feature","properties":{"sourceId":"1159310399","regionId":"region.81482652-f4bf-4519-b6b6-b3e3e6416f16","countryId":"country.113l9xv"},"geometry":{"type":"Polygon","coordinates":[[[121.6893,25.1695],[121.6331,25.1412],[121.6888,25.0751],[121.7613,25.1426],[121.6893,25.1695]]]}},{"type":"Feature","properties":{"sourceId":"1159315205","regionId":"region.6864baeb-a3eb-4c64-a5f0-23cbc092876e","countryId":"country.113l9xv"},"geometry":{"type":"Polygon","coordinates":[[[118.3942,24.5227],[118.3729,24.4332],[118.4488,24.4155],[118.4496,24.5055],[118.3942,24.5227]]]}},{"type":"Feature","properties":{"sourceId":"1159308287","regionId":"region.15c9fbcd-65e2-46e5-bb6b-72950c43ae2d","countryId":"country.113l9xv"},"geometry":{"type":"Polygon","coordinates":[[[119.648,23.6035],[119.5672,23.5885],[119.5872,23.5488],[119.648,23.6035]]]}},{"type":"Feature","properties":{"sourceId":"1159310417","regionId":"region.5034b56d-daff-43ef-a359-271719dc7ecd","countryId":"country.113l9xv"},"geometry":{"type":"Polygon","coordinates":[[[121.3435,24.2355],[121.1675,24.2228],[120.9826,24.1255],[120.8294,24.109],[120.7866,24.0296],[120.6672,24.0201],[120.6266,23.8542],[120.6474,23.7749],[120.6363,23.6436],[120.7407,23.6163],[120.8248,23.5911],[120.8324,23.4815],[120.9622,23.4754],[121.0193,23.4367],[121.2213,23.6085],[121.216,23.7713],[121.3268,24.0892],[121.3435,24.2355]]]}},{"type":"Feature","properties":{"sourceId":"1159310405","regionId":"region.1f6b1d75-a19f-477b-a3cb-12d0b566eb1e","countryId":"country.113l9xv"},"geometry":{"type":"Polygon","coordinates":[[[121.6028,24.9706],[121.6552,25.0244],[121.5645,25.2059],[121.4622,25.1202],[121.497,25.0395],[121.6028,24.9706]]]}},{"type":"Feature","properties":{"sourceId":"1159310413","regionId":"region.995cd918-560b-4323-836c-df2c9f8ecc5b","countryId":"country.113l9xv"},"geometry":{"type":"Polygon","coordinates":[[[120.4546,23.4453],[120.4531,23.5173],[120.3769,23.4753],[120.4546,23.4453]]]}}]}