{"type":"FeatureCollection","features":[{"type":"Feature","properties":{"sourceId":"1159314833","regionId":"region.8cea14cd-ba73-42c3-ac9a-ebfc6594c794","countryId":"country.14jkmlh"},"geometry":{"type":"MultiPolygon","coordinates":[[[[-27.9129,71.1163],[-28.8215,70.9996],[-30.4933,70.9998],[-32.9975,71],[-35.4991,71],[-37.9997,71],[-39.9999,71],[-41.9999,71],[-44,71],[-44,70.1826],[-44,69],[-44,68.0412],[-44,67.55],[-44,66.2318],[-44,65.365],[-45.5,65.365],[-46.5,65.365],[-48.5,65.365],[-49.9953,65.3656],[-50.1786,65.3478],[-50.7232,65.1841],[-50.8409,65.1313],[-50.4803,64.7129],[-50.7848,64.6024],[-50.6245,64.4667],[-50.8995,64.4067],[-51.1347,64.2078],[-51.7315,64.2084],[-51.6332,64.1151],[-51.4399,64.0823],[-50.8143,64.1781],[-50.8813,64.0966],[-51.5801,64.0424],[-51.4065,63.9293],[-51.4029,63.8127],[-51.5392,63.685],[-51.3959,63.5752],[-51.1273,63.4956],[-51.0563,63.1848],[-50.8866,63.1484],[-50.593,63.2303],[-50.4002,63.1894],[-50.6075,63.096],[-50.563,62.9809],[-50.4158,62.9452],[-50.1785,62.7664],[-50.3077,62.4913],[-50.0138,62.3204],[-49.6958,62.2668],[-49.4966,62.1501],[-49.5758,62.0729],[-49.3104,61.9962],[-49.4349,61.8474],[-49.2638,61.7255],[-49.2411,61.6076],[-48.8529,61.4028],[-48.5458,61.3813],[-48.5109,61.301],[-48.6191,61.2121],[-47.8846,61.0093],[-47.6049,61.0696],[-45.8024,61.9084],[-44,62.7472],[-43.5095,62.7272],[-43.1512,62.7596],[-42.7082,62.6929],[-42.4231,62.8158],[-42.0177,62.7968],[-41.7501,62.8439],[-41.5495,63.0529],[-41.4729,63.2258],[-41.9071,63.4635],[-41.6671,63.5101],[-41.531,63.432],[-41.1691,63.3906],[-41.0494,63.5021],[-40.8013,63.5001],[-40.8795,63.6577],[-40.5133,63.726],[-40.6141,63.8076],[-40.5609,64.1069],[-40.712,64.158],[-41.0871,64.1492],[-41.3873,64.1785],[-41.5249,64.3261],[-41.0777,64.3111],[-40.8362,64.3803],[-40.3583,64.359],[-40.5611,64.515],[-40.6291,64.6921],[-41.0546,64.8774],[-41.0776,65.0677],[-40.7597,65.0828],[-40.649,65.142],[-40.4416,65.0456],[-40.1843,65.0419],[-40.1229,65.1662],[-39.8576,65.2358],[-39.8745,65.5059],[-39.6356,65.679],[-39.4481,65.5469],[-39.1974,65.5933],[-38.6693,65.59],[-38.6016,65.6514],[-38.2206,65.6464],[-38.1112,65.7718],[-38.2696,65.9052],[-37.9852,65.9499],[-37.9679,66.118],[-37.7587,66.2956],[-38.1417,66.3406],[-38.0985,66.3945],[-37.6164,66.3288],[-37.2154,66.3462],[-37.7979,66.0487],[-37.642,65.9257],[-37.2101,65.7753],[-36.8264,65.9196],[-36.3888,66.0155],[-36.0738,65.9355],[-35.8054,66.0759],[-35.5863,66.1113],[-35.6552,66.2752],[-35.4491,66.2956],[-35.2164,66.241],[-34.6433,66.3804],[-34.538,66.5011],[-34.2565,66.5848],[-34.0882,66.7213],[-33.9483,66.9269],[-33.7509,66.9883],[-33.2808,67.4184],[-33.359,67.5342],[-33.1867,67.5577],[-32.6958,67.762],[-32.5192,67.8722],[-32.098,67.9063],[-32.1254,68.0507],[-31.9956,68.0913],[-31.9913,68.26],[-31.7402,68.2016],[-31.6938,68.0993],[-31.4111,68.1183],[-30.9127,68.0451],[-30.0082,68.126],[-30.1478,68.2379],[-29.9919,68.3798],[-29.5113,68.2217],[-29.1891,68.2626],[-29.0067,68.3476],[-28.0919,68.4438],[-27.9145,68.5128],[-27.3144,68.5351],[-27.1822,68.6093],[-26.4167,68.6589],[-26.2352,68.7926],[-25.9445,68.7902],[-25.6677,68.8704],[-25.0395,69.1328],[-25.0229,69.225],[-24.6151,69.2801],[-24.0988,69.5335],[-23.8142,69.5123],[-23.6186,69.618],[-23.703,69.7181],[-23.1073,69.7703],[-23.248,69.8539],[-22.8813,69.9627],[-22.38,69.9713],[-22.3717,70.1151],[-23.5598,70.1129],[-24.4847,70.247],[-25.3053,70.4132],[-25.9059,70.3074],[-26.3262,70.1983],[-26.8454,70.2608],[-27.1853,70.1675],[-27.2837,69.992],[-27.5947,70.0605],[-27.2951,70.2501],[-26.9718,70.3287],[-26.6986,70.2904],[-26.3213,70.3798],[-26.5292,70.4742],[-26.7433,70.4841],[-28.2329,70.372],[-28.3103,70.5639],[-28.0105,70.7398],[-27.9209,70.8813],[-27.7424,70.947],[-27.9129,71.1163]]],[[[-26.1766,71.4937],[-26.3321,71.3458],[-27.7657,71.1389],[-27.5062,70.9421],[-26.8284,70.9353],[-26.4256,70.9746],[-25.6019,71.1696],[-25.4101,71.3537],[-25.7274,71.4744],[-26.1766,71.4937]]],[[[-22.5161,71.9093],[-22.8865,71.9428],[-23.3038,71.9249],[-24.4517,71.8004],[-24.5602,71.4417],[-24.7526,71.3858],[-25.392,71.4466],[-25.122,71.3115],[-24.6694,71.272],[-24.2649,71.0814],[-24.183,70.805],[-23.9298,70.6132],[-23.3454,70.4406],[-22.6609,70.4385],[-22.0229,70.4995],[-21.6915,70.43],[-21.4768,70.5449],[-21.7301,70.579],[-21.6177,70.7436],[-21.7573,70.8664],[-21.5724,70.9558],[-21.785,71.0861],[-21.6611,71.1885],[-21.668,71.4014],[-21.9357,71.4866],[-22.286,71.4309],[-22.5314,71.4645],[-22.3051,71.6972],[-23.0117,71.6411],[-23.06,71.7121],[-22.5161,71.9093]]],[[[-50.8322,64.9868],[-51.0504,64.9008],[-51.4607,64.8753],[-51.7329,64.6295],[-52.0237,64.5939],[-52.1552,64.5373],[-52.1426,64.2222],[-51.8351,64.225],[-51.5051,64.4727],[-51.2526,64.7602],[-51.0663,64.6657],[-50.9097,64.685],[-50.6551,64.8216],[-50.8322,64.9868]]],[[[-42.0353,62.767],[-42.3639,62.8115],[-42.3946,62.6883],[-42.0221,62.715],[-42.0353,62.767]]],[[[-41.147,63.2844],[-41.583,63.4301],[-41.4387,63.241],[-41.147,63.2844]]],[[[-40.1434,64.487],[-40.51,64.7012],[-40.4996,64.8296],[-40.7165,64.9323],[-40.8695,64.9047],[-40.5765,64.6894],[-40.4996,64.5041],[-40.1434,64.487]]],[[[-37.454,65.7925],[-37.6412,65.905],[-37.9543,65.7964],[-37.9498,65.6241],[-37.7379,65.5694],[-37.3131,65.6793],[-37.454,65.7925]]],[[[-27.7191,70.7398],[-27.3696,70.818],[-27.7532,70.8732],[-27.7191,70.7398]]],[[[-25.3172,70.747],[-25.4101,70.9248],[-25.6776,70.9763],[-25.7038,71.0858],[-26.6625,70.8965],[-27.0675,70.8935],[-27.6781,70.6541],[-27.9273,70.6383],[-28.0677,70.4307],[-26.5751,70.5238],[-26.2818,70.5849],[-25.9648,70.5423],[-25.8253,70.6013],[-25.3011,70.6573],[-25.3172,70.747]]]]}},{"type":"Feature","properties":{"sourceId":"1159314873","regionId":"region.6260a526-7b99-4abf-bf24-e39fb3f45978","countryId":"country.14jkmlh"},"geometry":{"type":"MultiPolygon","coordinates":[[[[-27.7657,71.1389],[-26.3321,71.3458],[-26.1766,71.4937],[-26.6871,71.4816],[-27.0344,71.5312],[-27.3793,71.6565],[-27.3314,71.7188],[-27.968,71.8712],[-28.4569,71.9394],[-28.3604,72.0071],[-27.8817,71.9788],[-27.2227,71.7451],[-27.1579,71.6684],[-26.7851,71.5465],[-26.076,71.5864],[-25.5756,71.5204],[-25.392,71.4466],[-24.7526,71.3858],[-24.5602,71.4417],[-24.4517,71.8004],[-23.3038,71.9249],[-22.8865,71.9428],[-22.5161,71.9093],[-23.0057,72.0111],[-23.1084,72.0668],[-23.5779,72.1472],[-23.7612,72.2445],[-24.342,72.3317],[-24.5188,72.4157],[-24.8523,72.432],[-24.6901,72.5522],[-24.8484,72.7241],[-25.5228,72.8402],[-24.9843,73.0258],[-25.0526,73.0839],[-25.7206,73.1381],[-26.1506,73.2409],[-25.7049,73.2722],[-25.4526,73.3458],[-25.2922,73.4735],[-24.7191,73.4925],[-24.3754,73.5596],[-24.4095,73.7278],[-24.06,73.8203],[-23.9878,73.5974],[-23.1142,73.3542],[-22.3141,73.2504],[-21.2809,73.4572],[-20.5433,73.449],[-20.483,73.7589],[-20.3658,73.8954],[-20.6886,73.8865],[-21.5901,74.0577],[-21.9887,73.9987],[-22.2294,74.1013],[-22.0516,74.3205],[-21.7716,74.4387],[-21.255,74.4742],[-20.3573,74.4453],[-20.2007,74.2798],[-19.6265,74.2386],[-19.3744,74.2668],[-18.9748,74.4844],[-19.2688,74.5227],[-19.2696,74.6489],[-19.7184,74.5875],[-20.0715,74.6632],[-20.5211,74.6843],[-20.7582,74.8313],[-20.6678,75.2932],[-20.1687,75.3411],[-19.8798,75.1498],[-19.4272,75.2255],[-19.3815,75.5413],[-19.5948,75.6684],[-19.4818,75.7388],[-19.7494,75.889],[-20.2694,75.9923],[-19.6724,76.1273],[-19.9377,76.258],[-20.4891,76.2236],[-20.8944,76.3079],[-21.7045,76.2556],[-21.5672,76.3847],[-21.6748,76.5271],[-21.9355,76.6227],[-22.7442,76.6984],[-21.9506,76.7744],[-21.4963,76.6952],[-20.5134,76.9457],[-19.8951,76.9254],[-19.3913,76.8314],[-19.0627,76.8379],[-18.5022,76.7487],[-18.2659,76.9206],[-18.3245,77.2085],[-18.6232,77.2943],[-19.0825,77.3184],[-19.3815,77.2177],[-19.7277,77.3411],[-20.2301,77.3725],[-20.539,77.4787],[-20.344,77.5549],[-20.7748,77.617],[-20.0204,77.6925],[-19.4118,77.5429],[-18.9792,77.6168],[-19.3568,77.7331],[-19.961,77.791],[-20.7606,77.9706],[-20.9621,77.9704],[-21.3739,77.7768],[-21.3322,77.6776],[-21.9673,77.6792],[-21.63,77.9981],[-21.3223,78.0768],[-21.2997,78.2698],[-20.8898,78.5644],[-20.979,78.7668],[-20.6505,78.8305],[-19.9259,78.8287],[-19.9106,79.0183],[-19.5513,79.1136],[-18.9552,79.149],[-18.9379,79.2615],[-19.4051,79.2873],[-19.5659,79.3859],[-19.2078,79.7085],[-19.4857,79.7737],[-20.4231,79.8396],[-19.9665,80.0832],[-19.4744,80.2602],[-17.8729,80.1611],[-16.4473,80.2193],[-15.7892,80.4047],[-16.4482,80.4792],[-16.8962,80.5837],[-17.3099,80.5124],[-18.0551,80.4918],[-18.5939,80.5734],[-17.063,80.6628],[-16.2528,80.6373],[-15.4204,80.6484],[-15.3207,80.7148],[-14.2949,80.7843],[-14.2037,80.9144],[-12.5382,81.187],[-12.1657,81.3319],[-11.6386,81.3884],[-12.0277,81.6373],[-13.0568,81.7155],[-13.9205,81.8122],[-15.2067,81.8148],[-16.4852,81.7495],[-16.4518,81.6397],[-17.1468,81.4134],[-19.2463,81.5548],[-19.3862,81.6352],[-20.6918,81.3596],[-20.9513,81.2357],[-21.3628,81.2004],[-21.959,81.0214],[-22.9719,80.8804],[-22.9346,80.8149],[-23.5018,80.7512],[-22.5604,81.1202],[-22.2711,81.1504],[-21.2568,81.5175],[-21.0256,81.7716],[-21.1205,81.978],[-21.3884,82.0834],[-23.1954,82.0223],[-23.3077,81.7925],[-24.529,81.6461],[-25.6169,81.561],[-26.3872,81.4277],[-26.3148,81.6168],[-24.7062,81.7812],[-24.6199,81.9875],[-27.762,82.0624],[-29.0386,81.9999],[-30.8033,81.8653],[-31.6802,81.8348],[-32.1119,81.7362],[-32.7177,81.6918],[-32.7794,81.8411],[-31.774,81.9614],[-29.9432,82.0854],[-29.8523,82.1393],[-27.8638,82.1859],[-23.8867,82.2789],[-22.4373,82.34],[-22.306,82.4274],[-21.3185,82.6055],[-22.5654,82.7965],[-23.6622,82.8383],[-24.7537,82.9983],[-25.2214,83.1679],[-27.381,83.0606],[-30.0969,83.1262],[-31.5488,82.9927],[-32.1617,83.061],[-30.7364,83.1371],[-26.0754,83.2085],[-25.6496,83.2976],[-30.6471,83.6018],[-31.6334,83.5898],[-32.4907,83.6341],[-35.2436,83.5372],[-36.7386,83.538],[-38.6903,83.4255],[-38.8617,83.2567],[-37.6283,83.1536],[-38.7833,83.0678],[-39.4376,82.9618],[-40.6903,82.9865],[-41.7407,83.1946],[-42.6658,83.2812],[-43.0395,83.2117],[-45.1538,83.1623],[-46.43,83.0621],[-46.8452,82.976],[-46.5575,82.8929],[-40.9766,82.7744],[-39.9531,82.6931],[-39.9637,82.5389],[-40.6308,82.5751],[-41.2576,82.7117],[-41.8185,82.7529],[-44.9614,82.7689],[-45.6627,82.7261],[-43.7272,82.4069],[-43.8354,82.342],[-44.7023,82.2578],[-44.3988,82.1052],[-44.8848,81.9794],[-44.3027,81.8142],[-45.1561,81.7899],[-45.9264,81.9464],[-46.0082,82.0362],[-47.2313,82.1704],[-48.7353,82.3581],[-49.0113,82.4545],[-51.1072,82.5099],[-50.5813,82.154],[-49.4645,81.9472],[-49.8291,81.8712],[-50.8907,81.8781],[-53.0238,82.008],[-53.557,82.1161],[-54.0919,82.3205],[-54.4407,82.3727],[-57.0296,82.1888],[-58.6109,82.1052],[-59.4679,82.0028],[-58.486,81.8793],[-58.1378,81.667],[-58.6814,81.684],[-58.8385,81.8623],[-60.0673,81.9474],[-61.2811,81.8151],[-61.4543,81.745],[-60.7869,81.5089],[-61.2963,81.371],[-60.9395,81.1846],[-61.0761,81.1205],[-61.8506,81.1285],[-60.285,80.6056],[-59.9054,80.5303],[-57.1551,80.0378],[-55.5107,79.783],[-53.0441,79.4009],[-51.3998,79.1463],[-49.7554,78.8915],[-48.111,78.6368],[-46.4666,78.3821],[-44,78],[-44,77.3041],[-44,76.2601],[-44,75.5641],[-44,74.5202],[-44,73.4762],[-44,72.4322],[-44,71.6266],[-44,71],[-41.9999,71],[-39.9999,71],[-37.9997,71],[-35.4991,71],[-32.9975,71],[-30.4933,70.9998],[-28.8215,70.9996],[-27.9129,71.1163],[-27.7657,71.1389]]],[[[-53.2748,82.1723],[-53.1901,82.1124],[-52.1052,81.9954],[-51.2314,82.014],[-52.4652,82.1999],[-52.7868,82.3175],[-53.3395,82.2587],[-53.2748,82.1723]]],[[[-44.5292,82.4138],[-45.3168,82.5645],[-46.3242,82.6785],[-47.6981,82.6438],[-46.876,82.36],[-44.7346,82.0984],[-45.0704,82.2226],[-44.5292,82.4138]]],[[[-21.9491,72.4287],[-21.9517,72.4881],[-22.7175,72.6347],[-23.1468,72.8402],[-23.6332,72.838],[-23.9304,72.8815],[-24.4853,72.8266],[-24.3518,72.5913],[-23.9056,72.4661],[-23.0651,72.31],[-22.9484,72.2388],[-22.5249,72.1348],[-22.2504,72.121],[-22.0453,72.2717],[-22.6752,72.3616],[-22.3603,72.4287],[-21.9491,72.4287]]],[[[-24.7999,72.916],[-25.2869,72.8341],[-24.9414,72.7792],[-24.7999,72.916]]],[[[-21.9286,72.7378],[-22.1598,72.8043],[-21.9007,72.916],[-22.255,72.9785],[-23.2383,73.0753],[-23.7792,73.0154],[-24.5365,72.9919],[-24.5262,72.9017],[-23.8311,72.9078],[-23.6161,72.8709],[-23.1633,72.8779],[-22.8196,72.8188],[-22.654,72.6981],[-21.9286,72.7378]]],[[[-24.5243,73.0479],[-24.4675,73.0361],[-22.9807,73.1071],[-23.2302,73.2511],[-24.4601,73.425],[-25.2435,73.4111],[-25.3124,73.32],[-25.7073,73.1847],[-25.4305,73.1214],[-25.0632,73.1184],[-24.5243,73.0479]]],[[[-20.3527,74.2517],[-20.5476,74.4099],[-21.2471,74.4571],[-21.84,74.3512],[-21.9329,74.2077],[-21.0255,74.0963],[-20.1615,74.1688],[-20.3527,74.2517]]],[[[-19.81,74.8909],[-20.189,75.0441],[-20.6134,74.9853],[-20.6807,74.821],[-20.1383,74.6993],[-19.735,74.8553],[-19.81,74.8909]]],[[[-17.317,75.1361],[-17.8134,75.0889],[-18.5134,75.3732],[-18.7973,75.3362],[-18.9276,75.0468],[-18.4479,74.9853],[-18.1007,75.038],[-17.4976,74.9981],[-17.317,75.1361]]],[[[-18.5503,76.0541],[-18.6529,76.1807],[-18.723,76.511],[-19.1064,76.4735],[-18.871,76.194],[-18.5503,76.0541]]],[[[-19.318,77.8833],[-19.7467,77.8944],[-19.9766,77.9949],[-20.4735,77.9486],[-19.3085,77.8037],[-19.318,77.8833]]],[[[-18.7643,79.9733],[-19.3575,79.8707],[-19.0931,79.7778],[-18.4852,79.6861],[-17.8363,79.7425],[-17.2775,80.0131],[-17.7408,80.0912],[-18.7643,79.9733]]],[[[-19.5229,80.0303],[-18.7718,80.1123],[-19.2067,80.2102],[-19.6042,80.1463],[-19.5229,80.0303]]]]}},{"type":"Feature","properties":{"sourceId":"1159313619","regionId":"region.d383e095-9774-4b68-ac61-2313d9ae09c6","countryId":"country.14jkmlh"},"geometry":{"type":"MultiPolygon","coordinates":[[[[-67.9865,76.6008],[-68.1856,76.5187],[-68.1857,76.3008],[-68.5541,76.3009],[-69.0795,76.5003],[-69.6373,76.3831],[-69.0994,76.2834],[-68.4325,76.0794],[-66.4871,75.9474],[-67.0349,76.0644],[-67.3078,76.164],[-67.0471,76.267],[-66.4137,76.0861],[-66.2189,76.2251],[-65.7401,76.2785],[-65.8889,76.1025],[-65.3545,76.0268],[-65.0668,76.1374],[-64.3812,76.2603],[-64.0311,76.1361],[-63.7233,76.1845],[-63.4769,76.3769],[-63.1715,76.362],[-62.3976,76.2446],[-60.8725,76.1581],[-60.8321,76.0336],[-60.1242,76.0319],[-59.2722,75.8801],[-59.0416,75.7014],[-58.5572,75.6541],[-58.1667,75.5004],[-58.6595,75.3773],[-58.2414,75.2112],[-58.1315,75.1082],[-56.846,74.8112],[-56.8774,74.7116],[-56.2419,74.4977],[-56.6136,74.4509],[-56.5026,74.3673],[-56.6034,74.2448],[-56.2569,74.2379],[-56.1987,74.1213],[-56.3313,74.0445],[-55.9455,73.8612],[-55.8431,73.6831],[-55.4958,73.4651],[-55.2691,73.3866],[-55.4595,73.2579],[-55.4657,73.0729],[-54.9814,72.999],[-54.6503,72.845],[-54.7723,72.6658],[-54.9683,72.517],[-55.5121,72.5151],[-55.6513,72.4504],[-55.2241,72.3618],[-54.8829,72.3696],[-54.8835,72.2512],[-55.5517,72.0382],[-55.2678,71.9273],[-55.3701,71.826],[-55.8475,71.722],[-55.5145,71.4492],[-55.2876,71.3814],[-54.9808,71.4362],[-54.6252,71.3513],[-53.9518,71.4378],[-53.6789,71.7425],[-52.8545,71.8676],[-53.266,71.7099],[-52.663,71.6798],[-52.2586,71.5795],[-52.7009,71.5259],[-52.9923,71.4213],[-52.2577,71.3655],[-52.0494,71.2473],[-51.749,71.3604],[-51.5358,71.3127],[-52.2448,71.1347],[-51.8425,71.1374],[-51.9149,71.0214],[-51.4567,70.9081],[-51.1898,70.8869],[-51.3992,70.6973],[-50.8787,70.6625],[-51.3474,70.5716],[-50.9928,70.425],[-50.7721,70.4208],[-50.6594,70.3258],[-51.5494,70.4316],[-52.4503,70.7026],[-52.7906,70.7568],[-53.434,70.7527],[-53.9796,70.8297],[-54.3258,70.7976],[-54.5881,70.6826],[-54.0187,70.4132],[-53.2318,70.3531],[-52.61,70.2171],[-52.3295,70.0536],[-51.6254,70.015],[-51.4387,69.9665],[-50.9391,69.9636],[-50.3329,69.89],[-50.2476,69.776],[-50.5943,69.7907],[-50.8472,69.6263],[-50.9092,69.3389],[-51.1151,69.2122],[-50.8875,69.1745],[-50.4704,69.2086],[-50.1749,69.0298],[-50.4766,69.0236],[-50.7902,69.1285],[-51.0799,69.1328],[-51.1019,68.8662],[-50.9291,68.6741],[-51.1488,68.5848],[-51.5688,68.5239],[-51.9647,68.5876],[-52.6164,68.5259],[-52.7752,68.4229],[-53.0885,68.3179],[-52.8067,68.2217],[-52.4451,68.1815],[-51.6481,68.2746],[-51.2233,68.2748],[-51.2307,68.1596],[-50.9283,68.0527],[-50.463,67.9548],[-50.6046,67.9095],[-51.2171,68.0709],[-51.9315,68.0468],[-52.5829,68.1911],[-53.1359,68.1091],[-53.2004,67.9678],[-53.6877,67.8118],[-53.5414,67.7197],[-53.7353,67.6133],[-53.5767,67.5189],[-53.3317,67.5959],[-53.0643,67.7357],[-52.824,67.7965],[-52.3422,67.8217],[-52.2319,67.7692],[-51.8587,67.7536],[-51.7037,67.7003],[-51.4448,67.7471],[-51.2746,67.8638],[-51.1227,67.6627],[-50.8046,67.6218],[-50.5517,67.5102],[-50.1038,67.5056],[-49.7671,67.544],[-47.5,67.55],[-45.5,67.55],[-44,67.55],[-44,68.0412],[-44,69],[-44,70.1826],[-44,71],[-44,71.6266],[-44,72.4322],[-44,73.4762],[-44,74.5202],[-44,75.5641],[-44,76.2601],[-44,77.3041],[-44,78],[-46.4666,78.3821],[-48.111,78.6368],[-49.7554,78.8915],[-51.3998,79.1463],[-53.0441,79.4009],[-55.5107,79.783],[-57.1551,80.0378],[-59.9054,80.5303],[-60.285,80.6056],[-61.8506,81.1285],[-62.1964,81.1991],[-62.9768,81.2283],[-63.8277,81.1133],[-63.9294,81.0569],[-64.7535,80.9962],[-65.1247,80.7797],[-66.7584,80.5524],[-66.7875,80.4637],[-67.4554,80.3425],[-67.4624,80.1847],[-67.0501,80.0612],[-66.1702,80.0729],[-65.8634,80.012],[-65.3061,80.096],[-64.926,80.0727],[-65.1286,79.8503],[-64.8599,79.5078],[-65.1536,79.3764],[-66.1171,79.1028],[-66.6789,79.1444],[-68.0402,79.0768],[-69.0339,78.98],[-68.9686,78.8976],[-69.4386,78.8088],[-70.7458,78.6954],[-70.8092,78.6169],[-71.5546,78.6435],[-71.9418,78.5583],[-72.5902,78.5212],[-72.7843,78.1076],[-71.9057,77.8887],[-71.3128,77.7698],[-70.679,77.7815],[-70.6756,77.6802],[-70.0682,77.6738],[-70.2554,77.5574],[-69.2226,77.4529],[-68.6384,77.5097],[-67.5917,77.5244],[-67.2501,77.5748],[-67.1409,77.6723],[-66.6134,77.6739],[-66.2813,77.6179],[-66.0534,77.4935],[-66.2014,77.4245],[-66.7728,77.3564],[-67.4359,77.3836],[-68.3695,77.3769],[-69.0619,77.2573],[-70.9033,77.1914],[-71.3424,77.0707],[-71.3456,76.9918],[-70.6601,76.802],[-70.1034,76.8015],[-69.918,76.7504],[-68.9103,76.6649],[-68.3388,76.6735],[-67.9865,76.6008]]],[[[-51.2233,69.9143],[-51.1832,69.8189],[-51.3406,69.743],[-51.2454,69.5383],[-50.9511,69.5594],[-50.9715,69.7196],[-50.6676,69.8293],[-51.015,69.9254],[-51.2233,69.9143]]],[[[-52.9029,69.3451],[-52.1416,69.4773],[-51.8364,69.6318],[-51.9982,69.8051],[-52.7281,69.9287],[-53.0315,70.119],[-53.266,70.2023],[-53.9034,70.2904],[-54.453,70.3133],[-54.8292,70.2008],[-54.7668,69.9696],[-54.9927,69.702],[-54.7374,69.5891],[-54.13,69.5512],[-53.8811,69.5611],[-53.7987,69.4263],[-54.2046,69.4524],[-54.1485,69.3378],[-53.5874,69.2391],[-52.9029,69.3451]]],[[[-53.8966,71.0825],[-53.4491,71.0569],[-53.3913,71.1549],[-53.6118,71.3217],[-53.954,71.1706],[-53.8966,71.0825]]],[[[-52.4849,71.2643],[-52.4091,71.3537],[-52.9718,71.3872],[-53.1697,71.3463],[-53.1197,71.2128],[-52.9574,71.1544],[-52.6616,71.1684],[-52.4849,71.2643]]],[[[-53.2939,71.5386],[-53.1125,71.541],[-52.7772,71.6654],[-53.3987,71.6744],[-53.2939,71.5386]]],[[[-55.048,72.3188],[-55.1998,72.3352],[-55.6376,72.2333],[-55.3391,72.1767],[-55.048,72.3188]]],[[[-55.7394,72.6142],[-55.5289,72.5552],[-55.0907,72.7358],[-55.1988,72.847],[-55.6072,72.759],[-55.7394,72.6142]]],[[[-56.1271,73.8271],[-56.5913,73.9136],[-56.6167,73.8161],[-56.1271,73.8271]]],[[[-71.5763,77.3904],[-72.3393,77.4604],[-72.5297,77.3904],[-72.1318,77.3216],[-71.7035,77.3154],[-71.5763,77.3904]]]]}},{"type":"Feature","properties":{"sourceId":"1159314875","regionId":"region.2755c437-708a-4255-8cd1-53cc42f8bdd6","countryId":"country.14jkmlh"},"geometry":{"type":"Polygon","coordinates":[[[-69.0795,76.5003],[-68.5541,76.3009],[-68.1857,76.3008],[-68.1856,76.5187],[-67.9865,76.6008],[-68.7328,76.5862],[-69.0795,76.5003]]]}},{"type":"Feature","properties":{"sourceId":"1159314841","regionId":"region.8aa9ccde-07be-4f7c-9105-5299af5d2ca3","countryId":"country.14jkmlh"},"geometry":{"type":"Polygon","coordinates":[[[-52.0237,64.5939],[-51.7329,64.6295],[-51.4607,64.8753],[-51.0504,64.9008],[-50.8322,64.9868],[-50.9413,65.1291],[-50.7232,65.1841],[-50.1786,65.3478],[-49.9953,65.3656],[-48.5,65.365],[-46.5,65.365],[-45.5,65.365],[-44,65.365],[-44,66.2318],[-44,67.55],[-45.5,67.55],[-47.5,67.55],[-49.7671,67.544],[-50.1038,67.5056],[-50.5792,67.4825],[-51.2543,67.6509],[-51.8641,67.6359],[-52.4091,67.7692],[-53.0477,67.6958],[-53.3788,67.5323],[-53.8057,67.4186],[-53.8767,67.2348],[-53.1137,67.2801],[-52.1493,67.4061],[-52.1493,67.372],[-53.0742,67.2553],[-53.4119,67.1964],[-53.8407,67.1761],[-53.9649,67.1044],[-53.6346,66.9965],[-53.647,66.9116],[-53.0958,66.932],[-52.6675,66.693],[-53.4269,66.6453],[-53.3964,66.5285],[-53.623,66.509],[-53.6953,66.3588],[-53.565,66.2462],[-53.6632,66.1386],[-53.3537,66.1121],[-53.4554,65.9608],[-53.0714,65.8103],[-53.1904,65.6752],[-52.7556,65.6723],[-52.7917,65.5347],[-52.2729,65.4465],[-52.567,65.3162],[-52.1986,65.2846],[-52.2786,65.0788],[-52.0428,64.9578],[-52.1562,64.8637],[-51.8793,64.8371],[-51.731,64.9599],[-51.5316,64.8691],[-51.8748,64.8249],[-52.1562,64.6788],[-52.0237,64.5939]]]}},{"type":"Feature","properties":{"sourceId":"1159314825","regionId":"region.c8803618-998c-4b0f-a3c4-09017170c0d6","countryId":"country.14jkmlh"},"geometry":{"type":"MultiPolygon","coordinates":[[[[-43.1512,62.7596],[-43.5095,62.7272],[-44,62.7472],[-45.8024,61.9084],[-47.6049,61.0696],[-47.8846,61.0093],[-48.0285,60.9145],[-47.9321,60.8417],[-47.4383,60.8274],[-47.0299,60.9748],[-47.0565,60.8608],[-46.8623,60.8001],[-46.6383,60.913],[-46.6317,60.9926],[-46.413,61.0124],[-46.3757,61.0847],[-46.0328,60.9139],[-46.0006,60.8029],[-45.7215,60.7387],[-45.7656,60.6523],[-45.9816,60.5804],[-45.6137,60.5214],[-45.3937,60.5163],[-45.2142,60.439],[-44.9389,60.4836],[-44.9264,60.3271],[-45.1873,60.2126],[-45.058,60.1609],[-44.9748,60.0397],[-44.5902,59.9891],[-44.4813,60.1237],[-44.4261,60.1558],[-44.2908,60.1662],[-43.9906,60.1909],[-43.1382,60.0808],[-43.0898,60.2589],[-43.3154,60.4375],[-43.2003,60.5533],[-42.9768,60.5468],[-42.8263,60.6113],[-42.7854,60.7463],[-42.8851,60.8454],[-42.6725,61.0251],[-42.7075,61.2918],[-42.5001,61.3618],[-42.5275,61.5338],[-42.3251,61.6245],[-42.4193,61.6999],[-42.1922,61.8696],[-42.1172,62.0067],[-42.4181,62.0129],[-42.3122,62.1032],[-42.2675,62.2466],[-42.412,62.3493],[-42.2537,62.4374],[-42.3837,62.5715],[-42.87,62.6749],[-43.1512,62.7596]]],[[[-44.351,59.9845],[-44.2037,60.0532],[-44.2519,60.1081],[-44.4193,60.1496],[-44.4947,60.0112],[-44.351,59.9845]]],[[[-45.1529,60.3824],[-45.3568,60.3743],[-45.401,60.1896],[-45.1833,60.2725],[-45.1529,60.3824]]],[[[-46.5539,60.7963],[-46.1752,60.9009],[-46.2013,60.9509],[-46.6879,60.8274],[-46.5539,60.7963]]],[[[-43.7067,59.9025],[-43.9613,59.9782],[-44.1047,59.8772],[-44.0539,59.8061],[-43.7915,59.8165],[-43.7067,59.9025]]],[[[-44.0084,59.9914],[-44.2001,60.0279],[-44.3716,59.9181],[-44.2793,59.8789],[-44.0084,59.9914]]],[[[-43.1717,60.0739],[-44.0733,60.1763],[-44.1125,60.1123],[-43.8998,59.9922],[-43.5901,59.923],[-43.4808,60.0528],[-43.1895,59.9959],[-43.1717,60.0739]]],[[[-47.722,60.7591],[-47.9293,60.8367],[-48.236,60.8001],[-48.038,60.6954],[-47.9005,60.6824],[-47.722,60.7591]]]]}}]}