{"type":"FeatureCollection","features":[{"type":"Feature","properties":{"sourceId":"1159315499","regionId":"region.530f1b25-bd90-45cf-b6e8-5b423402ad10","countryId":"country.54732cb4-6064-445b-a3c2-461d752e4305"},"geometry":{"type":"Polygon","coordinates":[[[46.4955,-9.3576],[46.3205,-9.4238],[46.4546,-9.4264],[46.4955,-9.3576]]]}},{"type":"Feature","properties":{"sourceId":"1159316635","regionId":"region.1914ff4a-7174-4a7d-8200-5441ff680b4a","countryId":"country.54732cb4-6064-445b-a3c2-461d752e4305"},"geometry":{"type":"Polygon","coordinates":[[[55.2603,-4.5001],[55.2599,-4.463],[55.2254,-4.4449],[55.228,-4.4875],[55.2603,-4.5001]]]}},{"type":"Feature","properties":{"sourceId":"1159316629","regionId":"region.faeb945d-bda8-4eb7-88a3-1bdb24b1d8bf","countryId":"country.54732cb4-6064-445b-a3c2-461d752e4305"},"geometry":{"type":"Polygon","coordinates":[[[55.478,-4.7064],[55.4952,-4.6778],[55.4827,-4.6623],[55.4775,-4.6651],[55.4592,-4.6576],[55.449,-4.6779],[55.478,-4.7064]]]}},{"type":"Feature","properties":{"sourceId":"1159316605","regionId":"region.0818db12-e834-4b5a-bf02-167390c97701","countryId":"country.54732cb4-6064-445b-a3c2-461d752e4305"},"geometry":{"type":"Polygon","coordinates":[[[55.4916,-4.7364],[55.505,-4.7391],[55.5079,-4.7198],[55.5002,-4.6796],[55.4952,-4.6778],[55.478,-4.7064],[55.4916,-4.7364]]]}},{"type":"Feature","properties":{"sourceId":"1159316615","regionId":"region.7d9f9191-391f-4626-abf6-659331ff0f2b","countryId":"country.54732cb4-6064-445b-a3c2-461d752e4305"},"geometry":{"type":"Polygon","coordinates":[[[55.4932,-4.7766],[55.5097,-4.7713],[55.505,-4.7391],[55.4916,-4.7364],[55.4932,-4.7766]]]}},{"type":"Feature","properties":{"sourceId":"1159316653","regionId":"region.a81b7285-ed2f-4934-8fa0-6af6b3c40aab","countryId":"country.54732cb4-6064-445b-a3c2-461d752e4305"},"geometry":{"type":"Polygon","coordinates":[[[55.5257,-4.7701],[55.5097,-4.7713],[55.4932,-4.7766],[55.5257,-4.7701]]]}},{"type":"Feature","properties":{"sourceId":"1159316611","regionId":"region.ad42e0a7-3fb1-4f9b-b9f3-8ad0d3d43e9d","countryId":"country.54732cb4-6064-445b-a3c2-461d752e4305"},"geometry":{"type":"Polygon","coordinates":[[[55.5281,-4.7368],[55.5079,-4.7198],[55.505,-4.7391],[55.5097,-4.7713],[55.5257,-4.7701],[55.5281,-4.7368]]]}},{"type":"Feature","properties":{"sourceId":"1159316609","regionId":"region.0bb22bac-fb7f-482f-a620-3b5b431526ce","countryId":"country.54732cb4-6064-445b-a3c2-461d752e4305"},"geometry":{"type":"Polygon","coordinates":[[[55.5263,-4.6891],[55.504,-4.6809],[55.5002,-4.6796],[55.5079,-4.7198],[55.5281,-4.7368],[55.5263,-4.6891]]]}},{"type":"Feature","properties":{"sourceId":"1159316603","regionId":"region.46b404b5-9f68-4bc1-9652-6d357bc45f2a","countryId":"country.54732cb4-6064-445b-a3c2-461d752e4305"},"geometry":{"type":"Polygon","coordinates":[[[55.5286,-4.6802],[55.5063,-4.6774],[55.504,-4.6809],[55.5263,-4.6891],[55.5286,-4.6802]]]}},{"type":"Feature","properties":{"sourceId":"1159316645","regionId":"region.e93a2462-c8c6-4378-884d-42ff3edc5eb8","countryId":"country.54732cb4-6064-445b-a3c2-461d752e4305"},"geometry":{"type":"Polygon","coordinates":[[[55.5136,-4.6662],[55.5063,-4.6774],[55.5286,-4.6802],[55.5136,-4.6662]]]}},{"type":"Feature","properties":{"sourceId":"1159316625","regionId":"region.6e4e7305-6d98-4c31-98e6-76a3d74b6f99","countryId":"country.54732cb4-6064-445b-a3c2-461d752e4305"},"geometry":{"type":"Polygon","coordinates":[[[55.492,-4.6514],[55.4895,-4.6585],[55.4827,-4.6623],[55.4952,-4.6778],[55.5002,-4.6796],[55.504,-4.6809],[55.5063,-4.6774],[55.5136,-4.6662],[55.492,-4.6514]]]}},{"type":"Feature","properties":{"sourceId":"1159316657","regionId":"region.f7782fac-a6ed-462c-b41c-a2a8f566b83b","countryId":"country.54732cb4-6064-445b-a3c2-461d752e4305"},"geometry":{"type":"Polygon","coordinates":[[[55.4757,-4.6399],[55.475,-4.6475],[55.4895,-4.6585],[55.492,-4.6514],[55.4757,-4.6399]]]}},{"type":"Feature","properties":{"sourceId":"1159316643","regionId":"region.38a7a0b4-41fd-4372-a19b-48869c7c0163","countryId":"country.54732cb4-6064-445b-a3c2-461d752e4305"},"geometry":{"type":"Polygon","coordinates":[[[55.4718,-4.6349],[55.4645,-4.6471],[55.4592,-4.6576],[55.4775,-4.6651],[55.475,-4.6475],[55.4757,-4.6399],[55.4718,-4.6349]]]}},{"type":"Feature","properties":{"sourceId":"1159316641","regionId":"region.88455508-6104-43fe-8fab-cee37e9283fc","countryId":"country.54732cb4-6064-445b-a3c2-461d752e4305"},"geometry":{"type":"Polygon","coordinates":[[[55.4605,-4.6256],[55.4645,-4.6471],[55.4718,-4.6349],[55.4605,-4.6256]]]}},{"type":"Feature","properties":{"sourceId":"1159316621","regionId":"region.b9d99a75-c1c0-491c-a15e-9fc932088537","countryId":"country.54732cb4-6064-445b-a3c2-461d752e4305"},"geometry":{"type":"Polygon","coordinates":[[[55.4588,-4.6181],[55.4473,-4.6208],[55.435,-4.6304],[55.4592,-4.6576],[55.4645,-4.6471],[55.4605,-4.6256],[55.4588,-4.6181]]]}},{"type":"Feature","properties":{"sourceId":"1159316637","regionId":"region.f63c2ad4-7850-488d-8d6a-9769369956e8","countryId":"country.54732cb4-6064-445b-a3c2-461d752e4305"},"geometry":{"type":"Polygon","coordinates":[[[55.4599,-4.5985],[55.4407,-4.6045],[55.4473,-4.6208],[55.4588,-4.6181],[55.4599,-4.5985]]]}},{"type":"Feature","properties":{"sourceId":"1159316607","regionId":"region.7491e1f2-4278-48b8-947d-6399158cce07","countryId":"country.54732cb4-6064-445b-a3c2-461d752e4305"},"geometry":{"type":"Polygon","coordinates":[[[55.4639,-4.5714],[55.4407,-4.587],[55.4407,-4.6045],[55.4599,-4.5985],[55.4639,-4.5714]]]}},{"type":"Feature","properties":{"sourceId":"1159316627","regionId":"region.a42ed92b-37c0-4fa1-8128-6001d69ae719","countryId":"country.54732cb4-6064-445b-a3c2-461d752e4305"},"geometry":{"type":"Polygon","coordinates":[[[55.4327,-4.5869],[55.4407,-4.587],[55.4639,-4.5714],[55.4327,-4.5869]]]}},{"type":"Feature","properties":{"sourceId":"1159316619","regionId":"region.7b5a2973-0ae2-4e32-b301-8287c43595a1","countryId":"country.54732cb4-6064-445b-a3c2-461d752e4305"},"geometry":{"type":"Polygon","coordinates":[[[55.4144,-4.6128],[55.4315,-4.6238],[55.4385,-4.6151],[55.4407,-4.6045],[55.4407,-4.587],[55.4327,-4.5869],[55.4144,-4.6128]]]}},{"type":"Feature","properties":{"sourceId":"1159316623","regionId":"region.703f3761-0e9b-4768-9cfa-18a21f00ff9e","countryId":"country.54732cb4-6064-445b-a3c2-461d752e4305"},"geometry":{"type":"Polygon","coordinates":[[[55.3805,-4.6272],[55.4315,-4.6238],[55.4144,-4.6128],[55.3805,-4.6272]]]}},{"type":"Feature","properties":{"sourceId":"1159316647","regionId":"region.4e8b0143-68c6-431c-8dbe-9ecdefc98c61","countryId":"country.54732cb4-6064-445b-a3c2-461d752e4305"},"geometry":{"type":"Polygon","coordinates":[[[55.449,-4.6779],[55.4592,-4.6576],[55.435,-4.6304],[55.4315,-4.6238],[55.3805,-4.6272],[55.449,-4.6779]]]}},{"type":"Feature","properties":{"sourceId":"1159316617","regionId":"region.052d70ec-f536-434a-9e79-ee18a0f50407","countryId":"country.54732cb4-6064-445b-a3c2-461d752e4305"},"geometry":{"type":"Polygon","coordinates":[[[55.6828,-4.2944],[55.768,-4.3503],[55.7545,-4.3211],[55.6828,-4.2944]]]}},{"type":"Feature","properties":{"sourceId":"1159316633","regionId":"region.8101dcbe-f27a-4489-9c4e-eca9dc23c1a9","countryId":"country.54732cb4-6064-445b-a3c2-461d752e4305"},"geometry":{"type":"Polygon","coordinates":[[[55.768,-4.3503],[55.6828,-4.2944],[55.7328,-4.3522],[55.768,-4.3503]]]}},{"type":"Feature","properties":{"sourceId":"1159316639","regionId":"region.7bbcbfb1-f080-4857-90f7-d753cb60347e","countryId":"country.54732cb4-6064-445b-a3c2-461d752e4305"},"geometry":{"type":"Polygon","coordinates":[[[55.4385,-4.6151],[55.4473,-4.6208],[55.4407,-4.6045],[55.4385,-4.6151]]]}},{"type":"Feature","properties":{"sourceId":"1159316651","regionId":"region.5ca357f9-9c45-476f-997d-fbef93aefe50","countryId":"country.54732cb4-6064-445b-a3c2-461d752e4305"},"geometry":{"type":"Polygon","coordinates":[[[55.4315,-4.6238],[55.435,-4.6304],[55.4473,-4.6208],[55.4385,-4.6151],[55.4315,-4.6238]]]}},{"type":"Feature","properties":{"sourceId":"1159316655","regionId":"region.42c61f9d-15d1-41ee-a7ce-42d56a4c5fb6","countryId":"country.54732cb4-6064-445b-a3c2-461d752e4305"},"geometry":{"type":"Polygon","coordinates":[[[55.4775,-4.6651],[55.4827,-4.6623],[55.4895,-4.6585],[55.475,-4.6475],[55.4775,-4.6651]]]}}]}