{"type":"FeatureCollection","features":[{"type":"Feature","properties":{"sourceId":"1159315539","regionId":"region.4e463430-1be3-4077-899f-9cb8cc0f2fcc","countryId":"country.8554a20a-f004-46eb-a49c-b26c269c127c"},"geometry":{"type":"Polygon","coordinates":[[[-60.98,14.0435],[-60.9356,14.018],[-60.901,14.0734],[-60.98,14.0435]]]}},{"type":"Feature","properties":{"sourceId":"1159316395","regionId":"region.a4e7937d-9a52-4d90-9e6a-a27ffa3ba4d2","countryId":"country.8554a20a-f004-46eb-a49c-b26c269c127c"},"geometry":{"type":"Polygon","coordinates":[[[-61.0266,13.9874],[-60.9806,13.8928],[-60.9606,13.879],[-60.9606,13.9003],[-60.9405,13.9793],[-60.9356,14.018],[-60.98,14.0435],[-61.0266,13.9874]]]}},{"type":"Feature","properties":{"sourceId":"1159316393","regionId":"region.b877dd7d-391c-4a2b-9cab-05050a14afc1","countryId":"country.8554a20a-f004-46eb-a49c-b26c269c127c"},"geometry":{"type":"Polygon","coordinates":[[[-61.0669,13.909],[-60.9806,13.8928],[-61.0266,13.9874],[-61.0669,13.909]]]}},{"type":"Feature","properties":{"sourceId":"1159316391","regionId":"region.75629e7d-deed-4c76-8647-3e4cda549edc","countryId":"country.8554a20a-f004-46eb-a49c-b26c269c127c"},"geometry":{"type":"Polygon","coordinates":[[[-61.0681,13.7922],[-60.9816,13.8358],[-60.9752,13.8392],[-60.9643,13.8452],[-60.9606,13.879],[-60.9806,13.8928],[-61.0669,13.909],[-61.0681,13.7922]]]}},{"type":"Feature","properties":{"sourceId":"1159316389","regionId":"region.71734fd1-30da-4817-921b-288bc0fe4248","countryId":"country.8554a20a-f004-46eb-a49c-b26c269c127c"},"geometry":{"type":"Polygon","coordinates":[[[-61.0189,13.7562],[-60.9809,13.8308],[-60.9816,13.8358],[-61.0681,13.7922],[-61.0189,13.7562]]]}},{"type":"Feature","properties":{"sourceId":"1159316387","regionId":"region.c591230c-ac70-4797-851a-d8f64185c629","countryId":"country.8554a20a-f004-46eb-a49c-b26c269c127c"},"geometry":{"type":"Polygon","coordinates":[[[-60.9671,13.7306],[-60.9809,13.8308],[-61.0189,13.7562],[-60.9671,13.7306]]]}},{"type":"Feature","properties":{"sourceId":"1159316385","regionId":"region.a419c10a-4cc2-4565-ad0a-6810bf628b53","countryId":"country.8554a20a-f004-46eb-a49c-b26c269c127c"},"geometry":{"type":"Polygon","coordinates":[[[-60.918,13.774],[-60.9752,13.8392],[-60.9816,13.8358],[-60.9809,13.8308],[-60.9671,13.7306],[-60.918,13.774]]]}},{"type":"Feature","properties":{"sourceId":"1159316383","regionId":"region.1757a566-87d4-4220-aeef-26a92179a524","countryId":"country.8554a20a-f004-46eb-a49c-b26c269c127c"},"geometry":{"type":"Polygon","coordinates":[[[-60.8922,13.8332],[-60.9643,13.8452],[-60.9752,13.8392],[-60.918,13.774],[-60.8922,13.8332]]]}},{"type":"Feature","properties":{"sourceId":"1159316381","regionId":"region.8cc75a1c-bdaf-49b4-9fa8-d4fa095e7a47","countryId":"country.8554a20a-f004-46eb-a49c-b26c269c127c"},"geometry":{"type":"Polygon","coordinates":[[[-60.8902,13.9085],[-60.9606,13.9003],[-60.9606,13.879],[-60.9643,13.8452],[-60.8922,13.8332],[-60.8902,13.9085]]]}},{"type":"Feature","properties":{"sourceId":"1159316377","regionId":"region.b99d1efe-d80d-4481-8a11-0ff2f831c2e9","countryId":"country.8554a20a-f004-46eb-a49c-b26c269c127c"},"geometry":{"type":"Polygon","coordinates":[[[-60.883,13.9806],[-60.9405,13.9793],[-60.9606,13.9003],[-60.8902,13.9085],[-60.883,13.9806]]]}},{"type":"Feature","properties":{"sourceId":"1159316375","regionId":"region.6b99c4df-f5d3-4b66-a6b0-ea58389f1516","countryId":"country.8554a20a-f004-46eb-a49c-b26c269c127c"},"geometry":{"type":"Polygon","coordinates":[[[-60.901,14.0734],[-60.9356,14.018],[-60.9405,13.9793],[-60.883,13.9806],[-60.901,14.0734]]]}}]}