{"type":"FeatureCollection","features":[{"type":"Feature","properties":{"sourceId":"1159313331","regionId":"region.bdeb35b3-461d-4481-a93a-54a76380a194","countryId":"country.82nqba"},"geometry":{"type":"Polygon","coordinates":[[[30.5546,-2.4006],[30.4232,-2.3173],[30.3486,-2.3224],[30.4256,-2.4568],[30.4156,-2.5765],[30.28,-2.6809],[30.0781,-2.781],[30.1868,-2.898],[30.2884,-3.0003],[30.2438,-3.1094],[30.3381,-3.1451],[30.4883,-2.9432],[30.4158,-2.8517],[30.4505,-2.7418],[30.416,-2.6456],[30.5546,-2.4006]]]}},{"type":"Feature","properties":{"sourceId":"1159313329","regionId":"region.5c40c439-ec6c-48ac-84b2-4487bc99050d","countryId":"country.82nqba"},"geometry":{"type":"Polygon","coordinates":[[[30.3486,-2.3224],[30.2013,-2.3624],[30.1391,-2.4308],[29.9568,-2.327],[29.9037,-2.6379],[29.9785,-2.6546],[30.0781,-2.781],[30.28,-2.6809],[30.4156,-2.5765],[30.4256,-2.4568],[30.3486,-2.3224]]]}},{"type":"Feature","properties":{"sourceId":"1159313327","regionId":"region.aa44d0d0-e5b3-410c-be27-7d14855abfc7","countryId":"country.82nqba"},"geometry":{"type":"Polygon","coordinates":[[[29.9037,-2.6379],[29.8236,-2.7635],[29.6371,-2.7916],[29.6283,-2.8722],[29.7817,-2.9052],[29.878,-3.0585],[29.9076,-3.0869],[30.1868,-2.898],[30.0781,-2.781],[29.9785,-2.6546],[29.9037,-2.6379]]]}},{"type":"Feature","properties":{"sourceId":"1159313317","regionId":"region.e9beec0f-391c-4c09-ad6f-2ee8dbc925a7","countryId":"country.82nqba"},"geometry":{"type":"Polygon","coordinates":[[[29.3095,-2.6901],[29.2761,-2.6406],[29.1297,-2.597],[29.0326,-2.6207],[29.0154,-2.7207],[29.0898,-2.9261],[29.2346,-3.0466],[29.2415,-3.1042],[29.3718,-2.9509],[29.4949,-2.911],[29.4447,-2.807],[29.3397,-2.8264],[29.3095,-2.6901]]]}},{"type":"Feature","properties":{"sourceId":"1159313323","regionId":"region.c4506919-0e58-4093-8a33-7f3bed988e7f","countryId":"country.82nqba"},"geometry":{"type":"Polygon","coordinates":[[[29.6371,-2.7916],[29.4447,-2.807],[29.4949,-2.911],[29.5587,-3.0908],[29.8147,-3.1793],[29.878,-3.0585],[29.7817,-2.9052],[29.6283,-2.8722],[29.6371,-2.7916]]]}},{"type":"Feature","properties":{"sourceId":"1159313305","regionId":"region.d4db9ee4-caa7-45b8-8edc-057672dfe1dc","countryId":"country.82nqba"},"geometry":{"type":"Polygon","coordinates":[[[30.4883,-2.9432],[30.3381,-3.1451],[30.2889,-3.1852],[30.44,-3.2312],[30.6103,-3.3764],[30.7998,-3.2746],[30.8322,-3.1728],[30.7832,-3.0621],[30.8188,-2.9905],[30.7189,-2.9895],[30.547,-2.9003],[30.4883,-2.9432]]]}},{"type":"Feature","properties":{"sourceId":"1159313311","regionId":"region.55590dce-4ff1-47b9-8161-4427c9f00644","countryId":"country.82nqba"},"geometry":{"type":"Polygon","coordinates":[[[30.6103,-3.3764],[30.44,-3.2312],[30.2889,-3.1852],[30.1564,-3.3174],[30.0381,-3.3466],[30.0823,-3.4248],[30.1035,-3.6358],[30.2282,-3.6386],[30.3731,-3.7043],[30.4689,-3.513],[30.6129,-3.4449],[30.6103,-3.3764]]]}},{"type":"Feature","properties":{"sourceId":"1159313309","regionId":"region.75bc9cd5-845e-432c-8291-ac92ad4579c0","countryId":"country.82nqba"},"geometry":{"type":"Polygon","coordinates":[[[30.3731,-3.7043],[30.2282,-3.6386],[30.1035,-3.6358],[29.9283,-3.8204],[29.8816,-4.0595],[29.9531,-4.1355],[30.0406,-4.0662],[30.1759,-4.04],[30.2088,-3.9305],[30.3731,-3.7043]]]}},{"type":"Feature","properties":{"sourceId":"1159313325","regionId":"region.87f3c796-12cc-4f9a-a05c-f1ef39cfa67b","countryId":"country.82nqba"},"geometry":{"type":"Polygon","coordinates":[[[30.1759,-4.04],[30.0406,-4.0662],[29.9531,-4.1355],[29.8816,-4.0595],[29.7812,-4.0196],[29.5319,-4.1777],[29.3672,-4.189],[29.4042,-4.4498],[29.7283,-4.4616],[29.8003,-4.3639],[29.9005,-4.3456],[30.003,-4.2719],[30.1759,-4.04]]]}},{"type":"Feature","properties":{"sourceId":"1159313313","regionId":"region.dc25e6d2-8e27-4c74-95f6-b5b96bd67014","countryId":"country.82nqba"},"geometry":{"type":"Polygon","coordinates":[[[29.2361,-3.2707],[29.2939,-3.3111],[29.3978,-3.2572],[29.5231,-3.28],[29.5587,-3.0908],[29.4949,-2.911],[29.3718,-2.9509],[29.2415,-3.1042],[29.2361,-3.2707]]]}},{"type":"Feature","properties":{"sourceId":"1159315939","regionId":"region.5849cb29-ad35-4188-a7f9-13fb48411835","countryId":"country.82nqba"},"geometry":{"type":"Polygon","coordinates":[[[29.2119,-3.4068],[29.3518,-3.3132],[29.4112,-3.3697],[29.3777,-3.5253],[29.2239,-3.5711],[29.2171,-3.7093],[29.4883,-3.717],[29.584,-3.5463],[29.5925,-3.3991],[29.5231,-3.28],[29.3978,-3.2572],[29.2939,-3.3111],[29.2361,-3.2707],[29.2119,-3.4068]]]}},{"type":"Feature","properties":{"sourceId":"1159314987","regionId":"region.6fbb90b6-1094-42f9-839d-f451f880ed28","countryId":"country.82nqba"},"geometry":{"type":"Polygon","coordinates":[[[29.2239,-3.5711],[29.3777,-3.5253],[29.4112,-3.3697],[29.3518,-3.3132],[29.2119,-3.4068],[29.2239,-3.5711]]]}},{"type":"Feature","properties":{"sourceId":"1159313315","regionId":"region.e5847637-1c39-4c4a-a49d-9e44efb92a75","countryId":"country.82nqba"},"geometry":{"type":"Polygon","coordinates":[[[29.3672,-4.189],[29.5319,-4.1777],[29.7812,-4.0196],[29.8816,-4.0595],[29.9283,-3.8204],[29.7662,-3.7697],[29.7261,-3.6403],[29.6426,-3.6297],[29.584,-3.5463],[29.4883,-3.717],[29.2171,-3.7093],[29.215,-3.8999],[29.3395,-4.0932],[29.3672,-4.189]]]}},{"type":"Feature","properties":{"sourceId":"1159313321","regionId":"region.df9016d5-a507-49e8-b542-360de90cf17b","countryId":"country.82nqba"},"geometry":{"type":"Polygon","coordinates":[[[29.878,-3.0585],[29.8147,-3.1793],[29.7971,-3.2898],[29.8434,-3.3561],[29.8691,-3.4764],[29.7699,-3.5444],[29.7261,-3.6403],[29.7662,-3.7697],[29.9283,-3.8204],[30.1035,-3.6358],[30.0823,-3.4248],[30.0381,-3.3466],[30.0153,-3.2318],[29.9076,-3.0869],[29.878,-3.0585]]]}},{"type":"Feature","properties":{"sourceId":"1159314989","regionId":"region.4ea2a446-0684-43df-9f92-0f314a967405","countryId":"country.82nqba"},"geometry":{"type":"Polygon","coordinates":[[[29.5587,-3.0908],[29.5231,-3.28],[29.5925,-3.3991],[29.8434,-3.3561],[29.7971,-3.2898],[29.8147,-3.1793],[29.5587,-3.0908]]]}},{"type":"Feature","properties":{"sourceId":"1159317335","regionId":"region.2fe54143-915f-4327-a0cc-311fcf415186","countryId":"country.82nqba"},"geometry":{"type":"Polygon","coordinates":[[[29.8434,-3.3561],[29.5925,-3.3991],[29.584,-3.5463],[29.6426,-3.6297],[29.7261,-3.6403],[29.7699,-3.5444],[29.8691,-3.4764],[29.8434,-3.3561]]]}},{"type":"Feature","properties":{"sourceId":"1159313307","regionId":"region.806bf281-5a10-4e07-912c-d42dbe8630e4","countryId":"country.82nqba"},"geometry":{"type":"Polygon","coordinates":[[[29.9076,-3.0869],[30.0153,-3.2318],[30.0381,-3.3466],[30.1564,-3.3174],[30.2889,-3.1852],[30.3381,-3.1451],[30.2438,-3.1094],[30.2884,-3.0003],[30.1868,-2.898],[29.9076,-3.0869]]]}}]}