{"type":"FeatureCollection","features":[{"type":"Feature","properties":{"sourceId":"1159315967","regionId":"region.b309f371-fb91-4d4c-a78c-77ca02adc45a","countryId":"country.3d22be69-b741-4de3-a8ee-4abf889e77d0"},"geometry":{"type":"Polygon","coordinates":[[[-64.5594,17.7516],[-64.6898,17.7448],[-64.7716,17.7926],[-64.8877,17.7553],[-64.8764,17.6891],[-64.5594,17.7516]]]}},{"type":"Feature","properties":{"sourceId":"1159315963","regionId":"region.1776a704-fdb9-4bf2-885f-5fe6b97623ac","countryId":"country.3d22be69-b741-4de3-a8ee-4abf889e77d0"},"geometry":{"type":"Polygon","coordinates":[[[-64.701,18.343],[-64.747,18.3736],[-64.7864,18.3498],[-64.7362,18.3198],[-64.701,18.343]]]}},{"type":"Feature","properties":{"sourceId":"1159315559","regionId":"region.80ce90fb-eed7-4dd3-825a-1c9a85d6f7fc","countryId":"country.3d22be69-b741-4de3-a8ee-4abf889e77d0"},"geometry":{"type":"Polygon","coordinates":[[[-64.8716,18.3146],[-64.855,18.3401],[-64.9285,18.3804],[-64.9446,18.3367],[-64.8716,18.3146]]]}}]}