{"type":"FeatureCollection","features":[{"type":"Feature","properties":{"sourceId":"1159312519","regionId":"region.904698c0-98bc-48ae-8767-5f38f92cdbb1","countryId":"country.mbt8ni"},"geometry":{"type":"Polygon","coordinates":[[[17.6533,42.8909],[17.8262,42.8886],[17.8585,42.817],[18.2241,42.6281],[18.3698,42.5744],[18.3462,42.6491],[18.0399,42.8851],[18.0556,43.1089],[18.0299,43.4451],[18.3561,43.4381],[18.3827,43.5883],[18.1977,43.6046],[18.0587,43.6809],[18.0069,43.7747],[17.8905,43.8368],[17.7163,43.8139],[17.4593,43.8604],[17.3915,43.7449],[17.5305,43.6504],[17.5477,43.5489],[17.7053,43.4259],[17.7503,43.2841],[17.598,43.0729],[17.5807,42.9421],[17.6533,42.8909]]]}},{"type":"Feature","properties":{"sourceId":"1159315833","regionId":"region.28d2673c-f4d8-46d1-bef0-f2add4f0cd6e","countryId":"country.mbt8ni"},"geometry":{"type":"Polygon","coordinates":[[[18.4374,42.5592],[18.5068,42.5985],[18.5428,42.6264],[18.4674,42.7692],[18.4528,42.9934],[18.639,43.0202],[18.6211,43.1246],[18.6643,43.2332],[18.5069,43.3215],[18.3487,43.3458],[18.3561,43.4381],[18.0299,43.4451],[18.0556,43.1089],[18.0399,42.8851],[18.3462,42.6491],[18.3698,42.5744],[18.4374,42.5592]]]}},{"type":"Feature","properties":{"sourceId":"1159315831","regionId":"region.b7f3b21f-3f91-439d-ab0c-5b9645ac6569","countryId":"country.mbt8ni"},"geometry":{"type":"Polygon","coordinates":[[[19.0225,43.2965],[19.0099,43.411],[18.911,43.5073],[19.1953,43.5328],[19.3634,43.6016],[19.4817,43.5608],[19.4617,43.7621],[19.241,43.9524],[19.225,43.9215],[19.2207,43.7514],[19.0706,43.7838],[18.9497,43.742],[19.0571,43.6733],[18.8854,43.5917],[18.6937,43.5832],[18.583,43.6367],[18.3904,43.5939],[18.3827,43.5883],[18.3561,43.4381],[18.3487,43.3458],[18.5069,43.3215],[18.6643,43.2332],[18.8991,43.3519],[18.9895,43.272],[19.0225,43.2965]]]}},{"type":"Feature","properties":{"sourceId":"1159315819","regionId":"region.e2db7405-005e-4d07-84bd-08d70a665d98","countryId":"country.mbt8ni"},"geometry":{"type":"Polygon","coordinates":[[[17.1246,45.1691],[16.9326,45.2788],[16.7863,45.1788],[16.587,45.2209],[16.4819,45.1995],[16.346,45.02],[16.3332,44.89],[16.7037,44.8557],[16.8282,44.767],[16.8811,44.5138],[16.7537,44.4551],[16.5664,44.5023],[16.5257,44.4553],[16.7995,44.2863],[17.1071,44.1533],[17.249,44.0679],[17.2631,44.1819],[17.1529,44.3249],[17.1514,44.458],[17.4076,44.4415],[17.502,44.3657],[17.7328,44.3753],[17.9169,44.4701],[17.8353,44.639],[17.8883,44.7198],[17.7799,44.7194],[17.7233,44.816],[17.7657,45.111],[17.1246,45.1691]]]}},{"type":"Feature","properties":{"sourceId":"1159312513","regionId":"region.393910a7-3338-4098-a128-6d17696249cc","countryId":"country.mbt8ni"},"geometry":{"type":"Polygon","coordinates":[[[16.346,45.02],[16.213,45.0315],[15.9975,45.2185],[15.8026,45.1965],[15.7341,44.9344],[15.7173,44.7865],[15.8956,44.7186],[16.1165,44.5215],[16.2056,44.3505],[16.4794,44.4066],[16.5257,44.4553],[16.5664,44.5023],[16.7537,44.4551],[16.8811,44.5138],[16.8282,44.767],[16.7037,44.8557],[16.3332,44.89],[16.346,45.02]]]}},{"type":"Feature","properties":{"sourceId":"1159314619","regionId":"region.c34f477d-a3e8-4cfa-bbe6-643b8e06bc44","countryId":"country.mbt8ni"},"geometry":{"type":"Polygon","coordinates":[[[17.7657,45.111],[17.7233,44.816],[17.7799,44.7194],[17.8883,44.7198],[18.0156,44.7198],[18.1372,44.5796],[18.2872,44.5753],[18.3575,44.654],[18.1357,44.7126],[18.2874,44.8013],[18.3474,44.8986],[18.4948,44.9093],[18.748,44.845],[18.7691,44.8922],[18.528,44.9859],[18.4817,45.0669],[18.4518,45.085],[18.2561,44.9905],[18.1437,45.0977],[17.9885,45.1438],[17.8357,45.0644],[17.7657,45.111]]]}},{"type":"Feature","properties":{"sourceId":"1159314607","regionId":"region.4ec749f0-fadc-44d0-81c7-0da2f520a155","countryId":"country.mbt8ni"},"geometry":{"type":"MultiPolygon","coordinates":[[[[18.4817,45.0669],[18.528,44.9859],[18.7691,44.8922],[18.8421,44.8762],[18.689,45.0802],[18.5348,45.0884],[18.4817,45.0669]]],[[[18.4518,45.085],[18.2379,45.1575],[18.1437,45.0977],[18.2561,44.9905],[18.4518,45.085]]]]}},{"type":"Feature","properties":{"sourceId":"1159315823","regionId":"region.2a0a677a-f55d-47c9-afd8-73c39e0f118e","countryId":"country.mbt8ni"},"geometry":{"type":"Polygon","coordinates":[[[18.8421,44.8762],[18.7691,44.8922],[18.748,44.845],[18.8038,44.7448],[18.9749,44.8628],[18.8421,44.8762]]]}},{"type":"Feature","properties":{"sourceId":"1159315825","regionId":"region.e4589f47-5d23-4ab6-8466-08f6ac0f1db4","countryId":"country.mbt8ni"},"geometry":{"type":"Polygon","coordinates":[[[18.9749,44.8628],[18.8038,44.7448],[18.7395,44.6247],[18.8482,44.5417],[18.9512,44.6332],[19.0311,44.5675],[19.1796,44.5383],[19.3284,44.734],[19.357,44.8959],[19.1743,44.9254],[19.0158,44.8656],[18.9749,44.8628]]]}},{"type":"Feature","properties":{"sourceId":"1159312511","regionId":"region.d08b3590-7bd9-454e-8a26-575a7e354bd7","countryId":"country.mbt8ni"},"geometry":{"type":"Polygon","coordinates":[[[16.2056,44.3505],[16.2158,44.2082],[16.3269,44.0824],[16.5274,43.9679],[16.7126,43.7715],[17.0623,43.5277],[17.2988,43.5383],[17.4987,43.5872],[17.5305,43.6504],[17.3915,43.7449],[17.4593,43.8604],[17.328,43.9447],[17.249,44.0679],[17.1071,44.1533],[16.7995,44.2863],[16.5257,44.4553],[16.4794,44.4066],[16.2056,44.3505]]]}},{"type":"Feature","properties":{"sourceId":"1159312517","regionId":"region.7a544ab6-5adf-4a30-8523-5621547ca1c9","countryId":"country.mbt8ni"},"geometry":{"type":"Polygon","coordinates":[[[17.4509,43.1482],[17.598,43.0729],[17.7503,43.2841],[17.7053,43.4259],[17.5477,43.5489],[17.5305,43.6504],[17.4987,43.5872],[17.2988,43.5383],[17.0623,43.5277],[17.2395,43.4784],[17.2676,43.3533],[17.4509,43.1482]]]}},{"type":"Feature","properties":{"sourceId":"1159315827","regionId":"region.f15a4801-bc52-4ae8-90d3-217a429c2b38","countryId":"country.mbt8ni"},"geometry":{"type":"Polygon","coordinates":[[[19.1796,44.5383],[19.0311,44.5675],[19.0199,44.4759],[18.7538,44.3578],[18.7631,44.1488],[18.7366,44.1203],[18.9084,44.092],[19.1274,43.9987],[19.225,43.9215],[19.241,43.9524],[19.5522,43.9834],[19.5162,44.0912],[19.3624,44.1912],[19.3243,44.264],[19.1772,44.287],[19.1072,44.3827],[19.1796,44.5383]]]}},{"type":"Feature","properties":{"sourceId":"1159312515","regionId":"region.b4c6b3bf-3708-430e-904b-5561d7b5a718","countryId":"country.mbt8ni"},"geometry":{"type":"Polygon","coordinates":[[[17.249,44.0679],[17.328,43.9447],[17.4593,43.8604],[17.7163,43.8139],[17.8905,43.8368],[18.0069,43.7747],[18.165,43.8513],[18.1465,43.9066],[17.7937,44.1924],[17.7328,44.3753],[17.502,44.3657],[17.4076,44.4415],[17.1514,44.458],[17.1529,44.3249],[17.2631,44.1819],[17.249,44.0679]]]}},{"type":"Feature","properties":{"sourceId":"1159314611","regionId":"region.1c0292ff-a06b-4dfa-95d3-c87a334dd4fc","countryId":"country.mbt8ni"},"geometry":{"type":"Polygon","coordinates":[[[17.7328,44.3753],[17.7937,44.1924],[18.1465,43.9066],[18.1953,43.9868],[18.4989,44.1089],[18.5868,44.0491],[18.7366,44.1203],[18.7631,44.1488],[18.5303,44.2057],[18.5073,44.3049],[18.2957,44.4464],[18.2872,44.5753],[18.1372,44.5796],[18.0156,44.7198],[17.8883,44.7198],[17.8353,44.639],[17.9169,44.4701],[17.7328,44.3753]]]}},{"type":"Feature","properties":{"sourceId":"1159314609","regionId":"region.2f913c09-baf5-4b03-83cc-0c25619ef13f","countryId":"country.mbt8ni"},"geometry":{"type":"Polygon","coordinates":[[[18.2872,44.5753],[18.2957,44.4464],[18.5073,44.3049],[18.5303,44.2057],[18.7631,44.1488],[18.7538,44.3578],[19.0199,44.4759],[19.0311,44.5675],[18.9512,44.6332],[18.8482,44.5417],[18.7395,44.6247],[18.8038,44.7448],[18.748,44.845],[18.4948,44.9093],[18.3474,44.8986],[18.2874,44.8013],[18.1357,44.7126],[18.3575,44.654],[18.2872,44.5753]]]}},{"type":"Feature","properties":{"sourceId":"1159315829","regionId":"region.5877960e-b509-4f34-ba71-9f2f4a35dbe6","countryId":"country.mbt8ni"},"geometry":{"type":"MultiPolygon","coordinates":[[[[18.5868,44.0491],[18.5091,43.9923],[18.5063,43.8564],[18.3832,43.8378],[18.4161,43.7377],[18.6088,43.6837],[18.7395,43.7663],[18.9497,43.742],[19.0706,43.7838],[19.2207,43.7514],[19.225,43.9215],[19.1274,43.9987],[18.9084,44.092],[18.7366,44.1203],[18.5868,44.0491]]],[[[18.3904,43.5939],[18.583,43.6367],[18.4133,43.6904],[18.3904,43.5939]]]]}},{"type":"Feature","properties":{"sourceId":"1159314613","regionId":"region.367fc265-840d-4770-bc81-0fa662fd5f65","countryId":"country.mbt8ni"},"geometry":{"type":"Polygon","coordinates":[[[18.5868,44.0491],[18.4989,44.1089],[18.1953,43.9868],[18.1465,43.9066],[18.165,43.8513],[18.0069,43.7747],[18.0587,43.6809],[18.1977,43.6046],[18.3827,43.5883],[18.3904,43.5939],[18.4133,43.6904],[18.583,43.6367],[18.6088,43.6837],[18.4161,43.7377],[18.3832,43.8378],[18.5063,43.8564],[18.5091,43.9923],[18.5868,44.0491]]]}},{"type":"Feature","properties":{"sourceId":"1159314617","regionId":"region.06d35854-6df8-4e7d-8330-e80ca24b9ca7","countryId":"country.mbt8ni"},"geometry":{"type":"Polygon","coordinates":[[[18.6088,43.6837],[18.583,43.6367],[18.6937,43.5832],[18.8854,43.5917],[19.0571,43.6733],[18.9497,43.742],[18.7395,43.7663],[18.6088,43.6837]]]}}]}