{"type":"FeatureCollection","features":[{"type":"Feature","properties":{"sourceId":"1159311677","regionId":"region.b509b0f4-21fe-4c3a-bd28-c53d2873a5e2","countryId":"country.wkwrv6"},"geometry":{"type":"Polygon","coordinates":[[[-89.748,14.0449],[-89.7099,14.1487],[-89.5309,14.2256],[-89.5984,14.328],[-89.4961,14.4229],[-89.5194,14.5259],[-89.6855,14.5776],[-89.7623,14.5005],[-90.0519,14.4335],[-90.1555,14.3389],[-90.1911,14.2529],[-90.0583,14.1697],[-90.0503,14.0982],[-90.1567,13.9768],[-90.2929,14.004],[-90.2406,13.7887],[-90.0983,13.7314],[-90.099,13.8585],[-89.8801,14.0427],[-89.748,14.0449]]]}},{"type":"Feature","properties":{"sourceId":"1159311673","regionId":"region.79a162b1-759d-4865-95d0-02e1c280a3ce","countryId":"country.wkwrv6"},"geometry":{"type":"Polygon","coordinates":[[[-89.3616,14.4155],[-89.2457,14.573],[-89.1604,14.5813],[-89.1462,14.7109],[-89.2277,14.8346],[-89.1892,14.9131],[-89.4487,14.9138],[-89.5091,14.8667],[-89.6704,14.9011],[-89.7364,14.7799],[-89.667,14.7599],[-89.6855,14.5776],[-89.5194,14.5259],[-89.4961,14.4229],[-89.3616,14.4155]]]}},{"type":"Feature","properties":{"sourceId":"1159311639","regionId":"region.c9a088a4-108b-43a6-92a5-9badfa6cfe71","countryId":"country.wkwrv6"},"geometry":{"type":"Polygon","coordinates":[[[-89.1507,17.321],[-89.1605,17.8143],[-90.2597,17.8153],[-90.9622,17.816],[-90.9909,17.802],[-90.992,17.2519],[-91.4333,17.2545],[-91.2904,17.1891],[-91.0669,16.9182],[-90.7353,16.7466],[-90.6338,16.5922],[-90.6482,16.5296],[-90.4758,16.4307],[-90.3988,16.3476],[-90.4594,16.2591],[-90.4478,16.0797],[-90.2168,16.0521],[-89.7426,15.9309],[-89.6795,15.892],[-89.5155,15.8952],[-89.3963,15.8613],[-89.358,15.9129],[-89.236,15.9065],[-89.1931,16.3926],[-89.1492,17.0363],[-89.1507,17.321]]]}},{"type":"Feature","properties":{"sourceId":"1159311647","regionId":"region.ccfcea34-1416-4e3d-9e22-74c31a77f460","countryId":"country.wkwrv6"},"geometry":{"type":"Polygon","coordinates":[[[-92.2463,14.5463],[-92.1624,14.4873],[-92.0166,14.5309],[-92.0724,14.7018],[-91.8507,14.729],[-91.7953,14.783],[-91.6733,15.0332],[-91.6991,15.1224],[-91.6161,15.2209],[-91.7157,15.3501],[-91.8496,15.3612],[-92.0552,15.2885],[-92.1059,15.4545],[-92.2034,15.2372],[-92.0738,15.0737],[-92.1542,14.9959],[-92.1908,14.8142],[-92.1617,14.7023],[-92.2463,14.5463]]]}},{"type":"Feature","properties":{"sourceId":"1159311637","regionId":"region.4a8f9eed-5c3c-422c-9c6d-b003cc7cc5e0","countryId":"country.wkwrv6"},"geometry":{"type":"Polygon","coordinates":[[[-92.1059,15.4545],[-92.0552,15.2885],[-91.8496,15.3612],[-91.7157,15.3501],[-91.6161,15.2209],[-91.5188,15.156],[-91.4458,15.2288],[-91.3154,15.2632],[-91.1791,15.2922],[-91.3322,15.5171],[-91.3034,15.611],[-91.1923,15.6878],[-90.9948,16.0699],[-91.7238,16.0688],[-91.7519,16.0463],[-92.1059,15.4545]]]}},{"type":"Feature","properties":{"sourceId":"1159315161","regionId":"region.d0037865-393d-40f8-8c83-7dda78cb06cf","countryId":"country.wkwrv6"},"geometry":{"type":"Polygon","coordinates":[[[-90.9948,16.0699],[-91.1923,15.6878],[-91.3034,15.611],[-91.3322,15.5171],[-91.1791,15.2922],[-91.3154,15.2632],[-91.2346,15.0972],[-91.243,15.0174],[-91.183,14.9107],[-91.0874,14.8263],[-91.0246,14.9166],[-90.8529,14.9419],[-90.6576,14.9039],[-90.7073,15.0002],[-90.8719,15.1485],[-90.8657,15.2568],[-90.6916,15.2149],[-90.5413,15.2125],[-90.5038,15.2622],[-90.4935,15.3397],[-90.6508,15.3631],[-90.6922,15.449],[-90.6037,15.5141],[-90.6327,15.6229],[-90.7806,15.6789],[-90.8118,15.7651],[-90.7635,15.9623],[-90.6601,16.0398],[-90.4693,16.0107],[-90.4482,16.0793],[-90.9948,16.0699]]]}},{"type":"Feature","properties":{"sourceId":"1159311649","regionId":"region.61fe52ec-9dcb-4294-a44b-179bf8d8ad80","countryId":"country.wkwrv6"},"geometry":{"type":"Polygon","coordinates":[[[-90.4482,16.0793],[-90.4693,16.0107],[-90.6601,16.0398],[-90.7635,15.9623],[-90.8118,15.7651],[-90.7806,15.6789],[-90.6327,15.6229],[-90.6037,15.5141],[-90.6922,15.449],[-90.6508,15.3631],[-90.4935,15.3397],[-90.5038,15.2622],[-90.2962,15.2129],[-90.2564,15.2891],[-90.078,15.2688],[-89.9521,15.2885],[-89.973,15.1565],[-89.878,15.1599],[-89.6055,15.1799],[-89.6471,15.2907],[-89.6383,15.4229],[-89.5881,15.4812],[-89.654,15.5777],[-89.5277,15.75],[-89.3963,15.8613],[-89.5155,15.8952],[-89.6795,15.892],[-89.7426,15.9309],[-90.2168,16.0521],[-90.4478,16.0797],[-90.4482,16.0793]]]}},{"type":"Feature","properties":{"sourceId":"1159311671","regionId":"region.89296950-3913-4f43-9e36-c8d9baf28b49","countryId":"country.wkwrv6"},"geometry":{"type":"Polygon","coordinates":[[[-88.2209,15.7257],[-88.4479,15.8587],[-88.626,15.7539],[-88.7873,15.8591],[-88.914,15.8939],[-89.236,15.9065],[-89.358,15.9129],[-89.3963,15.8613],[-89.5277,15.75],[-89.654,15.5777],[-89.5881,15.4812],[-89.6383,15.4229],[-89.6471,15.2907],[-89.6055,15.1799],[-89.2505,15.3029],[-89.1469,15.0713],[-88.9734,15.1404],[-88.7609,15.3],[-88.4674,15.5207],[-88.3167,15.6746],[-88.2209,15.7257]]]}},{"type":"Feature","properties":{"sourceId":"1159311679","regionId":"region.06e2f400-893b-451f-8680-5ff24b94e29f","countryId":"country.wkwrv6"},"geometry":{"type":"Polygon","coordinates":[[[-89.1469,15.0713],[-89.2505,15.3029],[-89.6055,15.1799],[-89.878,15.1599],[-89.7966,15.0433],[-89.7687,14.9095],[-89.834,14.8765],[-89.7364,14.7799],[-89.6704,14.9011],[-89.5091,14.8667],[-89.4487,14.9138],[-89.1892,14.9131],[-89.1469,15.0713]]]}},{"type":"Feature","properties":{"sourceId":"1159311643","regionId":"region.f691c83c-34a2-4b35-ac4d-ad621000c976","countryId":"country.wkwrv6"},"geometry":{"type":"Polygon","coordinates":[[[-91.6585,14.1173],[-91.6039,14.3311],[-91.6084,14.5371],[-91.5105,14.713],[-91.666,14.662],[-91.761,14.6965],[-91.8558,14.5235],[-92.0166,14.5309],[-92.1624,14.4873],[-91.9082,14.2838],[-91.6585,14.1173]]]}},{"type":"Feature","properties":{"sourceId":"1159311657","regionId":"region.d77adfba-a0b8-4562-8607-c1454364afd6","countryId":"country.wkwrv6"},"geometry":{"type":"Polygon","coordinates":[[[-91.5519,14.0573],[-91.4569,14.1899],[-91.4233,14.3366],[-91.2877,14.2804],[-91.1711,14.272],[-91.1113,14.4304],[-91.1141,14.5304],[-91.2572,14.5574],[-91.3026,14.6405],[-91.4766,14.6299],[-91.4697,14.7396],[-91.5105,14.713],[-91.6084,14.5371],[-91.6039,14.3311],[-91.6585,14.1173],[-91.5519,14.0573]]]}},{"type":"Feature","properties":{"sourceId":"1159311653","regionId":"region.a3a3309a-2712-4e1f-9283-088d4a9d0593","countryId":"country.wkwrv6"},"geometry":{"type":"Polygon","coordinates":[[[-90.6273,13.9207],[-90.6271,14.0559],[-90.5157,14.2025],[-90.5649,14.2562],[-90.5964,14.4151],[-90.6505,14.4687],[-90.8905,14.4893],[-91.016,14.4087],[-91.1113,14.4304],[-91.1711,14.272],[-91.2877,14.2804],[-91.4233,14.3366],[-91.4569,14.1899],[-91.5519,14.0573],[-91.3165,13.9557],[-90.9103,13.9111],[-90.6273,13.9207]]]}},{"type":"Feature","properties":{"sourceId":"1159311669","regionId":"region.bfa891de-425d-4649-ba8d-20e8ea4a9eaf","countryId":"country.wkwrv6"},"geometry":{"type":"Polygon","coordinates":[[[-90.2406,13.7887],[-90.2929,14.004],[-90.1567,13.9768],[-90.0503,14.0982],[-90.0583,14.1697],[-90.1911,14.2529],[-90.1555,14.3389],[-90.0519,14.4335],[-90.128,14.5191],[-90.2852,14.5143],[-90.3883,14.4965],[-90.4438,14.3286],[-90.5649,14.2562],[-90.5157,14.2025],[-90.6271,14.0559],[-90.6273,13.9207],[-90.5002,13.8947],[-90.2406,13.7887]]]}},{"type":"Feature","properties":{"sourceId":"1159311651","regionId":"region.389ae9da-758f-4462-9234-3045611a50f6","countryId":"country.wkwrv6"},"geometry":{"type":"Polygon","coordinates":[[[-90.7652,14.7779],[-90.6576,14.9039],[-90.8529,14.9419],[-91.0246,14.9166],[-91.0874,14.8263],[-91.0688,14.7448],[-91.1141,14.5304],[-91.1113,14.4304],[-91.016,14.4087],[-90.8905,14.4893],[-90.7719,14.6709],[-90.7652,14.7779]]]}},{"type":"Feature","properties":{"sourceId":"1159311659","regionId":"region.d0eb28ba-5a54-4219-af0f-1a3a5c5d6dd5","countryId":"country.wkwrv6"},"geometry":{"type":"Polygon","coordinates":[[[-90.8905,14.4893],[-90.6505,14.4687],[-90.6195,14.6476],[-90.7652,14.7779],[-90.7719,14.6709],[-90.8905,14.4893]]]}},{"type":"Feature","properties":{"sourceId":"1159311655","regionId":"region.d82d5466-8837-4247-8242-63872c7f8abc","countryId":"country.wkwrv6"},"geometry":{"type":"Polygon","coordinates":[[[-90.7652,14.7779],[-90.6195,14.6476],[-90.6505,14.4687],[-90.5964,14.4151],[-90.5649,14.2562],[-90.4438,14.3286],[-90.3883,14.4965],[-90.2852,14.5143],[-90.2091,14.6743],[-90.3388,14.751],[-90.3999,14.899],[-90.6576,14.9039],[-90.7652,14.7779]]]}},{"type":"Feature","properties":{"sourceId":"1159311675","regionId":"region.091f0686-dafb-4243-b3a4-924c28b1db2d","countryId":"country.wkwrv6"},"geometry":{"type":"Polygon","coordinates":[[[-90.2852,14.5143],[-90.128,14.5191],[-90.0519,14.4335],[-89.7623,14.5005],[-89.6855,14.5776],[-89.667,14.7599],[-89.7364,14.7799],[-89.834,14.8765],[-90.0386,14.7826],[-90.0697,14.7263],[-90.2091,14.6743],[-90.2852,14.5143]]]}},{"type":"Feature","properties":{"sourceId":"1159311667","regionId":"region.eff55b5d-d7cd-4ea5-a740-0f0807252122","countryId":"country.wkwrv6"},"geometry":{"type":"Polygon","coordinates":[[[-90.3999,14.899],[-90.3388,14.751],[-90.2091,14.6743],[-90.0697,14.7263],[-90.0386,14.7826],[-89.834,14.8765],[-89.7687,14.9095],[-89.7966,15.0433],[-89.878,15.1599],[-89.973,15.1565],[-90.2826,14.9545],[-90.3999,14.899]]]}},{"type":"Feature","properties":{"sourceId":"1159311661","regionId":"region.5cd97928-e607-4f25-8ca2-130c1e41a9f0","countryId":"country.wkwrv6"},"geometry":{"type":"Polygon","coordinates":[[[-91.0874,14.8263],[-91.183,14.9107],[-91.2296,14.86],[-91.3787,14.8588],[-91.4283,14.8176],[-91.4697,14.7396],[-91.4766,14.6299],[-91.3026,14.6405],[-91.2572,14.5574],[-91.1141,14.5304],[-91.0688,14.7448],[-91.0874,14.8263]]]}},{"type":"Feature","properties":{"sourceId":"1159311641","regionId":"region.3053a313-0650-42af-b222-b20cf1c84129","countryId":"country.wkwrv6"},"geometry":{"type":"Polygon","coordinates":[[[-91.4283,14.8176],[-91.5602,14.9859],[-91.5875,15.131],[-91.5188,15.156],[-91.6161,15.2209],[-91.6991,15.1224],[-91.6733,15.0332],[-91.7953,14.783],[-91.8507,14.729],[-92.0724,14.7018],[-92.0166,14.5309],[-91.8558,14.5235],[-91.761,14.6965],[-91.666,14.662],[-91.5105,14.713],[-91.4697,14.7396],[-91.4283,14.8176]]]}},{"type":"Feature","properties":{"sourceId":"1159311635","regionId":"region.f07d53de-73bc-40b9-afe3-30510c1d6943","countryId":"country.wkwrv6"},"geometry":{"type":"Polygon","coordinates":[[[-90.3999,14.899],[-90.2826,14.9545],[-89.973,15.1565],[-89.9521,15.2885],[-90.078,15.2688],[-90.2564,15.2891],[-90.2962,15.2129],[-90.5038,15.2622],[-90.5413,15.2125],[-90.6916,15.2149],[-90.8657,15.2568],[-90.8719,15.1485],[-90.7073,15.0002],[-90.6576,14.9039],[-90.3999,14.899]]]}},{"type":"Feature","properties":{"sourceId":"1159311665","regionId":"region.214d5de0-cc26-4036-8a0f-9fd3fb53e39d","countryId":"country.wkwrv6"},"geometry":{"type":"Polygon","coordinates":[[[-91.5188,15.156],[-91.5875,15.131],[-91.5602,14.9859],[-91.4283,14.8176],[-91.3787,14.8588],[-91.2296,14.86],[-91.183,14.9107],[-91.243,15.0174],[-91.2346,15.0972],[-91.3154,15.2632],[-91.4458,15.2288],[-91.5188,15.156]]]}}]}