{"type":"FeatureCollection","features":[{"type":"Feature","properties":{"sourceId":"1159309799","regionId":"region.5dee9e24-3f0a-40d9-a9be-cccaca777ccf","countryId":"country.5lwy1g"},"geometry":{"type":"Polygon","coordinates":[[[165.1117,-21.3731],[165.2617,-21.3153],[165.3783,-21.4138],[165.4911,-21.4131],[165.6684,-21.5217],[165.7733,-21.5293],[165.8705,-21.5958],[166.0291,-21.6018],[166.0823,-21.5246],[166.0667,-21.4699],[165.7544,-21.3023],[165.6231,-21.268],[165.6026,-21.1922],[165.4067,-21.0554],[165.4131,-20.9492],[165.27,-20.8696],[165.2175,-20.7644],[165.0615,-20.7341],[164.8278,-20.5827],[164.7254,-20.4728],[164.5808,-20.3909],[164.4956,-20.3002],[164.3158,-20.2348],[164.2443,-20.2853],[164.0518,-20.1093],[164.0402,-20.301],[164.1325,-20.301],[164.1926,-20.5258],[164.2866,-20.5759],[164.3656,-20.7581],[164.5194,-20.8906],[164.6566,-20.9459],[164.7273,-21.0602],[164.8008,-21.0822],[164.9204,-21.2851],[165.1117,-21.3731]]]}},{"type":"Feature","properties":{"sourceId":"1159309729","regionId":"region.6c8cd22b-c462-4213-a75a-2f92b649fc55","countryId":"country.5lwy1g"},"geometry":{"type":"Polygon","coordinates":[[[166.0823,-21.5246],[166.0291,-21.6018],[165.8705,-21.5958],[165.7733,-21.5293],[165.6684,-21.5217],[165.4911,-21.4131],[165.3783,-21.4138],[165.2617,-21.3153],[165.1117,-21.3731],[165.1735,-21.483],[165.2908,-21.5768],[165.6777,-21.7614],[165.7329,-21.7389],[165.8206,-21.8639],[165.9895,-21.9563],[166.0607,-21.9033],[166.1445,-22.0466],[166.4784,-22.2872],[166.6328,-22.277],[166.7777,-22.392],[166.9116,-22.385],[167.0134,-22.3163],[167.0288,-22.2268],[166.9388,-22.0798],[166.7783,-22.0146],[166.5734,-21.8749],[166.4113,-21.7055],[166.0823,-21.5246]]]}},{"type":"Feature","properties":{"sourceId":"1159308851","regionId":"region.511a8003-bce5-40a1-8e0a-163169e51060","countryId":"country.5lwy1g"},"geometry":{"type":"MultiPolygon","coordinates":[[[[168.1375,-21.4318],[168.0077,-21.4529],[167.9666,-21.3943],[167.8359,-21.3743],[167.8568,-21.5007],[167.9582,-21.6384],[168.0354,-21.6585],[168.1291,-21.6013],[168.1375,-21.4318]]],[[[167.4323,-21.0278],[167.3855,-20.9417],[167.2847,-20.9018],[167.3083,-20.7309],[167.2126,-20.6721],[167.1853,-20.7882],[167.0674,-20.9964],[167.1463,-21.073],[167.2676,-21.0915],[167.3311,-21.1642],[167.4234,-21.1476],[167.4323,-21.0278]]]]}}]}