{"type":"FeatureCollection","features":[{"type":"Feature","properties":{"sourceId":"1159312553","regionId":"region.6304b60f-63ac-4649-9d1b-16cfa52d089a","countryId":"country.1dg1asq"},"geometry":{"type":"Polygon","coordinates":[[[16.5153,46.5017],[16.3403,46.5438],[16.3107,46.531],[16.3015,46.5271],[16.2609,46.5136],[16.2342,46.4849],[16.2799,46.3787],[16.3613,46.32],[16.7452,46.3057],[16.8594,46.3648],[16.5153,46.5017]]]}},{"type":"Feature","properties":{"sourceId":"1159312547","regionId":"region.2e0c6f15-3c1b-40e6-9777-3e6b69b00a7d","countryId":"country.1dg1asq"},"geometry":{"type":"Polygon","coordinates":[[[17.3066,45.9799],[17.2169,45.981],[17.1404,45.8703],[17.3852,45.7025],[17.4305,45.5747],[17.8791,45.4707],[18.0832,45.6303],[17.9062,45.7921],[17.6547,45.8521],[17.5911,45.9362],[17.3066,45.9799]]]}},{"type":"Feature","properties":{"sourceId":"1159312551","regionId":"region.a308bbc2-d397-4828-8e0a-0af89567c19d","countryId":"country.1dg1asq"},"geometry":{"type":"Polygon","coordinates":[[[16.8793,46.3121],[16.8594,46.3648],[16.7452,46.3057],[16.7579,46.247],[16.4466,46.1354],[16.3592,46.0246],[16.6011,45.927],[16.6926,45.9242],[16.7411,46.0457],[16.9046,46.0088],[17.1404,45.8703],[17.2169,45.981],[17.3066,45.9799],[17.1973,46.1212],[17.1162,46.1231],[16.8793,46.3121]]]}},{"type":"Feature","properties":{"sourceId":"1159312539","regionId":"region.4120e9b2-8c40-49e2-b5ce-3f02462aa753","countryId":"country.1dg1asq"},"geometry":{"type":"Polygon","coordinates":[[[18.8225,45.9056],[18.6743,45.9104],[18.5735,45.8167],[18.4117,45.7432],[18.2112,45.7854],[17.9062,45.7921],[18.0832,45.6303],[18.2077,45.5977],[18.3047,45.4928],[18.0866,45.358],[18.0816,45.2715],[18.201,45.2254],[18.3267,45.2464],[18.5369,45.1935],[18.5119,45.2926],[18.655,45.3916],[18.8822,45.4781],[19.0023,45.4437],[19.0179,45.4978],[18.9124,45.6192],[18.9685,45.6687],[18.845,45.8157],[18.9013,45.9312],[18.8225,45.9056]]]}},{"type":"Feature","properties":{"sourceId":"1159312535","regionId":"region.c06654e4-b647-4d8d-b876-1eb510f623fe","countryId":"country.1dg1asq"},"geometry":{"type":"Polygon","coordinates":[[[13.66,45.46],[13.5895,45.4888],[13.5134,45.4362],[13.6438,45.0705],[13.7741,44.9638],[13.86,44.8257],[13.9727,44.8266],[14.0757,44.9837],[14.2347,45.1546],[14.2036,45.4039],[14.1173,45.473],[14.1167,45.473],[13.9875,45.5119],[13.889,45.4236],[13.66,45.46]]]}},{"type":"Feature","properties":{"sourceId":"1159312431","regionId":"region.d54728ea-5000-432c-ab97-01cdb5cf7d15","countryId":"country.1dg1asq"},"geometry":{"type":"MultiPolygon","coordinates":[[[[18.4374,42.5592],[18.3698,42.5744],[18.2241,42.6281],[17.8585,42.817],[17.8262,42.8886],[17.6533,42.8909],[17.5189,42.9081],[17.2402,43.0228],[17.2019,42.9843],[17.4404,42.8734],[17.7288,42.8008],[17.8067,42.8119],[18.2175,42.6201],[18.2389,42.5591],[18.4964,42.4163],[18.4374,42.5592]]],[[[17.4509,43.1482],[17.3654,43.0792],[17.5807,42.9421],[17.598,43.0729],[17.4509,43.1482]]],[[[17.1318,42.9696],[16.8241,42.9621],[16.8514,42.9007],[17.1074,42.9143],[17.1318,42.9696]]]]}},{"type":"Feature","properties":{"sourceId":"1159312529","regionId":"region.16029357-d187-40f0-83ac-82e2ffb2a67c","countryId":"country.1dg1asq"},"geometry":{"type":"Polygon","coordinates":[[[16.346,45.02],[16.4819,45.1995],[16.587,45.2209],[16.7863,45.1788],[16.9326,45.2788],[17.1246,45.1691],[17.0816,45.2161],[17.1812,45.3479],[17.062,45.3782],[16.9292,45.4759],[16.7907,45.6091],[16.5007,45.722],[16.4967,45.7651],[16.2939,45.7279],[16.2973,45.6423],[16.0495,45.581],[16.1108,45.5064],[15.9359,45.4748],[15.8129,45.5234],[15.8141,45.3987],[15.6765,45.4252],[15.6394,45.2107],[15.8026,45.1965],[15.9975,45.2185],[16.213,45.0315],[16.346,45.02]]]}},{"type":"Feature","properties":{"sourceId":"1159312537","regionId":"region.7b410669-ed67-41e7-ad13-2a35b342715b","countryId":"country.1dg1asq"},"geometry":{"type":"Polygon","coordinates":[[[17.1246,45.1691],[17.7657,45.111],[17.8357,45.0644],[17.9885,45.1438],[18.1437,45.0977],[18.2379,45.1575],[18.4518,45.085],[18.4817,45.0669],[18.5348,45.0884],[18.5369,45.1935],[18.3267,45.2464],[18.201,45.2254],[18.0816,45.2715],[17.9186,45.2886],[17.7454,45.1856],[17.3916,45.3873],[17.1812,45.3479],[17.0816,45.2161],[17.1246,45.1691]]]}},{"type":"Feature","properties":{"sourceId":"1159312525","regionId":"region.8fda8a84-1054-4f3f-a98a-a587e4c2a89b","countryId":"country.1dg1asq"},"geometry":{"type":"Polygon","coordinates":[[[15.8026,45.1965],[15.6394,45.2107],[15.6765,45.4252],[15.8141,45.3987],[15.8129,45.5234],[15.7316,45.5886],[15.5574,45.6054],[15.35,45.6696],[15.2822,45.5715],[15.2258,45.4365],[15.1224,45.2933],[14.9709,45.2683],[15.008,45.1241],[15.1942,45.1258],[15.3765,45.0263],[15.5668,44.8786],[15.7341,44.9344],[15.8026,45.1965]]]}},{"type":"Feature","properties":{"sourceId":"1159312443","regionId":"region.29cb8fe1-c15d-494d-be13-db1c35b15302","countryId":"country.1dg1asq"},"geometry":{"type":"Polygon","coordinates":[[[15.7341,44.9344],[15.5668,44.8786],[15.602,44.7967],[15.5167,44.7047],[15.6535,44.495],[15.616,44.3793],[15.2938,44.3648],[15.1576,44.2803],[15.1445,44.1955],[15.5469,43.8766],[15.7399,43.8692],[15.8387,43.9391],[16.3509,43.9262],[16.5274,43.9679],[16.3269,44.0824],[16.2158,44.2082],[16.2056,44.3505],[16.1165,44.5215],[15.8956,44.7186],[15.7173,44.7865],[15.7341,44.9344]]]}},{"type":"Feature","properties":{"sourceId":"1159312543","regionId":"region.81f46769-ba5d-4b03-b8ae-513991054c8c","countryId":"country.1dg1asq"},"geometry":{"type":"Polygon","coordinates":[[[18.5348,45.0884],[18.689,45.0802],[18.8421,44.8762],[18.9749,44.8628],[19.0158,44.8656],[19.1317,44.9532],[19.0823,45.0849],[19.1417,45.1622],[19.3939,45.1716],[19.1041,45.2987],[19.0023,45.4437],[18.8822,45.4781],[18.655,45.3916],[18.5119,45.2926],[18.5369,45.1935],[18.5348,45.0884]]]}},{"type":"Feature","properties":{"sourceId":"1159312433","regionId":"region.3a6180bf-a511-46ab-b0e9-9c6ccb762994","countryId":"country.1dg1asq"},"geometry":{"type":"MultiPolygon","coordinates":[[[[16.5274,43.9679],[16.3509,43.9262],[16.4267,43.8315],[16.3417,43.71],[16.1606,43.6829],[16.0453,43.5969],[16.0128,43.504],[16.4338,43.5498],[16.6258,43.449],[16.8806,43.406],[17.0735,43.239],[17.3654,43.0792],[17.4509,43.1482],[17.2676,43.3533],[17.2395,43.4784],[17.0623,43.5277],[16.7126,43.7715],[16.5274,43.9679]]],[[[16.5007,43.2842],[16.8462,43.2734],[16.8098,43.3532],[16.4939,43.3823],[16.5007,43.2842]]]]}},{"type":"Feature","properties":{"sourceId":"1159312555","regionId":"region.89365a09-305b-49ee-bfb5-ec03f8116623","countryId":"country.1dg1asq"},"geometry":{"type":"Polygon","coordinates":[[[16.0887,46.3731],[16.0499,46.3167],[15.9937,46.2906],[15.9189,46.2728],[15.8809,46.2593],[15.8793,46.2593],[15.96,46.1937],[16.2474,46.1876],[16.2559,46.0611],[16.3592,46.0246],[16.4466,46.1354],[16.7579,46.247],[16.7452,46.3057],[16.3613,46.32],[16.2799,46.3787],[16.0887,46.3731]]]}},{"type":"Feature","properties":{"sourceId":"1159312523","regionId":"region.1fe00617-d3cb-435f-9687-a3d5da2557bc","countryId":"country.1dg1asq"},"geometry":{"type":"Polygon","coordinates":[[[15.7995,46.2486],[15.678,46.2145],[15.6266,46.1952],[15.6236,46.0764],[15.6929,46.0416],[15.6754,45.9725],[15.8225,45.9821],[15.9395,45.9338],[16.1363,45.9704],[16.2559,46.0611],[16.2474,46.1876],[15.96,46.1937],[15.8793,46.2593],[15.7995,46.2486]]]}},{"type":"Feature","properties":{"sourceId":"1159312531","regionId":"region.cf981164-f568-4691-8afc-ceee809afeb4","countryId":"country.1dg1asq"},"geometry":{"type":"Polygon","coordinates":[[[15.5497,45.8237],[15.4298,45.7757],[15.331,45.7525],[15.2499,45.7137],[15.35,45.6696],[15.5574,45.6054],[15.7316,45.5886],[15.8129,45.5234],[15.9359,45.4748],[16.1108,45.5064],[16.0495,45.581],[16.2973,45.6423],[16.2939,45.7279],[16.4967,45.7651],[16.6884,45.8392],[16.6926,45.9242],[16.6011,45.927],[16.3592,46.0246],[16.2559,46.0611],[16.1363,45.9704],[16.2268,45.8496],[15.9666,45.7169],[15.9215,45.6224],[15.7731,45.7004],[15.8469,45.8094],[15.7714,45.8675],[15.9395,45.9338],[15.8225,45.9821],[15.6754,45.9725],[15.6661,45.8317],[15.5497,45.8237]]]}},{"type":"Feature","properties":{"sourceId":"1159312505","regionId":"region.b57a15da-aeac-41e0-80cb-290cd2c096e8","countryId":"country.1dg1asq"},"geometry":{"type":"MultiPolygon","coordinates":[[[[15.2258,45.4365],[15.0661,45.4739],[14.9773,45.4917],[14.8816,45.4698],[14.6637,45.5702],[14.5691,45.6643],[14.4915,45.5792],[14.3728,45.4778],[14.1173,45.473],[14.2036,45.4039],[14.2347,45.1546],[14.3298,45.354],[14.5105,45.2998],[14.8528,45.0937],[14.8813,45.0356],[15.008,45.1241],[14.9709,45.2683],[15.1224,45.2933],[15.2258,45.4365]]],[[[14.5139,44.6622],[14.4519,44.8509],[14.3298,44.8339],[14.4279,44.6566],[14.5139,44.6622]]],[[[14.7234,44.9433],[14.815,44.9775],[14.6653,45.0873],[14.6653,45.1618],[14.4251,45.0873],[14.7234,44.9433]]]]}},{"type":"Feature","properties":{"sourceId":"1159312439","regionId":"region.54de4c46-3cdc-478d-9189-28e08be95c6e","countryId":"country.1dg1asq"},"geometry":{"type":"Polygon","coordinates":[[[16.0128,43.504],[16.0453,43.5969],[16.1606,43.6829],[16.3417,43.71],[16.4267,43.8315],[16.3509,43.9262],[15.8387,43.9391],[15.7399,43.8692],[15.5469,43.8766],[15.9312,43.6765],[15.918,43.5933],[16.0128,43.504]]]}},{"type":"Feature","properties":{"sourceId":"1159312507","regionId":"region.1b42d0ac-23a8-4e60-934b-b6c8d44eb7cd","countryId":"country.1dg1asq"},"geometry":{"type":"Polygon","coordinates":[[[15.2938,44.3648],[15.616,44.3793],[15.6535,44.495],[15.5167,44.7047],[15.602,44.7967],[15.5668,44.8786],[15.3765,45.0263],[15.1942,45.1258],[15.008,45.1241],[14.8813,45.0356],[14.9014,44.6902],[15.0013,44.5785],[15.2938,44.3648]]]}},{"type":"Feature","properties":{"sourceId":"1159312549","regionId":"region.e0506407-e2db-4c71-a72d-18833fb66e97","countryId":"country.1dg1asq"},"geometry":{"type":"Polygon","coordinates":[[[17.1404,45.8703],[16.9046,46.0088],[16.7411,46.0457],[16.6926,45.9242],[16.6884,45.8392],[16.4967,45.7651],[16.5007,45.722],[16.7907,45.6091],[16.9292,45.4759],[17.0164,45.5045],[17.4185,45.5133],[17.4305,45.5747],[17.3852,45.7025],[17.1404,45.8703]]]}},{"type":"Feature","properties":{"sourceId":"1159312533","regionId":"region.fa9c08fc-9c47-422f-a0cf-85f521fb9911","countryId":"country.1dg1asq"},"geometry":{"type":"Polygon","coordinates":[[[16.1363,45.9704],[15.9395,45.9338],[15.7714,45.8675],[15.8469,45.8094],[15.7731,45.7004],[15.9215,45.6224],[15.9666,45.7169],[16.2268,45.8496],[16.1363,45.9704]]]}},{"type":"Feature","properties":{"sourceId":"1159312541","regionId":"region.7b410669-ed67-41e7-ad13-2a35b342715b","countryId":"country.1dg1asq"},"geometry":{"type":"Polygon","coordinates":[[[18.0832,45.6303],[17.8791,45.4707],[17.4305,45.5747],[17.4185,45.5133],[17.0164,45.5045],[16.9292,45.4759],[17.062,45.3782],[17.1812,45.3479],[17.3916,45.3873],[17.7454,45.1856],[17.9186,45.2886],[18.0816,45.2715],[18.0866,45.358],[18.3047,45.4928],[18.2077,45.5977],[18.0832,45.6303]]]}}]}