{"type":"FeatureCollection","features":[{"type":"Feature","properties":{"sourceId":"1159312231","regionId":"region.b8091205-8ee5-46b6-9252-af05366da4c6","countryId":"country.n2i2m0"},"geometry":{"type":"Polygon","coordinates":[[[45.0024,41.2905],[45.052,41.1921],[45.1868,41.1569],[45.2216,41.0144],[45.3819,41.0114],[45.3922,41.2456],[45.2759,41.2565],[45.0978,41.3499],[45.0024,41.2905]]]}},{"type":"Feature","properties":{"sourceId":"1159312215","regionId":"region.5bdcdf87-e4c9-4027-b635-651ffa450a70","countryId":"country.n2i2m0"},"geometry":{"type":"Polygon","coordinates":[[[45.4428,40.9484],[45.655,41.1629],[45.7703,41.2321],[45.7207,41.3424],[45.3331,41.4444],[45.2496,41.4445],[45.0978,41.3499],[45.2759,41.2565],[45.3922,41.2456],[45.3819,41.0114],[45.4428,40.9484]]]}},{"type":"Feature","properties":{"sourceId":"1159312237","regionId":"region.64e6306b-3b8d-4f04-9416-cdd01ceed9d2","countryId":"country.n2i2m0"},"geometry":{"type":"Polygon","coordinates":[[[45.4783,40.7482],[45.7018,40.6146],[45.7226,40.8232],[45.897,41.0057],[46.0452,41.0034],[46.2047,41.1367],[46.0876,41.1837],[45.9692,41.1683],[45.7703,41.2321],[45.655,41.1629],[45.4428,40.9484],[45.5822,40.7994],[45.4783,40.7482]]]}},{"type":"Feature","properties":{"sourceId":"1159312219","regionId":"region.b9c48f24-5cdc-42d1-ae06-f8c1db8e4434","countryId":"country.n2i2m0"},"geometry":{"type":"Polygon","coordinates":[[[45.3736,40.6513],[45.5262,40.441],[45.8192,40.2971],[45.8404,40.5237],[45.9117,40.5572],[45.9126,40.6261],[45.7226,40.8232],[45.7018,40.6146],[45.4783,40.7482],[45.3736,40.6513]]]}},{"type":"Feature","properties":{"sourceId":"1159312217","regionId":"region.a4dd8308-9e28-4206-979e-834fe6ea25b4","countryId":"country.n2i2m0"},"geometry":{"type":"Polygon","coordinates":[[[45.8192,40.2971],[45.8885,40.262],[45.9537,40.3151],[46.1558,40.3075],[46.2264,40.4294],[46.1334,40.5012],[46.2024,40.5808],[46.079,40.6472],[45.9117,40.5572],[45.8404,40.5237],[45.8192,40.2971]]]}},{"type":"Feature","properties":{"sourceId":"1159312137","regionId":"region.b80f69ff-9c5d-4434-96b9-231c5c672cde","countryId":"country.n2i2m0"},"geometry":{"type":"Polygon","coordinates":[[[45.8885,40.262],[45.9792,40.2236],[45.8738,40.0098],[45.6396,40.0254],[45.5776,39.984],[45.7154,39.9509],[45.8091,39.8512],[45.8832,39.7961],[45.9775,39.8545],[46.451,39.9581],[46.6979,40.0182],[46.7616,40.033],[46.637,40.1479],[46.5323,40.1334],[46.5345,40.3131],[46.3178,40.2762],[46.1558,40.3075],[45.9537,40.3151],[45.8885,40.262]]]}},{"type":"Feature","properties":{"sourceId":"1159309399","regionId":"region.a8bbef94-aa07-40cc-bee2-b40732ed5b91","countryId":"country.n2i2m0"},"geometry":{"type":"Polygon","coordinates":[[[45.8832,39.7961],[46.2065,39.5879],[46.3437,39.6186],[46.5273,39.5382],[46.479,39.4618],[46.6407,39.4835],[46.7356,39.5888],[46.5306,39.6156],[46.5403,39.7577],[46.451,39.9581],[45.9775,39.8545],[45.8832,39.7961]]]}},{"type":"Feature","properties":{"sourceId":"1159309401","regionId":"region.6bf1d513-f96e-460f-9df7-d712b553149f","countryId":"country.n2i2m0"},"geometry":{"type":"Polygon","coordinates":[[[46.5991,39.2225],[46.6812,39.1286],[46.8229,39.228],[46.7035,39.3676],[46.7335,39.4163],[46.6407,39.4835],[46.479,39.4618],[46.3746,39.3788],[46.5991,39.2225]]]}},{"type":"Feature","properties":{"sourceId":"1159312151","regionId":"region.5481d189-c0da-455a-b4c7-b12f99c58249","countryId":"country.n2i2m0"},"geometry":{"type":"Polygon","coordinates":[[[46.5991,39.2225],[46.4793,39.1148],[46.514,38.8822],[46.7448,39.0403],[46.8664,39.1654],[46.8229,39.228],[46.6812,39.1286],[46.5991,39.2225]]]}},{"type":"Feature","properties":{"sourceId":"1159312123","regionId":"region.462e9791-81e3-4b32-9fee-365b4f557aee","countryId":"country.n2i2m0"},"geometry":{"type":"Polygon","coordinates":[[[45.075,39.7498],[44.9532,39.736],[44.824,39.6305],[44.8864,39.606],[44.957,39.4345],[45.0512,39.3871],[45.1679,39.5655],[45.075,39.7498]]]}},{"type":"Feature","properties":{"sourceId":"1159312119","regionId":"region.f5b174c8-86c2-4400-a65c-8fc7ab88493d","countryId":"country.n2i2m0"},"geometry":{"type":"Polygon","coordinates":[[[44.9532,39.736],[44.7746,39.7028],[44.807,39.6399],[44.824,39.6305],[44.9532,39.736]]]}},{"type":"Feature","properties":{"sourceId":"1159317291","regionId":"region.92d4bf79-c39f-4695-9353-dba87419fcc8","countryId":"country.n2i2m0"},"geometry":{"type":"Polygon","coordinates":[[[45.2662,39.5929],[45.1679,39.5655],[45.0512,39.3871],[45.1144,39.3094],[45.2315,39.323],[45.2052,39.4711],[45.2662,39.5929]]]}},{"type":"Feature","properties":{"sourceId":"1159312125","regionId":"region.ce1db7c5-f1bf-4643-9b70-62c1dabe5e89","countryId":"country.n2i2m0"},"geometry":{"type":"Polygon","coordinates":[[[45.2662,39.5929],[45.2052,39.4711],[45.2315,39.323],[45.1144,39.3094],[45.1527,39.2135],[45.2831,39.1931],[45.4271,39.0149],[45.4945,38.9819],[45.5356,38.9685],[45.5508,39.0327],[45.4676,39.1878],[45.3806,39.1803],[45.3501,39.243],[45.5309,39.245],[45.5495,39.2882],[45.3571,39.4335],[45.4239,39.4938],[45.2662,39.5929]]]}},{"type":"Feature","properties":{"sourceId":"1159312133","regionId":"region.d0dd0d8e-be74-4af9-875a-da12201142fb","countryId":"country.n2i2m0"},"geometry":{"type":"Polygon","coordinates":[[[45.4239,39.4938],[45.3571,39.4335],[45.5495,39.2882],[45.7644,39.3591],[45.7881,39.549],[45.7091,39.5684],[45.4239,39.4938]]]}},{"type":"Feature","properties":{"sourceId":"1159312127","regionId":"region.1bdcc303-3c3d-4831-a7e2-aab4f8298f03","countryId":"country.n2i2m0"},"geometry":{"type":"Polygon","coordinates":[[[45.7644,39.3591],[45.5495,39.2882],[45.5309,39.245],[45.4676,39.1878],[45.5508,39.0327],[45.5356,38.9685],[45.7681,38.9391],[45.7213,39.0082],[45.8375,39.235],[45.9018,39.2941],[45.7644,39.3591]]]}},{"type":"Feature","properties":{"sourceId":"1159312121","regionId":"region.9c72aa75-f8d2-4b1c-af21-b39e688609bf","countryId":"country.n2i2m0"},"geometry":{"type":"Polygon","coordinates":[[[45.9018,39.2941],[45.8375,39.235],[45.7213,39.0082],[45.7681,38.9391],[46.1359,38.8637],[45.9581,39.1515],[45.986,39.2347],[45.9018,39.2941]]]}},{"type":"Feature","properties":{"sourceId":"1159312313","regionId":"region.df14867b-a328-48fc-aa62-8b522a7520e9","countryId":"country.n2i2m0"},"geometry":{"type":"Polygon","coordinates":[[[46.4309,41.8904],[46.2978,41.7508],[46.2083,41.7555],[46.1928,41.6102],[46.2799,41.5712],[46.4885,41.6011],[46.7096,41.8351],[46.5866,41.7868],[46.5255,41.8823],[46.4309,41.8904]]]}},{"type":"Feature","properties":{"sourceId":"1159309439","regionId":"region.a9f02807-499f-4ad5-8d00-6c54e4c3f41b","countryId":"country.n2i2m0"},"geometry":{"type":"Polygon","coordinates":[[[47.0283,41.5571],[46.9069,41.7069],[46.7096,41.8351],[46.4885,41.6011],[46.2799,41.5712],[46.2967,41.5104],[46.6298,41.3461],[46.7469,41.5108],[46.9292,41.5053],[47.0283,41.5571]]]}},{"type":"Feature","properties":{"sourceId":"1159309437","regionId":"region.3ba05b63-1cfe-4e6a-913f-b26facd8f522","countryId":"country.n2i2m0"},"geometry":{"type":"Polygon","coordinates":[[[48.4622,41.721],[48.5755,41.4835],[48.6755,41.3506],[48.7441,41.3485],[49.0787,41.3574],[48.6554,41.8006],[48.5789,41.8453],[48.4622,41.721]]]}},{"type":"Feature","properties":{"sourceId":"1159309435","regionId":"region.93ecb924-b0ba-483a-b055-d6171e5ee79a","countryId":"country.n2i2m0"},"geometry":{"type":"Polygon","coordinates":[[[48.4622,41.721],[48.3702,41.5802],[48.2018,41.4935],[48.0535,41.4613],[48.0016,41.3621],[47.8135,41.1974],[47.9265,41.1577],[48.3862,41.4166],[48.5755,41.4835],[48.4622,41.721]]]}},{"type":"Feature","properties":{"sourceId":"1159309425","regionId":"region.8aeea22b-2c8c-4102-9444-61f11fcb8dbb","countryId":"country.n2i2m0"},"geometry":{"type":"Polygon","coordinates":[[[47.3673,41.2618],[47.2702,41.0204],[47.3845,40.8861],[47.5698,40.7956],[47.6949,41.2071],[47.5678,41.2055],[47.3673,41.2618]]]}},{"type":"Feature","properties":{"sourceId":"1159309429","regionId":"region.c5a12eec-db1a-464f-8216-845ba32da92e","countryId":"country.n2i2m0"},"geometry":{"type":"Polygon","coordinates":[[[47.1792,41.4917],[47.1427,41.4151],[46.8915,41.3106],[46.8125,41.1275],[46.927,41.0247],[46.93,40.9109],[47.2628,40.7889],[47.5256,40.7615],[47.5698,40.7956],[47.3845,40.8861],[47.2702,41.0204],[47.3673,41.2618],[47.2684,41.3028],[47.1792,41.4917]],[[47.1889,41.1555],[47.148,41.164],[47.1729,41.235],[47.2194,41.1877],[47.1889,41.1555]]]}},{"type":"Feature","properties":{"sourceId":"1159309427","regionId":"region.03cc4c46-de28-4523-8c18-f992a505b100","countryId":"country.n2i2m0"},"geometry":{"type":"Polygon","coordinates":[[[47.1792,41.4917],[47.0283,41.5571],[46.9292,41.5053],[46.7469,41.5108],[46.6298,41.3461],[46.6885,41.2844],[46.6155,41.1087],[46.7303,41.0724],[46.7597,40.966],[46.93,40.9109],[46.927,41.0247],[46.8125,41.1275],[46.8915,41.3106],[47.1427,41.4151],[47.1792,41.4917]]]}},{"type":"Feature","properties":{"sourceId":"1159312315","regionId":"region.9233a6ad-22bc-424c-9ec5-22a5f44837da","countryId":"country.n2i2m0"},"geometry":{"type":"Polygon","coordinates":[[[47.8135,41.1974],[47.6949,41.2071],[47.5698,40.7956],[47.5256,40.7615],[47.5886,40.6395],[47.7325,40.675],[47.9801,40.8837],[47.9488,40.979],[48.0311,41.0631],[47.9265,41.1577],[47.8135,41.1974]]]}},{"type":"Feature","properties":{"sourceId":"1159312235","regionId":"region.42560a80-56d9-41d8-a00b-31e7fd1e837d","countryId":"country.n2i2m0"},"geometry":{"type":"Polygon","coordinates":[[[46.6155,41.1087],[46.4968,41.0448],[46.2286,41.1954],[46.0876,41.1837],[46.2047,41.1367],[46.3104,41.0173],[46.2773,40.8329],[46.3407,40.7246],[46.4118,40.6854],[46.4707,40.6818],[46.5413,40.7911],[46.7597,40.966],[46.7303,41.0724],[46.6155,41.1087]]]}},{"type":"Feature","properties":{"sourceId":"1159312269","regionId":"region.8cecfac8-ed63-4538-8278-74014190aee5","countryId":"country.n2i2m0"},"geometry":{"type":"Polygon","coordinates":[[[47.9577,39.7073],[48.0194,39.7125],[48.2725,39.5665],[48.3794,39.6217],[48.3487,39.7367],[48.241,39.7855],[48.2496,39.9797],[48.3172,40.0398],[48.0866,40.0966],[47.8512,40.1009],[47.791,40.114],[47.8175,40.0257],[47.7488,39.8509],[47.8897,39.77],[47.7882,39.6577],[47.9577,39.7073]]]}},{"type":"Feature","properties":{"sourceId":"1159312259","regionId":"region.8cd022d2-1835-4dbe-8c93-be2244c26792","countryId":"country.n2i2m0"},"geometry":{"type":"Polygon","coordinates":[[[48.3284,39.3763],[48.378,39.3007],[48.5085,39.3822],[48.641,39.3249],[48.7638,39.4088],[48.767,39.6057],[48.5821,39.6517],[48.3794,39.6217],[48.2725,39.5665],[48.0194,39.7125],[47.9577,39.7073],[48.052,39.6501],[48.3167,39.4152],[48.3284,39.3763]]]}},{"type":"Feature","properties":{"sourceId":"1159312261","regionId":"region.567b47d1-9411-43c4-a2f5-14e529479b1f","countryId":"country.n2i2m0"},"geometry":{"type":"Polygon","coordinates":[[[48.3016,39.0179],[48.4778,38.9857],[48.7405,39.1472],[48.7157,39.355],[48.7638,39.4088],[48.641,39.3249],[48.5085,39.3822],[48.378,39.3007],[48.3284,39.3763],[48.1246,39.2976],[48.1422,39.1812],[48.2713,39.1083],[48.3016,39.0179]]]}},{"type":"Feature","properties":{"sourceId":"1159312305","regionId":"region.15534ea4-54f5-425b-a4fb-68a4e04d758e","countryId":"country.n2i2m0"},"geometry":{"type":"Polygon","coordinates":[[[48.2256,38.7132],[48.3257,38.8256],[48.5476,38.9399],[48.4778,38.9857],[48.3016,39.0179],[48.0585,38.9484],[48.013,38.8216],[48.2256,38.7132]]]}},{"type":"Feature","properties":{"sourceId":"1159312281","regionId":"region.9be57e14-07bd-4de0-a2b4-df76f7f572b3","countryId":"country.n2i2m0"},"geometry":{"type":"Polygon","coordinates":[[[48.2256,38.7132],[48.3103,38.6002],[48.4153,38.6181],[48.5356,38.4692],[48.569,38.5386],[48.6981,38.5817],[48.6653,38.7355],[48.5934,38.8672],[48.5476,38.9399],[48.3257,38.8256],[48.2256,38.7132]]]}},{"type":"Feature","properties":{"sourceId":"1159312141","regionId":"region.3accb78d-5b44-470f-9ba7-39f18c420960","countryId":"country.n2i2m0"},"geometry":{"type":"Polygon","coordinates":[[[47.0136,39.187],[47.1022,39.3084],[47.2613,39.3664],[47.0534,39.466],[46.9666,39.3779],[46.8294,39.4774],[46.7335,39.4163],[46.7035,39.3676],[46.8229,39.228],[46.8664,39.1654],[47.0136,39.187]]]}},{"type":"Feature","properties":{"sourceId":"1159312265","regionId":"region.1d6ce37b-f50d-4071-9df7-23140a0db439","countryId":"country.n2i2m0"},"geometry":{"type":"Polygon","coordinates":[[[47.625,39.5714],[47.4659,39.7383],[47.3115,39.708],[47.0927,39.6448],[47.0534,39.466],[47.2613,39.3664],[47.3742,39.4556],[47.625,39.5714]]]}},{"type":"Feature","properties":{"sourceId":"1159312255","regionId":"region.7783d94e-ad16-4f3e-b872-38d2b01ce4cd","countryId":"country.n2i2m0"},"geometry":{"type":"Polygon","coordinates":[[[47.7882,39.6577],[47.8897,39.77],[47.7488,39.8509],[47.8175,40.0257],[47.791,40.114],[47.7566,40.1595],[47.6258,39.8926],[47.4462,39.8266],[47.4659,39.7383],[47.625,39.5714],[47.7882,39.6577]]]}},{"type":"Feature","properties":{"sourceId":"1159312251","regionId":"region.40db2a5b-9b97-4172-a46e-f930c9910433","countryId":"country.n2i2m0"},"geometry":{"type":"Polygon","coordinates":[[[48.613,38.3956],[48.8743,38.4341],[48.8685,38.6025],[48.6981,38.5817],[48.569,38.5386],[48.5356,38.4692],[48.613,38.3956]]]}},{"type":"Feature","properties":{"sourceId":"1159312263","regionId":"region.aed518e9-29f4-4605-b167-3bb66901bc60","countryId":"country.n2i2m0"},"geometry":{"type":"Polygon","coordinates":[[[49.0787,41.3574],[48.7441,41.3485],[48.7472,41.2398],[48.6428,41.1321],[48.6801,40.8951],[48.7819,40.8551],[48.8446,40.8925],[48.8232,40.9841],[48.9308,41.0621],[48.9451,41.1687],[49.0801,41.1862],[49.1716,41.1404],[49.0787,41.3574]]]}},{"type":"Feature","properties":{"sourceId":"1159312287","regionId":"region.2f069b55-d674-423a-918a-246351376679","countryId":"country.n2i2m0"},"geometry":{"type":"Polygon","coordinates":[[[49.1716,41.1404],[49.0801,41.1862],[48.9451,41.1687],[48.9308,41.0621],[48.8232,40.9841],[48.8446,40.8925],[49.0574,40.9247],[49.2416,40.8692],[49.3714,40.8847],[49.1955,41.0573],[49.1716,41.1404]]]}},{"type":"Feature","properties":{"sourceId":"1159312303","regionId":"region.276c5738-23b9-4267-b3a0-d6a3f06d8e91","countryId":"country.n2i2m0"},"geometry":{"type":"Polygon","coordinates":[[[49.3714,40.8847],[49.2416,40.8692],[49.0574,40.9247],[48.8446,40.8925],[48.7819,40.8551],[48.8081,40.7617],[49.2631,40.5056],[49.4013,40.5298],[49.4827,40.6368],[49.5319,40.6629],[49.5388,40.7881],[49.3714,40.8847]]]}},{"type":"Feature","properties":{"sourceId":"1159312299","regionId":"region.a3f22c8e-7b3d-4c84-b284-0fda61c678f1","countryId":"country.n2i2m0"},"geometry":{"type":"Polygon","coordinates":[[[49.5319,40.6629],[49.4827,40.6368],[49.589,40.5438],[49.6904,40.5534],[49.7097,40.586],[49.5319,40.6629]]]}},{"type":"Feature","properties":{"sourceId":"1159312135","regionId":"region.6f8968f5-6039-4f95-b40b-5a7d4c12e0fa","countryId":"country.n2i2m0"},"geometry":{"type":"Polygon","coordinates":[[[49.7097,40.586],[49.6904,40.5534],[49.7304,40.4654],[49.5435,40.4691],[49.4193,40.3981],[49.4256,40.2366],[49.2919,39.953],[49.3568,39.8121],[49.3587,39.6666],[49.4839,39.9887],[49.4426,40.0784],[49.5772,40.2167],[49.7783,40.2758],[49.8934,40.369],[50.23,40.3428],[50.3359,40.406],[50.2376,40.4962],[50.052,40.5843],[49.8167,40.5654],[49.7097,40.586]]]}},{"type":"Feature","properties":{"sourceId":"1159312295","regionId":"region.c2da2ea8-b50f-4935-89b5-dcd9a6e085dc","countryId":"country.n2i2m0"},"geometry":{"type":"Polygon","coordinates":[[[49.3587,39.6666],[49.3568,39.8121],[49.2647,39.8766],[48.9315,39.9139],[48.9096,39.9057],[48.9686,39.6762],[48.767,39.6057],[48.7638,39.4088],[48.8916,39.349],[49.0527,39.5482],[49.1666,39.4767],[49.2854,39.5083],[49.3587,39.6666]]]}},{"type":"Feature","properties":{"sourceId":"1159312283","regionId":"region.638a5b06-9e80-436d-a6cd-5065d972d6b5","countryId":"country.n2i2m0"},"geometry":{"type":"Polygon","coordinates":[[[49.2854,39.5083],[49.1666,39.4767],[49.0527,39.5482],[48.8916,39.349],[48.7638,39.4088],[48.7157,39.355],[48.7405,39.1472],[48.8544,39.1316],[49.0236,39.2701],[49.2343,39.1564],[49.2371,39.279],[49.4089,39.3864],[49.2854,39.5083]]]}},{"type":"Feature","properties":{"sourceId":"1159312277","regionId":"region.0663674a-2b79-4d67-9ddf-71c9f583add0","countryId":"country.n2i2m0"},"geometry":{"type":"MultiPolygon","coordinates":[[[[49.2343,39.1564],[49.0236,39.2701],[48.8544,39.1316],[48.9182,38.9289],[48.9676,39.1838],[49.0589,39.1728],[49.1939,39.0163],[49.2343,39.1564]]],[[[48.8963,38.8907],[48.661,38.8284],[48.5934,38.8672],[48.6653,38.7355],[48.6981,38.5817],[48.8685,38.6025],[48.8634,38.7479],[48.834,38.7267],[48.8263,38.778],[48.8471,38.788],[48.8963,38.8907]]]]}},{"type":"Feature","properties":{"sourceId":"1159312279","regionId":"region.d92419c6-d8d2-4795-904d-6c997bcfbe76","countryId":"country.n2i2m0"},"geometry":{"type":"Polygon","coordinates":[[[48.9182,38.9289],[48.8544,39.1316],[48.7405,39.1472],[48.4778,38.9857],[48.5476,38.9399],[48.5934,38.8672],[48.661,38.8284],[48.8963,38.8907],[48.9182,38.9289]]]}},{"type":"Feature","properties":{"sourceId":"1159317287","regionId":"region.0663674a-2b79-4d67-9ddf-71c9f583add0","countryId":"country.n2i2m0"},"geometry":{"type":"Polygon","coordinates":[[[48.8471,38.788],[48.8263,38.778],[48.834,38.7267],[48.8634,38.7479],[48.8471,38.788]]]}},{"type":"Feature","properties":{"sourceId":"1159312129","regionId":"region.23d2b29d-fd94-4d68-a291-1183948cd10c","countryId":"country.n2i2m0"},"geometry":{"type":"Polygon","coordinates":[[[45.5309,39.245],[45.3501,39.243],[45.3806,39.1803],[45.4676,39.1878],[45.5309,39.245]]]}},{"type":"Feature","properties":{"sourceId":"1159312143","regionId":"region.42369261-201d-4509-91ba-75830ffc4433","countryId":"country.n2i2m0"},"geometry":{"type":"Polygon","coordinates":[[[46.741,39.7718],[46.5403,39.7577],[46.5306,39.6156],[46.7356,39.5888],[46.7894,39.6555],[46.7769,39.7568],[46.7436,39.7451],[46.741,39.7718]]]}},{"type":"Feature","properties":{"sourceId":"1159312147","regionId":"region.81263dbe-363d-46b7-b08e-84a7cfb91f08","countryId":"country.n2i2m0"},"geometry":{"type":"Polygon","coordinates":[[[46.741,39.7718],[46.7769,39.7568],[46.7894,39.6555],[46.9061,39.6684],[46.8527,39.7953],[46.9236,39.9037],[46.8226,39.9884],[46.6979,40.0182],[46.451,39.9581],[46.5403,39.7577],[46.741,39.7718]],[[46.7598,39.8001],[46.7411,39.8317],[46.7798,39.8634],[46.805,39.8453],[46.7598,39.8001]]]}},{"type":"Feature","properties":{"sourceId":"1159317285","regionId":"region.d6b65448-76e0-4d92-88c2-c2a4ffb9a0f3","countryId":"country.n2i2m0"},"geometry":{"type":"Polygon","coordinates":[[[46.741,39.7718],[46.7436,39.7451],[46.7769,39.7568],[46.741,39.7718]]]}},{"type":"Feature","properties":{"sourceId":"1159312139","regionId":"region.07b40bb6-d926-415c-8135-3a63a68418d8","countryId":"country.n2i2m0"},"geometry":{"type":"Polygon","coordinates":[[[46.6979,40.0182],[46.8226,39.9884],[46.9236,39.9037],[46.8527,39.7953],[47.0037,39.883],[47.1564,39.8287],[47.249,39.857],[47.0945,39.9256],[47.1018,40.0439],[47.2289,40.1698],[47.0863,40.1669],[47.0038,40.2141],[46.8141,40.1507],[46.7616,40.033],[46.6979,40.0182]]]}},{"type":"Feature","properties":{"sourceId":"1159312145","regionId":"region.6766b378-b287-4a1c-846b-3538e440407c","countryId":"country.n2i2m0"},"geometry":{"type":"Polygon","coordinates":[[[47.0863,40.1669],[47.0777,40.3017],[46.9693,40.4157],[46.924,40.48],[46.5345,40.3131],[46.5323,40.1334],[46.637,40.1479],[46.7616,40.033],[46.8141,40.1507],[47.0038,40.2141],[47.0863,40.1669]]]}},{"type":"Feature","properties":{"sourceId":"1159312227","regionId":"region.1252bd47-906f-4c96-94bc-548b5d9a546f","countryId":"country.n2i2m0"},"geometry":{"type":"Polygon","coordinates":[[[46.5345,40.3131],[46.924,40.48],[46.8902,40.6237],[46.7312,40.7653],[46.7597,40.966],[46.5413,40.7911],[46.4707,40.6818],[46.5049,40.5433],[46.3487,40.4024],[46.3178,40.2762],[46.5345,40.3131]],[[46.8214,40.4956],[46.8116,40.5066],[46.8272,40.5202],[46.8396,40.5011],[46.8214,40.4956]]]}},{"type":"Feature","properties":{"sourceId":"1159309397","regionId":"region.c61267a7-9075-4ea3-8f2c-49e1fb34340e","countryId":"country.n2i2m0"},"geometry":{"type":"Polygon","coordinates":[[[46.8527,39.7953],[46.9061,39.6684],[46.7894,39.6555],[46.7356,39.5888],[46.6407,39.4835],[46.7335,39.4163],[46.8294,39.4774],[46.9666,39.3779],[47.0534,39.466],[47.0927,39.6448],[47.3115,39.708],[47.249,39.857],[47.1564,39.8287],[47.0037,39.883],[46.8527,39.7953]]]}},{"type":"Feature","properties":{"sourceId":"1159312249","regionId":"region.eb339296-1cb1-4ede-8f7f-19ce4676e171","countryId":"country.n2i2m0"},"geometry":{"type":"Polygon","coordinates":[[[48.8506,40.3285],[48.7469,40.3447],[48.6718,40.268],[48.4737,40.3313],[48.4401,40.2784],[48.4575,40.1378],[48.663,40.1087],[48.6688,40.0522],[48.8734,39.9816],[48.9315,39.9139],[49.2647,39.8766],[49.3568,39.8121],[49.2919,39.953],[49.1691,40.1445],[49.0044,40.1599],[48.8506,40.3285]]]}},{"type":"Feature","properties":{"sourceId":"1159312243","regionId":"region.e0d34c0e-dc42-443f-a4fd-bc0ad266c4f2","countryId":"country.n2i2m0"},"geometry":{"type":"Polygon","coordinates":[[[48.8506,40.3285],[49.0044,40.1599],[49.1691,40.1445],[49.2919,39.953],[49.4256,40.2366],[49.4193,40.3981],[49.5435,40.4691],[49.7304,40.4654],[49.6904,40.5534],[49.589,40.5438],[49.4827,40.6368],[49.4013,40.5298],[49.2631,40.5056],[48.9363,40.2915],[48.8506,40.3285]]]}},{"type":"Feature","properties":{"sourceId":"1159312225","regionId":"region.cb9129bd-1011-4033-ae06-00566e5243a3","countryId":"country.n2i2m0"},"geometry":{"type":"Polygon","coordinates":[[[46.4707,40.6818],[46.4118,40.6854],[46.3459,40.6226],[46.2984,40.6575],[46.3407,40.7246],[46.2773,40.8329],[46.2158,40.6889],[46.079,40.6472],[46.2024,40.5808],[46.1334,40.5012],[46.2264,40.4294],[46.1558,40.3075],[46.3178,40.2762],[46.3487,40.4024],[46.5049,40.5433],[46.4707,40.6818]]]}},{"type":"Feature","properties":{"sourceId":"1159312273","regionId":"region.e8ef65f9-6c6e-4952-bef3-2d9f1210898f","countryId":"country.n2i2m0"},"geometry":{"type":"Polygon","coordinates":[[[48.4401,40.2784],[48.3259,40.3529],[48.0796,40.4482],[48.1084,40.5323],[48.0272,40.5129],[47.9926,40.4417],[47.9343,40.3132],[47.9443,40.1671],[47.8512,40.1009],[48.0866,40.0966],[48.3172,40.0398],[48.4575,40.1378],[48.4401,40.2784]]]}},{"type":"Feature","properties":{"sourceId":"1159312307","regionId":"region.0c1f236b-1d60-44e7-a09f-c173492d3237","countryId":"country.n2i2m0"},"geometry":{"type":"Polygon","coordinates":[[[47.9343,40.3132],[47.7194,40.3071],[47.523,40.3907],[47.4428,40.2984],[47.4843,40.2537],[47.7566,40.1595],[47.791,40.114],[47.8512,40.1009],[47.9443,40.1671],[47.9343,40.3132]]]}},{"type":"Feature","properties":{"sourceId":"1159312291","regionId":"region.376d1bc8-1f3d-4341-8ce4-4793765b6ac0","countryId":"country.n2i2m0"},"geometry":{"type":"Polygon","coordinates":[[[48.4575,40.1378],[48.3172,40.0398],[48.2496,39.9797],[48.4093,39.9999],[48.6936,39.8549],[48.7036,39.7347],[48.5821,39.6517],[48.767,39.6057],[48.9686,39.6762],[48.9096,39.9057],[48.8734,39.9816],[48.6688,40.0522],[48.663,40.1087],[48.4575,40.1378]]]}},{"type":"Feature","properties":{"sourceId":"1159317289","regionId":"region.835edf00-7322-48d0-8c20-dd7ba377e73d","countryId":"country.n2i2m0"},"geometry":{"type":"Polygon","coordinates":[[[48.9096,39.9057],[48.9315,39.9139],[48.8734,39.9816],[48.9096,39.9057]]]}},{"type":"Feature","properties":{"sourceId":"1159312289","regionId":"region.6d8767dc-488a-4752-a3b9-1d259d7fb961","countryId":"country.n2i2m0"},"geometry":{"type":"Polygon","coordinates":[[[48.5821,39.6517],[48.7036,39.7347],[48.6936,39.8549],[48.4093,39.9999],[48.2496,39.9797],[48.241,39.7855],[48.3487,39.7367],[48.3794,39.6217],[48.5821,39.6517]]]}},{"type":"Feature","properties":{"sourceId":"1159312253","regionId":"region.3595d7cb-67f4-4559-b793-c92be307aa29","countryId":"country.n2i2m0"},"geometry":{"type":"Polygon","coordinates":[[[47.2289,40.1698],[47.3156,40.1619],[47.4843,40.2537],[47.4428,40.2984],[47.3529,40.433],[47.2077,40.5626],[47.1383,40.4859],[46.9693,40.4157],[47.0777,40.3017],[47.0863,40.1669],[47.2289,40.1698]]]}},{"type":"Feature","properties":{"sourceId":"1159312233","regionId":"region.23b7900f-4b4a-477e-81fc-ae791cfff90e","countryId":"country.n2i2m0"},"geometry":{"type":"Polygon","coordinates":[[[46.2773,40.8329],[46.3104,41.0173],[46.2047,41.1367],[46.0452,41.0034],[45.897,41.0057],[45.7226,40.8232],[45.9126,40.6261],[45.9117,40.5572],[46.079,40.6472],[46.2158,40.6889],[46.2773,40.8329]]]}},{"type":"Feature","properties":{"sourceId":"1159312247","regionId":"region.de7af0d6-47fa-4e4b-970f-346cecffdefe","countryId":"country.n2i2m0"},"geometry":{"type":"Polygon","coordinates":[[[48.4737,40.3313],[48.5215,40.4205],[48.6521,40.4869],[48.4355,40.5671],[48.5269,40.7116],[48.4612,40.7939],[48.4113,40.7032],[48.1084,40.5323],[48.0796,40.4482],[48.3259,40.3529],[48.4401,40.2784],[48.4737,40.3313]]]}},{"type":"Feature","properties":{"sourceId":"1159312297","regionId":"region.61f7942d-5db0-46d4-8568-9e5d6c3a4275","countryId":"country.n2i2m0"},"geometry":{"type":"Polygon","coordinates":[[[48.7469,40.3447],[48.7122,40.5751],[48.7295,40.7211],[48.8081,40.7617],[48.7819,40.8551],[48.6801,40.8951],[48.3892,40.9485],[48.4861,40.8816],[48.4612,40.7939],[48.5269,40.7116],[48.4355,40.5671],[48.6521,40.4869],[48.5215,40.4205],[48.4737,40.3313],[48.6718,40.268],[48.7469,40.3447]]]}},{"type":"Feature","properties":{"sourceId":"1159309433","regionId":"region.2b9851f8-b150-40c2-a1a4-4c093a095e26","countryId":"country.n2i2m0"},"geometry":{"type":"Polygon","coordinates":[[[48.6801,40.8951],[48.6428,41.1321],[48.7472,41.2398],[48.7441,41.3485],[48.6755,41.3506],[48.5755,41.4835],[48.3862,41.4166],[47.9265,41.1577],[48.0311,41.0631],[48.3892,40.9485],[48.6801,40.8951]]]}},{"type":"Feature","properties":{"sourceId":"1159312301","regionId":"region.2322c790-f9c4-41c8-b347-27c09501794c","countryId":"country.n2i2m0"},"geometry":{"type":"Polygon","coordinates":[[[47.9926,40.4417],[47.5864,40.5254],[47.4804,40.5166],[47.523,40.3907],[47.7194,40.3071],[47.9343,40.3132],[47.9926,40.4417]]]}},{"type":"Feature","properties":{"sourceId":"1159312285","regionId":"region.b7692dad-5198-4380-ade9-924f0874df24","countryId":"country.n2i2m0"},"geometry":{"type":"Polygon","coordinates":[[[48.7469,40.3447],[48.8506,40.3285],[48.9363,40.2915],[49.2631,40.5056],[48.8081,40.7617],[48.7295,40.7211],[48.7122,40.5751],[48.7469,40.3447]]]}},{"type":"Feature","properties":{"sourceId":"1159312271","regionId":"region.9f0214af-cd70-4d5c-9b22-68567ebae6e6","countryId":"country.n2i2m0"},"geometry":{"type":"Polygon","coordinates":[[[48.1084,40.5323],[48.4113,40.7032],[48.4612,40.7939],[48.4861,40.8816],[48.3892,40.9485],[48.0311,41.0631],[47.9488,40.979],[47.9801,40.8837],[47.7325,40.675],[48.0057,40.6262],[48.0272,40.5129],[48.1084,40.5323]]]}},{"type":"Feature","properties":{"sourceId":"1159312241","regionId":"region.11031997-4a7d-46e3-a921-59809851bca2","countryId":"country.n2i2m0"},"geometry":{"type":"Polygon","coordinates":[[[46.9693,40.4157],[47.1383,40.4859],[47.2077,40.5626],[47.2628,40.7889],[46.93,40.9109],[46.7597,40.966],[46.7312,40.7653],[46.8902,40.6237],[46.924,40.48],[46.9693,40.4157]],[[46.9894,40.7698],[46.9679,40.7253],[46.9206,40.768],[46.9894,40.7698]],[[47.1736,40.5698],[47.1074,40.5856],[47.1108,40.6393],[47.1895,40.6392],[47.1736,40.5698]]]}},{"type":"Feature","properties":{"sourceId":"1159312223","regionId":"region.ae709668-1c8e-4d3f-ba60-c44a831ecd82","countryId":"country.n2i2m0"},"geometry":{"type":"Polygon","coordinates":[[[46.3407,40.7246],[46.2984,40.6575],[46.3459,40.6226],[46.4118,40.6854],[46.3407,40.7246]]]}},{"type":"Feature","properties":{"sourceId":"1159312229","regionId":"region.337c718b-cf57-4053-aa3f-6b5b10fb2764","countryId":"country.n2i2m0"},"geometry":{"type":"Polygon","coordinates":[[[46.9894,40.7698],[46.9206,40.768],[46.9679,40.7253],[46.9894,40.7698]]]}},{"type":"Feature","properties":{"sourceId":"1159312267","regionId":"region.5292b6d1-9741-47aa-ab88-9a3c250cb4dd","countryId":"country.n2i2m0"},"geometry":{"type":"Polygon","coordinates":[[[48.0272,40.5129],[48.0057,40.6262],[47.7325,40.675],[47.5886,40.6395],[47.5864,40.5254],[47.9926,40.4417],[48.0272,40.5129]]]}},{"type":"Feature","properties":{"sourceId":"1159312245","regionId":"region.f5998808-ad34-4f79-ac37-a9544fec5b80","countryId":"country.n2i2m0"},"geometry":{"type":"Polygon","coordinates":[[[47.523,40.3907],[47.4804,40.5166],[47.5864,40.5254],[47.5886,40.6395],[47.5256,40.7615],[47.2628,40.7889],[47.2077,40.5626],[47.3529,40.433],[47.4428,40.2984],[47.523,40.3907]]]}},{"type":"Feature","properties":{"sourceId":"1159312309","regionId":"region.97d785bf-6d2e-47c6-921e-66095e86c7b5","countryId":"country.n2i2m0"},"geometry":{"type":"Polygon","coordinates":[[[47.2289,40.1698],[47.1018,40.0439],[47.0945,39.9256],[47.249,39.857],[47.3115,39.708],[47.4659,39.7383],[47.4462,39.8266],[47.6258,39.8926],[47.7566,40.1595],[47.4843,40.2537],[47.3156,40.1619],[47.2289,40.1698]]]}},{"type":"Feature","properties":{"sourceId":"1159315903","regionId":"region.fb8762a4-b278-4b64-9e35-d8d232ec08c2","countryId":"country.n2i2m0"},"geometry":{"type":"Polygon","coordinates":[[[46.7598,39.8001],[46.805,39.8453],[46.7798,39.8634],[46.7411,39.8317],[46.7598,39.8001]]]}},{"type":"Feature","properties":{"sourceId":"1159316489","regionId":"region.6bc9e109-85fc-49bf-936b-186c875c224b","countryId":"country.n2i2m0"},"geometry":{"type":"Polygon","coordinates":[[[47.1736,40.5698],[47.1895,40.6392],[47.1108,40.6393],[47.1074,40.5856],[47.1736,40.5698]]]}},{"type":"Feature","properties":{"sourceId":"1159317283","regionId":"region.364be773-72a8-447c-b06c-a30255b03d5b","countryId":"country.n2i2m0"},"geometry":{"type":"Polygon","coordinates":[[[46.8214,40.4956],[46.8396,40.5011],[46.8272,40.5202],[46.8116,40.5066],[46.8214,40.4956]]]}},{"type":"Feature","properties":{"sourceId":"1159317281","regionId":"region.c5a12eec-db1a-464f-8216-845ba32da92e","countryId":"country.n2i2m0"},"geometry":{"type":"Polygon","coordinates":[[[47.1889,41.1555],[47.2194,41.1877],[47.1729,41.235],[47.148,41.164],[47.1889,41.1555]]]}}]}