{"type":"FeatureCollection","features":[{"type":"Feature","properties":{"sourceId":"1159310569","regionId":"region.c147a194-eafd-43ff-919e-5002ffb04573","countryId":"country.pauqcg"},"geometry":{"type":"Polygon","coordinates":[[[-7.2259,38.7661],[-7.3691,38.8015],[-7.4597,38.9559],[-7.8385,38.9002],[-8.1028,39.0221],[-8.1969,39.0009],[-8.2578,38.906],[-8.5466,38.767],[-8.5078,38.7128],[-8.6516,38.6062],[-8.5166,38.5194],[-8.3685,38.5357],[-8.3084,38.377],[-8.1621,38.3176],[-7.9312,38.3025],[-7.6694,38.2075],[-7.5171,38.1963],[-7.4005,38.2998],[-7.281,38.3308],[-7.1171,38.1836],[-7.1672,38.2721],[-7.3592,38.4464],[-7.2259,38.7661]]]}},{"type":"Feature","properties":{"sourceId":"1159310571","regionId":"region.bb3d347c-c1b2-47f4-9e89-7ccd085f5e2e","countryId":"country.pauqcg"},"geometry":{"type":"Polygon","coordinates":[[[-7.2259,38.7661],[-7.0561,38.8551],[-6.9733,39.014],[-7.0388,39.1091],[-7.1675,39.1135],[-7.2508,39.2706],[-7.3267,39.3413],[-7.3135,39.4574],[-7.5158,39.5938],[-7.5559,39.6772],[-7.6955,39.6527],[-7.8047,39.5571],[-7.9366,39.5533],[-7.9492,39.4148],[-8.0854,39.2853],[-8.3336,39.117],[-8.1969,39.0009],[-8.1028,39.0221],[-7.8385,38.9002],[-7.4597,38.9559],[-7.3691,38.8015],[-7.2259,38.7661]]]}},{"type":"Feature","properties":{"sourceId":"1159310563","regionId":"region.10a59714-013f-48a2-ae15-3868043431b1","countryId":"country.pauqcg"},"geometry":{"type":"Polygon","coordinates":[[[-8.2224,42.1536],[-8.3467,42.1017],[-8.6269,42.051],[-8.7508,41.969],[-8.8675,41.8591],[-8.8803,41.7369],[-8.8198,41.6178],[-8.6368,41.6509],[-8.5112,41.7271],[-8.1793,41.8126],[-8.2317,41.886],[-8.108,42.0109],[-8.2224,42.1536]]]}},{"type":"Feature","properties":{"sourceId":"1159310579","regionId":"region.ac9baf20-051b-4ddd-8896-91a3b4ecc4fb","countryId":"country.pauqcg"},"geometry":{"type":"Polygon","coordinates":[[[-6.9421,40.255],[-6.9975,40.2856],[-7.3203,40.2854],[-7.2712,40.4098],[-7.5267,40.3376],[-7.7821,40.232],[-7.7401,40.0945],[-8.1263,39.9212],[-8.2791,39.7948],[-8.2202,39.6465],[-8.0615,39.6242],[-8.0468,39.7365],[-7.8668,39.6359],[-7.8047,39.5571],[-7.6955,39.6527],[-7.5559,39.6772],[-7.0358,39.6893],[-6.9242,39.8716],[-6.8797,40.0092],[-7.0158,40.1191],[-6.9421,40.255]]]}},{"type":"Feature","properties":{"sourceId":"1159310585","regionId":"region.5f44a3dd-3a29-499e-a874-e53d99f22034","countryId":"country.pauqcg"},"geometry":{"type":"Polygon","coordinates":[[[-6.8745,40.2792],[-6.7944,40.3564],[-6.8571,40.4421],[-6.8143,40.6472],[-6.8367,40.8402],[-6.9274,41.0481],[-7.0753,41.0867],[-7.1263,41.1643],[-7.3007,41.1593],[-7.4125,40.8706],[-7.5817,40.8568],[-7.6174,40.7881],[-7.5399,40.6854],[-7.5777,40.5723],[-7.8246,40.4978],[-7.77,40.3273],[-7.7821,40.232],[-7.5267,40.3376],[-7.2712,40.4098],[-7.3203,40.2854],[-6.9975,40.2856],[-6.9421,40.255],[-6.8745,40.2792]]]}},{"type":"Feature","properties":{"sourceId":"1159310577","regionId":"region.344f16d3-4ec1-4f32-99d0-7bff488a1c6b","countryId":"country.pauqcg"},"geometry":{"type":"Polygon","coordinates":[[[-6.4821,41.303],[-6.321,41.4196],[-6.2059,41.5703],[-6.3659,41.6636],[-6.5553,41.6749],[-6.5242,41.8674],[-6.6568,41.9331],[-6.9835,41.963],[-7.1454,41.9875],[-7.2093,41.8892],[-7.1727,41.7474],[-7.2525,41.6043],[-7.2362,41.5303],[-7.3623,41.4419],[-7.3517,41.3317],[-7.4323,41.216],[-7.3007,41.1593],[-7.1263,41.1643],[-7.0753,41.0867],[-6.9274,41.0481],[-6.818,41.0541],[-6.6466,41.2676],[-6.4821,41.303]]]}},{"type":"Feature","properties":{"sourceId":"1159310591","regionId":"region.5761d78f-78a9-40cd-bd32-8cf6f4b0e099","countryId":"country.pauqcg"},"geometry":{"type":"Polygon","coordinates":[[[-8.0504,41.816],[-8.0951,41.712],[-7.9985,41.6112],[-7.8135,41.5826],[-7.9236,41.4856],[-7.9755,41.3701],[-7.8755,41.2468],[-7.896,41.1591],[-7.5502,41.1828],[-7.4323,41.216],[-7.3517,41.3317],[-7.3623,41.4419],[-7.2362,41.5303],[-7.2525,41.6043],[-7.1727,41.7474],[-7.2093,41.8892],[-7.4054,41.8352],[-7.5884,41.8242],[-7.722,41.8993],[-8.0504,41.816]]]}},{"type":"Feature","properties":{"sourceId":"1159310575","regionId":"region.e487db14-3880-44c8-b1a8-6077647d620a","countryId":"country.pauqcg"},"geometry":{"type":"Polygon","coordinates":[[[-8.1793,41.8126],[-8.5112,41.7271],[-8.6368,41.6509],[-8.8198,41.6178],[-8.7751,41.4676],[-8.4848,41.3726],[-8.1698,41.4008],[-8.0361,41.325],[-7.9755,41.3701],[-7.9236,41.4856],[-7.8135,41.5826],[-7.9985,41.6112],[-8.0951,41.712],[-8.0504,41.816],[-8.1793,41.8126]]]}},{"type":"Feature","properties":{"sourceId":"1159308421","regionId":"region.ed6562f2-3a86-4936-bf61-8ab71503f51c","countryId":"country.pauqcg"},"geometry":{"type":"Polygon","coordinates":[[[-7.5146,37.5283],[-7.7073,37.5004],[-7.9824,37.4014],[-8.0707,37.3267],[-8.1708,37.337],[-8.2807,37.4283],[-8.466,37.3754],[-8.6367,37.3836],[-8.8076,37.4494],[-8.8814,37.2325],[-8.9856,37.0634],[-8.8789,37.0472],[-8.6268,37.1212],[-8.4388,37.0827],[-8.1792,37.0881],[-7.9814,37.0017],[-7.7866,37.0227],[-7.5118,37.1718],[-7.4144,37.1928],[-7.4759,37.4943],[-7.5146,37.5283]]]}},{"type":"Feature","properties":{"sourceId":"1159310567","regionId":"region.c4293e87-2f74-4e42-8fd9-7861c84832a5","countryId":"country.pauqcg"},"geometry":{"type":"Polygon","coordinates":[[[-6.9506,38.1984],[-7.1171,38.1836],[-7.281,38.3308],[-7.4005,38.2998],[-7.5171,38.1963],[-7.6694,38.2075],[-7.9312,38.3025],[-8.1621,38.3176],[-8.1351,38.2232],[-8.3478,38.1432],[-8.4013,38.076],[-8.2934,37.9815],[-8.3286,37.8467],[-8.5217,37.853],[-8.5958,37.759],[-8.8014,37.8268],[-8.8265,37.6006],[-8.8076,37.4494],[-8.6367,37.3836],[-8.466,37.3754],[-8.2807,37.4283],[-8.1708,37.337],[-8.0707,37.3267],[-7.9824,37.4014],[-7.7073,37.5004],[-7.5146,37.5283],[-7.4263,37.7506],[-7.3344,37.8119],[-7.2686,37.9492],[-7.1233,38.04],[-7.024,38.0226],[-6.9506,38.1984]]]}},{"type":"Feature","properties":{"sourceId":"1159317143","regionId":"region.b8c01ed9-a745-4573-a019-6af38cc284e3","countryId":"country.pauqcg"},"geometry":{"type":"Polygon","coordinates":[[[-8.8014,37.8268],[-8.5958,37.759],[-8.5217,37.853],[-8.3286,37.8467],[-8.2934,37.9815],[-8.4013,38.076],[-8.3478,38.1432],[-8.1351,38.2232],[-8.1621,38.3176],[-8.3084,38.377],[-8.3685,38.5357],[-8.5166,38.5194],[-8.6516,38.6062],[-8.5078,38.7128],[-8.5466,38.767],[-8.7032,38.8344],[-8.7856,38.7342],[-8.9231,38.7778],[-8.9426,38.7756],[-9.0524,38.6937],[-9.2527,38.6655],[-9.1838,38.5515],[-9.2004,38.4125],[-9.0486,38.4407],[-8.9058,38.5124],[-8.7951,38.3592],[-8.7744,38.1869],[-8.8675,37.9736],[-8.8014,37.8268]]]}},{"type":"Feature","properties":{"sourceId":"1159310551","regionId":"region.be8e95e2-76b5-4535-a766-8545ea38e2d7","countryId":"country.pauqcg"},"geometry":{"type":"MultiPolygon","coordinates":[[[[-8.9426,38.7756],[-8.9231,38.7778],[-8.9558,38.8409],[-8.7904,39.0706],[-8.9432,39.0152],[-9.0115,38.9134],[-8.9426,38.7756]]],[[[-8.7918,39.0824],[-8.9026,39.1778],[-8.8746,39.2542],[-8.9941,39.299],[-9.1694,39.2212],[-9.2494,39.317],[-9.3476,39.2925],[-9.3509,39.1973],[-9.4366,39.0295],[-9.4227,38.9314],[-9.4919,38.8192],[-9.4917,38.7076],[-9.3218,38.6703],[-9.1125,38.7142],[-9.1066,38.8138],[-8.9227,39.0493],[-8.7918,39.0824]]]]}},{"type":"Feature","properties":{"sourceId":"1159310573","regionId":"region.5bac06e9-7b5b-4a3b-9d19-03f2219bef9f","countryId":"country.pauqcg"},"geometry":{"type":"Polygon","coordinates":[[[-8.7904,39.0706],[-8.9558,38.8409],[-8.9231,38.7778],[-8.7856,38.7342],[-8.7032,38.8344],[-8.5466,38.767],[-8.2578,38.906],[-8.1969,39.0009],[-8.3336,39.117],[-8.0854,39.2853],[-7.9492,39.4148],[-7.9366,39.5533],[-7.8047,39.5571],[-7.8668,39.6359],[-8.0468,39.7365],[-8.0615,39.6242],[-8.2202,39.6465],[-8.2791,39.7948],[-8.4429,39.7423],[-8.4708,39.8373],[-8.6767,39.7581],[-8.6722,39.5651],[-8.7511,39.4796],[-8.8651,39.4794],[-8.9987,39.3614],[-8.9941,39.299],[-8.8746,39.2542],[-8.9026,39.1778],[-8.7918,39.0824],[-8.7904,39.0706]]]}},{"type":"Feature","properties":{"sourceId":"1159310561","regionId":"region.f2eae04a-e091-4317-9a5b-3654104cc9e2","countryId":"country.pauqcg"},"geometry":{"type":"Polygon","coordinates":[[[-9.3476,39.2925],[-9.2494,39.317],[-9.1694,39.2212],[-8.9941,39.299],[-8.9987,39.3614],[-8.8651,39.4794],[-8.7511,39.4796],[-8.6722,39.5651],[-8.6767,39.7581],[-8.4708,39.8373],[-8.4429,39.7423],[-8.2791,39.7948],[-8.1263,39.9212],[-8.1746,40.0863],[-8.3491,39.9445],[-8.4127,40.0103],[-8.5442,39.9649],[-8.6772,40.0281],[-8.9025,40.0474],[-9.0717,39.6804],[-9.0904,39.5793],[-9.2403,39.42],[-9.3529,39.3679],[-9.3476,39.2925]]]}},{"type":"Feature","properties":{"sourceId":"1159310581","regionId":"region.ad33a742-b012-43e0-8ad8-882f12f2157c","countryId":"country.pauqcg"},"geometry":{"type":"Polygon","coordinates":[[[-8.9025,40.0474],[-8.6772,40.0281],[-8.5442,39.9649],[-8.4127,40.0103],[-8.3491,39.9445],[-8.1746,40.0863],[-8.1263,39.9212],[-7.7401,40.0945],[-7.7821,40.232],[-7.77,40.3273],[-7.8246,40.4978],[-8.1162,40.3389],[-8.2293,40.3206],[-8.3502,40.372],[-8.4865,40.3764],[-8.6754,40.4347],[-8.7879,40.523],[-8.9084,40.2007],[-8.8533,40.1392],[-8.9025,40.0474]]]}},{"type":"Feature","properties":{"sourceId":"1159310559","regionId":"region.e677aea6-8348-4929-9e35-42c02b9b8c01","countryId":"country.pauqcg"},"geometry":{"type":"Polygon","coordinates":[[[-8.7879,40.523],[-8.6754,40.4347],[-8.4865,40.3764],[-8.3502,40.372],[-8.3014,40.587],[-8.3156,40.7403],[-8.1993,40.8537],[-8.1493,40.982],[-8.2902,41.0834],[-8.4157,41.0226],[-8.6552,41.0167],[-8.7247,40.6445],[-8.7879,40.523]]]}},{"type":"Feature","properties":{"sourceId":"1159310587","regionId":"region.e678eddb-9e56-4f20-b3ab-a29d36ca0c95","countryId":"country.pauqcg"},"geometry":{"type":"Polygon","coordinates":[[[-8.6552,41.0167],[-8.4157,41.0226],[-8.2902,41.0834],[-8.0621,41.1059],[-7.896,41.1591],[-7.8755,41.2468],[-7.9755,41.3701],[-8.0361,41.325],[-8.1698,41.4008],[-8.4848,41.3726],[-8.7751,41.4676],[-8.7372,41.2497],[-8.6661,41.1328],[-8.6552,41.0167]]]}},{"type":"Feature","properties":{"sourceId":"1159310443","regionId":"region.4b57b60b-b119-4f35-a22b-56c047a38147","countryId":"country.pauqcg"},"geometry":{"type":"Polygon","coordinates":[[[-16.7887,32.6867],[-16.75,32.7306],[-16.9197,32.8412],[-17.068,32.8142],[-17.2003,32.8685],[-17.2521,32.8145],[-17.143,32.7056],[-16.9768,32.6472],[-16.7887,32.6867]]]}},{"type":"Feature","properties":{"sourceId":"1159310543","regionId":"region.00adf9a6-aff4-4b5d-bd33-3a31bdc1ffb2","countryId":"country.pauqcg"},"geometry":{"type":"MultiPolygon","coordinates":[[[[-25.1978,37.8644],[-25.4585,37.8297],[-25.6807,37.8433],[-25.7043,37.744],[-25.5057,37.7067],[-25.1947,37.7407],[-25.1978,37.8644]]],[[[-28.1095,38.4466],[-28.3745,38.5505],[-28.4853,38.5578],[-28.5489,38.4844],[-28.4595,38.4057],[-28.2419,38.3776],[-28.1095,38.4466]]],[[[-27.0201,38.6937],[-27.1443,38.7961],[-27.2982,38.8035],[-27.3917,38.7589],[-27.3276,38.6663],[-27.0603,38.6414],[-27.0201,38.6937]]]]}},{"type":"Feature","properties":{"sourceId":"1159310589","regionId":"region.fd8c638f-6ec1-4486-adb0-9c0d8e1b73f1","countryId":"country.pauqcg"},"geometry":{"type":"Polygon","coordinates":[[[-7.4323,41.216],[-7.5502,41.1828],[-7.896,41.1591],[-8.0621,41.1059],[-8.2902,41.0834],[-8.1493,40.982],[-8.1993,40.8537],[-8.3156,40.7403],[-8.3014,40.587],[-8.3502,40.372],[-8.2293,40.3206],[-8.1162,40.3389],[-7.8246,40.4978],[-7.5777,40.5723],[-7.5399,40.6854],[-7.6174,40.7881],[-7.5817,40.8568],[-7.4125,40.8706],[-7.3007,41.1593],[-7.4323,41.216]]]}}]}