{"type":"FeatureCollection","features":[{"type":"Feature","properties":{"sourceId":"1159315153","regionId":"region.6c733051-7ca4-4c2b-bc12-ec0c1e7ff1f7","countryId":"country.1knbk6o"},"geometry":{"type":"Polygon","coordinates":[[[-11.4492,9.995],[-11.1996,9.9822],[-11.1603,9.8728],[-11.0101,9.7427],[-10.8526,9.5121],[-10.8549,9.4553],[-10.6751,9.3065],[-10.7463,9.0838],[-10.5931,9.0476],[-10.4782,9.1852],[-10.3916,9.2925],[-10.3886,9.4668],[-10.4177,9.6117],[-10.414,9.7401],[-10.3216,9.8955],[-10.3538,9.9991],[-10.2198,10.1679],[-10.2242,10.3268],[-10.1374,10.3989],[-10.2375,10.5125],[-10.4417,10.5059],[-10.5647,10.5937],[-10.5981,10.6621],[-10.653,10.6115],[-10.8092,10.6085],[-10.8813,10.6565],[-11.0195,10.6085],[-11.1607,10.4733],[-11.377,10.3952],[-11.3921,10.1668],[-11.4492,9.995]]]}},{"type":"Feature","properties":{"sourceId":"1159315149","regionId":"region.00dbaf8c-61af-46db-8b25-5a9fa50571c4","countryId":"country.1knbk6o"},"geometry":{"type":"Polygon","coordinates":[[[-12.1098,9.8817],[-12.1436,9.9626],[-12.1255,10.0998],[-12.229,10.2578],[-12.4097,10.277],[-12.4151,10.4912],[-12.5243,10.6093],[-12.6495,10.5287],[-12.714,10.4715],[-12.8033,10.5213],[-12.896,10.4699],[-13.1346,10.4042],[-13.1136,10.2419],[-13.2818,9.9986],[-13.2187,9.9385],[-13.2338,9.7462],[-13.1076,9.6501],[-13.0895,9.5629],[-12.9243,9.6831],[-12.711,9.6951],[-12.6016,9.6517],[-12.5375,9.7157],[-12.5083,9.8604],[-12.2536,9.9284],[-12.1098,9.8817]]]}},{"type":"Feature","properties":{"sourceId":"1159315145","regionId":"region.b3db23e3-4397-48e4-b2b6-690be7e16ed1","countryId":"country.1knbk6o"},"geometry":{"type":"Polygon","coordinates":[[[-11.5875,9.9943],[-11.5716,10.1886],[-11.5533,10.7957],[-11.6029,10.9653],[-11.4895,11.0642],[-11.4231,11.0642],[-11.2492,11.1843],[-11.3062,11.3262],[-11.4727,11.2451],[-11.5029,11.1693],[-11.6636,11.0308],[-11.8131,11.0025],[-11.7796,10.8969],[-11.8217,10.8038],[-12.029,10.7617],[-12.1972,10.5934],[-12.2754,10.5814],[-12.4151,10.4912],[-12.4097,10.277],[-12.229,10.2578],[-12.1255,10.0998],[-12.1436,9.9626],[-12.1098,9.8817],[-11.9218,9.9222],[-11.9101,9.9925],[-11.5875,9.9943]]]}},{"type":"Feature","properties":{"sourceId":"1159317445","regionId":"region.2850a4da-5c81-451f-8ace-9a763f670a11","countryId":"country.1knbk6o"},"geometry":{"type":"Polygon","coordinates":[[[-11.4492,9.995],[-11.3921,10.1668],[-11.377,10.3952],[-11.1607,10.4733],[-11.0195,10.6085],[-10.8813,10.6565],[-10.8092,10.6085],[-10.653,10.6115],[-10.5981,10.6621],[-10.6871,10.7497],[-10.8643,10.808],[-10.8906,10.8714],[-10.7115,11.0558],[-10.7031,11.1126],[-10.8332,11.0892],[-11.0255,10.96],[-11.1397,10.966],[-11.1938,11.0261],[-11.4161,11.0291],[-11.4231,11.0642],[-11.4895,11.0642],[-11.6029,10.9653],[-11.5533,10.7957],[-11.5716,10.1886],[-11.5875,9.9943],[-11.4492,9.995]]]}},{"type":"Feature","properties":{"sourceId":"1159317437","regionId":"region.985ec081-e807-4c7e-a82e-6eeac8185c22","countryId":"country.1knbk6o"},"geometry":{"type":"Polygon","coordinates":[[[-12.6016,9.6517],[-12.711,9.6951],[-12.9243,9.6831],[-13.0895,9.5629],[-13.2067,9.5629],[-13.3179,9.638],[-13.4867,9.5691],[-13.514,9.4496],[-13.432,9.3711],[-13.3222,9.3454],[-13.3011,9.0415],[-13.2075,9.0767],[-13.1159,9.0439],[-13.0289,9.096],[-12.9579,9.2724],[-12.8358,9.282],[-12.7016,9.4202],[-12.6016,9.6517]]]}},{"type":"Feature","properties":{"sourceId":"1159317463","regionId":"region.d8b37140-e56f-4e62-803f-59debf1ae3fd","countryId":"country.1knbk6o"},"geometry":{"type":"Polygon","coordinates":[[[-10.5922,9.0417],[-10.6002,8.819],[-10.4819,8.6725],[-10.6389,8.5199],[-10.6691,8.3991],[-10.5833,8.3069],[-10.5193,8.3348],[-10.3898,8.4891],[-10.2822,8.4846],[-10.0911,8.5101],[-10.0404,8.4257],[-9.8728,8.5004],[-9.9199,8.6917],[-9.9079,8.7548],[-9.7937,8.8269],[-9.77,8.9003],[-9.98,8.943],[-10.0871,8.8831],[-10.2022,8.8723],[-10.4416,9.085],[-10.4782,9.1852],[-10.5931,9.0476],[-10.5922,9.0417]]]}},{"type":"Feature","properties":{"sourceId":"1159315143","regionId":"region.ee8f8387-5790-42b7-ad9c-fb8cbd533d65","countryId":"country.1knbk6o"},"geometry":{"type":"Polygon","coordinates":[[[-8.1524,9.95],[-8.3396,10.0046],[-8.4297,10.1788],[-8.6731,10.2329],[-8.7482,10.3922],[-8.8984,10.4492],[-8.9465,10.5033],[-8.9645,10.6656],[-9.1598,10.6806],[-9.3731,10.7497],[-9.6675,10.4372],[-9.7186,10.2029],[-9.7006,9.9024],[-9.8508,9.7011],[-9.9552,9.669],[-9.8334,9.5531],[-9.6293,9.5366],[-9.5495,9.459],[-9.3443,9.4672],[-9.2212,9.4262],[-9.1778,9.638],[-9.0246,9.7312],[-8.8834,9.7402],[-8.8143,9.6831],[-8.5709,9.626],[-8.4748,9.5209],[-8.4791,9.3808],[-8.3195,9.3352],[-8.1486,9.4007],[-8.0704,9.3975],[-8.1616,9.5756],[-8.1235,9.8449],[-8.1524,9.95]]]}},{"type":"Feature","properties":{"sourceId":"1159317455","regionId":"region.481937cd-a3be-43f0-a52d-b1c475c6b397","countryId":"country.1knbk6o"},"geometry":{"type":"Polygon","coordinates":[[[-7.9897,10.162],[-7.9646,10.2589],[-8.0157,10.3393],[-8.2289,10.4234],[-8.2955,10.5374],[-8.3111,11.0008],[-8.3693,11.0542],[-8.5058,11.0528],[-8.5416,10.9838],[-8.6969,10.996],[-8.6246,11.122],[-8.4832,11.2849],[-8.4277,11.4001],[-8.5394,11.4563],[-8.6568,11.4964],[-8.7265,11.6495],[-8.8533,11.4287],[-8.9224,11.1312],[-9.0697,11.0171],[-9.2379,10.954],[-9.3431,10.8668],[-9.3731,10.7497],[-9.1598,10.6806],[-8.9645,10.6656],[-8.9465,10.5033],[-8.8984,10.4492],[-8.7482,10.3922],[-8.6731,10.2329],[-8.4297,10.1788],[-8.3396,10.0046],[-8.1524,9.95],[-8.1088,10.0542],[-7.9897,10.162]]]}},{"type":"Feature","properties":{"sourceId":"1159317467","regionId":"region.f3d6f116-cc01-4120-9680-2e3a4fac8c14","countryId":"country.1knbk6o"},"geometry":{"type":"Polygon","coordinates":[[[-8.0704,9.3975],[-8.1486,9.4007],[-8.3195,9.3352],[-8.4791,9.3808],[-8.6673,9.1949],[-8.728,9.0721],[-8.9691,8.9619],[-8.9675,8.7457],[-8.9044,8.6346],[-8.8563,8.4633],[-8.9104,8.2981],[-8.7362,8.3582],[-8.5889,8.3492],[-8.5379,8.271],[-8.4297,8.217],[-8.2795,8.1959],[-8.0672,8.0208],[-7.9656,8.0269],[-8.0855,8.162],[-8.266,8.246],[-8.2003,8.4918],[-7.9705,8.497],[-7.8986,8.4263],[-7.771,8.3865],[-7.6896,8.4387],[-7.6916,8.6061],[-7.8037,8.7491],[-7.9589,8.782],[-7.9167,9.0123],[-7.7482,9.0754],[-7.9296,9.1839],[-7.8654,9.4099],[-8.0704,9.3975]]]}},{"type":"Feature","properties":{"sourceId":"1159317469","regionId":"region.aa7030d6-81ba-483e-8c57-7aa95c7ff3bb","countryId":"country.1knbk6o"},"geometry":{"type":"Polygon","coordinates":[[[-8.0672,8.0208],[-8.2795,8.1959],[-8.4297,8.217],[-8.4447,8.1238],[-8.5499,7.9345],[-8.5108,7.7633],[-8.5674,7.6882],[-8.4854,7.558],[-8.3032,7.5893],[-8.229,7.5443],[-8.1274,7.713],[-8.1289,7.8826],[-8.0672,8.0208]]]}},{"type":"Feature","properties":{"sourceId":"1159317417","regionId":"region.83811dd5-af0b-4f45-bf3d-dc7b4131431e","countryId":"country.1knbk6o"},"geometry":{"type":"Polygon","coordinates":[[[-13.3598,12.6497],[-13.7283,12.6734],[-13.7251,12.5581],[-13.6634,12.4758],[-13.6953,12.2925],[-13.3797,12.2433],[-13.2111,12.0154],[-13.0181,12.0169],[-12.8277,12.1542],[-12.7989,12.2397],[-12.5781,12.3615],[-12.648,12.4258],[-12.7733,12.4351],[-12.9131,12.5363],[-12.981,12.467],[-13.0827,12.5157],[-13.0765,12.6359],[-13.3598,12.6497]]]}},{"type":"Feature","properties":{"sourceId":"1159317425","regionId":"region.b8b8a3f0-4465-42a0-8af7-624709e5a641","countryId":"country.1knbk6o"},"geometry":{"type":"Polygon","coordinates":[[[-11.3884,12.4039],[-11.5154,12.4316],[-11.7578,12.3833],[-11.9352,12.417],[-12.0792,12.4081],[-12.3609,12.3056],[-12.5051,12.3903],[-12.5781,12.3615],[-12.7989,12.2397],[-12.8277,12.1542],[-12.8238,11.992],[-12.7802,11.8918],[-12.8087,11.7222],[-12.5006,11.7257],[-12.3175,11.7278],[-12.2002,11.7291],[-12.0771,11.663],[-11.9565,11.6529],[-11.8067,11.7141],[-11.6264,11.7291],[-11.4732,12.0566],[-11.4708,12.1346],[-11.5078,12.1916],[-11.3884,12.4039]]]}},{"type":"Feature","properties":{"sourceId":"1159317465","regionId":"region.626c31a6-27e4-48f6-8ae3-01317fd19fd2","countryId":"country.1knbk6o"},"geometry":{"type":"Polygon","coordinates":[[[-9.8728,8.5004],[-9.6835,8.4871],[-9.5792,8.3873],[-9.5108,8.261],[-9.4223,8.0158],[-9.4387,7.8662],[-9.3678,7.7575],[-9.1943,7.9039],[-9.0694,8.0532],[-9.0096,8.1118],[-8.9104,8.2981],[-8.8563,8.4633],[-8.9044,8.6346],[-8.9675,8.7457],[-8.9691,8.9619],[-9.1486,8.9107],[-9.2398,8.9192],[-9.2883,9.0816],[-9.3361,9.0897],[-9.4217,8.9287],[-9.5926,8.86],[-9.77,8.9003],[-9.7937,8.8269],[-9.9079,8.7548],[-9.9199,8.6917],[-9.8728,8.5004]]]}},{"type":"Feature","properties":{"sourceId":"1159317461","regionId":"region.f47d0186-cd85-4fb8-8b9e-2d4d44daa875","countryId":"country.1knbk6o"},"geometry":{"type":"Polygon","coordinates":[[[-9.4871,7.3732],[-9.4381,7.4216],[-9.2343,7.3813],[-9.2063,7.2984],[-9.1061,7.203],[-8.8578,7.273],[-8.8654,7.3469],[-8.7296,7.5087],[-8.7276,7.622],[-8.8845,7.666],[-9.0148,8.0134],[-9.0694,8.0532],[-9.1943,7.9039],[-9.3678,7.7575],[-9.3535,7.6224],[-9.4871,7.3732]]]}},{"type":"Feature","properties":{"sourceId":"1159315151","regionId":"region.3cb0e37d-3220-494b-80da-c5e973d78ff3","countryId":"country.1knbk6o"},"geometry":{"type":"Polygon","coordinates":[[[-8.5674,7.6882],[-8.5108,7.7633],[-8.5499,7.9345],[-8.4447,8.1238],[-8.4297,8.217],[-8.5379,8.271],[-8.5889,8.3492],[-8.7362,8.3582],[-8.9104,8.2981],[-9.0096,8.1118],[-9.0694,8.0532],[-9.0148,8.0134],[-8.8845,7.666],[-8.7276,7.622],[-8.6866,7.6944],[-8.5674,7.6882]]]}},{"type":"Feature","properties":{"sourceId":"1159317415","regionId":"region.85d720c8-64a4-4e7d-ac60-d144cf551b0b","countryId":"country.1knbk6o"},"geometry":{"type":"Polygon","coordinates":[[[-13.6953,12.2925],[-13.84,12.2771],[-13.9439,12.2186],[-13.9649,12.1479],[-13.7239,12.0028],[-13.7299,11.7098],[-13.8735,11.6945],[-14.0151,11.6371],[-14.048,11.5338],[-13.9338,11.4858],[-13.9098,11.3776],[-13.8066,11.292],[-13.5511,11.3642],[-13.2642,11.331],[-13.2457,11.1424],[-12.9687,11.1685],[-12.9897,11.2562],[-12.9303,11.3854],[-12.7042,11.5662],[-12.8087,11.7222],[-12.7802,11.8918],[-12.8238,11.992],[-12.8277,12.1542],[-13.0181,12.0169],[-13.2111,12.0154],[-13.3797,12.2433],[-13.6953,12.2925]]]}},{"type":"Feature","properties":{"sourceId":"1159315147","regionId":"region.c10f6801-8953-4137-b423-685574302e21","countryId":"country.1knbk6o"},"geometry":{"type":"Polygon","coordinates":[[[-14.0151,11.6371],[-14.2787,11.6651],[-14.4323,11.5606],[-14.5209,11.5129],[-14.6868,11.5107],[-14.8282,11.3348],[-14.8631,11.2186],[-15.021,10.9675],[-15.0811,10.8782],[-14.9732,10.8201],[-14.8988,10.9932],[-14.8435,10.9675],[-14.7493,10.8161],[-14.7928,10.745],[-14.6287,10.6173],[-14.6611,10.5426],[-14.5356,10.5075],[-14.4055,10.5934],[-14.2763,10.5995],[-14.1445,10.6691],[-13.9897,10.8619],[-13.8601,10.8899],[-13.7602,11.1645],[-13.8066,11.292],[-13.9098,11.3776],[-13.9338,11.4858],[-14.048,11.5338],[-14.0151,11.6371]]]}},{"type":"Feature","properties":{"sourceId":"1159317453","regionId":"region.c1a40d0b-c6e0-4b82-89d4-1a682a1422f4","countryId":"country.1knbk6o"},"geometry":{"type":"Polygon","coordinates":[[[-9.0278,12.4048],[-9.1473,12.4655],[-9.3215,12.4966],[-9.4126,12.4554],[-9.3085,12.345],[-9.4215,12.2571],[-9.6282,12.1702],[-9.723,12.0254],[-9.8888,12.0606],[-10.2077,11.8149],[-10.0651,11.641],[-10.0259,11.5449],[-10.0295,11.3775],[-9.8748,11.3025],[-9.8328,11.0381],[-9.6886,10.8729],[-9.3431,10.8668],[-9.2379,10.954],[-9.0697,11.0171],[-8.9224,11.1312],[-8.8533,11.4287],[-8.7265,11.6495],[-8.8472,11.6579],[-8.797,11.9132],[-8.8198,12.0127],[-8.9263,12.0643],[-8.9139,12.1699],[-8.9959,12.261],[-9.0278,12.4048]]]}},{"type":"Feature","properties":{"sourceId":"1159317427","regionId":"region.9df4dcaa-c0bf-4dcb-8e38-0a674f6bbdab","countryId":"country.1knbk6o"},"geometry":{"type":"Polygon","coordinates":[[[-11.4708,12.1346],[-11.4732,12.0566],[-11.6264,11.7291],[-11.8067,11.7141],[-11.9565,11.6529],[-12.0771,11.663],[-12.2002,11.7291],[-12.3175,11.7278],[-12.1041,11.3986],[-12.0555,11.291],[-12.0055,11.2866],[-11.8007,11.4347],[-11.6234,11.5098],[-11.5243,11.624],[-11.353,11.666],[-11.3513,12.0404],[-11.4708,12.1346]]]}},{"type":"Feature","properties":{"sourceId":"1159317429","regionId":"region.d060636a-d934-4374-998b-0250da438346","countryId":"country.1knbk6o"},"geometry":{"type":"Polygon","coordinates":[[[-11.3513,12.0404],[-11.353,11.666],[-11.5243,11.624],[-11.6234,11.5098],[-11.8007,11.4347],[-12.0055,11.2866],[-11.9115,11.1735],[-11.8881,11.0061],[-11.8131,11.0025],[-11.6636,11.0308],[-11.5029,11.1693],[-11.4727,11.2451],[-11.3062,11.3262],[-11.1459,11.4604],[-11.2158,11.5619],[-11.1391,11.6576],[-11.1193,11.8911],[-11.1846,12.0211],[-11.3513,12.0404]]]}},{"type":"Feature","properties":{"sourceId":"1159317449","regionId":"region.a8adeec5-5890-4eec-8dbc-f6f01a4d120c","countryId":"country.1knbk6o"},"geometry":{"type":"Polygon","coordinates":[[[-9.8888,12.0606],[-10.0602,12.1475],[-10.2669,12.2178],[-10.3814,12.1801],[-10.7114,11.8904],[-10.8078,12.0228],[-10.8049,12.096],[-10.9098,12.2001],[-11.0523,12.2025],[-11.1846,12.0211],[-11.1193,11.8911],[-11.1391,11.6576],[-11.2158,11.5619],[-11.1459,11.4604],[-11.3062,11.3262],[-11.2492,11.1843],[-11.4231,11.0642],[-11.4161,11.0291],[-11.1938,11.0261],[-11.1397,10.966],[-11.0255,10.96],[-10.8332,11.0892],[-10.7031,11.1126],[-10.6954,11.2279],[-10.5494,11.1745],[-10.3749,11.1781],[-10.3434,11.2695],[-10.3998,11.3989],[-10.3215,11.4665],[-10.1399,11.374],[-10.0295,11.3775],[-10.0259,11.5449],[-10.0651,11.641],[-10.2077,11.8149],[-9.8888,12.0606]]]}},{"type":"Feature","properties":{"sourceId":"1159317419","regionId":"region.5ae5e02c-833e-4910-a50f-15c10fa5c0d7","countryId":"country.1knbk6o"},"geometry":{"type":"Polygon","coordinates":[[[-13.6904,9.9508],[-13.7851,9.9896],[-13.9134,10.1169],[-13.819,10.2961],[-13.8106,10.3952],[-13.7325,10.4913],[-13.6243,10.5544],[-13.6124,10.7148],[-13.8,10.7408],[-13.8506,10.6912],[-14.0307,10.6406],[-14.1445,10.6691],[-14.2763,10.5995],[-14.4055,10.5934],[-14.5356,10.5075],[-14.5373,10.4036],[-14.463,10.33],[-14.4626,10.2252],[-14.3524,10.2262],[-14.1532,10.0557],[-13.9454,9.9669],[-13.7847,9.8502],[-13.6904,9.9508]]]}},{"type":"Feature","properties":{"sourceId":"1159317433","regionId":"region.0e8ac491-ac0a-4992-ba4d-579500f2365b","countryId":"country.1knbk6o"},"geometry":{"type":"Polygon","coordinates":[[[-13.6733,9.5738],[-13.6433,9.5425],[-13.5156,9.5245],[-13.5282,9.6501],[-13.4741,9.7342],[-13.4741,9.8994],[-13.393,9.9926],[-13.2818,9.9986],[-13.1136,10.2419],[-13.1346,10.4042],[-13.2121,10.3972],[-13.2946,10.3765],[-13.4081,10.2582],[-13.4839,10.2392],[-13.819,10.2961],[-13.9134,10.1169],[-13.7851,9.9896],[-13.6904,9.9508],[-13.7472,9.7678],[-13.6244,9.7203],[-13.6733,9.5738]]]}},{"type":"Feature","properties":{"sourceId":"1159315157","regionId":"region.a9551224-e0d9-4cce-a0e6-a9e7c348e415","countryId":"country.1knbk6o"},"geometry":{"type":"Polygon","coordinates":[[[-13.6433,9.5425],[-13.6733,9.5738],[-13.7058,9.5281],[-13.678,9.5227],[-13.6433,9.5425]]]}},{"type":"Feature","properties":{"sourceId":"1159317435","regionId":"region.19effc44-2640-45c3-bb15-4eb6e08a2744","countryId":"country.1knbk6o"},"geometry":{"type":"Polygon","coordinates":[[[-13.4867,9.5691],[-13.3179,9.638],[-13.2067,9.5629],[-13.0895,9.5629],[-13.1076,9.6501],[-13.2338,9.7462],[-13.2187,9.9385],[-13.2818,9.9986],[-13.393,9.9926],[-13.4741,9.8994],[-13.4741,9.7342],[-13.5282,9.6501],[-13.5156,9.5245],[-13.4867,9.5691]]]}},{"type":"Feature","properties":{"sourceId":"1159317447","regionId":"region.156f8ffb-6c6c-4e8f-b196-259742d60d69","countryId":"country.1knbk6o"},"geometry":{"type":"Polygon","coordinates":[[[-9.9552,9.669],[-10.021,9.7129],[-10.1691,9.7026],[-10.2529,9.6053],[-10.4177,9.6117],[-10.3886,9.4668],[-10.3916,9.2925],[-10.4782,9.1852],[-10.4416,9.085],[-10.2022,8.8723],[-10.0871,8.8831],[-9.98,8.943],[-9.77,8.9003],[-9.5926,8.86],[-9.4217,8.9287],[-9.3361,9.0897],[-9.3197,9.1964],[-9.2376,9.2457],[-9.2212,9.4262],[-9.3443,9.4672],[-9.5495,9.459],[-9.6293,9.5366],[-9.8334,9.5531],[-9.9552,9.669]]]}},{"type":"Feature","properties":{"sourceId":"1159317457","regionId":"region.24194de3-53ec-4855-874c-0adaef635f0f","countryId":"country.1knbk6o"},"geometry":{"type":"Polygon","coordinates":[[[-9.3361,9.0897],[-9.2883,9.0816],[-9.2398,8.9192],[-9.1486,8.9107],[-8.9691,8.9619],[-8.728,9.0721],[-8.6673,9.1949],[-8.4791,9.3808],[-8.4748,9.5209],[-8.5709,9.626],[-8.8143,9.6831],[-8.8834,9.7402],[-9.0246,9.7312],[-9.1778,9.638],[-9.2212,9.4262],[-9.2376,9.2457],[-9.3197,9.1964],[-9.3361,9.0897]]]}},{"type":"Feature","properties":{"sourceId":"1159317471","regionId":"region.9dfafd53-5adc-4f2e-83a0-45f88b7c790d","countryId":"country.1knbk6o"},"geometry":{"type":"Polygon","coordinates":[[[-12.9687,11.1685],[-13.2457,11.1424],[-13.2642,11.331],[-13.5511,11.3642],[-13.8066,11.292],[-13.7602,11.1645],[-13.8601,10.8899],[-13.9897,10.8619],[-14.1445,10.6691],[-14.0307,10.6406],[-13.8506,10.6912],[-13.8,10.7408],[-13.6124,10.7148],[-13.4049,10.7007],[-13.2089,10.5964],[-13.2121,10.3972],[-13.1346,10.4042],[-12.896,10.4699],[-12.9631,10.5847],[-12.9327,10.6467],[-12.9535,10.8848],[-12.8749,10.9861],[-12.9687,11.1685]]]}},{"type":"Feature","properties":{"sourceId":"1159317431","regionId":"region.3f71fdb0-5a4e-419b-be04-e2cd3b0bcb89","countryId":"country.1knbk6o"},"geometry":{"type":"Polygon","coordinates":[[[-12.8749,10.9861],[-12.8126,11.0001],[-12.7515,11.1911],[-12.6483,11.3135],[-12.5257,11.2992],[-12.4616,11.5128],[-12.5006,11.7257],[-12.8087,11.7222],[-12.7042,11.5662],[-12.9303,11.3854],[-12.9897,11.2562],[-12.9687,11.1685],[-12.8749,10.9861]]]}},{"type":"Feature","properties":{"sourceId":"1159317439","regionId":"region.f55dec3f-334a-4ffd-83b5-ba8741c8706a","countryId":"country.1knbk6o"},"geometry":{"type":"Polygon","coordinates":[[[-12.0055,11.2866],[-12.0555,11.291],[-12.1218,11.293],[-12.1822,11.1342],[-12.1341,11.0321],[-12.2573,11.0291],[-12.3835,10.954],[-12.4406,10.8368],[-12.6179,10.7317],[-12.6495,10.5287],[-12.5243,10.6093],[-12.4151,10.4912],[-12.2754,10.5814],[-12.1972,10.5934],[-12.029,10.7617],[-11.8217,10.8038],[-11.7796,10.8969],[-11.8131,11.0025],[-11.8881,11.0061],[-11.9115,11.1735],[-12.0055,11.2866]]]}},{"type":"Feature","properties":{"sourceId":"1159315141","regionId":"region.ceadaf2a-47a5-44ec-82e5-e0d41a06f392","countryId":"country.1knbk6o"},"geometry":{"type":"Polygon","coordinates":[[[-12.1218,11.293],[-12.0555,11.291],[-12.1041,11.3986],[-12.3175,11.7278],[-12.5006,11.7257],[-12.4616,11.5128],[-12.5257,11.2992],[-12.4847,11.1781],[-12.4163,11.1484],[-12.2544,11.1964],[-12.2354,11.2665],[-12.1218,11.293]]]}},{"type":"Feature","properties":{"sourceId":"1159317443","regionId":"region.21c42314-4757-4b42-9ed9-1e20d9dd2603","countryId":"country.1knbk6o"},"geometry":{"type":"Polygon","coordinates":[[[-12.1218,11.293],[-12.2354,11.2665],[-12.2544,11.1964],[-12.4163,11.1484],[-12.4847,11.1781],[-12.5257,11.2992],[-12.6483,11.3135],[-12.7515,11.1911],[-12.8126,11.0001],[-12.8749,10.9861],[-12.9535,10.8848],[-12.9327,10.6467],[-12.9631,10.5847],[-12.896,10.4699],[-12.8033,10.5213],[-12.714,10.4715],[-12.6495,10.5287],[-12.6179,10.7317],[-12.4406,10.8368],[-12.3835,10.954],[-12.2573,11.0291],[-12.1341,11.0321],[-12.1822,11.1342],[-12.1218,11.293]]]}},{"type":"Feature","properties":{"sourceId":"1159317451","regionId":"region.24bec1ca-a454-4a1b-bbf4-d8a1680944b8","countryId":"country.1knbk6o"},"geometry":{"type":"Polygon","coordinates":[[[-9.9552,9.669],[-9.8508,9.7011],[-9.7006,9.9024],[-9.7186,10.2029],[-9.6675,10.4372],[-9.3731,10.7497],[-9.3431,10.8668],[-9.6886,10.8729],[-9.8328,11.0381],[-9.8748,11.3025],[-10.0295,11.3775],[-10.1399,11.374],[-10.3215,11.4665],[-10.3998,11.3989],[-10.3434,11.2695],[-10.3749,11.1781],[-10.5494,11.1745],[-10.6954,11.2279],[-10.7031,11.1126],[-10.7115,11.0558],[-10.8906,10.8714],[-10.8643,10.808],[-10.6871,10.7497],[-10.5981,10.6621],[-10.5647,10.5937],[-10.4417,10.5059],[-10.2375,10.5125],[-10.1374,10.3989],[-10.2242,10.3268],[-10.2198,10.1679],[-10.3538,9.9991],[-10.3216,9.8955],[-10.414,9.7401],[-10.4177,9.6117],[-10.2529,9.6053],[-10.1691,9.7026],[-10.021,9.7129],[-9.9552,9.669]]]}},{"type":"Feature","properties":{"sourceId":"1159317421","regionId":"region.dcb2d541-082b-4dd5-834a-44e66f3f9388","countryId":"country.1knbk6o"},"geometry":{"type":"Polygon","coordinates":[[[-13.6124,10.7148],[-13.6243,10.5544],[-13.7325,10.4913],[-13.8106,10.3952],[-13.819,10.2961],[-13.4839,10.2392],[-13.4081,10.2582],[-13.2946,10.3765],[-13.2121,10.3972],[-13.2089,10.5964],[-13.4049,10.7007],[-13.6124,10.7148]]]}}]}