{"type":"FeatureCollection","features":[{"type":"Feature","properties":{"sourceId":"1159312773","regionId":"region.41578d67-8ade-4ab5-8027-cc6a4fafda4a","countryId":"country.sxojze"},"geometry":{"type":"Polygon","coordinates":[[[12.9606,50.4092],[13.0096,50.4927],[13.1601,50.497],[13.2323,50.582],[13.4479,50.5973],[13.6019,50.7122],[13.8345,50.7237],[14.3819,50.9209],[14.2875,51.0368],[14.5743,50.9755],[14.6083,50.8531],[14.8104,50.8584],[14.9553,51.064],[15.0195,51.2717],[14.9506,51.3965],[14.911,51.469],[14.7068,51.5408],[14.5093,51.5569],[14.3386,51.5099],[14.1588,51.5269],[13.9703,51.3592],[13.5217,51.3669],[13.4108,51.4214],[13.2522,51.3852],[13.1715,51.5662],[13.0617,51.6151],[12.9147,51.6499],[12.6621,51.6015],[12.4435,51.6015],[12.2354,51.5622],[12.157,51.449],[12.1323,51.2918],[12.2646,51.0838],[12.4837,51.0583],[12.6472,50.8999],[12.258,50.7925],[12.2788,50.6797],[12.1454,50.5625],[11.9894,50.5461],[11.9053,50.4152],[12.1013,50.314],[12.3365,50.2586],[12.5102,50.3888],[12.8258,50.4414],[12.9606,50.4092]]]}},{"type":"Feature","properties":{"sourceId":"1159312767","regionId":"region.b16c110b-ef68-48d7-a214-681bc395b7df","countryId":"country.sxojze"},"geometry":{"type":"Polygon","coordinates":[[[12.1013,50.314],[11.9053,50.4152],[11.5317,50.3784],[11.3467,50.5187],[11.2486,50.4726],[11.2803,50.3586],[10.7889,50.3863],[10.5924,50.3229],[10.238,50.5101],[10.055,50.5165],[10.0009,50.4484],[9.7667,50.4021],[9.6612,50.2344],[9.511,50.2362],[9.5067,50.1081],[9.2288,50.1438],[9.0103,50.0968],[9.0267,49.9074],[9.1467,49.7462],[9.1107,49.5751],[9.2534,49.5776],[9.4272,49.7082],[9.6531,49.7724],[9.7925,49.722],[9.9298,49.5504],[10.1275,49.5114],[10.1711,49.3843],[10.1469,49.2054],[10.2744,49.0502],[10.4674,48.915],[10.4242,48.702],[10.3131,48.6082],[10.315,48.5311],[10.0679,48.4722],[9.9806,48.3813],[10.0541,48.3049],[10.1362,48.1073],[10.087,47.9603],[10.1314,47.6879],[9.8646,47.6748],[9.6122,47.5877],[9.5541,47.5327],[9.9487,47.5242],[10.1909,47.3792],[10.175,47.2724],[10.3059,47.3022],[10.452,47.4388],[10.431,47.5422],[10.6079,47.5623],[10.7903,47.5161],[11.0837,47.3895],[11.2588,47.4007],[11.4126,47.5061],[11.5512,47.5137],[11.6205,47.5897],[11.8203,47.5753],[11.9359,47.6107],[12.1656,47.604],[12.2023,47.6778],[12.4241,47.6916],[12.5634,47.6418],[12.7448,47.6654],[12.7789,47.5548],[12.9425,47.4705],[13.0373,47.493],[13.0748,47.6467],[12.892,47.7235],[12.9912,47.8471],[12.8482,47.9824],[12.745,48.1206],[13.0328,48.2636],[13.2742,48.3071],[13.4056,48.3766],[13.5207,48.5846],[13.7143,48.5232],[13.8024,48.6117],[13.8157,48.7664],[13.7247,48.8673],[13.5224,48.9693],[13.3842,48.993],[13.2995,49.0936],[13.1785,49.1183],[12.9998,49.2949],[12.7978,49.3278],[12.6435,49.4295],[12.623,49.5098],[12.3836,49.7429],[12.5241,49.905],[12.4682,49.9702],[12.2469,50.045],[12.1013,50.314]]]}},{"type":"Feature","properties":{"sourceId":"1159312763","regionId":"region.8924d259-1f26-40fe-b4ea-d5fe40ba7ae8","countryId":"country.sxojze"},"geometry":{"type":"Polygon","coordinates":[[[6.1175,50.1205],[6.154,49.9512],[6.2956,49.8486],[6.5001,49.7945],[6.4917,49.7008],[6.3488,49.5253],[6.6051,49.5302],[6.9364,49.6272],[7.2675,49.5785],[7.3852,49.3697],[7.2947,49.2052],[7.3716,49.1662],[7.6449,49.0363],[7.9319,49.0348],[8.1999,48.9583],[8.3571,49.1096],[8.3807,49.2149],[8.4799,49.297],[8.4939,49.4426],[8.4168,49.5795],[8.3606,49.6645],[8.4391,49.7265],[8.3354,49.9596],[8.1738,50.0458],[7.9186,49.9739],[7.7714,50.0535],[7.9222,50.2001],[8.1227,50.2779],[8.0223,50.3891],[8.0003,50.5088],[8.1638,50.5858],[8.1345,50.684],[8.0563,50.6909],[7.9425,50.832],[7.7705,50.8549],[7.5995,50.7334],[7.3869,50.7037],[7.3715,50.6426],[6.9393,50.5548],[6.7601,50.4707],[6.795,50.3556],[6.5856,50.3774],[6.3734,50.3231],[6.1468,50.214],[6.1175,50.1205]]]}},{"type":"Feature","properties":{"sourceId":"1159312765","regionId":"region.07387683-73ac-4194-ae90-2029b7bbdb5b","countryId":"country.sxojze"},"geometry":{"type":"Polygon","coordinates":[[[6.3453,49.4553],[6.4945,49.4355],[6.7256,49.1556],[6.8435,49.2111],[7.2681,49.1056],[7.3716,49.1662],[7.2947,49.2052],[7.3852,49.3697],[7.2675,49.5785],[6.9364,49.6272],[6.6051,49.5302],[6.3488,49.5253],[6.3453,49.4553]]]}},{"type":"Feature","properties":{"sourceId":"1159309703","regionId":"region.96eb888a-23e1-4de8-99e8-ec8b671fbd95","countryId":"country.sxojze"},"geometry":{"type":"Polygon","coordinates":[[[9.4375,54.8104],[8.8242,54.9059],[8.6608,54.8963],[8.6887,54.7353],[9.0116,54.5063],[8.8607,54.4138],[8.6292,54.3877],[8.6519,54.2748],[8.888,54.3039],[8.8128,54.1805],[9.0183,54.0979],[8.8333,54.0364],[9.0078,53.8925],[9.2205,53.8908],[9.3952,53.831],[9.5508,53.6346],[9.7408,53.5726],[10.1423,53.7133],[10.2228,53.6337],[10.1832,53.529],[10.328,53.4327],[10.6012,53.3718],[10.6354,53.4452],[10.9544,53.5661],[10.9381,53.6847],[10.7609,53.7467],[10.7633,53.8651],[10.906,53.9612],[10.7526,54.0439],[11.0666,54.1839],[11.0774,54.3422],[10.9353,54.3795],[10.7771,54.3151],[10.2039,54.461],[10.02,54.5458],[9.9705,54.7626],[9.5544,54.8471],[9.4375,54.8104]]]}},{"type":"Feature","properties":{"sourceId":"1159315801","regionId":"region.7dd530d8-71c0-4556-970c-5abeb8385e82","countryId":"country.sxojze"},"geometry":{"type":"Polygon","coordinates":[[[7.0722,52.8413],[7.0367,52.6474],[6.7191,52.6268],[6.6951,52.4756],[7.0482,52.3651],[7.0266,52.2386],[7.3006,52.2718],[7.5616,52.3718],[7.6091,52.4756],[7.9736,52.3121],[7.9036,52.2004],[8.0175,52.1741],[8.0229,52.0662],[8.4862,52.17],[8.4277,52.3668],[8.4967,52.5065],[8.6321,52.5239],[8.7067,52.4073],[9.1284,52.4085],[8.9833,52.265],[9.0036,52.1334],[9.1355,52.1319],[9.21,51.9716],[9.4609,51.8317],[9.3898,51.7294],[9.4401,51.649],[9.6234,51.6295],[9.5968,51.5116],[9.6826,51.315],[9.808,51.4073],[9.9492,51.3818],[10.1497,51.4318],[10.3646,51.5424],[10.6542,51.5782],[10.6976,51.6374],[10.5853,51.7779],[10.6399,51.8836],[10.5902,51.9762],[10.6608,52.0447],[10.9456,52.0577],[11.0829,52.2251],[10.9391,52.4621],[10.9527,52.5933],[10.7569,52.7865],[10.762,52.8384],[11.0147,52.9119],[11.2643,52.8775],[11.502,52.9442],[11.5813,53.0429],[11.2741,53.1175],[11.0894,53.1442],[10.6012,53.3718],[10.328,53.4327],[10.0831,53.4509],[9.9093,53.4181],[9.764,53.5477],[9.5671,53.5996],[9.2747,53.8651],[8.8607,53.831],[8.6846,53.8885],[8.5733,53.8577],[8.4922,53.7152],[8.513,53.6171],[8.5572,53.5199],[8.3205,53.5092],[8.2053,53.4107],[8.0588,53.502],[8.168,53.5532],[7.9514,53.7219],[7.2261,53.6665],[7.0868,53.5869],[7.0233,53.4505],[7.0752,53.3376],[7.1946,53.245],[7.1836,52.9661],[7.0722,52.8413]],[[8.5645,53.2118],[8.7455,53.1916],[8.9899,53.0936],[8.9145,53.0246],[8.7027,53.0799],[8.5645,53.2118]]]}},{"type":"Feature","properties":{"sourceId":"1159310973","regionId":"region.0d58f23d-fa15-4420-b8d3-cfc6e7fbcfd9","countryId":"country.sxojze"},"geometry":{"type":"Polygon","coordinates":[[[6.7716,52.1088],[6.804,51.9844],[6.7167,51.8993],[6.3825,51.8276],[6.2252,51.8625],[5.928,51.8067],[5.9461,51.7463],[6.0992,51.6445],[6.1933,51.5093],[6.1836,51.3357],[6.0652,51.2316],[6.1324,51.1398],[5.9829,51.0747],[6.0637,50.9075],[5.9949,50.7499],[6.2329,50.5871],[6.3734,50.3231],[6.5856,50.3774],[6.795,50.3556],[6.7601,50.4707],[6.9393,50.5548],[7.3715,50.6426],[7.3869,50.7037],[7.5995,50.7334],[7.7705,50.8549],[7.9425,50.832],[8.0563,50.6909],[8.1345,50.684],[8.1393,50.785],[8.3641,50.8616],[8.7502,51.1728],[8.6855,51.3634],[8.9351,51.3913],[9.336,51.554],[9.4401,51.649],[9.3898,51.7294],[9.4609,51.8317],[9.21,51.9716],[9.1355,52.1319],[9.0036,52.1334],[8.9833,52.265],[9.1284,52.4085],[8.7067,52.4073],[8.6321,52.5239],[8.4967,52.5065],[8.4277,52.3668],[8.4862,52.17],[8.0229,52.0662],[8.0175,52.1741],[7.9036,52.2004],[7.9736,52.3121],[7.6091,52.4756],[7.5616,52.3718],[7.3006,52.2718],[7.0266,52.2386],[6.7716,52.1088]]]}},{"type":"Feature","properties":{"sourceId":"1159310975","regionId":"region.8f09be05-f15a-4598-b3a5-54fe36f0d89e","countryId":"country.sxojze"},"geometry":{"type":"Polygon","coordinates":[[[9.5475,47.5345],[9.5541,47.5327],[9.6122,47.5877],[9.8646,47.6748],[10.1314,47.6879],[10.087,47.9603],[10.1362,48.1073],[10.0541,48.3049],[9.9806,48.3813],[10.0679,48.4722],[10.315,48.5311],[10.3131,48.6082],[10.4242,48.702],[10.4674,48.915],[10.2744,49.0502],[10.1469,49.2054],[10.1711,49.3843],[10.1275,49.5114],[9.9298,49.5504],[9.7925,49.722],[9.6531,49.7724],[9.4272,49.7082],[9.2534,49.5776],[9.1107,49.5751],[9.0351,49.5013],[8.8284,49.5028],[8.6715,49.6226],[8.4168,49.5795],[8.4939,49.4426],[8.4799,49.297],[8.3807,49.2149],[8.3571,49.1096],[8.1999,48.9583],[8.1027,48.8213],[7.9701,48.7573],[7.8103,48.615],[7.752,48.3553],[7.582,48.1214],[7.6189,48.0027],[7.5259,47.7832],[7.586,47.5846],[7.6469,47.5514],[7.7273,47.5504],[8.0872,47.5674],[8.179,47.6158],[8.4211,47.5811],[8.5517,47.5969],[8.5763,47.595],[8.5936,47.6582],[8.4583,47.6399],[8.4636,47.7639],[8.635,47.7846],[8.8519,47.6713],[9.2732,47.6501],[9.5475,47.5345]]]}},{"type":"Feature","properties":{"sourceId":"1159315451","regionId":"region.f0facd9d-e959-402b-a9e5-b107252df287","countryId":"country.sxojze"},"geometry":{"type":"Polygon","coordinates":[[[14.608,52.5965],[14.216,52.818],[14.1445,52.9599],[14.3433,53.0486],[14.4416,53.2518],[14.3913,53.334],[14.2488,53.2591],[14.1032,53.2725],[14.2426,53.4271],[13.9206,53.4271],[13.8693,53.508],[13.5389,53.3967],[13.4058,53.2747],[13.154,53.2593],[13.001,53.1677],[12.5122,53.2727],[12.4301,53.2685],[12.1869,53.369],[11.8392,53.2265],[11.7002,53.2484],[11.5552,53.1461],[11.2741,53.1175],[11.5813,53.0429],[11.7629,52.9951],[11.9655,52.8852],[12.2033,52.8659],[12.1496,52.5199],[12.247,52.4424],[12.1991,52.1939],[12.4208,52.0116],[12.6668,51.9944],[13.0662,51.8526],[13.1816,51.7086],[13.0617,51.6151],[13.1715,51.5662],[13.2522,51.3852],[13.4108,51.4214],[13.5217,51.3669],[13.9703,51.3592],[14.1588,51.5269],[14.3386,51.5099],[14.5093,51.5569],[14.7068,51.5408],[14.7195,51.6756],[14.5858,51.8039],[14.7614,52.0767],[14.6864,52.121],[14.6969,52.2535],[14.6066,52.2758],[14.5398,52.4219],[14.6323,52.4967],[14.608,52.5965]],[[13.6263,52.487],[13.4581,52.4167],[13.0921,52.4137],[13.1574,52.6003],[13.2997,52.6513],[13.5033,52.6102],[13.6263,52.487]]]}},{"type":"Feature","properties":{"sourceId":"1159314907","regionId":"region.168ecfcb-2afb-4007-a407-0d30d2888a4f","countryId":"country.sxojze"},"geometry":{"type":"MultiPolygon","coordinates":[[[[14.2639,53.7],[13.9842,53.774],[13.8185,53.878],[13.8901,53.9129],[13.7581,54.031],[13.8081,54.1047],[13.6834,54.168],[13.4793,54.1252],[13.2888,54.2343],[13.1149,54.28],[13.0088,54.4381],[12.876,54.3654],[12.502,54.4736],[12.3421,54.3039],[12.1089,54.183],[11.6579,54.1422],[11.4917,54.0023],[11.459,53.9167],[11.2429,53.9452],[11.1751,54.018],[10.906,53.9612],[10.7633,53.8651],[10.7609,53.7467],[10.9381,53.6847],[10.9544,53.5661],[10.6354,53.4452],[10.6012,53.3718],[11.0894,53.1442],[11.2741,53.1175],[11.5552,53.1461],[11.7002,53.2484],[11.8392,53.2265],[12.1869,53.369],[12.4301,53.2685],[12.5122,53.2727],[13.001,53.1677],[13.154,53.2593],[13.4058,53.2747],[13.5389,53.3967],[13.8693,53.508],[13.9206,53.4271],[14.2426,53.4271],[14.1032,53.2725],[14.2488,53.2591],[14.3913,53.334],[14.3042,53.5085],[14.2639,53.7]]],[[[14.2101,53.9385],[14.0513,54.0051],[13.9019,53.9698],[13.9317,53.8993],[13.8753,53.8441],[14.2008,53.8782],[14.2101,53.9385]]],[[[13.6983,54.3921],[13.5755,54.4719],[13.1664,54.5494],[13.2512,54.3869],[13.1155,54.3381],[13.347,54.2375],[13.4997,54.3449],[13.6983,54.3921]]]]}},{"type":"Feature","properties":{"sourceId":"1159310981","regionId":"region.07352631-1278-4bd7-9be3-4dda90b9c619","countryId":"country.sxojze"},"geometry":{"type":"Polygon","coordinates":[[[8.5645,53.2118],[8.7027,53.0799],[8.9145,53.0246],[8.9899,53.0936],[8.7455,53.1916],[8.5645,53.2118]]]}},{"type":"Feature","properties":{"sourceId":"1159310985","regionId":"region.9be21b10-460c-40e0-bb7f-98bb41a005e9","countryId":"country.sxojze"},"geometry":{"type":"Polygon","coordinates":[[[9.764,53.5477],[9.9093,53.4181],[10.0831,53.4509],[10.328,53.4327],[10.1832,53.529],[10.2228,53.6337],[10.1423,53.7133],[9.7408,53.5726],[9.764,53.5477]]]}},{"type":"Feature","properties":{"sourceId":"1159310977","regionId":"region.e9b05015-6eff-41a7-a752-93231a2cd6f0","countryId":"country.sxojze"},"geometry":{"type":"Polygon","coordinates":[[[9.9492,51.3818],[9.808,51.4073],[9.6826,51.315],[9.5968,51.5116],[9.6234,51.6295],[9.4401,51.649],[9.336,51.554],[8.9351,51.3913],[8.6855,51.3634],[8.7502,51.1728],[8.3641,50.8616],[8.1393,50.785],[8.1345,50.684],[8.1638,50.5858],[8.0003,50.5088],[8.0223,50.3891],[8.1227,50.2779],[7.9222,50.2001],[7.7714,50.0535],[7.9186,49.9739],[8.1738,50.0458],[8.3354,49.9596],[8.4391,49.7265],[8.3606,49.6645],[8.4168,49.5795],[8.6715,49.6226],[8.8284,49.5028],[9.0351,49.5013],[9.1107,49.5751],[9.1467,49.7462],[9.0267,49.9074],[9.0103,50.0968],[9.2288,50.1438],[9.5067,50.1081],[9.511,50.2362],[9.6612,50.2344],[9.7667,50.4021],[10.0009,50.4484],[10.055,50.5165],[10.0521,50.6696],[9.9132,50.6927],[9.9494,50.8152],[10.056,50.8826],[10.0511,51.007],[10.2303,51.1843],[9.947,51.3039],[9.9492,51.3818]]]}},{"type":"Feature","properties":{"sourceId":"1159310983","regionId":"region.f8d2e5d8-e59a-4996-b1ad-504296f12c92","countryId":"country.sxojze"},"geometry":{"type":"Polygon","coordinates":[[[9.9492,51.3818],[9.947,51.3039],[10.2303,51.1843],[10.0511,51.007],[10.056,50.8826],[9.9494,50.8152],[9.9132,50.6927],[10.0521,50.6696],[10.055,50.5165],[10.238,50.5101],[10.5924,50.3229],[10.7889,50.3863],[11.2803,50.3586],[11.2486,50.4726],[11.3467,50.5187],[11.5317,50.3784],[11.9053,50.4152],[11.9894,50.5461],[12.1454,50.5625],[12.2788,50.6797],[12.258,50.7925],[12.6472,50.8999],[12.4837,51.0583],[12.2646,51.0838],[12.1595,50.952],[12.0046,50.949],[11.6891,51.0919],[11.4274,51.0988],[11.3445,51.2044],[11.4519,51.2715],[11.3149,51.3833],[10.9991,51.4087],[10.9115,51.5711],[10.6976,51.6374],[10.6542,51.5782],[10.3646,51.5424],[10.1497,51.4318],[9.9492,51.3818]]]}},{"type":"Feature","properties":{"sourceId":"1159312771","regionId":"region.e34538a4-015f-4a18-bb0e-fb6ce1eece84","countryId":"country.sxojze"},"geometry":{"type":"Polygon","coordinates":[[[10.6976,51.6374],[10.9115,51.5711],[10.9991,51.4087],[11.3149,51.3833],[11.4519,51.2715],[11.3445,51.2044],[11.4274,51.0988],[11.6891,51.0919],[12.0046,50.949],[12.1595,50.952],[12.2646,51.0838],[12.1323,51.2918],[12.157,51.449],[12.2354,51.5622],[12.4435,51.6015],[12.6621,51.6015],[12.9147,51.6499],[13.0617,51.6151],[13.1816,51.7086],[13.0662,51.8526],[12.6668,51.9944],[12.4208,52.0116],[12.1991,52.1939],[12.247,52.4424],[12.1496,52.5199],[12.2033,52.8659],[11.9655,52.8852],[11.7629,52.9951],[11.5813,53.0429],[11.502,52.9442],[11.2643,52.8775],[11.0147,52.9119],[10.762,52.8384],[10.7569,52.7865],[10.9527,52.5933],[10.9391,52.4621],[11.0829,52.2251],[10.9456,52.0577],[10.6608,52.0447],[10.5902,51.9762],[10.6399,51.8836],[10.5853,51.7779],[10.6976,51.6374]]]}},{"type":"Feature","properties":{"sourceId":"1159312769","regionId":"region.5f47a37a-3599-4364-921c-94bd02bebff8","countryId":"country.sxojze"},"geometry":{"type":"Polygon","coordinates":[[[13.6263,52.487],[13.5033,52.6102],[13.2997,52.6513],[13.1574,52.6003],[13.0921,52.4137],[13.4581,52.4167],[13.6263,52.487]]]}}]}