{"type":"FeatureCollection","features":[{"type":"Feature","properties":{"sourceId":"1159310937","regionId":"region.200d0dbe-741f-46c0-9ad8-3bfcc998fc1f","countryId":"country.1nths69"},"geometry":{"type":"Polygon","coordinates":[[[19.4489,49.6004],[19.2487,49.5163],[19.1725,49.4023],[18.9623,49.3892],[18.9322,49.5043],[18.8332,49.5103],[18.5356,49.4817],[18.387,49.3776],[18.3616,49.3302],[18.5613,49.1598],[18.6027,49.0353],[18.7059,48.9538],[18.7061,48.8538],[18.833,48.7442],[19.001,48.7469],[19.0392,48.8767],[19.5615,48.9424],[19.7428,48.9009],[19.9962,48.9066],[20.0272,49.1033],[19.8683,49.2008],[19.7607,49.1942],[19.7693,49.3931],[19.627,49.4019],[19.4489,49.6004]]]}},{"type":"Feature","properties":{"sourceId":"1159310949","regionId":"region.e0820ba7-9072-4fab-b3b2-0a99c60f106a","countryId":"country.1nths69"},"geometry":{"type":"Polygon","coordinates":[[[21.5144,49.4172],[21.2744,49.4473],[21.0535,49.4145],[20.9424,49.2959],[20.7783,49.3312],[20.6895,49.4005],[20.5221,49.3744],[20.3295,49.3918],[20.1302,49.3039],[20.07,49.1831],[19.8683,49.2008],[20.0272,49.1033],[19.9962,48.9066],[20.2727,48.8728],[20.424,49.002],[20.6455,48.9517],[20.7642,48.9973],[20.9865,48.9553],[21.3075,48.831],[21.4588,48.8727],[21.5367,48.7938],[21.6975,48.7601],[21.796,48.7958],[21.7856,48.8953],[21.9929,48.8422],[22.3708,48.8582],[22.5396,49.0722],[22.3901,49.093],[22.0124,49.2111],[21.9932,49.2782],[21.8196,49.3772],[21.5144,49.4172]]]}},{"type":"Feature","properties":{"sourceId":"1159310947","regionId":"region.4083d21e-0dcc-4733-8571-1484bb4d931d","countryId":"country.1nths69"},"geometry":{"type":"Polygon","coordinates":[[[22.3708,48.8582],[21.9929,48.8422],[21.7856,48.8953],[21.796,48.7958],[21.6975,48.7601],[21.5367,48.7938],[21.4588,48.8727],[21.3075,48.831],[20.9865,48.9553],[20.7642,48.9973],[20.6455,48.9517],[20.424,49.002],[20.2727,48.8728],[20.1883,48.7274],[20.3476,48.5994],[20.336,48.4627],[20.466,48.4638],[20.4817,48.5261],[20.7841,48.5691],[21.1093,48.4891],[21.4246,48.5613],[21.7277,48.3409],[22.1328,48.4048],[22.1537,48.5859],[22.3225,48.7003],[22.3708,48.8582]]]}},{"type":"Feature","properties":{"sourceId":"1159310933","regionId":"region.fefbbd0f-44d1-47a9-9f04-8e45c6f96ad6","countryId":"country.1nths69"},"geometry":{"type":"Polygon","coordinates":[[[17.1483,48.0054],[17.2623,48.0073],[17.4035,48.1622],[17.5322,48.202],[17.4776,48.3599],[17.2299,48.5735],[16.9491,48.5448],[16.8445,48.3656],[17.0625,48.1127],[17.1483,48.0054]]]}},{"type":"Feature","properties":{"sourceId":"1159310945","regionId":"region.5ba26df0-70af-4339-8dbd-e462b70f639f","countryId":"country.1nths69"},"geometry":{"type":"Polygon","coordinates":[[[16.9491,48.5448],[17.2299,48.5735],[17.4776,48.3599],[17.5322,48.202],[17.4035,48.1622],[17.2623,48.0073],[17.7192,47.7737],[17.886,47.9117],[17.8773,48.0568],[17.8127,48.1566],[17.8835,48.219],[17.8593,48.3519],[17.9683,48.4642],[17.8512,48.5229],[17.9881,48.6161],[17.71,48.6837],[17.5336,48.6284],[17.4112,48.8302],[17.1675,48.8598],[17.0253,48.7463],[16.945,48.6042],[16.9491,48.5448]]]}},{"type":"Feature","properties":{"sourceId":"1159310941","regionId":"region.b7019b73-f841-4696-b10a-014b71443fbd","countryId":"country.1nths69"},"geometry":{"type":"Polygon","coordinates":[[[18.3616,49.3302],[18.19,49.2769],[18.1029,49.0923],[17.9141,49.0105],[17.646,48.8418],[17.4112,48.8302],[17.5336,48.6284],[17.71,48.6837],[17.9881,48.6161],[18.1161,48.6919],[18.228,48.5715],[18.3666,48.4918],[18.4899,48.5492],[18.7093,48.63],[18.833,48.7442],[18.7061,48.8538],[18.7059,48.9538],[18.6027,49.0353],[18.5613,49.1598],[18.3616,49.3302]]]}},{"type":"Feature","properties":{"sourceId":"1159310935","regionId":"region.3b99c3df-9174-4e6d-a43d-4b5fde5d24f7","countryId":"country.1nths69"},"geometry":{"type":"Polygon","coordinates":[[[20.466,48.4638],[20.336,48.4627],[20.3476,48.5994],[20.1883,48.7274],[20.2727,48.8728],[19.9962,48.9066],[19.7428,48.9009],[19.5615,48.9424],[19.0392,48.8767],[19.001,48.7469],[18.833,48.7442],[18.7093,48.63],[18.4899,48.5492],[18.5757,48.3448],[18.7548,48.4141],[18.8548,48.3065],[18.872,48.1628],[19.0577,48.2068],[19.019,48.0655],[19.4282,48.0859],[19.503,48.1894],[19.6232,48.227],[19.7667,48.159],[19.9051,48.1243],[20.0383,48.1772],[20.1345,48.2467],[20.2724,48.2525],[20.466,48.4638]]]}},{"type":"Feature","properties":{"sourceId":"1159310939","regionId":"region.ef7679a5-b556-48d3-a9e1-802faf46820b","countryId":"country.1nths69"},"geometry":{"type":"Polygon","coordinates":[[[19.019,48.0655],[19.0577,48.2068],[18.872,48.1628],[18.8548,48.3065],[18.7548,48.4141],[18.5757,48.3448],[18.4899,48.5492],[18.3666,48.4918],[18.228,48.5715],[18.1161,48.6919],[17.9881,48.6161],[17.8512,48.5229],[17.9683,48.4642],[17.8593,48.3519],[17.8835,48.219],[17.8127,48.1566],[17.8773,48.0568],[17.886,47.9117],[17.7192,47.7737],[17.8835,47.7525],[18.2359,47.7539],[18.5526,47.7928],[18.6928,47.778],[18.8149,47.8322],[18.7548,47.9518],[18.9336,48.0543],[19.019,48.0655]]]}}]}