{"type":"FeatureCollection","features":[{"type":"Feature","properties":{"sourceId":"1159316425","regionId":"region.760acf97-8ded-4b5d-a5f9-3613452ca2f4","countryId":"country.4c29f8cf-400e-4d36-ac63-b9fd94058944"},"geometry":{"type":"Polygon","coordinates":[[[-62.6216,17.1283],[-62.5786,17.1455],[-62.6264,17.1407],[-62.6216,17.1283]]]}},{"type":"Feature","properties":{"sourceId":"1159316423","regionId":"region.ddfb913c-eace-4fc7-a2a2-1514dd5a50ea","countryId":"country.4c29f8cf-400e-4d36-ac63-b9fd94058944"},"geometry":{"type":"Polygon","coordinates":[[[-62.5657,17.1005],[-62.5786,17.1455],[-62.6216,17.1283],[-62.5657,17.1005]]]}},{"type":"Feature","properties":{"sourceId":"1159316421","regionId":"region.c0e68355-5391-4502-a992-4bee392d362f","countryId":"country.4c29f8cf-400e-4d36-ac63-b9fd94058944"},"geometry":{"type":"Polygon","coordinates":[[[-62.537,17.1384],[-62.5786,17.1455],[-62.5657,17.1005],[-62.537,17.1384]]]}},{"type":"Feature","properties":{"sourceId":"1159315547","regionId":"region.b9343088-3ce1-463a-99e5-d80158d0aae1","countryId":"country.4c29f8cf-400e-4d36-ac63-b9fd94058944"},"geometry":{"type":"Polygon","coordinates":[[[-62.6125,17.1891],[-62.5786,17.1455],[-62.537,17.1384],[-62.6125,17.1891]]]}},{"type":"Feature","properties":{"sourceId":"1159316427","regionId":"region.e727ea64-bc85-408a-b075-4aa0933f69db","countryId":"country.4c29f8cf-400e-4d36-ac63-b9fd94058944"},"geometry":{"type":"Polygon","coordinates":[[[-62.6264,17.1407],[-62.5786,17.1455],[-62.6125,17.1891],[-62.6264,17.1407]]]}},{"type":"Feature","properties":{"sourceId":"1159316439","regionId":"region.706904f7-18a5-44f0-af04-b7ae39e80b28","countryId":"country.4c29f8cf-400e-4d36-ac63-b9fd94058944"},"geometry":{"type":"Polygon","coordinates":[[[-62.8566,17.3804],[-62.8076,17.3667],[-62.8223,17.4101],[-62.8566,17.3804]]]}},{"type":"Feature","properties":{"sourceId":"1159316437","regionId":"region.91a67fcf-13ee-4e6b-87fe-468adeb62ceb","countryId":"country.4c29f8cf-400e-4d36-ac63-b9fd94058944"},"geometry":{"type":"Polygon","coordinates":[[[-62.8316,17.3301],[-62.8076,17.3667],[-62.8566,17.3804],[-62.8316,17.3301]]]}},{"type":"Feature","properties":{"sourceId":"1159316435","regionId":"region.f21ab168-1f57-408a-856b-73953567b463","countryId":"country.4c29f8cf-400e-4d36-ac63-b9fd94058944"},"geometry":{"type":"Polygon","coordinates":[[[-62.7716,17.298],[-62.7544,17.331],[-62.7875,17.3498],[-62.8076,17.3667],[-62.8316,17.3301],[-62.7716,17.298]]]}},{"type":"Feature","properties":{"sourceId":"1159316431","regionId":"region.b7189459-b0c0-4855-a724-f322dc55f9c8","countryId":"country.4c29f8cf-400e-4d36-ac63-b9fd94058944"},"geometry":{"type":"Polygon","coordinates":[[[-62.7238,17.2917],[-62.7343,17.3187],[-62.7382,17.3304],[-62.7453,17.331],[-62.7544,17.331],[-62.7716,17.298],[-62.7238,17.2917]]]}},{"type":"Feature","properties":{"sourceId":"1159316429","regionId":"region.84e38f78-1740-4b17-bd30-e7a050182a36","countryId":"country.4c29f8cf-400e-4d36-ac63-b9fd94058944"},"geometry":{"type":"Polygon","coordinates":[[[-62.6812,17.2994],[-62.7343,17.3187],[-62.7238,17.2917],[-62.6812,17.2994]]]}},{"type":"Feature","properties":{"sourceId":"1159316447","regionId":"region.fe1ed063-5575-40a4-adde-c4dfd2578c8f","countryId":"country.4c29f8cf-400e-4d36-ac63-b9fd94058944"},"geometry":{"type":"Polygon","coordinates":[[[-62.7036,17.3416],[-62.7382,17.3304],[-62.7343,17.3187],[-62.6812,17.2994],[-62.7036,17.3416]]]}},{"type":"Feature","properties":{"sourceId":"1159316445","regionId":"region.80e95a0a-479a-437b-92cc-b0f2d8b92c2b","countryId":"country.4c29f8cf-400e-4d36-ac63-b9fd94058944"},"geometry":{"type":"Polygon","coordinates":[[[-62.7305,17.3646],[-62.7453,17.331],[-62.7382,17.3304],[-62.7036,17.3416],[-62.7305,17.3646]]]}},{"type":"Feature","properties":{"sourceId":"1159316443","regionId":"region.5f9df63b-61cf-473f-9378-54e0c9338057","countryId":"country.4c29f8cf-400e-4d36-ac63-b9fd94058944"},"geometry":{"type":"Polygon","coordinates":[[[-62.7694,17.387],[-62.7875,17.3498],[-62.7544,17.331],[-62.7453,17.331],[-62.7305,17.3646],[-62.7694,17.387]]]}},{"type":"Feature","properties":{"sourceId":"1159316441","regionId":"region.1d854a4d-5c05-45c1-9c79-0d4d9b7578e6","countryId":"country.4c29f8cf-400e-4d36-ac63-b9fd94058944"},"geometry":{"type":"Polygon","coordinates":[[[-62.8223,17.4101],[-62.8076,17.3667],[-62.7875,17.3498],[-62.7694,17.387],[-62.8223,17.4101]]]}}]}