{"type":"FeatureCollection","features":[{"type":"Feature","properties":{"sourceId":"1159309907","regionId":"region.6e2ba404-c9d6-441a-beed-e0573a348a7f","countryId":"country.zvvq7v"},"geometry":{"type":"Polygon","coordinates":[[[140.9769,-4.9885],[142.2089,-5.4069],[142.2928,-5.352],[142.3572,-5.1629],[142.3236,-4.9678],[142.2987,-4.6777],[142.1962,-4.6183],[141.4949,-4.6132],[141.3678,-4.588],[141.3356,-4.3321],[141.3643,-4.2589],[141.7156,-4.0216],[141.8483,-4.0852],[142.4575,-4.0753],[142.5127,-4.0621],[142.6388,-3.8266],[142.6046,-3.7157],[142.6026,-3.5555],[142.6637,-3.4397],[142.7561,-3.41],[142.9972,-3.5139],[143.0783,-3.4888],[143.0851,-3.3531],[143.0293,-3.3556],[142.502,-3.1961],[142.1819,-3.0802],[142,-2.956],[141.9055,-2.9672],[141.5762,-2.794],[141.3382,-2.7018],[141.2759,-2.6423],[141.043,-2.5898],[140.9745,-2.6005],[140.9735,-3.8],[140.9769,-4.9885]]]}},{"type":"Feature","properties":{"sourceId":"1159309867","regionId":"region.686e24ee-b8f5-4ace-926d-aebd2bf208b3","countryId":"country.zvvq7v"},"geometry":{"type":"MultiPolygon","coordinates":[[[[140.9769,-4.9885],[140.9769,-5.6212],[140.9769,-6.3351],[140.9435,-6.5075],[140.8593,-6.6084],[140.8492,-6.7028],[140.916,-6.8627],[140.9772,-6.8966],[140.9769,-7.9621],[140.977,-9.1061],[141.115,-9.2184],[141.2319,-9.2127],[141.3101,-9.1521],[141.4217,-9.1503],[141.51,-9.215],[141.6349,-9.232],[141.783,-9.1999],[141.8684,-9.2204],[142.2234,-9.1612],[142.4651,-9.2405],[142.5773,-9.3238],[142.6526,-9.3303],[143.1734,-9.0429],[143.3148,-9.0235],[143.4055,-8.9622],[143.3999,-8.7822],[143.2616,-8.5924],[143.1316,-8.486],[142.8997,-8.4129],[142.9805,-8.3356],[143.3379,-8.2477],[143.5921,-8.242],[143.6276,-8.1863],[143.548,-8.0317],[143.6509,-7.9814],[143.7673,-8.0402],[143.9429,-7.9916],[143.0023,-7.0382],[142.9987,-6.837],[142.8138,-6.837],[142.6802,-6.8093],[142.655,-6.7116],[142.6495,-5.992],[142.5376,-5.8572],[142.2007,-5.5311],[142.2089,-5.4069],[140.9769,-4.9885]]],[[[143.6084,-8.6381],[143.4749,-8.5253],[143.4123,-8.5956],[143.6084,-8.6381]]],[[[143.3794,-8.426],[143.5301,-8.4855],[143.5737,-8.3737],[143.3732,-8.3713],[143.3794,-8.426]]]]}},{"type":"Feature","properties":{"sourceId":"1159309893","regionId":"region.90742eae-f386-4f7c-a9bf-9dfb1b061782","countryId":"country.zvvq7v"},"geometry":{"type":"Polygon","coordinates":[[[143.0851,-3.3531],[143.0783,-3.4888],[142.9972,-3.5139],[142.7561,-3.41],[142.6637,-3.4397],[142.6026,-3.5555],[142.6046,-3.7157],[142.6388,-3.8266],[142.5127,-4.0621],[142.4575,-4.0753],[141.8483,-4.0852],[141.7156,-4.0216],[141.3643,-4.2589],[141.3356,-4.3321],[141.3678,-4.588],[141.4949,-4.6132],[142.1962,-4.6183],[142.2987,-4.6777],[142.3236,-4.9678],[142.7087,-4.9855],[142.7632,-5.0197],[142.9008,-5.0607],[143.0639,-5.072],[143.1821,-5.044],[143.9686,-4.9807],[144.0469,-4.9663],[144.4456,-4.6689],[144.5635,-4.4802],[144.5817,-3.9958],[144.5134,-3.8176],[144.355,-3.798],[144.2036,-3.8378],[143.9959,-3.7931],[143.818,-3.6217],[143.6187,-3.5449],[143.4779,-3.4206],[143.0851,-3.3531]]]}},{"type":"Feature","properties":{"sourceId":"1159309693","regionId":"region.99737026-840e-4985-a760-e0277252d6a1","countryId":"country.zvvq7v"},"geometry":{"type":"MultiPolygon","coordinates":[[[[144.5817,-3.9958],[144.5635,-4.4802],[144.4456,-4.6689],[144.0469,-4.9663],[143.9686,-4.9807],[143.9819,-5.0225],[144.1607,-5.1387],[144.2472,-5.2627],[144.3587,-5.2467],[144.5045,-5.2998],[144.7244,-5.484],[144.8234,-5.5338],[145.038,-5.7877],[145.1664,-5.8745],[145.3496,-5.8582],[145.4371,-5.9504],[145.5639,-5.9198],[145.8185,-5.9612],[145.8679,-5.9963],[146.4803,-5.9988],[146.7934,-5.8162],[146.6566,-5.7491],[146.4609,-5.5993],[146.2849,-5.5826],[145.9563,-5.4747],[145.7596,-5.477],[145.7274,-5.4225],[145.8108,-5.0665],[145.7854,-4.9687],[145.8119,-4.861],[145.6902,-4.7682],[145.3457,-4.3902],[145.1813,-4.3902],[145.051,-4.3419],[144.8678,-4.0992],[144.7303,-4.0261],[144.5817,-3.9958]]],[[[147.2096,-5.27],[147.134,-5.1909],[147.0181,-5.2439],[147.0104,-5.3349],[147.1272,-5.4433],[147.2273,-5.4096],[147.2096,-5.27]]],[[[145.9968,-4.5343],[145.9065,-4.5905],[145.8757,-4.6868],[145.9392,-4.7609],[146.0447,-4.7011],[146.0481,-4.5851],[145.9968,-4.5343]]]]}},{"type":"Feature","properties":{"sourceId":"1159309887","regionId":"region.c482c1d3-09e4-4b0c-82b1-d32bbf553879","countryId":"country.zvvq7v"},"geometry":{"type":"MultiPolygon","coordinates":[[[[146.7934,-5.8162],[146.4803,-5.9988],[145.8679,-5.9963],[145.9351,-6.0896],[146.1134,-6.199],[146.1287,-6.2491],[146.0392,-6.675],[145.9911,-6.7499],[146.0153,-6.8838],[145.9323,-6.9847],[145.8463,-7.2368],[146.0955,-7.5364],[146.411,-7.6267],[146.6256,-7.7712],[146.7081,-7.8268],[146.7421,-7.9587],[146.9918,-8.0002],[147.9774,-8.0041],[147.8765,-7.9372],[147.7268,-7.9321],[147.6834,-7.8107],[147.6069,-7.8165],[147.5813,-7.7037],[147.3545,-7.5153],[147.2302,-7.4869],[147.1619,-7.3906],[147.1414,-7.2131],[147.0691,-7.1462],[147.0583,-7.0549],[146.9562,-6.9547],[146.9421,-6.8357],[146.9773,-6.7404],[147.1321,-6.711],[147.1948,-6.7385],[147.7756,-6.7179],[147.854,-6.691],[147.8675,-6.4763],[147.8267,-6.3354],[147.7262,-6.2722],[147.6218,-6.1066],[147.4491,-5.9616],[147.2891,-5.9313],[147.2438,-5.9661],[147.0422,-5.9387],[146.9329,-5.842],[146.7934,-5.8162]]],[[[148.0492,-5.6061],[147.7819,-5.4953],[147.7691,-5.6117],[147.8958,-5.7707],[148.0246,-5.842],[148.0676,-5.7468],[148.0492,-5.6061]]]]}},{"type":"Feature","properties":{"sourceId":"1159308859","regionId":"region.6e28c2a1-6590-4a52-9953-e4d5936076b3","countryId":"country.zvvq7v"},"geometry":{"type":"Polygon","coordinates":[[[147.9774,-8.0041],[146.9918,-8.0002],[147.3007,-8.2868],[147.5568,-8.4499],[147.6188,-8.5616],[147.5102,-8.7534],[147.5059,-8.8487],[147.695,-9.0698],[147.8129,-9.1656],[148.029,-9.4231],[148.0279,-9.5399],[148.2975,-9.7473],[148.3902,-9.7549],[148.5424,-9.8585],[148.8205,-9.9601],[148.9826,-9.9093],[148.9563,-9.7855],[148.9932,-9.6927],[149.102,-9.7044],[149.4614,-9.5941],[149.2266,-9.4867],[149.1829,-9.3681],[149.3067,-9.1174],[149.2437,-8.9972],[148.8916,-9.051],[148.7583,-9.1037],[148.6211,-9.0838],[148.5593,-9.0325],[148.4963,-8.883],[148.4868,-8.7472],[148.4368,-8.6662],[148.2376,-8.5693],[148.2108,-8.3061],[148.114,-8.0554],[147.9774,-8.0041]]]}},{"type":"Feature","properties":{"sourceId":"1159309831","regionId":"region.fb2f744e-670d-4a46-b6e2-4b89b697baf4","countryId":"country.zvvq7v"},"geometry":{"type":"MultiPolygon","coordinates":[[[[149.4614,-9.5941],[149.102,-9.7044],[148.9932,-9.6927],[148.9563,-9.7855],[149.0688,-9.7736],[149.2671,-9.8381],[149.3291,-9.9234],[149.6536,-10.0905],[149.6783,-10.3365],[149.7484,-10.3383],[149.9403,-10.4406],[150.0674,-10.6399],[150.2113,-10.7013],[150.3193,-10.662],[150.4157,-10.6819],[150.6929,-10.5567],[150.6473,-10.477],[150.3469,-10.3653],[150.3999,-10.3002],[150.6154,-10.3445],[150.5877,-10.2447],[150.4578,-10.197],[150.301,-10.1793],[150.1968,-10.0951],[149.9395,-10.0624],[149.7254,-9.8478],[149.731,-9.8093],[150.0559,-9.715],[150.0122,-9.6422],[149.731,-9.5978],[149.6199,-9.6209],[149.4614,-9.5941]]],[[[153.7616,-11.5859],[153.6956,-11.5213],[153.5479,-11.4846],[153.2578,-11.3534],[153.2717,-11.4533],[153.3906,-11.505],[153.4356,-11.5784],[153.6082,-11.6126],[153.7616,-11.5859]]],[[[154.2817,-11.3482],[154.0912,-11.3206],[154.0962,-11.4291],[154.2817,-11.3482]]],[[[151.177,-9.9547],[151.1276,-10.0422],[151.0354,-9.9846],[150.917,-9.8305],[150.8823,-9.903],[150.958,-10.1049],[151.1566,-10.1464],[151.2119,-10.1867],[151.3006,-9.9677],[151.177,-9.9547]]],[[[150.801,-9.6524],[150.9309,-9.6524],[150.8884,-9.5214],[150.7595,-9.3992],[150.6738,-9.4387],[150.5055,-9.3377],[150.4269,-9.4187],[150.5493,-9.6232],[150.657,-9.6593],[150.801,-9.6524]]],[[[150.3689,-9.3718],[150.3342,-9.2825],[150.2145,-9.2058],[150.1423,-9.2477],[150.1082,-9.361],[150.1716,-9.4356],[150.3352,-9.4713],[150.3689,-9.3718]]],[[[152.9955,-9.1413],[152.7942,-9.0035],[152.5994,-8.9889],[152.5981,-9.0686],[152.8116,-9.2547],[152.8943,-9.2502],[152.9955,-9.1413]]],[[[151.1126,-8.7686],[151.1384,-8.5906],[151.0436,-8.4433],[150.999,-8.5182],[151.1224,-8.5829],[151.0454,-8.7328],[151.1126,-8.7686]]]]}},{"type":"Feature","properties":{"sourceId":"1159309921","regionId":"region.79d1fe02-d263-46f4-891e-bec2df768dbf","countryId":"country.zvvq7v"},"geometry":{"type":"Polygon","coordinates":[[[149.6783,-10.3365],[149.6536,-10.0905],[149.3291,-9.9234],[149.2671,-9.8381],[149.0688,-9.7736],[148.9563,-9.7855],[148.9826,-9.9093],[148.8205,-9.9601],[148.5424,-9.8585],[148.3902,-9.7549],[148.2975,-9.7473],[148.0279,-9.5399],[148.029,-9.4231],[147.8129,-9.1656],[147.695,-9.0698],[147.5059,-8.8487],[147.5102,-8.7534],[147.6188,-8.5616],[147.5568,-8.4499],[147.3007,-8.2868],[146.9918,-8.0002],[146.7421,-7.9587],[146.7081,-7.8268],[146.6256,-7.7712],[146.408,-7.9374],[146.3936,-7.9908],[146.3898,-8.5844],[146.4353,-8.6106],[146.5759,-8.822],[146.5584,-8.9405],[146.6268,-9.023],[146.7783,-9.0566],[146.9149,-9.1242],[147.0527,-9.4602],[147.0999,-9.4817],[147.1729,-9.381],[147.2581,-9.4095],[147.2868,-9.5213],[147.491,-9.7677],[147.5176,-9.879],[147.6213,-9.9889],[147.7617,-10.0597],[147.8796,-10.0522],[148.0183,-10.1248],[148.2313,-10.1056],[148.402,-10.2005],[148.5379,-10.1723],[148.978,-10.2761],[149.0674,-10.2346],[149.4606,-10.3523],[149.6783,-10.3365]]]}},{"type":"Feature","properties":{"sourceId":"1159309923","regionId":"region.1e3472c1-7ccd-4183-a8bd-20f452474e5b","countryId":"country.zvvq7v"},"geometry":{"type":"Polygon","coordinates":[[[147.2868,-9.5213],[147.2581,-9.4095],[147.1729,-9.381],[147.0999,-9.4817],[147.2868,-9.5213]]]}},{"type":"Feature","properties":{"sourceId":"1159309913","regionId":"region.2527d276-9eec-474d-9ab7-cbeb2f4cd436","countryId":"country.zvvq7v"},"geometry":{"type":"Polygon","coordinates":[[[146.3898,-8.5844],[146.3936,-7.9908],[146.408,-7.9374],[146.6256,-7.7712],[146.411,-7.6267],[146.0955,-7.5364],[145.8463,-7.2368],[145.3024,-6.8752],[144.9275,-6.7375],[144.7146,-6.7386],[143.6846,-6.8358],[142.9987,-6.837],[143.0023,-7.0382],[143.9429,-7.9916],[143.8408,-7.7201],[143.9243,-7.6943],[144.2149,-7.796],[144.2422,-7.7263],[144.3553,-7.6868],[144.4313,-7.6122],[144.6995,-7.6168],[144.8662,-7.7057],[144.8796,-7.7817],[145.3216,-7.862],[145.4656,-7.9455],[145.6133,-7.9325],[145.8807,-8.0417],[146.1028,-8.1003],[146.1165,-8.2001],[146.2219,-8.2604],[146.2772,-8.4352],[146.3898,-8.5844]]]}},{"type":"Feature","properties":{"sourceId":"1159309695","regionId":"region.52ef5913-962a-4d2a-b0cc-f77213fb5da1","countryId":"country.zvvq7v"},"geometry":{"type":"MultiPolygon","coordinates":[[[[155.9334,-6.6408],[155.9168,-6.5175],[155.8133,-6.3648],[155.7139,-6.2792],[155.4522,-6.1371],[155.4038,-6.006],[155.1921,-5.7659],[155.0693,-5.5522],[154.7704,-5.5588],[154.7002,-5.7669],[154.7559,-5.9478],[154.9596,-6.1306],[154.9787,-6.193],[155.1817,-6.2917],[155.2346,-6.3634],[155.1873,-6.5545],[155.3609,-6.7459],[155.5236,-6.8391],[155.7178,-6.8728],[155.8164,-6.7822],[155.8782,-6.8015],[155.9334,-6.6408]]],[[[154.7274,-5.2114],[154.679,-5.0466],[154.5827,-5.1403],[154.5739,-5.2907],[154.6318,-5.4591],[154.6887,-5.4273],[154.7274,-5.2114]]]]}},{"type":"Feature","properties":{"sourceId":"1159308781","regionId":"region.72049b2f-c8c3-4366-9c93-b28e97c0e044","countryId":"country.zvvq7v"},"geometry":{"type":"Polygon","coordinates":[[[150.7713,-6.1298],[150.5986,-5.891],[150.6038,-5.8037],[150.9732,-5.7032],[150.9906,-5.6033],[151.0803,-5.6215],[151.2468,-5.4649],[151.1665,-5.4228],[151.2485,-5.2368],[151.3568,-5.0683],[151.4589,-5.0177],[151.674,-5.0095],[151.6477,-4.949],[151.388,-4.9145],[151.2528,-4.9929],[151.0829,-5.1638],[151.0334,-5.2589],[151.0222,-5.3903],[150.8755,-5.4931],[150.8096,-5.4433],[150.719,-5.5341],[150.4234,-5.4566],[150.3069,-5.5615],[150.1423,-5.5341],[150.0581,-5.3429],[150.0619,-5.1811],[150.182,-5.1025],[150.1566,-5.0202],[150.0349,-5.0344],[150.0144,-5.2475],[149.9165,-5.3492],[149.9802,-5.4381],[149.8728,-5.5276],[149.7998,-5.5069],[149.7184,-5.5689],[149.6149,-5.5136],[149.3905,-5.5873],[149.2,-5.5652],[148.978,-5.4653],[148.8328,-5.5339],[148.6519,-5.4809],[148.5564,-5.54],[148.4299,-5.4448],[148.3421,-5.5333],[148.3247,-5.6464],[148.3862,-5.7751],[148.5515,-5.837],[148.6211,-5.8079],[148.772,-5.8733],[148.8539,-5.9797],[149.0121,-6.0276],[149.1419,-6.1442],[149.3042,-6.0587],[149.464,-6.1026],[149.6294,-6.2992],[149.9114,-6.2949],[150.054,-6.2577],[150.273,-6.295],[150.4651,-6.274],[150.5881,-6.1784],[150.7713,-6.1298]]]}},{"type":"Feature","properties":{"sourceId":"1159309891","regionId":"region.1dec5666-fe1a-4781-bebf-f06a02dbb044","countryId":"country.zvvq7v"},"geometry":{"type":"Polygon","coordinates":[[[151.6477,-4.949],[151.674,-5.0095],[151.4589,-5.0177],[151.3568,-5.0683],[151.2485,-5.2368],[151.1665,-5.4228],[151.2468,-5.4649],[151.0803,-5.6215],[150.9906,-5.6033],[150.9732,-5.7032],[150.6038,-5.8037],[150.5986,-5.891],[150.7713,-6.1298],[150.8804,-6.0539],[151.2085,-5.9428],[151.3555,-5.8342],[151.4651,-5.685],[151.479,-5.5299],[151.7394,-5.5341],[151.786,-5.5849],[151.9717,-5.5341],[152.0989,-5.4557],[152.1504,-5.3697],[152.1231,-5.2908],[151.988,-5.164],[151.9927,-4.9718],[152.1367,-4.9991],[152.2918,-4.9355],[152.3864,-4.7912],[152.4116,-4.6838],[152.3652,-4.4721],[152.4146,-4.3604],[152.1779,-4.2968],[152.1367,-4.2047],[151.9647,-4.3312],[151.8821,-4.3051],[151.8171,-4.214],[151.5403,-4.1767],[151.5073,-4.2292],[151.5539,-4.3964],[151.6091,-4.4518],[151.6956,-4.8188],[151.6477,-4.949]]]}},{"type":"Feature","properties":{"sourceId":"1159308863","regionId":"region.79d8509d-661a-4efe-acb2-53bebf85632d","countryId":"country.zvvq7v"},"geometry":{"type":"MultiPolygon","coordinates":[[[[153.1372,-4.2695],[152.9563,-3.9986],[152.8711,-3.9909],[152.7776,-3.8974],[152.5752,-3.8181],[152.4929,-3.6428],[152.4247,-3.6565],[152.3633,-3.5432],[152.2175,-3.457],[152.0525,-3.2467],[151.8281,-3.1904],[151.6868,-3.067],[151.4373,-2.9089],[151.2163,-2.8692],[151.1704,-2.7851],[151.0223,-2.6992],[150.8933,-2.6752],[150.7949,-2.7291],[151.0906,-2.8327],[151.4304,-3.0533],[151.4739,-3.1176],[151.6125,-3.1662],[151.8091,-3.3611],[151.9841,-3.4589],[152.1711,-3.4902],[152.2886,-3.5698],[152.3599,-3.6941],[152.5189,-3.8547],[152.6878,-4.1638],[152.7039,-4.29],[152.6712,-4.4518],[152.7326,-4.6496],[152.8738,-4.7888],[152.9802,-4.7595],[153.0752,-4.6018],[153.054,-4.4523],[153.1372,-4.3759],[153.1372,-4.2695]]],[[[150.4651,-2.5325],[150.4473,-2.4845],[150.2079,-2.3748],[149.9946,-2.4665],[150.1868,-2.6795],[150.4513,-2.6584],[150.4651,-2.5325]]],[[[149.735,-1.4736],[149.6276,-1.3571],[149.541,-1.4645],[149.667,-1.5759],[149.735,-1.4736]]]]}},{"type":"Feature","properties":{"sourceId":"1159309925","regionId":"region.1e3ebd09-7537-4723-b056-a479700057e6","countryId":"country.zvvq7v"},"geometry":{"type":"Polygon","coordinates":[[[147.4328,-1.9838],[147.4226,-2.0458],[147.11,-1.9633],[146.8698,-1.947],[146.7806,-1.9806],[146.6521,-1.9645],[146.5801,-2.0203],[146.648,-2.1694],[146.9549,-2.1948],[147.1307,-2.1625],[147.2165,-2.183],[147.282,-2.0811],[147.4312,-2.0608],[147.4328,-1.9838]]]}},{"type":"Feature","properties":{"sourceId":"1159309909","regionId":"region.cf93dca3-a92c-444f-9640-19ee79a7dcb5","countryId":"country.zvvq7v"},"geometry":{"type":"Polygon","coordinates":[[[145.038,-5.7877],[144.7959,-5.8011],[144.8065,-5.9421],[144.7206,-6.0016],[144.741,-6.1225],[144.6969,-6.2523],[144.6051,-6.3944],[144.5399,-6.3678],[144.4642,-6.4644],[144.4572,-6.5718],[144.5441,-6.5893],[144.5963,-6.6731],[144.7146,-6.7386],[144.9275,-6.7375],[145.3024,-6.8752],[145.3414,-6.741],[145.2079,-6.6777],[144.9863,-6.4613],[145.1637,-6.4099],[145.2543,-6.3158],[145.2363,-6.1438],[145.15,-6.0639],[145.1664,-5.8745],[145.038,-5.7877]]]}},{"type":"Feature","properties":{"sourceId":"1159309905","regionId":"region.b9e2f166-d066-48a6-9cc9-e0c74fbfef88","countryId":"country.zvvq7v"},"geometry":{"type":"Polygon","coordinates":[[[143.9686,-4.9807],[143.1821,-5.044],[143.0639,-5.072],[142.9008,-5.0607],[142.7632,-5.0197],[142.7886,-5.5054],[142.8942,-5.6406],[143.2481,-5.7775],[143.4419,-5.9343],[143.5212,-5.9625],[143.6998,-5.9222],[143.8048,-5.9364],[143.772,-5.8677],[143.9777,-5.7835],[144.0832,-5.715],[144.1099,-5.5673],[144.0567,-5.4172],[144.2155,-5.3346],[144.2472,-5.2627],[144.1607,-5.1387],[143.9819,-5.0225],[143.9686,-4.9807]]]}},{"type":"Feature","properties":{"sourceId":"1159309919","regionId":"region.8c6f8b5c-0ff0-4a58-bbae-6e0e43e1bcd6","countryId":"country.zvvq7v"},"geometry":{"type":"Polygon","coordinates":[[[145.038,-5.7877],[144.8234,-5.5338],[144.7244,-5.484],[144.5045,-5.2998],[144.3587,-5.2467],[144.2472,-5.2627],[144.2155,-5.3346],[144.0567,-5.4172],[144.1099,-5.5673],[144.0832,-5.715],[143.9777,-5.7835],[143.772,-5.8677],[143.8048,-5.9364],[143.9285,-6.0156],[144.0133,-6.0178],[144.5399,-6.3678],[144.6051,-6.3944],[144.6969,-6.2523],[144.741,-6.1225],[144.7206,-6.0016],[144.8065,-5.9421],[144.7959,-5.8011],[145.038,-5.7877]]]}},{"type":"Feature","properties":{"sourceId":"1159309915","regionId":"region.59b5dc07-2ad2-423a-b46f-059ff0598619","countryId":"country.zvvq7v"},"geometry":{"type":"Polygon","coordinates":[[[142.3236,-4.9678],[142.3572,-5.1629],[142.2928,-5.352],[142.2089,-5.4069],[142.2007,-5.5311],[142.5376,-5.8572],[142.6495,-5.992],[142.655,-6.7116],[142.6802,-6.8093],[142.8138,-6.837],[142.9987,-6.837],[143.6846,-6.8358],[144.7146,-6.7386],[144.5963,-6.6731],[144.5441,-6.5893],[144.4572,-6.5718],[144.4642,-6.4644],[144.5399,-6.3678],[144.0133,-6.0178],[143.9285,-6.0156],[143.8048,-5.9364],[143.6998,-5.9222],[143.5212,-5.9625],[143.4419,-5.9343],[143.2481,-5.7775],[142.8942,-5.6406],[142.7886,-5.5054],[142.7632,-5.0197],[142.7087,-4.9855],[142.3236,-4.9678]]]}},{"type":"Feature","properties":{"sourceId":"1159309911","regionId":"region.e2d4fa20-eee4-4ac1-92d4-0800313cce87","countryId":"country.zvvq7v"},"geometry":{"type":"Polygon","coordinates":[[[145.8679,-5.9963],[145.8185,-5.9612],[145.5639,-5.9198],[145.4371,-5.9504],[145.3496,-5.8582],[145.1664,-5.8745],[145.15,-6.0639],[145.2363,-6.1438],[145.2543,-6.3158],[145.1637,-6.4099],[144.9863,-6.4613],[145.2079,-6.6777],[145.3414,-6.741],[145.3024,-6.8752],[145.8463,-7.2368],[145.9323,-6.9847],[146.0153,-6.8838],[145.9911,-6.7499],[146.0392,-6.675],[146.1287,-6.2491],[146.1134,-6.199],[145.9351,-6.0896],[145.8679,-5.9963]]]}}]}