{"type":"FeatureCollection","features":[{"type":"Feature","properties":{"sourceId":"1159310195","regionId":"region.472b5814-2637-4e8a-b39b-8058ad36bd15","countryId":"country.12na4wl"},"geometry":{"type":"Polygon","coordinates":[[[43.1888,11.4078],[43.0585,11.4786],[42.9125,11.4497],[42.8645,11.3634],[42.7066,11.2655],[42.6259,11.2197],[42.6081,11.0891],[42.7296,11.065],[42.7718,10.9965],[42.9237,10.9988],[43.1888,11.4078]]]}},{"type":"Feature","properties":{"sourceId":"1159310199","regionId":"region.622da813-5390-4f5a-a73f-370dba827d7e","countryId":"country.12na4wl"},"geometry":{"type":"Polygon","coordinates":[[[43.2407,11.4879],[43.1731,11.5417],[42.9564,11.5247],[42.9007,11.5841],[42.6941,11.546],[42.5916,11.4725],[42.5325,11.5475],[42.3654,11.6542],[42.4173,11.4206],[42.4992,11.3015],[42.7066,11.2655],[42.8645,11.3634],[42.9125,11.4497],[43.0585,11.4786],[43.1888,11.4078],[43.2407,11.4879]]]}},{"type":"Feature","properties":{"sourceId":"1159310201","regionId":"region.26d24863-a5ad-4dbb-aef9-81d0b8d8cdda","countryId":"country.12na4wl"},"geometry":{"type":"Polygon","coordinates":[[[41.7665,10.9895],[41.9542,10.9413],[42.0694,10.9815],[42.3918,11.0059],[42.6081,11.0891],[42.6259,11.2197],[42.7066,11.2655],[42.4992,11.3015],[42.4173,11.4206],[42.3654,11.6542],[42.1947,11.8235],[41.9747,11.8809],[41.8082,11.7362],[41.7491,11.538],[41.788,11.2597],[41.7665,10.9895]]]}},{"type":"Feature","properties":{"sourceId":"1159310207","regionId":"region.5763075e-c487-446e-9d9f-e8eaa59166fa","countryId":"country.12na4wl"},"geometry":{"type":"Polygon","coordinates":[[[41.9747,11.8809],[42.1947,11.8235],[42.3654,11.6542],[42.5325,11.5475],[42.6841,11.5823],[42.7541,11.708],[42.8965,11.7806],[43.086,11.8388],[43.0139,11.9526],[42.6766,12.299],[42.6962,12.3801],[42.5216,12.4962],[42.3795,12.4659],[41.9747,11.8809]]]}},{"type":"Feature","properties":{"sourceId":"1159310203","regionId":"region.00883250-8e2b-42fa-80b5-e84ee79f590e","countryId":"country.12na4wl"},"geometry":{"type":"Polygon","coordinates":[[[43.1177,12.7079],[42.8521,12.6117],[42.7852,12.5172],[42.7923,12.4292],[42.6962,12.3801],[42.6766,12.299],[43.0139,11.9526],[43.086,11.8388],[43.2066,11.9578],[43.3771,12.0048],[43.4187,12.0913],[43.4114,12.2418],[43.313,12.4777],[43.1177,12.7079]]]}},{"type":"Feature","properties":{"sourceId":"1159310197","regionId":"region.489d23c8-bf25-4d4b-b8d1-ff77333d8e35","countryId":"country.12na4wl"},"geometry":{"type":"Polygon","coordinates":[[[42.9007,11.5841],[42.9564,11.5247],[43.1731,11.5417],[43.1579,11.6013],[42.9007,11.5841]]]}}]}