{"type":"FeatureCollection","features":[{"type":"Feature","properties":{"sourceId":"1159310055","regionId":"region.d702c143-6949-40be-bf7e-b9c1d4e268ff","countryId":"country.78ys5y"},"geometry":{"type":"Polygon","coordinates":[[[17.5459,-0.7565],[17.2977,-1.0211],[17.0287,-1.0945],[16.8397,-1.2625],[16.656,-1.5903],[16.6172,-1.7287],[16.525,-1.8585],[16.6443,-1.9987],[16.8884,-1.9989],[16.8891,-1.8785],[16.8206,-1.7934],[17.0768,-1.8076],[17.184,-1.7253],[17.521,-1.5263],[17.9308,-1.3739],[18.1915,-1.1307],[18.3628,-1.1625],[18.5218,-1.2657],[18.82,-1.2211],[18.8627,-1.1048],[18.7945,-1.003],[18.8094,-0.907],[18.9456,-0.8219],[19.0481,-0.8085],[19.0859,-0.9981],[19.2945,-1.2731],[19.368,-1.4348],[19.4735,-1.5951],[19.514,-1.7788],[19.5918,-1.7983],[19.7089,-1.6682],[19.8278,-1.742],[19.8891,-1.9017],[19.9372,-1.9393],[20.1861,-1.9485],[20.2704,-2.0247],[20.4446,-2.0848],[20.5228,-2.0422],[20.6912,-2.023],[20.9869,-2.3714],[21.0071,-2.4888],[21.2574,-2.5118],[21.454,-2.4566],[21.4655,-2.3548],[21.8303,-2.5229],[21.8991,-2.4904],[22.1101,-2.2992],[22.1676,-2.2877],[22.199,-2.4512],[22.2916,-2.4031],[22.229,-2.1801],[22.1835,-1.9123],[22.4795,-1.9598],[22.6243,-1.8087],[22.8096,-1.8559],[22.9091,-1.9142],[23.0971,-1.9403],[23.2008,-2.0639],[23.5426,-2.0061],[23.6888,-2.0152],[23.8277,-1.7693],[24.0828,-1.7462],[24.4215,-1.7868],[24.3713,-1.5302],[24.3051,-1.4016],[24.141,-1.3891],[23.9843,-1.3254],[23.778,-1.1774],[23.7318,-1.092],[23.5687,-0.9994],[23.4069,-0.8649],[23.3724,-0.7866],[23.4945,-0.6939],[23.6129,-0.6559],[23.4799,-0.4635],[23.2953,-0.4899],[23.1927,-0.4226],[22.9936,-0.4092],[23.142,-0.2784],[23.3048,-0.3075],[23.3969,-0.1898],[23.2473,0.0323],[23.1423,0.1538],[22.9972,0.3759],[22.9184,0.6007],[22.8589,0.6785],[22.8177,0.9674],[22.6299,1.3472],[22.3349,1.5793],[22.4651,1.682],[22.511,1.8972],[22.5798,2.033],[22.6524,2.0955],[22.7588,2.0111],[22.836,2.0311],[22.9927,2.1769],[23.1299,2.1083],[23.3547,2.2505],[23.5938,2.1895],[23.6253,2.3296],[23.2939,2.5334],[23.1511,2.5034],[23.0641,2.5326],[22.9826,2.6294],[22.986,2.8574],[23.0746,3.0773],[23.0385,3.172],[22.8743,3.0233],[22.7795,3.089],[22.7761,3.2801],[22.6557,3.3198],[22.6786,3.4528],[22.9291,3.5442],[23.0496,3.5577],[23.1713,3.675],[23.3814,3.6253],[23.4973,3.7582],[23.4084,3.8375],[23.3509,3.8135],[23.1491,3.9023],[22.9089,3.8545],[22.7788,3.9018],[22.5627,4.0998],[22.4515,4.1467],[22.3033,4.1287],[22.0366,4.2294],[21.8677,4.2416],[21.7229,4.2951],[21.5381,4.2447],[21.3583,4.2856],[21.2989,4.3302],[21.1581,4.3102],[21.0842,4.3882],[20.8715,4.4534],[20.6031,4.4097],[20.4567,4.5248],[20.4631,4.6009],[20.3389,4.7719],[19.8582,5.0603],[19.7196,5.136],[19.409,5.1304],[19.1067,4.9315],[19.0116,4.765],[18.8282,4.56],[18.7211,4.3774],[18.5958,4.3713],[18.5371,4.3061],[18.6197,4.1696],[18.6453,3.9824],[18.612,3.8666],[18.593,3.7098],[18.6264,3.4769],[18.6424,3.3238],[18.6131,3.1282],[18.5284,3.0648],[18.3932,2.7137],[18.2462,2.5189],[18.174,2.3361],[18.0724,2.16],[18.0714,1.5515],[18.0123,1.422],[17.9634,1.1915],[17.8666,1.0166],[17.9077,0.7405],[17.8993,0.5833],[17.952,0.4743],[17.9399,0.3613],[17.854,0.2411],[17.7571,-0.0095],[17.7164,-0.1958],[17.7495,-0.5234],[17.5459,-0.7565]]]}},{"type":"Feature","properties":{"sourceId":"1159311349","regionId":"region.e59e178f-3b84-40f6-81c6-0b1616ded94c","countryId":"country.78ys5y"},"geometry":{"type":"Polygon","coordinates":[[[16.184,-2.9404],[16.2275,-3.2899],[16.1155,-3.5442],[15.9578,-3.8151],[15.888,-3.9405],[15.9882,-3.9873],[16.2003,-3.9936],[16.3896,-4.0997],[16.5225,-4.2501],[16.5481,-4.3493],[16.49,-4.5058],[16.4218,-4.5325],[16.2605,-4.7945],[16.2787,-5],[16.2208,-5.4359],[16.2223,-5.7004],[16.1009,-5.8581],[16.3157,-5.8546],[16.5974,-5.9247],[16.6043,-6.0619],[16.7268,-6.1892],[16.7308,-6.5698],[16.8329,-6.8278],[16.927,-6.8886],[16.9732,-7.0148],[16.9271,-7.0857],[16.9961,-7.298],[17.0979,-7.3783],[17.2889,-7.6995],[17.4206,-7.8439],[17.4341,-7.9158],[17.5365,-8.0151],[17.5362,-8.0754],[17.6284,-8.098],[17.9014,-8.0481],[17.9819,-8.1053],[18.0982,-8.1093],[18.1766,-7.9992],[18.3536,-8.0159],[18.5076,-7.9975],[18.5165,-7.9322],[18.7385,-7.9323],[18.7738,-8.002],[19.3555,-8.002],[19.3338,-7.8673],[19.3778,-7.7301],[19.3556,-7.5741],[19.4247,-7.5797],[19.5132,-7.4794],[19.4764,-7.3159],[19.5218,-7.0019],[19.9631,-7.0019],[19.9181,-6.8199],[19.7294,-6.5495],[19.6898,-6.198],[19.7409,-6.1098],[19.8866,-6.0018],[19.9667,-5.9863],[20.1532,-5.7641],[20.1811,-5.6502],[20.1501,-5.5518],[20.1484,-5.363],[20.1954,-5.2685],[20.1459,-4.9874],[20.0554,-4.7658],[20.0652,-4.5915],[20.1186,-4.4981],[20.0453,-4.3599],[20.1338,-4.2803],[20.2662,-4.3906],[20.3424,-4.3893],[20.3768,-4.2925],[20.5991,-4.2081],[20.6777,-4.0938],[20.6424,-3.5084],[20.6647,-3.2803],[20.8414,-2.8275],[20.9267,-2.7276],[21.0071,-2.4888],[20.9869,-2.3714],[20.6912,-2.023],[20.5228,-2.0422],[20.4446,-2.0848],[20.2704,-2.0247],[20.1861,-1.9485],[19.9372,-1.9393],[19.8891,-1.9017],[19.8278,-1.742],[19.7089,-1.6682],[19.5918,-1.7983],[19.514,-1.7788],[19.4735,-1.5951],[19.368,-1.4348],[19.2945,-1.2731],[19.0859,-0.9981],[19.0481,-0.8085],[18.9456,-0.8219],[18.8094,-0.907],[18.7945,-1.003],[18.8627,-1.1048],[18.82,-1.2211],[18.5218,-1.2657],[18.3628,-1.1625],[18.1915,-1.1307],[17.9308,-1.3739],[17.521,-1.5263],[17.184,-1.7253],[17.0768,-1.8076],[16.8206,-1.7934],[16.8891,-1.8785],[16.8884,-1.9989],[16.6443,-1.9987],[16.525,-1.8585],[16.2313,-2.129],[16.1769,-2.2868],[16.2256,-2.6352],[16.184,-2.9404]]]}},{"type":"Feature","properties":{"sourceId":"1159311335","regionId":"region.0486ceec-ebea-433f-98bd-b75d32b6e416","countryId":"country.78ys5y"},"geometry":{"type":"Polygon","coordinates":[[[15.1507,-4.4252],[15.2758,-4.6013],[15.3819,-4.6552],[15.4448,-4.534],[15.6717,-4.5535],[15.7533,-4.7012],[15.7177,-4.8539],[15.6358,-4.939],[15.7331,-5.0122],[15.8793,-5.0019],[15.8891,-4.9241],[16.0343,-4.9873],[16.2787,-5],[16.2605,-4.7945],[16.4218,-4.5325],[16.49,-4.5058],[16.5481,-4.3493],[16.5225,-4.2501],[16.3896,-4.0997],[16.2003,-3.9936],[15.9882,-3.9873],[15.888,-3.9405],[15.5668,-4.038],[15.4589,-4.2138],[15.204,-4.339],[15.1507,-4.4252]]]}},{"type":"Feature","properties":{"sourceId":"1159311245","regionId":"region.5c9bcec2-596d-4aa9-8bec-7b5fe6a0b35d","countryId":"country.78ys5y"},"geometry":{"type":"Polygon","coordinates":[[[15.0761,-4.5201],[14.931,-4.6469],[14.8312,-4.8151],[14.6345,-4.9036],[14.5199,-4.8413],[14.3965,-4.8559],[14.4069,-4.676],[14.35,-4.5669],[14.4665,-4.448],[14.3686,-4.2784],[14.1464,-4.3899],[14.0211,-4.4154],[13.9054,-4.4901],[13.79,-4.4246],[13.711,-4.4645],[13.6901,-4.6911],[13.5799,-4.783],[13.4935,-4.7997],[13.3927,-4.8853],[13.3588,-4.7948],[13.0737,-4.6353],[13.0296,-4.6769],[12.8332,-4.7227],[12.6789,-4.9243],[12.5877,-5.0003],[12.4444,-5.0551],[12.5307,-5.1627],[12.509,-5.7263],[12.3444,-5.7246],[12.2105,-5.7634],[12.4495,-6.0519],[12.7226,-5.9793],[12.8224,-5.8298],[12.9243,-5.8146],[13.0364,-5.8572],[13.1839,-5.8564],[13.3425,-5.8906],[13.3805,-5.8564],[13.6415,-5.8658],[13.9436,-5.8416],[14.0212,-5.8725],[14.5766,-5.9047],[14.7597,-5.8805],[15.4358,-5.8692],[16.1009,-5.8581],[16.2223,-5.7004],[16.2208,-5.4359],[16.2787,-5],[16.0343,-4.9873],[15.8891,-4.9241],[15.8793,-5.0019],[15.7331,-5.0122],[15.6358,-4.939],[15.7177,-4.8539],[15.7533,-4.7012],[15.6717,-4.5535],[15.4448,-4.534],[15.3819,-4.6552],[15.2758,-4.6013],[15.1507,-4.4252],[15.0761,-4.5201]]]}},{"type":"Feature","properties":{"sourceId":"1159310057","regionId":"region.510c2ff0-5666-468b-b7c3-25f1906513f1","countryId":"country.78ys5y"},"geometry":{"type":"Polygon","coordinates":[[[27.4413,5.0707],[27.1164,5.2003],[26.9616,5.1512],[26.8671,5.0375],[26.7606,5.0881],[26.4627,5.0596],[26.3906,5.149],[26.2918,5.151],[26.13,5.2589],[26.0269,5.19],[25.7328,5.2589],[25.5813,5.3749],[25.3637,5.3106],[25.3077,5.1853],[25.3076,5.0323],[25.1295,5.0186],[25.0848,4.9542],[24.9581,4.9914],[24.7894,4.9199],[24.6644,4.9244],[24.6101,5.0167],[24.4808,5.1023],[24.3964,5.1223],[24.3685,5.0124],[24.2966,5.0033],[24.1629,4.9078],[24.0896,4.9202],[23.9483,4.8177],[23.8167,4.8206],[23.5666,4.7244],[23.3884,4.5873],[23.2649,4.6351],[23.1687,4.7381],[23.0173,4.7505],[22.8984,4.8236],[22.8538,4.7113],[22.786,4.7246],[22.6895,4.4917],[22.587,4.4494],[22.6093,4.3634],[22.5461,4.2372],[22.4515,4.1467],[22.5627,4.0998],[22.7788,3.9018],[22.9089,3.8545],[23.1491,3.9023],[23.3509,3.8135],[23.4084,3.8375],[23.4973,3.7582],[23.3814,3.6253],[23.1713,3.675],[23.0496,3.5577],[22.9291,3.5442],[22.6786,3.4528],[22.6557,3.3198],[22.7761,3.2801],[22.7795,3.089],[22.8743,3.0233],[23.0385,3.172],[23.0746,3.0773],[22.986,2.8574],[22.9826,2.6294],[23.0641,2.5326],[23.1511,2.5034],[23.2939,2.5334],[23.6253,2.3296],[23.5938,2.1895],[23.3547,2.2505],[23.1299,2.1083],[22.9927,2.1769],[22.836,2.0311],[22.7588,2.0111],[22.6524,2.0955],[22.5798,2.033],[22.511,1.8972],[22.4651,1.682],[22.3349,1.5793],[22.6299,1.3472],[22.8177,0.9674],[22.8589,0.6785],[22.9184,0.6007],[22.9972,0.3759],[23.1423,0.1538],[23.2473,0.0323],[23.3969,-0.1898],[23.3048,-0.3075],[23.142,-0.2784],[22.9936,-0.4092],[23.1927,-0.4226],[23.2953,-0.4899],[23.4799,-0.4635],[23.6129,-0.6559],[23.4945,-0.6939],[23.3724,-0.7866],[23.4069,-0.8649],[23.5687,-0.9994],[23.7318,-1.092],[23.778,-1.1774],[23.9843,-1.3254],[24.141,-1.3891],[24.3051,-1.4016],[24.3713,-1.5302],[24.4215,-1.7868],[24.4507,-1.9387],[24.8358,-1.9562],[24.9848,-1.9356],[25.0676,-1.9837],[25.0813,-2.0936],[25.2621,-2.1055],[25.3321,-2.0747],[25.4936,-1.8964],[25.5837,-1.8482],[25.8092,-1.8556],[25.8444,-1.7787],[25.8608,-1.3988],[26.0043,-1.4885],[26.1272,-1.249],[26.172,-0.9512],[26.2878,-0.8774],[26.2629,-0.6346],[26.3805,-0.4957],[26.366,-0.3911],[26.1165,-0.1897],[26.157,-0.0904],[26.3151,-0.2008],[26.4667,-0.3705],[26.6979,-0.3036],[26.8469,-0.2013],[26.9916,-0.2602],[27.1328,-0.4113],[27.2931,-0.4456],[27.3797,-0.5024],[27.4626,-0.479],[27.7303,-0.567],[27.8164,-0.5113],[27.9702,-0.3148],[28.1056,-0.2287],[28.1224,-0.1609],[28.0898,0.0194],[28.1395,0.1684],[28.0632,0.2727],[28.0443,0.4257],[27.9911,0.4784],[27.8773,0.4822],[27.7529,0.5393],[28.0626,0.7005],[28.3353,0.7396],[28.4816,0.6285],[28.5837,0.5874],[28.8168,0.6313],[29.0137,0.6139],[29.1488,0.6838],[29.3076,0.6579],[29.385,0.724],[29.4044,0.8528],[29.5687,0.8255],[29.6091,0.882],[29.7186,0.8806],[29.8591,0.9583],[29.9822,0.849],[30.1451,0.9032],[30.1835,0.9546],[30.2389,1.136],[30.4456,1.2128],[30.5537,1.3356],[30.6817,1.5003],[31.0258,1.7782],[31.0755,1.8406],[31.2428,2.0512],[31.2801,2.1514],[31.1901,2.2215],[31.1776,2.3029],[31.0552,2.2902],[30.968,2.4054],[30.8718,2.3321],[30.795,2.4401],[30.7249,2.4408],[30.7708,2.6758],[30.8548,2.8932],[30.7451,3.0363],[30.7634,3.1234],[30.8042,3.246],[30.9049,3.386],[30.8395,3.4902],[30.8377,3.5627],[30.6934,3.632],[30.5726,3.601],[30.5389,3.8416],[30.3379,3.9279],[30.2059,3.9504],[30.1227,4.1025],[30.0578,4.1237],[29.9232,4.2578],[29.8827,4.344],[29.7762,4.4056],[29.7883,4.5394],[29.6185,4.6416],[29.4941,4.6683],[29.3039,4.3871],[29.1735,4.348],[28.9862,4.4959],[28.8153,4.4783],[28.7554,4.554],[28.5482,4.3708],[28.4041,4.2778],[28.3032,4.3522],[28.1776,4.3472],[28.0089,4.4991],[28.014,4.55],[27.8377,4.56],[27.7724,4.5958],[27.7669,4.7354],[27.641,4.8909],[27.5527,4.9005],[27.4363,5.0132],[27.4413,5.0707]]]}},{"type":"Feature","properties":{"sourceId":"1159311337","regionId":"region.328d6539-6560-42da-9e1f-74c11fd4d377","countryId":"country.78ys5y"},"geometry":{"type":"Polygon","coordinates":[[[29.4042,-4.4498],[29.3672,-4.189],[29.3395,-4.0932],[29.215,-3.8999],[29.2171,-3.7093],[29.2239,-3.5711],[29.2119,-3.4068],[29.2361,-3.2707],[29.2415,-3.1042],[29.2346,-3.0466],[29.0898,-2.9261],[29.0154,-2.7207],[28.8913,-2.6527],[28.8588,-2.4182],[28.9834,-2.2874],[29.1098,-2.2367],[29.1506,-2.1504],[29.1305,-1.8433],[29.1866,-1.7396],[28.9421,-1.7342],[28.8658,-1.669],[28.7865,-1.7634],[28.6678,-1.7836],[28.5952,-1.9071],[28.4565,-1.9105],[28.3368,-1.8698],[28.3199,-1.9811],[28.0856,-2.0572],[27.9604,-2.0474],[27.8572,-1.9633],[27.76,-2.0009],[27.4343,-2.0183],[27.3786,-2.1214],[27.1699,-2.2434],[27.0219,-2.1617],[26.8698,-2.1279],[26.8307,-2.2958],[26.8335,-2.5172],[26.923,-2.8084],[27.0455,-2.9391],[27.1108,-3.1217],[27.1316,-3.2817],[27.0903,-3.3328],[27.1284,-3.4895],[27.0894,-3.7004],[27.1021,-3.7712],[27.2024,-3.8797],[27.4989,-3.9756],[27.7352,-3.9909],[28.0307,-4.1784],[28.1958,-4.1415],[28.4911,-4.3823],[28.6552,-4.686],[28.7425,-4.907],[28.8245,-5],[29.3428,-5],[29.321,-4.8363],[29.4013,-4.5869],[29.4042,-4.4498]]]}},{"type":"Feature","properties":{"sourceId":"1159311345","regionId":"region.3bb4eaa6-f211-40b7-9e1c-98d147bc0fb4","countryId":"country.78ys5y"},"geometry":{"type":"Polygon","coordinates":[[[29.3428,-5],[28.8245,-5],[26.2694,-5],[26.2063,-5.1624],[26.0863,-5.3795],[26.1419,-5.5046],[26.0677,-5.6415],[26.1685,-5.795],[26.1728,-6.0167],[26.1374,-6.2611],[25.9571,-6.3002],[25.9349,-6.2352],[25.7637,-6.203],[25.6505,-6.3048],[25.4936,-6.3553],[25.3346,-6.3291],[25.2571,-6.3995],[25.3606,-6.5251],[25.4987,-6.535],[25.4443,-6.6997],[25.2883,-6.758],[25.1437,-6.6702],[24.9734,-6.6624],[24.8996,-6.7904],[24.7569,-6.9004],[24.4538,-7.0703],[24.2446,-6.9923],[24.2285,-6.9132],[23.9681,-7.2062],[23.9914,-7.3433],[23.9319,-7.5241],[23.9231,-7.73],[23.9468,-7.8311],[23.7994,-7.8904],[23.4976,-7.9251],[23.184,-7.8953],[23.1581,-7.7974],[22.8765,-7.9014],[22.6836,-7.8592],[22.5951,-7.7223],[22.4859,-7.7867],[22.2474,-7.805],[22.0767,-7.7752],[21.8266,-7.6456],[21.7705,-7.8068],[21.7585,-8.0151],[21.8512,-8.1435],[21.9131,-8.333],[21.94,-8.4999],[21.8599,-8.8464],[21.8411,-9.2758],[21.7933,-9.3935],[21.8541,-9.6178],[21.9984,-9.8091],[22.1599,-9.9315],[22.2028,-10.1306],[22.3134,-10.3686],[22.274,-10.503],[22.3086,-10.6125],[22.3224,-10.7422],[22.1655,-10.8524],[22.2818,-11.2367],[22.4694,-11.1224],[22.5376,-11.0372],[22.7277,-11.0968],[22.8292,-11.0521],[23.0143,-11.1025],[23.1968,-11.0719],[23.3733,-10.9751],[23.4948,-10.9643],[23.8337,-11.0285],[23.9675,-10.8723],[24.1142,-10.9192],[24.1242,-11.0433],[24.2938,-11.0503],[24.3818,-11.1206],[24.3922,-11.2791],[24.3101,-11.4066],[24.4465,-11.4636],[24.5647,-11.4447],[24.6741,-11.3416],[24.9429,-11.2686],[25.1243,-11.2592],[25.2788,-11.1999],[25.3249,-11.2837],[25.279,-11.3963],[25.352,-11.6461],[25.4812,-11.7153],[25.6215,-11.7289],[25.7256,-11.8005],[25.8507,-11.7938],[25.9941,-11.9048],[26.1667,-11.9024],[26.298,-11.9412],[26.4146,-11.9118],[26.4891,-11.9608],[26.6435,-11.9855],[26.8742,-11.9643],[26.9673,-11.8704],[27.0103,-11.6098],[27.1801,-11.5696],[27.2342,-11.8091],[27.4207,-11.922],[27.5205,-12.1796],[27.5898,-12.243],[27.6662,-12.3027],[27.8314,-12.2599],[27.9587,-12.3678],[28.0877,-12.3775],[28.1313,-12.4292],[28.3397,-12.4505],[28.4227,-12.5213],[28.5116,-12.6944],[28.474,-12.7365],[28.584,-12.8887],[28.6679,-12.8493],[28.8006,-13.0024],[28.9034,-13.1623],[28.9341,-13.3096],[28.994,-13.3959],[29.0654,-13.3887],[29.1689,-13.4339],[29.5744,-13.2254],[29.6675,-13.292],[29.6017,-13.3744],[29.7029,-13.4576],[29.7976,-13.4242],[29.7996,-12.159],[29.7994,-12.1558],[29.4743,-12.2427],[29.4466,-12.3351],[29.4997,-12.4531],[29.255,-12.3662],[29.0304,-12.3762],[28.9447,-12.2061],[28.835,-12.0922],[28.4972,-11.8574],[28.4525,-11.7808],[28.357,-11.4469],[28.4396,-11.3482],[28.4768,-11.078],[28.5635,-10.8119],[28.6996,-10.6432],[28.6349,-10.5195],[28.6292,-10.2959],[28.5699,-10.2196],[28.6196,-10.1419],[28.6239,-9.951],[28.6685,-9.8216],[28.6239,-9.6491],[28.516,-9.3783],[28.3685,-9.3086],[28.3723,-9.2351],[28.5991,-9.0964],[28.7654,-8.934],[28.9305,-8.6799],[28.9153,-8.4729],[29.5758,-8.3727],[30.7521,-8.1941],[30.655,-7.9274],[30.4416,-7.5963],[30.3696,-7.3102],[30.2945,-7.1494],[30.0909,-6.89],[29.9691,-6.803],[29.7386,-6.6524],[29.5255,-6.2731],[29.4761,-6.0021],[29.603,-5.7817],[29.5935,-5.6203],[29.4964,-5.3917],[29.4556,-5.23],[29.3428,-5]]]}},{"type":"Feature","properties":{"sourceId":"1159311347","regionId":"region.8d5d6a93-88d7-4b6a-b204-8ce2ec0b8258","countryId":"country.78ys5y"},"geometry":{"type":"Polygon","coordinates":[[[29.5779,-1.3884],[29.5814,-1.2348],[29.5515,-0.9903],[29.6108,-0.864],[29.6022,-0.7438],[29.6294,-0.4424],[29.6439,-0.358],[29.6813,-0.1379],[29.7118,0.0996],[29.8006,0.1724],[29.8326,0.337],[29.9039,0.4382],[29.9405,0.4983],[29.9283,0.785],[29.9822,0.849],[29.8591,0.9583],[29.7186,0.8806],[29.6091,0.882],[29.5687,0.8255],[29.4044,0.8528],[29.385,0.724],[29.3076,0.6579],[29.1488,0.6838],[29.0137,0.6139],[28.8168,0.6313],[28.5837,0.5874],[28.4816,0.6285],[28.3353,0.7396],[28.0626,0.7005],[27.7529,0.5393],[27.8773,0.4822],[27.9911,0.4784],[28.0443,0.4257],[28.0632,0.2727],[28.1395,0.1684],[28.0898,0.0194],[28.1224,-0.1609],[28.1056,-0.2287],[27.9702,-0.3148],[27.8164,-0.5113],[27.7303,-0.567],[27.8215,-0.6823],[27.7497,-0.8846],[27.5456,-0.9358],[27.4981,-0.9045],[27.2677,-0.9943],[27.2601,-1.0718],[27.3322,-1.1874],[27.207,-1.2035],[27.2422,-1.2838],[27.45,-1.5227],[27.5347,-1.6487],[27.7098,-1.807],[27.76,-2.0009],[27.8572,-1.9633],[27.9604,-2.0474],[28.0856,-2.0572],[28.3199,-1.9811],[28.3368,-1.8698],[28.4565,-1.9105],[28.5952,-1.9071],[28.6678,-1.7836],[28.7865,-1.7634],[28.8658,-1.669],[28.9421,-1.7342],[29.1866,-1.7396],[29.3585,-1.5099],[29.4451,-1.4973],[29.5779,-1.3884]]]}},{"type":"Feature","properties":{"sourceId":"1159311351","regionId":"region.58ed2794-880a-4db1-8995-4714e40efb3b","countryId":"country.78ys5y"},"geometry":{"type":"Polygon","coordinates":[[[19.9631,-7.0019],[20.2943,-7.0019],[20.3311,-6.9168],[20.6115,-6.916],[20.5245,-7.1431],[20.5205,-7.2864],[21.785,-7.2834],[21.8609,-7.4698],[21.8266,-7.6456],[22.0767,-7.7752],[22.2474,-7.805],[22.4859,-7.7867],[22.5951,-7.7223],[22.6836,-7.8592],[22.8765,-7.9014],[23.1581,-7.7974],[23.2127,-7.3812],[23.1999,-7.0855],[23.2422,-6.9479],[23.0849,-6.8259],[22.9396,-6.6663],[22.9326,-6.5721],[23.0866,-6.2139],[22.9781,-6.0632],[22.9537,-5.8596],[22.9984,-5.7724],[23.2794,-5.7409],[23.3578,-5.7062],[23.4247,-5.7615],[23.5243,-5.6825],[23.739,-5.6004],[23.7254,-5.3968],[23.4674,-5.2754],[23.419,-5.2173],[23.2515,-5.2527],[22.961,-4.9745],[23.0029,-4.8095],[23.1769,-4.7368],[23.119,-4.5339],[22.8603,-4.4915],[22.676,-4.2927],[22.4227,-4.137],[22.3039,-3.9952],[22.1337,-4.0264],[22.0623,-3.915],[22.1974,-3.8576],[22.1227,-3.6917],[21.9861,-3.6285],[21.9765,-3.5052],[22.0497,-3.3971],[22.1925,-3.018],[22.1569,-2.8921],[21.9935,-2.6799],[21.9698,-2.565],[21.8991,-2.4904],[21.8303,-2.5229],[21.4655,-2.3548],[21.454,-2.4566],[21.2574,-2.5118],[21.0071,-2.4888],[20.9267,-2.7276],[20.8414,-2.8275],[20.6647,-3.2803],[20.6424,-3.5084],[20.6777,-4.0938],[20.5991,-4.2081],[20.3768,-4.2925],[20.3424,-4.3893],[20.2662,-4.3906],[20.1338,-4.2803],[20.0453,-4.3599],[20.1186,-4.4981],[20.0652,-4.5915],[20.0554,-4.7658],[20.1459,-4.9874],[20.1954,-5.2685],[20.1484,-5.363],[20.1501,-5.5518],[20.1811,-5.6502],[20.1532,-5.7641],[19.9667,-5.9863],[19.8866,-6.0018],[19.7409,-6.1098],[19.6898,-6.198],[19.7294,-6.5495],[19.9181,-6.8199],[19.9631,-7.0019]]]}},{"type":"Feature","properties":{"sourceId":"1159311343","regionId":"region.6a8ce671-6f9f-4922-beec-4114ea18a96e","countryId":"country.78ys5y"},"geometry":{"type":"Polygon","coordinates":[[[24.4215,-1.7868],[24.0828,-1.7462],[23.8277,-1.7693],[23.6888,-2.0152],[23.5426,-2.0061],[23.2008,-2.0639],[23.0971,-1.9403],[22.9091,-1.9142],[22.8096,-1.8559],[22.6243,-1.8087],[22.4795,-1.9598],[22.1835,-1.9123],[22.229,-2.1801],[22.2916,-2.4031],[22.199,-2.4512],[22.1676,-2.2877],[22.1101,-2.2992],[21.8991,-2.4904],[21.9698,-2.565],[21.9935,-2.6799],[22.1569,-2.8921],[22.1925,-3.018],[22.0497,-3.3971],[21.9765,-3.5052],[21.9861,-3.6285],[22.1227,-3.6917],[22.1974,-3.8576],[22.0623,-3.915],[22.1337,-4.0264],[22.3039,-3.9952],[22.4227,-4.137],[22.676,-4.2927],[22.8603,-4.4915],[23.119,-4.5339],[23.1769,-4.7368],[23.0029,-4.8095],[22.961,-4.9745],[23.2515,-5.2527],[23.419,-5.2173],[23.4674,-5.2754],[23.7254,-5.3968],[23.739,-5.6004],[23.5243,-5.6825],[23.4247,-5.7615],[23.3578,-5.7062],[23.2794,-5.7409],[22.9984,-5.7724],[22.9537,-5.8596],[22.9781,-6.0632],[23.0866,-6.2139],[22.9326,-6.5721],[22.9396,-6.6663],[23.0849,-6.8259],[23.2422,-6.9479],[23.1999,-7.0855],[23.2127,-7.3812],[23.1581,-7.7974],[23.184,-7.8953],[23.4976,-7.9251],[23.7994,-7.8904],[23.9468,-7.8311],[23.9231,-7.73],[23.9319,-7.5241],[23.9914,-7.3433],[23.9681,-7.2062],[24.2285,-6.9132],[24.2446,-6.9923],[24.4538,-7.0703],[24.7569,-6.9004],[24.8996,-6.7904],[24.9734,-6.6624],[25.1437,-6.6702],[25.2883,-6.758],[25.4443,-6.6997],[25.4987,-6.535],[25.3606,-6.5251],[25.2571,-6.3995],[25.3346,-6.3291],[25.4936,-6.3553],[25.6505,-6.3048],[25.7637,-6.203],[25.9349,-6.2352],[25.9571,-6.3002],[26.1374,-6.2611],[26.1728,-6.0167],[26.1685,-5.795],[26.0677,-5.6415],[26.1419,-5.5046],[26.0863,-5.3795],[26.2063,-5.1624],[26.2694,-5],[25.1043,-4.9975],[25.0026,-4.8468],[24.9027,-4.751],[24.8756,-4.5932],[25.0124,-4.4447],[24.9748,-4.3901],[25.009,-4.1676],[24.9598,-4.033],[24.7435,-3.7981],[24.7962,-3.6859],[24.7725,-3.5438],[24.9005,-3.2715],[24.9609,-3.2555],[25.0354,-3.0551],[25.0335,-2.9575],[25.106,-2.7907],[25.0774,-2.5879],[25.0852,-2.4473],[24.7413,-2.4675],[24.6813,-2.4108],[24.4937,-2.1082],[24.4507,-1.9387],[24.4215,-1.7868]]]}},{"type":"Feature","properties":{"sourceId":"1159311341","regionId":"region.00260ac3-979c-481b-9a22-545a7061fbdd","countryId":"country.78ys5y"},"geometry":{"type":"Polygon","coordinates":[[[24.4507,-1.9387],[24.4937,-2.1082],[24.6813,-2.4108],[24.7413,-2.4675],[25.0852,-2.4473],[25.0774,-2.5879],[25.106,-2.7907],[25.0335,-2.9575],[25.0354,-3.0551],[24.9609,-3.2555],[24.9005,-3.2715],[24.7725,-3.5438],[24.7962,-3.6859],[24.7435,-3.7981],[24.9598,-4.033],[25.009,-4.1676],[24.9748,-4.3901],[25.0124,-4.4447],[24.8756,-4.5932],[24.9027,-4.751],[25.0026,-4.8468],[25.1043,-4.9975],[26.2694,-5],[28.8245,-5],[28.7425,-4.907],[28.6552,-4.686],[28.4911,-4.3823],[28.1958,-4.1415],[28.0307,-4.1784],[27.7352,-3.9909],[27.4989,-3.9756],[27.2024,-3.8797],[27.1021,-3.7712],[27.0894,-3.7004],[27.1284,-3.4895],[27.0903,-3.3328],[27.1316,-3.2817],[27.1108,-3.1217],[27.0455,-2.9391],[26.923,-2.8084],[26.8335,-2.5172],[26.8307,-2.2958],[26.8698,-2.1279],[27.0219,-2.1617],[27.1699,-2.2434],[27.3786,-2.1214],[27.4343,-2.0183],[27.76,-2.0009],[27.7098,-1.807],[27.5347,-1.6487],[27.45,-1.5227],[27.2422,-1.2838],[27.207,-1.2035],[27.3322,-1.1874],[27.2601,-1.0718],[27.2677,-0.9943],[27.4981,-0.9045],[27.5456,-0.9358],[27.7497,-0.8846],[27.8215,-0.6823],[27.7303,-0.567],[27.4626,-0.479],[27.3797,-0.5024],[27.2931,-0.4456],[27.1328,-0.4113],[26.9916,-0.2602],[26.8469,-0.2013],[26.6979,-0.3036],[26.4667,-0.3705],[26.3151,-0.2008],[26.157,-0.0904],[26.1165,-0.1897],[26.366,-0.3911],[26.3805,-0.4957],[26.2629,-0.6346],[26.2878,-0.8774],[26.172,-0.9512],[26.1272,-1.249],[26.0043,-1.4885],[25.8608,-1.3988],[25.8444,-1.7787],[25.8092,-1.8556],[25.5837,-1.8482],[25.4936,-1.8964],[25.3321,-2.0747],[25.2621,-2.1055],[25.0813,-2.0936],[25.0676,-1.9837],[24.9848,-1.9356],[24.8358,-1.9562],[24.4507,-1.9387]]]}}]}