{"type":"FeatureCollection","features":[{"type":"Feature","properties":{"sourceId":"1159310257","regionId":"region.47895851-d776-4883-ae59-accef6ecdde6","countryId":"country.u4ua72"},"geometry":{"type":"Polygon","coordinates":[[[-89.1931,16.3926],[-89.1468,16.4568],[-88.8194,16.6136],[-88.7742,16.681],[-88.6805,16.8097],[-88.6631,16.9119],[-88.5671,17.0451],[-88.6024,17.1045],[-88.57,17.2343],[-88.5788,17.4703],[-88.6289,17.454],[-88.7697,17.4111],[-89.079,17.3713],[-89.1507,17.321],[-89.1492,17.0363],[-89.1931,16.3926]]]}},{"type":"Feature","properties":{"sourceId":"1159310263","regionId":"region.bb4e88e2-537e-466c-8eef-32dbbd4e1f9b","countryId":"country.u4ua72"},"geometry":{"type":"Polygon","coordinates":[[[-89.1507,17.321],[-89.079,17.3713],[-88.7697,17.4111],[-88.6289,17.454],[-88.6406,17.6168],[-88.5685,17.6884],[-88.5686,17.8526],[-88.5062,17.9176],[-88.2843,17.9723],[-88.4944,18.186],[-88.6141,18.247],[-88.6966,18.1781],[-88.7364,18.0519],[-88.8803,17.8885],[-89.0494,17.9992],[-89.1463,17.9515],[-89.1605,17.8143],[-89.1507,17.321]]]}},{"type":"Feature","properties":{"sourceId":"1159310261","regionId":"region.0700d1cf-fe5f-4e81-ba15-7ea4f3e0bcb8","countryId":"country.u4ua72"},"geometry":{"type":"Polygon","coordinates":[[[-88.3038,18.4814],[-88.4892,18.4845],[-88.6141,18.247],[-88.4944,18.186],[-88.2843,17.9723],[-88.1669,17.9599],[-88.0915,18.1184],[-88.1085,18.3739],[-88.1947,18.3406],[-88.3837,18.385],[-88.3038,18.4814]]]}},{"type":"Feature","properties":{"sourceId":"1159309141","regionId":"region.b8bb3405-e324-44fe-afb2-f8f82ce31464","countryId":"country.u4ua72"},"geometry":{"type":"Polygon","coordinates":[[[-89.236,15.9065],[-88.914,15.8939],[-88.9276,15.9839],[-88.7457,16.1549],[-88.7401,16.2302],[-88.536,16.2741],[-88.3901,16.4977],[-88.5528,16.5165],[-88.5981,16.6673],[-88.7742,16.681],[-88.8194,16.6136],[-89.1468,16.4568],[-89.1931,16.3926],[-89.236,15.9065]]]}},{"type":"Feature","properties":{"sourceId":"1159309139","regionId":"region.6517b7fb-ae8f-45df-9613-ccff6fc088a6","countryId":"country.u4ua72"},"geometry":{"type":"Polygon","coordinates":[[[-88.2894,17.1358],[-88.3375,17.1092],[-88.6024,17.1045],[-88.5671,17.0451],[-88.6631,16.9119],[-88.6805,16.8097],[-88.7742,16.681],[-88.5981,16.6673],[-88.5528,16.5165],[-88.3901,16.4977],[-88.3062,16.6529],[-88.2833,16.8913],[-88.2151,16.9671],[-88.2894,17.1358]]]}},{"type":"Feature","properties":{"sourceId":"1159310243","regionId":"region.1f9b6498-b379-4d59-b2a8-0df88d671fe8","countryId":"country.u4ua72"},"geometry":{"type":"Polygon","coordinates":[[[-88.1669,17.9599],[-88.2843,17.9723],[-88.5062,17.9176],[-88.5686,17.8526],[-88.5685,17.6884],[-88.6406,17.6168],[-88.6289,17.454],[-88.5788,17.4703],[-88.57,17.2343],[-88.6024,17.1045],[-88.3375,17.1092],[-88.2894,17.1358],[-88.2863,17.3397],[-88.2308,17.4965],[-88.2833,17.5803],[-88.1669,17.9599]]]}}]}