{"type":"FeatureCollection","features":[{"type":"Feature","properties":{"sourceId":"1159310009","regionId":"region.0e2276b2-ad6a-4ef6-a452-f09dc81d9a9d","countryId":"country.1gtbljd"},"geometry":{"type":"MultiPolygon","coordinates":[[[[117.7036,4.1634],[117.8386,4.0402],[117.9348,4.0599],[117.907,4.1567],[117.7036,4.1634]]],[[[117.5671,4.1597],[117.4129,4.2001],[117.2172,4.3534],[117.1647,4.3331],[116.4941,4.3249],[116.3911,4.2947],[116.3107,4.3834],[116.1258,4.3789],[116.0206,4.2709],[115.8788,4.3521],[115.6391,4.146],[115.5485,3.6053],[115.6006,3.4412],[115.5176,3.3572],[115.4828,3.2065],[115.517,3.1573],[115.4641,3.0308],[115.3415,2.9911],[115.2421,3.0416],[115.0669,2.8282],[115.0565,2.6086],[115.1619,2.5904],[115.1265,2.4792],[114.9196,2.2957],[114.7788,2.2472],[114.753,2.1348],[114.8453,2.025],[114.832,1.9025],[114.6714,1.821],[114.669,1.694],[114.5006,1.436],[114.3982,1.5036],[114.2074,1.4394],[114.1921,1.2144],[113.8645,0.9764],[113.9481,0.8622],[113.9177,0.7364],[113.7764,0.5586],[113.9699,0.6036],[114.0363,0.647],[114.1839,0.6505],[114.3775,0.5886],[114.6631,0.6213],[114.7354,0.6726],[114.9765,0.7352],[115.0572,0.6369],[115.076,0.533],[114.9679,0.3642],[114.9531,0.2842],[115.0177,0.0577],[114.9673,-0.0975],[115.0026,-0.1777],[115.1874,0.0052],[115.3474,0.0023],[115.2772,-0.2201],[115.2742,-0.311],[115.3299,-0.511],[115.3813,-0.582],[115.46,-0.886],[115.6287,-0.978],[115.7397,-1.1038],[115.8051,-1.0853],[115.802,-1.2944],[115.6775,-1.4259],[115.6069,-1.4667],[115.7412,-1.7842],[115.7489,-2.0007],[115.8288,-2.0472],[115.8141,-2.1836],[115.874,-2.3507],[115.9945,-2.271],[116.3905,-2.3144],[116.5729,-2.363],[116.6033,-2.2242],[116.5309,-2.1694],[116.3928,-2.1911],[116.3589,-2.0937],[116.4631,-2.02],[116.4666,-1.9075],[116.3249,-1.7039],[116.5575,-1.6062],[116.5392,-1.4812],[116.6097,-1.4206],[116.7624,-1.3653],[116.8198,-1.2614],[117.0237,-1.2029],[117.1639,-0.9817],[117.3011,-0.816],[117.3638,-0.8785],[117.4519,-0.8665],[117.5759,-0.63],[117.596,-0.4226],[117.4891,-0.3874],[117.4339,-0.2638],[117.5303,-0.0323],[117.4756,0.0576],[117.5173,0.291],[117.6193,0.4239],[117.6204,0.502],[117.8113,0.8118],[118.0304,0.859],[117.9753,0.9831],[118.1878,0.8752],[118.5653,0.804],[118.686,0.8461],[118.7982,0.8049],[119.0029,0.9625],[119.0055,1.0376],[118.8569,1.0582],[118.7764,1.202],[118.6133,1.3512],[118.5239,1.3742],[118.4251,1.4857],[118.1267,1.6547],[118.0106,1.7844],[117.9241,1.8192],[117.8599,2.0383],[117.9756,2.1921],[118.0915,2.262],[118.0635,2.3669],[117.8262,2.6074],[117.784,2.7582],[117.6333,2.8122],[117.6556,2.9974],[117.6172,3.0859],[117.4817,3.1013],[117.4539,3.1712],[117.3527,3.1828],[117.3696,3.3052],[117.4465,3.4348],[117.3255,3.436],[117.2,3.555],[117.2195,3.6474],[117.4309,3.6347],[117.5466,3.664],[117.7485,3.6369],[117.8262,3.7036],[117.7772,3.7991],[117.5203,4.0493],[117.5671,4.1597]]],[[[117.6253,3.4377],[117.5415,3.4285],[117.5718,3.3131],[117.6673,3.2716],[117.6817,3.4155],[117.6253,3.4377]]],[[[117.5173,3.477],[117.3937,3.5664],[117.2684,3.5929],[117.2549,3.5071],[117.5173,3.477]]],[[[117.6987,4.1113],[117.5945,4.0639],[117.6653,3.9831],[117.7411,4.0256],[117.6987,4.1113]]]]}},{"type":"Feature","properties":{"sourceId":"1159309833","regionId":"region.b5b9cddf-dc00-4aac-b17b-140e9bb2b7e4","countryId":"country.1gtbljd"},"geometry":{"type":"MultiPolygon","coordinates":[[[[124.4505,-9.1802],[124.4318,-9.2908],[124.3479,-9.3746],[124.3101,-9.4887],[124.1975,-9.3732],[124.1211,-9.4269],[124.03,-9.342],[123.6888,-9.6114],[123.6502,-9.8894],[123.5762,-10.0139],[123.7458,-10.0504],[123.7485,-10.0978],[123.5471,-10.1868],[123.4925,-10.2452],[123.5154,-10.3355],[123.6174,-10.3663],[123.8263,-10.3639],[124.0339,-10.2761],[124.1224,-10.1725],[124.4185,-10.1638],[124.5408,-10.0366],[124.7345,-9.8995],[124.8469,-9.7482],[124.9707,-9.6624],[125.002,-9.5363],[125.0616,-9.4858],[124.9745,-9.1919],[125.1527,-9.1708],[125.1624,-9.0606],[125.0518,-9.035],[124.9479,-9.0785],[124.9195,-8.962],[124.6916,-9.0678],[124.5632,-9.1708],[124.4505,-9.1802]]],[[[120.7925,-9.9609],[120.6697,-9.8852],[120.5803,-9.735],[120.4363,-9.6313],[120.3303,-9.6694],[120.2534,-9.6139],[120.2439,-9.509],[120.071,-9.441],[119.946,-9.2883],[119.8213,-9.3786],[119.6292,-9.3419],[119.1687,-9.3855],[119.0247,-9.4377],[118.9416,-9.5705],[119.0374,-9.6759],[119.1771,-9.7414],[119.2848,-9.7411],[119.4061,-9.7901],[119.4773,-9.7486],[119.6741,-9.8002],[119.6971,-9.8526],[119.9763,-9.9924],[120.0869,-10.1629],[120.1556,-10.221],[120.3916,-10.2631],[120.45,-10.3103],[120.5661,-10.2278],[120.7112,-10.2067],[120.8267,-10.0912],[120.7925,-9.9609]]],[[[119.723,-8.6212],[119.6268,-8.714],[119.723,-8.7618],[119.723,-8.6212]]],[[[119.5593,-8.5182],[119.427,-8.4881],[119.3782,-8.574],[119.4426,-8.6791],[119.5593,-8.5182]]],[[[123.3486,-8.2688],[123.2373,-8.2341],[123.1258,-8.2587],[123.0365,-8.3323],[123.041,-8.4108],[123.3211,-8.3849],[123.3486,-8.2688]]],[[[123.0264,-8.2888],[122.9797,-8.1469],[122.8626,-8.0698],[122.7957,-8.11],[122.7903,-8.2304],[122.8809,-8.2857],[122.7581,-8.361],[122.5982,-8.3952],[122.4942,-8.475],[122.5007,-8.5763],[122.2884,-8.6339],[122.0256,-8.4998],[121.8347,-8.4737],[121.6804,-8.5113],[121.5095,-8.6021],[121.3805,-8.5722],[121.2905,-8.4775],[121.0309,-8.3927],[120.9761,-8.3375],[120.7446,-8.3298],[120.6546,-8.2617],[120.277,-8.2692],[120.1089,-8.3919],[119.9194,-8.4612],[119.8037,-8.5968],[119.824,-8.7804],[119.9758,-8.8139],[120.131,-8.7708],[120.2439,-8.8232],[120.3816,-8.7958],[120.5939,-8.7958],[120.7642,-8.8655],[120.8332,-8.817],[120.9229,-8.9262],[121.0669,-8.9405],[121.1653,-8.8951],[121.3406,-8.9181],[121.396,-8.7941],[121.7937,-8.884],[122.0054,-8.802],[122.1145,-8.7324],[122.4079,-8.7415],[122.5654,-8.6691],[122.8074,-8.6109],[122.8074,-8.4867],[122.9046,-8.447],[122.9041,-8.3634],[123.0264,-8.2888]]],[[[123.3901,-10.5915],[123.3355,-10.4903],[123.2251,-10.5436],[123.0492,-10.7114],[122.8125,-10.7784],[122.8418,-10.9211],[123.2092,-10.8131],[123.2434,-10.7377],[123.3486,-10.6741],[123.3901,-10.5915]]],[[[121.9402,-10.4301],[121.8613,-10.4406],[121.7321,-10.5973],[121.8597,-10.6041],[121.9909,-10.5216],[121.9402,-10.4301]]],[[[123.4658,-10.1498],[123.4038,-10.1576],[123.32,-10.2678],[123.3901,-10.3308],[123.495,-10.1982],[123.4658,-10.1498]]],[[[123.928,-8.2273],[123.7982,-8.1799],[123.6433,-8.2751],[123.6047,-8.3642],[123.5171,-8.3375],[123.3576,-8.4113],[123.3244,-8.5346],[123.3994,-8.586],[123.7289,-8.3933],[123.7754,-8.3058],[123.928,-8.2273]]],[[[124.3081,-8.2205],[124.2581,-8.1821],[124.0972,-8.3772],[123.9851,-8.3383],[124.085,-8.5563],[124.1648,-8.5283],[124.3,-8.3193],[124.3081,-8.2205]]],[[[125.134,-8.2171],[125.0925,-8.1616],[124.6651,-8.1697],[124.5687,-8.131],[124.4507,-8.149],[124.4105,-8.3061],[124.3335,-8.413],[124.4182,-8.4646],[124.6502,-8.4054],[124.7661,-8.4085],[125.1233,-8.3523],[125.134,-8.2171]]]]}},{"type":"Feature","properties":{"sourceId":"1159309929","regionId":"region.56f204b4-088d-41cc-a37f-3ec864762beb","countryId":"country.1gtbljd"},"geometry":{"type":"MultiPolygon","coordinates":[[[[109.6453,2.0832],[109.5612,1.9905],[109.341,1.9355],[109.3478,1.8096],[109.2527,1.6684],[109.096,1.5606],[109.0608,1.3839],[108.927,1.1404],[108.9803,0.9956],[108.9414,0.884],[108.8555,0.8322],[108.9273,0.6408],[108.9448,0.4453],[108.9209,0.3403],[109.1023,0.2431],[109.1668,0.1123],[109.176,-0.212],[109.0908,-0.2872],[109.1233,-0.4997],[109.3626,-0.652],[109.2453,-0.6959],[109.2732,-0.8536],[109.4065,-0.9114],[109.4382,-0.8456],[109.5817,-0.8945],[109.5986,-0.9478],[109.6773,-0.9838],[109.7341,-0.954],[109.8355,-1.0862],[109.9227,-1.1036],[109.9299,-1.2232],[110.0296,-1.2859],[110.0685,-1.4325],[110.0339,-1.6462],[109.9216,-1.7696],[109.9536,-1.8743],[110.075,-1.9225],[110.1292,-2.0695],[110.0956,-2.1974],[110.1599,-2.4365],[110.221,-2.5328],[110.2038,-2.6401],[110.2459,-2.7863],[110.2048,-2.8962],[110.2632,-3.0029],[110.5081,-2.8746],[110.617,-2.9098],[110.6624,-3.0807],[110.794,-2.9435],[110.9592,-2.8857],[111.1376,-2.733],[111.1377,-2.4048],[111.0123,-2.1274],[110.9948,-1.9853],[111.0252,-1.867],[111.0174,-1.6603],[110.9203,-1.6132],[111.0116,-1.5261],[111.134,-1.5304],[111.3271,-1.3733],[111.4161,-1.2688],[111.5774,-1.1867],[111.6514,-1.0155],[112.1185,-0.7354],[112.38,-0.7546],[112.578,-0.7045],[113.0042,-0.5187],[113.1611,-0.4699],[113.2564,-0.5514],[113.3008,-0.4228],[113.2492,-0.3611],[113.3262,-0.2517],[113.4293,-0.1904],[113.4785,-0.0475],[113.4532,0.0659],[113.3245,0.2452],[113.5316,0.2614],[113.6229,0.3109],[113.6467,0.4101],[113.7764,0.5586],[113.9177,0.7364],[113.9481,0.8622],[113.8645,0.9764],[114.1921,1.2144],[114.2074,1.4394],[114.0539,1.4651],[113.9097,1.4425],[113.8082,1.3397],[113.6495,1.2333],[113.5034,1.3145],[113.3976,1.2939],[113.3237,1.3514],[113.089,1.4313],[112.9732,1.4151],[113.0234,1.537],[112.855,1.5827],[112.7689,1.5522],[112.4705,1.5677],[112.1801,1.449],[112.184,1.369],[112.1001,1.1549],[111.9101,1.114],[111.8231,1.0085],[111.6552,1.0308],[111.5389,0.9977],[111.3518,1.0139],[111.1976,1.0752],[110.8527,0.9972],[110.784,0.9082],[110.6134,0.894],[110.5539,0.8514],[110.4226,0.9095],[110.2566,1.0391],[110.1704,1.1745],[110.0935,1.1916],[109.9763,1.2877],[109.9325,1.3785],[109.8428,1.4033],[109.6773,1.5729],[109.6472,1.7619],[109.5466,1.8143],[109.5284,1.89],[109.6453,2.0832]]],[[[108.9642,-1.5734],[108.8071,-1.565],[108.8312,-1.6623],[108.9333,-1.6408],[108.9642,-1.5734]]],[[[109.7598,-1.1039],[109.7046,-0.9838],[109.6567,-1.0037],[109.5879,-0.9703],[109.4523,-1.004],[109.4172,-1.2545],[109.4787,-1.2985],[109.6983,-1.1905],[109.7598,-1.1039]]]]}},{"type":"Feature","properties":{"sourceId":"1159308857","regionId":"region.b4ee96c1-fb72-4943-afd2-f8610a13bfd1","countryId":"country.1gtbljd"},"geometry":{"type":"MultiPolygon","coordinates":[[[[140.9745,-2.6005],[140.7346,-2.6349],[140.7308,-2.4915],[140.6076,-2.4394],[140.3885,-2.3971],[140.3323,-2.4557],[140.1047,-2.3201],[140.0593,-2.3543],[139.8648,-2.372],[139.2832,-2.1218],[139.1067,-2.0128],[138.8032,-1.9208],[138.6652,-1.7892],[138.3567,-1.7101],[138.0749,-1.6103],[137.9248,-1.4841],[137.7944,-1.4841],[137.5325,-1.5978],[137.3488,-1.7101],[137.1428,-1.787],[137.1017,-1.8883],[137.2048,-1.9496],[137.2263,-2.0744],[137.1543,-2.1115],[136.9515,-2.1422],[136.7586,-2.2487],[136.6839,-2.2587],[136.4815,-2.211],[136.4038,-2.2197],[136.2887,-2.4501],[136.2664,-2.5603],[136.1974,-2.6244],[136.0232,-2.7077],[135.9646,-2.7758],[135.9099,-2.9858],[135.8431,-3.012],[135.719,-3.1486],[135.6389,-3.1782],[135.4705,-3.3631],[135.322,-3.3865],[134.9847,-3.3297],[134.8806,-3.2429],[134.8242,-3.0504],[134.7013,-2.9587],[134.67,-2.8377],[134.4454,-3.0239],[134.4507,-3.0779],[134.3321,-3.1899],[134.2546,-3.3077],[134.2583,-3.3995],[135.2651,-3.76],[134.8735,-4.2546],[135.1856,-4.4489],[135.4295,-4.4304],[135.7246,-4.4953],[135.9705,-4.5196],[136.0358,-4.586],[136.2673,-4.6762],[136.3555,-4.6774],[136.8221,-4.9283],[136.9539,-4.9228],[137.2671,-4.9994],[137.5798,-5.1819],[137.7063,-5.2219],[137.8218,-5.3629],[137.9146,-5.3869],[138.0598,-5.5753],[138.0711,-5.7286],[138.2708,-5.887],[138.3655,-6.0917],[138.3904,-6.2337],[138.4661,-6.4021],[138.6776,-6.603],[138.6729,-6.6949],[138.8224,-6.8061],[138.7398,-6.8971],[138.5814,-6.8909],[138.572,-6.9425],[138.762,-7.1139],[138.6882,-7.1926],[138.8861,-7.3609],[138.958,-7.5073],[139.093,-7.56],[139.0072,-7.7543],[138.994,-7.8655],[138.911,-7.9225],[138.9058,-8.0436],[138.9212,-8.0795],[138.8587,-8.1013],[138.8386,-8.1384],[138.9144,-8.2921],[139.0895,-8.1336],[139.2012,-8.0956],[139.3567,-8.1994],[139.515,-8.1789],[139.6305,-8.1249],[139.9324,-8.1086],[140.0319,-8.2464],[140.2516,-8.4089],[140.5075,-8.6381],[140.6216,-8.8067],[140.8569,-9.0491],[140.977,-9.1061],[140.9769,-7.9621],[140.9772,-6.8966],[140.916,-6.8627],[140.8492,-6.7028],[140.8593,-6.6084],[140.9435,-6.5075],[140.9769,-6.3351],[140.9769,-5.6212],[140.9769,-4.9885],[140.9735,-3.8],[140.9745,-2.6005]]],[[[138.8973,-8.3372],[138.8314,-8.1856],[138.6888,-8.1813],[138.5642,-8.3073],[138.5584,-8.3666],[138.8941,-8.4054],[138.8973,-8.3372]]],[[[138.939,-7.5421],[138.8045,-7.3742],[138.6209,-7.3647],[138.395,-7.4049],[138.2442,-7.4565],[138.0281,-7.61],[137.8949,-7.8162],[137.8005,-8.0417],[137.759,-8.0734],[137.637,-8.3894],[137.6771,-8.426],[137.8491,-8.3775],[138.178,-8.3849],[138.2935,-8.4187],[138.4442,-8.3791],[138.6026,-8.2547],[138.6609,-8.169],[138.8182,-8.0932],[138.9041,-8.0759],[138.8838,-7.9325],[138.9827,-7.8298],[139.0464,-7.5619],[138.939,-7.5421]]],[[[136.8485,-1.7653],[136.7046,-1.7306],[136.3903,-1.7258],[136.1913,-1.6539],[135.8967,-1.648],[135.4636,-1.5895],[135.4839,-1.675],[135.718,-1.7033],[136.2732,-1.9094],[136.3377,-1.8609],[136.4539,-1.8951],[136.6449,-1.8764],[136.8485,-1.7653]]],[[[134.9982,-1.0186],[134.9375,-0.9576],[134.8338,-0.9566],[134.8001,-1.0278],[134.8516,-1.1087],[134.9567,-1.1285],[134.9982,-1.0186]]],[[[136.3757,-1.0937],[136.1963,-1.0666],[136.0658,-0.8717],[135.8474,-0.6959],[135.7775,-0.7487],[135.6773,-0.6856],[135.3699,-0.6535],[135.6406,-0.8816],[135.781,-0.8727],[135.8283,-1.1078],[135.906,-1.1894],[135.9914,-1.1689],[136.1428,-1.2234],[136.2936,-1.1832],[136.3757,-1.0937]]]]}},{"type":"Feature","properties":{"sourceId":"1159309869","regionId":"region.b064fd51-a301-49a6-83f3-b01c30603e55","countryId":"country.1gtbljd"},"geometry":{"type":"MultiPolygon","coordinates":[[[[111.6727,-6.7337],[111.5985,-6.9608],[111.6083,-7.154],[111.4443,-7.3112],[111.2203,-7.2514],[111.185,-7.5291],[111.3079,-7.8378],[111.228,-7.9381],[110.9652,-8.1169],[110.9444,-8.2264],[111.1148,-8.242],[111.1712,-8.2826],[111.2842,-8.2512],[111.4421,-8.2761],[111.6734,-8.3679],[111.792,-8.2565],[111.9273,-8.3025],[112.3662,-8.342],[112.6727,-8.447],[112.8338,-8.3757],[112.9027,-8.404],[112.9873,-8.3235],[113.1979,-8.2773],[113.346,-8.3242],[113.4136,-8.3902],[113.6405,-8.4586],[113.7239,-8.5283],[114.197,-8.6456],[114.3026,-8.6119],[114.3853,-8.6647],[114.3889,-8.7481],[114.5972,-8.7756],[114.5891,-8.6642],[114.4612,-8.6183],[114.3587,-8.4091],[114.4468,-8.0143],[114.4673,-7.831],[114.2586,-7.7004],[114.1404,-7.7009],[114.0161,-7.6181],[113.9451,-7.678],[113.8039,-7.7218],[113.5286,-7.7004],[113.2993,-7.7885],[113.1327,-7.7278],[113.0371,-7.655],[112.8449,-7.5929],[112.7615,-7.5312],[112.8233,-7.2626],[112.7007,-7.2547],[112.5828,-6.9899],[112.5007,-6.9108],[112.3635,-6.8705],[112.1929,-6.9046],[112.0679,-6.8936],[111.9762,-6.7848],[111.8823,-6.8087],[111.6727,-6.7337]]],[[[115.5706,-6.9046],[115.4608,-6.8425],[115.2757,-6.8354],[115.2185,-6.9044],[115.2656,-6.9835],[115.3823,-6.9108],[115.5706,-6.9046]]],[[[112.7007,-5.726],[112.5828,-5.7942],[112.7007,-5.8488],[112.7007,-5.726]]],[[[114.0457,-6.9146],[113.9237,-6.8648],[113.5262,-6.8963],[113.4456,-6.8824],[112.9153,-6.8917],[112.6926,-7.0585],[112.7425,-7.1614],[112.8181,-7.1614],[113.1279,-7.2311],[113.2691,-7.2175],[113.549,-7.2338],[113.6652,-7.11],[113.8325,-7.132],[113.91,-7.0481],[114.0967,-6.9829],[114.0457,-6.9146]]]]}},{"type":"Feature","properties":{"sourceId":"1159307875","regionId":"region.45820d89-bcbe-4d82-b91a-527e23c9e88b","countryId":"country.1gtbljd"},"geometry":{"type":"MultiPolygon","coordinates":[[[[134.6078,-6.4215],[134.4378,-6.2851],[134.3584,-6.3795],[134.4639,-6.4249],[134.5116,-6.5136],[134.6078,-6.4215]]],[[[134.3779,-6.2541],[134.3333,-6.2346],[134.2341,-6.1301],[134.2258,-6.0287],[134.126,-6.0343],[134.1204,-6.1222],[134.3267,-6.3082],[134.3779,-6.2541]]],[[[128.0906,-8.131],[128.0178,-8.1432],[127.8325,-8.0986],[127.8021,-8.1762],[127.9942,-8.2519],[128.0906,-8.131]]],[[[131.1094,-8.131],[131.0376,-8.0833],[130.9222,-8.1984],[130.9911,-8.2348],[131.1094,-8.131]]],[[[129.8412,-7.8779],[129.7249,-7.796],[129.5876,-7.8356],[129.5942,-7.924],[129.6939,-8.0383],[129.7764,-8.0554],[129.8591,-7.9325],[129.8412,-7.8779]]],[[[126.8368,-7.7263],[126.7217,-7.6681],[126.6314,-7.5654],[126.5038,-7.5904],[126.3284,-7.6957],[126.2031,-7.7135],[125.9479,-7.6783],[125.8084,-7.8642],[125.812,-8.0076],[125.9251,-7.9119],[126.075,-7.8839],[126.1898,-7.9235],[126.4219,-7.9325],[126.4662,-7.9666],[126.5593,-7.8199],[126.7134,-7.7475],[126.8368,-7.7263]]],[[[131.6986,-7.2267],[131.6375,-7.1091],[131.5288,-7.1701],[131.347,-7.4382],[131.2547,-7.4723],[131.1196,-7.7338],[131.1611,-7.8097],[131.0857,-7.8718],[131.1162,-8.0007],[131.2297,-8.0035],[131.3609,-7.9474],[131.3899,-7.8471],[131.5584,-7.7066],[131.6433,-7.5991],[131.6992,-7.414],[131.6428,-7.2548],[131.6986,-7.2267]]],[[[128.6697,-7.1374],[128.6196,-7.0632],[128.5327,-7.1511],[128.6387,-7.2199],[128.6697,-7.1374]]],[[[134.4844,-6.5756],[134.45,-6.4413],[134.3494,-6.3998],[134.2946,-6.2978],[134.1238,-6.1716],[134.1275,-6.3253],[134.0734,-6.8268],[134.1851,-6.9186],[134.3107,-6.8595],[134.3983,-6.7197],[134.4993,-6.6378],[134.4844,-6.5756]]],[[[132.802,-5.7874],[132.6834,-5.7491],[132.6678,-5.8881],[132.7415,-5.9504],[132.802,-5.7874]]],[[[134.7581,-6.1579],[134.7239,-5.9177],[134.7649,-5.8904],[134.7264,-5.7112],[134.7581,-5.6713],[134.6965,-5.5341],[134.5812,-5.4242],[134.4912,-5.4482],[134.3518,-5.7145],[134.3604,-5.8495],[134.2759,-6.0836],[134.3335,-6.2214],[134.502,-6.2992],[134.6078,-6.3696],[134.7018,-6.3219],[134.7581,-6.1579]]],[[[133.1843,-5.3103],[133.1101,-5.311],[133.023,-5.5485],[133.1133,-5.5956],[133.1843,-5.3103]]],[[[128.5288,-3.533],[128.4102,-3.5432],[128.3875,-3.6269],[128.5638,-3.5919],[128.5288,-3.533]]],[[[128.3308,-3.5119],[128.1587,-3.5846],[128.0345,-3.589],[127.9164,-3.6939],[128.1271,-3.7494],[128.2365,-3.7223],[128.3372,-3.6116],[128.3308,-3.5119]]],[[[127.2409,-3.471],[127.2598,-3.3712],[127.0462,-3.3054],[127.0935,-3.2008],[126.8934,-3.1256],[126.84,-3.0737],[126.7202,-3.0602],[126.4214,-3.0705],[126.2971,-3.1059],[126.1851,-3.1809],[126.0909,-3.1121],[125.9917,-3.2482],[126.0526,-3.4463],[126.1486,-3.5255],[126.1736,-3.6025],[126.5893,-3.8166],[126.7422,-3.8594],[126.9461,-3.7658],[127.1216,-3.6533],[127.2434,-3.6061],[127.2409,-3.471]]],[[[130.8732,-3.574],[130.7615,-3.4059],[130.6667,-3.4036],[130.5785,-3.1228],[130.345,-2.9776],[130.0466,-2.9921],[129.6118,-2.8068],[129.4435,-2.7849],[129.3584,-2.8562],[129.1218,-2.9577],[129.0529,-2.8045],[128.8652,-2.8621],[128.5159,-2.8342],[128.381,-2.86],[128.1755,-2.857],[128.1063,-2.9755],[128.1037,-3.067],[128.0081,-3.0737],[127.8753,-3.2088],[127.9302,-3.3233],[128.0222,-3.3686],[128.0666,-3.197],[128.2821,-3.2209],[128.3992,-3.4101],[128.4841,-3.4625],[128.6776,-3.4323],[128.6926,-3.3487],[128.8775,-3.2026],[128.9529,-3.2204],[128.9608,-3.3556],[129.1135,-3.3488],[129.2362,-3.4016],[129.3581,-3.4101],[129.4856,-3.4635],[129.5632,-3.4396],[129.5449,-3.2978],[129.8905,-3.3331],[129.9832,-3.4597],[130.1265,-3.533],[130.4188,-3.6369],[130.6069,-3.7785],[130.8179,-3.8688],[130.8316,-3.6941],[130.8732,-3.574]]]]}},{"type":"Feature","properties":{"sourceId":"1159308853","regionId":"region.9ab5f837-f302-4968-a13b-a05a7f49e470","countryId":"country.1gtbljd"},"geometry":{"type":"MultiPolygon","coordinates":[[[[117.6643,-8.1481],[117.4939,-8.1762],[117.4856,-8.343],[117.5666,-8.3639],[117.6643,-8.1481]]],[[[116.6333,-8.2751],[116.3762,-8.2018],[116.2697,-8.2477],[116.0279,-8.445],[116.0726,-8.5778],[116.0603,-8.7139],[115.8286,-8.7918],[116.0021,-8.8989],[116.0686,-8.8557],[116.2048,-8.92],[116.5654,-8.8956],[116.5004,-8.8027],[116.681,-8.5563],[116.7432,-8.3918],[116.6333,-8.2751]]],[[[119.2036,-8.6109],[119.0757,-8.652],[119.0305,-8.5478],[119.0511,-8.4705],[118.9883,-8.309],[118.8127,-8.2956],[118.6958,-8.3713],[118.6475,-8.2888],[118.4436,-8.2579],[118.3652,-8.3447],[118.2439,-8.3287],[118.1152,-8.1139],[117.8953,-8.09],[117.7295,-8.1589],[117.7063,-8.2297],[117.8225,-8.3542],[118.0032,-8.4737],[118.0575,-8.4506],[118.2909,-8.6059],[118.1919,-8.6588],[118.0681,-8.6559],[117.969,-8.7481],[117.8052,-8.72],[117.7717,-8.6041],[117.6491,-8.5519],[117.6291,-8.4575],[117.5581,-8.4054],[117.3532,-8.4467],[117.1951,-8.3576],[116.9845,-8.4958],[116.7901,-8.5837],[116.7485,-8.6665],[116.8213,-8.7873],[116.7352,-8.8734],[116.763,-9.0156],[117.0097,-9.1073],[117.1268,-9.0912],[117.2261,-9.0238],[117.3341,-9.0594],[117.5581,-9.0019],[117.7378,-8.9098],[117.8905,-8.9368],[118.0789,-8.8443],[118.1577,-8.8679],[118.2993,-8.7579],[118.465,-8.865],[118.7466,-8.7763],[118.7651,-8.7109],[118.8984,-8.6884],[118.9915,-8.7551],[119.1516,-8.7424],[119.2036,-8.6109]]]]}},{"type":"Feature","properties":{"sourceId":"1159309875","regionId":"region.045b5d96-8c54-49fc-a869-a8952474499b","countryId":"country.1gtbljd"},"geometry":{"type":"MultiPolygon","coordinates":[[[[121.0864,-2.9102],[121.2776,-2.8789],[121.4753,-3.0198],[121.598,-2.9728],[121.7725,-2.8009],[121.7874,-2.6701],[121.4489,-2.3885],[121.3498,-2.3485],[120.8042,-2.2386],[120.625,-2.1042],[120.4476,-1.8662],[120.2924,-1.9002],[120.0481,-1.8615],[119.8735,-1.9554],[119.825,-2.0462],[119.6463,-2.1764],[119.6236,-2.2936],[119.7071,-2.3539],[119.739,-2.5653],[119.7856,-2.695],[119.6613,-2.7582],[119.5604,-2.7465],[119.5432,-2.9069],[119.6392,-3.1209],[119.4119,-3.2147],[119.4529,-3.2809],[119.4909,-3.4865],[119.512,-3.5476],[119.4567,-3.7145],[119.5852,-3.9703],[119.6306,-3.9719],[119.6001,-4.2424],[119.6268,-4.3145],[119.5911,-4.5641],[119.4912,-4.7541],[119.5252,-4.8831],[119.46,-5.0735],[119.3799,-5.1917],[119.3528,-5.3556],[119.4375,-5.5217],[119.5471,-5.6318],[119.648,-5.6788],[119.8057,-5.6925],[119.9149,-5.5689],[120.1004,-5.5956],[120.3233,-5.5095],[120.4593,-5.602],[120.3811,-5.3373],[120.2643,-5.15],[120.3094,-4.8713],[120.3866,-4.8293],[120.4441,-4.6266],[120.4021,-4.5745],[120.3814,-4.1672],[120.3535,-3.9308],[120.4465,-3.7287],[120.422,-3.6664],[120.3953,-3.3823],[120.4216,-3.2675],[120.2853,-3.1625],[120.2316,-2.9504],[120.543,-2.7472],[120.5845,-2.6821],[120.7761,-2.6149],[121.0059,-2.6608],[121.0669,-2.7522],[121.0244,-2.8227],[121.0864,-2.9102]]],[[[120.5462,-5.9382],[120.4483,-5.8439],[120.45,-6.1408],[120.553,-6.1101],[120.5462,-5.9382]]]]}},{"type":"Feature","properties":{"sourceId":"1159309873","regionId":"region.961c2558-0ee6-40a0-9229-de178ce6eb31","countryId":"country.1gtbljd"},"geometry":{"type":"Polygon","coordinates":[[[108.8951,-6.8142],[108.8007,-6.9348],[108.789,-7.0613],[108.6955,-7.1398],[108.5954,-7.1421],[108.5469,-7.2788],[108.7047,-7.391],[108.7336,-7.6046],[108.799,-7.6647],[109.0144,-7.7326],[109.0981,-7.6869],[109.3688,-7.7135],[109.4263,-7.7742],[109.6567,-7.7817],[110.0427,-7.8891],[110.1365,-7.6768],[110.3013,-7.6691],[110.4413,-7.5689],[110.5066,-7.7831],[110.5787,-7.821],[110.7533,-7.8326],[110.7866,-7.8736],[110.7987,-8.1217],[110.8436,-8.2008],[110.9444,-8.2264],[110.9652,-8.1169],[111.228,-7.9381],[111.3079,-7.8378],[111.185,-7.5291],[111.2203,-7.2514],[111.4443,-7.3112],[111.6083,-7.154],[111.5985,-6.9608],[111.6727,-6.7337],[111.6101,-6.665],[111.4934,-6.6235],[111.4287,-6.6992],[111.1569,-6.6921],[111.0518,-6.4567],[110.9248,-6.4037],[110.7305,-6.457],[110.6648,-6.5654],[110.6447,-6.6882],[110.5715,-6.8362],[110.4724,-6.9464],[110.3557,-6.9729],[110.198,-6.8909],[109.8963,-6.9182],[109.7256,-6.8631],[109.532,-6.8351],[109.3519,-6.8757],[109.1428,-6.8562],[109.0013,-6.7892],[108.8951,-6.8142]]]}},{"type":"Feature","properties":{"sourceId":"1159309879","regionId":"region.1cf2ab8b-e646-4470-b0c4-43a1a7cbac7e","countryId":"country.1gtbljd"},"geometry":{"type":"Polygon","coordinates":[[[106.9883,-6.0794],[106.985,-6.2354],[106.9239,-6.3815],[106.7629,-6.3014],[106.7391,-6.3865],[106.5603,-6.3552],[106.4208,-6.3704],[106.4053,-6.5241],[106.4266,-6.6968],[106.5061,-6.7835],[106.4508,-6.8362],[106.4046,-6.9913],[106.5371,-6.983],[106.5405,-7.0546],[106.3984,-7.2078],[106.3754,-7.3102],[106.5227,-7.411],[107.107,-7.4564],[107.4114,-7.4959],[107.591,-7.5704],[107.6865,-7.6621],[107.9535,-7.7399],[108.3268,-7.8175],[108.4537,-7.8185],[108.5396,-7.6923],[108.799,-7.6647],[108.7336,-7.6046],[108.7047,-7.391],[108.5469,-7.2788],[108.5954,-7.1421],[108.6955,-7.1398],[108.789,-7.0613],[108.8007,-6.9348],[108.8951,-6.8142],[108.7488,-6.8122],[108.6055,-6.7617],[108.5396,-6.4869],[108.3722,-6.3404],[108.3603,-6.2464],[108.2164,-6.238],[108.0937,-6.3268],[107.8108,-6.1893],[107.6782,-6.238],[107.4703,-6.1454],[107.3541,-5.976],[107.1501,-5.9731],[107.0444,-5.9143],[106.9883,-6.0794]]]}},{"type":"Feature","properties":{"sourceId":"1159309883","regionId":"region.940c7ce9-bd13-46e5-8ed2-976def58f9bb","countryId":"country.1gtbljd"},"geometry":{"type":"Polygon","coordinates":[[[106.731,-6.0589],[106.702,-6.2101],[106.7629,-6.3014],[106.9239,-6.3815],[106.985,-6.2354],[106.9883,-6.0794],[106.8377,-6.1027],[106.731,-6.0589]]]}},{"type":"Feature","properties":{"sourceId":"1159309877","regionId":"region.cbd58d36-a556-4d5a-9bb2-e7e542cc5f2b","countryId":"country.1gtbljd"},"geometry":{"type":"Polygon","coordinates":[[[106.4046,-6.9913],[106.4508,-6.8362],[106.5061,-6.7835],[106.4266,-6.6968],[106.4053,-6.5241],[106.4208,-6.3704],[106.5603,-6.3552],[106.7391,-6.3865],[106.7629,-6.3014],[106.702,-6.2101],[106.731,-6.0589],[106.6629,-6.008],[106.4954,-6.0348],[106.2565,-5.9416],[106.176,-6.0139],[106.0527,-5.881],[105.8879,-6.0706],[105.8324,-6.2287],[105.8241,-6.4346],[105.7114,-6.5346],[105.4536,-6.8088],[105.3638,-6.665],[105.2608,-6.7673],[105.3108,-6.8104],[105.5552,-6.8557],[105.7747,-6.8502],[105.9596,-6.8176],[106.053,-6.8368],[106.2834,-6.9833],[106.4046,-6.9913]]]}},{"type":"Feature","properties":{"sourceId":"1159307899","regionId":"region.0b8bda0b-a85f-4d37-ab00-f2d55f03882c","countryId":"country.1gtbljd"},"geometry":{"type":"Polygon","coordinates":[[[110.8436,-8.2008],[110.7987,-8.1217],[110.7866,-7.8736],[110.7533,-7.8326],[110.5787,-7.821],[110.5066,-7.7831],[110.4413,-7.5689],[110.3013,-7.6691],[110.1365,-7.6768],[110.0427,-7.8891],[110.4767,-8.1119],[110.8436,-8.2008]]]}},{"type":"Feature","properties":{"sourceId":"1159308779","regionId":"region.91a424eb-fcf5-4614-a11a-286e348ffeda","countryId":"country.1gtbljd"},"geometry":{"type":"MultiPolygon","coordinates":[[[[122.3394,-3.2376],[122.2072,-3.1115],[122.058,-3.0926],[121.7814,-2.9855],[121.598,-2.9728],[121.4753,-3.0198],[121.2776,-2.8789],[121.0864,-2.9102],[121.0481,-3.0662],[121.0667,-3.1938],[120.979,-3.267],[120.8703,-3.4457],[120.8938,-3.5392],[121.1603,-3.7962],[121.2402,-3.8079],[121.3543,-3.9684],[121.5552,-4.0214],[121.6277,-4.0871],[121.5363,-4.2306],[121.4846,-4.6564],[121.5542,-4.7437],[121.7044,-4.8352],[121.8233,-4.8131],[121.9917,-4.8557],[122.1078,-4.7936],[122.043,-4.7078],[122.1078,-4.52],[122.4304,-4.4169],[122.5991,-4.3967],[122.6823,-4.4804],[122.7688,-4.4784],[122.9002,-4.3888],[122.9071,-4.196],[122.8164,-4.1373],[122.6751,-4.1227],[122.6244,-3.9524],[122.4414,-3.7311],[122.3552,-3.7278],[122.2505,-3.6562],[122.2005,-3.5566],[122.2922,-3.4509],[122.2517,-3.3761],[122.3394,-3.2376]]],[[[122.0674,-5.215],[121.9827,-5.079],[121.8539,-5.1021],[121.8068,-5.2599],[121.8818,-5.3902],[121.9683,-5.4679],[122.053,-5.4323],[122.0674,-5.215]]],[[[122.78,-4.9166],[122.7355,-4.6437],[122.657,-4.6243],[122.4988,-4.7254],[122.405,-4.7379],[122.3275,-4.8352],[122.4026,-5.0618],[122.3418,-5.109],[122.2752,-5.3276],[122.4072,-5.3532],[122.5435,-5.4288],[122.6554,-5.3225],[122.6065,-5.2358],[122.6434,-5.0788],[122.78,-4.9166]]],[[[123.1499,-5.225],[122.9836,-5.0878],[122.9644,-4.9929],[123.0151,-4.9294],[123.0464,-4.7529],[123.1499,-4.7179],[123.2044,-4.6117],[123.1478,-4.5085],[123.0195,-4.3902],[122.9089,-4.4745],[122.848,-4.6489],[122.855,-4.8178],[122.7634,-5.2079],[122.5671,-5.5069],[122.6384,-5.6622],[122.7223,-5.6277],[122.8276,-5.6762],[122.9182,-5.5274],[122.8762,-5.4584],[122.9776,-5.3942],[123.0656,-5.4184],[123.2131,-5.3017],[123.1499,-5.225]]],[[[123.2044,-3.9929],[123.0156,-3.9811],[122.9507,-4.0471],[122.9779,-4.1288],[123.0866,-4.2345],[123.1693,-4.2211],[123.2534,-4.0898],[123.2044,-3.9929]]]]}},{"type":"Feature","properties":{"sourceId":"1159311287","regionId":"region.3cf56eb3-a832-48e6-b775-fb859ca9daca","countryId":"country.1gtbljd"},"geometry":{"type":"MultiPolygon","coordinates":[[[[134.8735,-4.2546],[135.2651,-3.76],[134.2583,-3.3995],[134.2546,-3.3077],[134.3321,-3.1899],[134.4507,-3.0779],[134.4454,-3.0239],[134.67,-2.8377],[134.6581,-2.5628],[134.5563,-2.4648],[134.4744,-2.5807],[134.5327,-2.8342],[134.4639,-2.8547],[134.4017,-2.7448],[134.3303,-2.5222],[134.1934,-2.3791],[134.1521,-2.1755],[134.1555,-2.0395],[134.0871,-1.6828],[134.2072,-1.5735],[134.282,-1.3502],[134.2038,-1.2126],[134.1275,-1.1484],[134.0361,-0.9578],[134.1008,-0.8126],[133.9772,-0.7232],[133.7454,-0.7507],[133.3916,-0.7232],[133.1548,-0.532],[132.9053,-0.4532],[132.7092,-0.36],[132.4372,-0.3471],[132.27,-0.3845],[132.0996,-0.4699],[131.8843,-0.6819],[131.5902,-0.7565],[131.4883,-0.7468],[131.243,-0.8194],[131.2915,-0.915],[131.2542,-1.0803],[131.1817,-1.2172],[131.03,-1.2756],[131.0036,-1.4562],[131.1263,-1.4533],[131.2057,-1.5236],[131.3237,-1.4692],[131.4275,-1.4977],[131.5731,-1.4802],[131.8215,-1.5982],[131.9273,-1.7062],[131.9729,-1.9646],[132.0734,-2.1052],[132.2145,-2.1658],[132.3479,-2.2701],[132.5604,-2.1856],[132.6987,-2.3054],[132.8159,-2.245],[132.9436,-2.2834],[133.1694,-2.2169],[133.2962,-2.2042],[133.5486,-2.245],[133.71,-2.1756],[133.9404,-2.1076],[133.863,-2.2179],[133.95,-2.2929],[133.9209,-2.3876],[133.735,-2.5168],[133.6067,-2.5325],[133.3206,-2.4919],[133.2585,-2.4164],[133.0335,-2.4794],[132.8353,-2.736],[132.7366,-2.81],[132.5857,-2.7175],[132.2019,-2.6764],[132.1213,-2.6979],[132.035,-2.7936],[131.9969,-2.9148],[132.0755,-2.9577],[132.1883,-2.9167],[132.3257,-2.9465],[132.5531,-3.107],[132.603,-3.2419],[132.6921,-3.3381],[132.8117,-3.2817],[132.8319,-3.461],[132.9318,-3.5541],[132.8811,-3.6428],[132.7561,-3.6275],[132.7918,-3.9272],[132.9077,-4.0881],[132.9694,-4.112],[133.0791,-4.0606],[133.2694,-4.052],[133.4556,-3.8469],[133.4089,-3.7224],[133.5862,-3.5666],[133.5691,-3.4819],[133.6633,-3.3615],[133.6682,-3.1222],[133.8816,-2.9638],[133.8464,-3.0871],[133.6831,-3.2325],[133.6968,-3.4274],[133.6419,-3.4616],[133.708,-3.6101],[133.8436,-3.6384],[133.959,-3.8376],[134.1731,-3.7879],[134.1912,-3.9435],[134.3153,-4.0203],[134.4304,-3.9078],[134.5326,-4.0221],[134.6922,-3.9148],[134.6581,-4.1334],[134.7398,-4.204],[134.8735,-4.2546]]],[[[130.3865,-1.8883],[130.4378,-1.8507],[130.3518,-1.7414],[130.012,-1.7502],[129.7453,-1.8635],[129.7438,-1.9122],[129.9255,-2.0038],[130.1265,-2.067],[130.3735,-2.0128],[130.3865,-1.8883]]],[[[131.0574,-1.0007],[131.0348,-0.9148],[130.9129,-0.8942],[130.6807,-0.9566],[130.7497,-1.2234],[130.8533,-1.3307],[130.9826,-1.3486],[131.0725,-1.0776],[131.0574,-1.0007]]],[[[130.9172,-0.7784],[130.7328,-0.8263],[130.6312,-0.8062],[130.5191,-0.8396],[130.5435,-0.9138],[130.8193,-0.8703],[130.9172,-0.7784]]],[[[131.2976,-0.2372],[131.2974,-0.1593],[131.1537,-0.0857],[130.8247,-0.0038],[130.4985,-0.0627],[130.3687,-0.1218],[130.2806,-0.105],[130.3163,-0.2599],[130.4548,-0.2713],[130.5791,-0.3339],[130.6807,-0.3396],[130.7331,-0.4415],[130.8655,-0.4293],[130.9483,-0.3669],[130.8871,-0.2965],[130.811,-0.3185],[130.6262,-0.1257],[130.6956,-0.0795],[130.9517,-0.3464],[131.1577,-0.3329],[131.238,-0.3893],[131.3386,-0.2776],[131.2976,-0.2372]]]]}},{"type":"Feature","properties":{"sourceId":"1159308861","regionId":"region.8a67acae-be60-42b0-97f8-eb68b3a3ec19","countryId":"country.1gtbljd"},"geometry":{"type":"MultiPolygon","coordinates":[[[[121.3333,0.4623],[121.3338,0.5756],[121.2567,0.5867],[121.1604,0.6861],[121.3032,0.8261],[121.3785,0.861],[121.508,0.8469],[121.8404,0.9704],[122.0457,0.9438],[122.1973,1.0277],[122.0877,1.0616],[121.9702,1.0295],[121.9261,1.0987],[121.6309,1.062],[121.4807,1.1209],[121.43,1.233],[121.2649,1.2296],[121.1587,1.3028],[120.9673,1.3462],[120.8208,1.31],[120.8032,1.0684],[120.6834,0.9919],[120.5681,0.7821],[120.4696,0.7968],[120.3403,0.8724],[120.0628,0.7429],[120.0248,0.6672],[120.0322,0.5163],[119.9118,0.4737],[119.794,0.1966],[119.8882,0.0713],[119.8259,-0.0899],[119.6753,0.0303],[119.6387,-0.0509],[119.792,-0.1068],[119.7578,-0.4699],[119.8672,-0.7883],[119.8098,-0.8339],[119.7352,-0.641],[119.6821,-0.7369],[119.5662,-0.8337],[119.5721,-1.052],[119.6018,-1.1507],[119.5265,-1.2236],[119.4945,-1.3293],[119.6417,-1.3937],[119.6925,-1.4613],[119.7247,-1.6125],[119.8224,-1.729],[119.8227,-1.8718],[119.8735,-1.9554],[120.0481,-1.8615],[120.2924,-1.9002],[120.4476,-1.8662],[120.625,-2.1042],[120.8042,-2.2386],[121.3498,-2.3485],[121.4489,-2.3885],[121.7874,-2.6701],[121.7725,-2.8009],[121.598,-2.9728],[121.7814,-2.9855],[122.058,-3.0926],[122.2072,-3.1115],[122.3394,-3.2376],[122.3859,-3.132],[122.2796,-3.0396],[122.3125,-2.9269],[122.1926,-2.8663],[122.1773,-2.8068],[122.0156,-2.6935],[122.0191,-2.615],[121.8826,-2.4133],[121.8229,-2.2873],[121.7009,-2.1804],[121.555,-2.134],[121.5353,-2.0588],[121.327,-1.919],[121.3119,-1.7829],[121.4409,-1.8136],[121.5401,-1.9234],[121.6921,-1.9081],[121.7986,-1.7179],[122.0365,-1.6139],[122.1839,-1.6142],[122.3688,-1.4928],[122.4783,-1.3811],[122.6483,-1.1594],[122.721,-1.1091],[122.8117,-0.9241],[123.0608,-0.8805],[123.2388,-1.0248],[123.3833,-1.0037],[123.4544,-0.7582],[123.4035,-0.6427],[123.2395,-0.5705],[123.0759,-0.5564],[123.0264,-0.5997],[122.823,-0.6122],[122.9124,-0.7629],[122.7165,-0.7924],[122.6125,-0.7522],[122.2077,-0.7647],[122.1053,-0.9262],[121.926,-0.9553],[121.7142,-0.9355],[121.6597,-0.8126],[121.5007,-0.8593],[121.2668,-1.1486],[121.1971,-1.2029],[121.167,-1.3229],[121.0733,-1.4213],[120.8899,-1.3953],[120.8039,-1.3429],[120.676,-1.3947],[120.5654,-1.2155],[120.5824,-1.1052],[120.5003,-0.9753],[120.4124,-0.905],[120.3255,-0.9387],[120.2439,-0.8876],[120.0892,-0.6573],[119.9956,-0.2092],[120.023,-0.071],[120.0842,0.0063],[120.1284,0.1811],[120.273,0.3781],[120.3753,0.4777],[120.5027,0.5289],[120.6795,0.5306],[120.8924,0.4233],[120.987,0.447],[121.1192,0.4114],[121.1638,0.4575],[121.3333,0.4623]]],[[[123.5031,-1.2644],[123.3522,-1.2292],[123.2554,-1.3771],[123.2017,-1.3073],[123.2461,-1.2234],[123.201,-1.1552],[122.8987,-1.1843],[122.8361,-1.274],[122.812,-1.4436],[122.874,-1.5846],[122.9932,-1.5092],[123.0946,-1.3464],[123.1636,-1.3122],[123.1848,-1.4856],[123.3268,-1.4212],[123.4084,-1.5165],[123.5286,-1.433],[123.551,-1.2848],[123.5031,-1.2644]]],[[[122.0296,-0.3321],[121.8723,-0.3326],[121.875,-0.3948],[122.0266,-0.4069],[122.0296,-0.3321]]],[[[123.6006,-1.6033],[123.5447,-1.497],[123.4767,-1.5628],[123.4873,-1.7],[123.5749,-1.72],[123.6006,-1.6033]]]]}},{"type":"Feature","properties":{"sourceId":"1159307939","regionId":"region.fe3a1e20-dde9-4e0c-ad0a-42455eafe14e","countryId":"country.1gtbljd"},"geometry":{"type":"MultiPolygon","coordinates":[[[[126.0691,-2.3845],[125.9772,-2.1804],[125.9988,-2.0152],[125.8794,-2.0185],[125.8626,-2.0866],[125.9461,-2.2717],[125.966,-2.4021],[126.0691,-2.3845]]],[[[126.3291,-1.8193],[125.9934,-1.7858],[125.7029,-1.8193],[125.4971,-1.8058],[125.4021,-1.7747],[125.438,-1.9325],[125.9802,-1.9018],[126.2721,-1.8673],[126.3291,-1.8193]]],[[[125.3148,-1.779],[125.1852,-1.7039],[125.023,-1.7231],[124.6328,-1.6311],[124.3849,-1.6679],[124.3314,-1.8269],[124.406,-2.0041],[124.5432,-2.0065],[124.8533,-1.8969],[125.0135,-1.9443],[125.11,-1.8951],[125.3216,-1.8644],[125.3148,-1.779]]],[[[128.1452,-1.594],[127.8989,-1.4267],[127.6245,-1.3295],[127.4036,-1.4916],[127.3787,-1.6323],[127.5327,-1.7314],[127.7033,-1.6902],[127.9334,-1.6828],[128.0515,-1.7145],[128.1511,-1.6697],[128.1452,-1.594]]],[[[127.2962,-0.7437],[127.214,-0.6154],[127.1555,-0.7724],[127.2962,-0.7437]]],[[[127.8889,-0.7647],[127.7896,-0.6896],[127.6527,-0.7072],[127.6065,-0.6291],[127.6831,-0.4601],[127.5322,-0.3049],[127.4609,-0.4068],[127.3167,-0.3396],[127.303,-0.5109],[127.3986,-0.6202],[127.4699,-0.8185],[127.6257,-0.7524],[127.6535,-0.8274],[127.7488,-0.8853],[127.8223,-0.8644],[127.8889,-0.7647]]],[[[127.2346,-0.4904],[127.277,-0.3735],[127.2349,-0.2517],[127.1104,-0.2877],[127.1023,-0.4378],[127.2346,-0.4904]]],[[[127.666,-0.2092],[127.7083,-0.287],[127.8513,-0.3655],[128.0488,-0.7128],[128.2495,-0.7965],[128.251,-0.8668],[128.406,-0.8923],[128.2278,-0.7096],[128.0427,-0.4153],[128.0173,-0.3126],[127.8924,-0.0172],[127.9212,0.1456],[127.8809,0.3017],[127.9602,0.4828],[128.152,0.4555],[128.2622,0.3913],[128.4748,0.3872],[128.5376,0.3268],[128.8612,0.2436],[128.8242,0.3109],[128.7039,0.332],[128.6843,0.5417],[128.3135,0.6682],[128.2136,0.7739],[128.3154,0.9016],[128.4398,0.9318],[128.7012,1.0709],[128.741,1.4049],[128.6864,1.4452],[128.7195,1.5706],[128.4597,1.545],[128.1868,1.3742],[128.1421,1.3015],[128.1961,1.1964],[128.1607,1.1321],[128.0549,1.1204],[127.9364,1.0073],[127.923,0.8698],[127.7957,0.7991],[127.6551,0.89],[127.6375,1.0007],[127.834,1.1439],[127.8943,1.1566],[127.9739,1.2978],[128.0353,1.538],[128.0149,1.7192],[127.8517,1.8254],[127.8648,1.929],[127.9434,1.9808],[128.0501,2.1475],[127.9172,2.1721],[127.69,1.9253],[127.5809,1.7518],[127.5194,1.5319],[127.5408,1.4757],[127.4059,1.2299],[127.492,1.0549],[127.5078,0.8862],[127.6245,0.8322],[127.5554,0.7399],[127.5269,0.5606],[127.5723,0.4223],[127.7137,0.2773],[127.6807,0.1623],[127.7002,0.0477],[127.666,-0.2092]]],[[[128.6864,2.484],[128.596,2.6086],[128.4666,2.5943],[128.3211,2.4586],[128.1971,2.2662],[128.2461,2.1061],[128.345,2.0399],[128.4902,2.0543],[128.5667,2.1099],[128.6421,2.2612],[128.6864,2.484]]]]}},{"type":"Feature","properties":{"sourceId":"1159311289","regionId":"region.0dff77db-7b08-4fb9-b333-d40e391b1016","countryId":"country.1gtbljd"},"geometry":{"type":"MultiPolygon","coordinates":[[[[103.489,0.777],[103.4009,0.8801],[103.3456,0.7634],[103.4157,0.6574],[103.489,0.777]]],[[[104.1463,1.1605],[104.0414,1.1814],[103.9026,1.0905],[103.9505,1.0141],[104.0492,0.9842],[104.1311,1.0488],[104.1463,1.1605]]],[[[104.6546,1.0964],[104.5882,1.1446],[104.3997,1.2026],[104.2319,1.0933],[104.3154,1.0036],[104.4525,1.0582],[104.4834,0.859],[104.5999,0.835],[104.6616,0.9372],[104.6546,1.0964]]],[[[108.3962,3.8748],[108.3914,3.997],[108.1703,4.1794],[107.9846,4.012],[108.0623,3.8559],[108.1803,3.8168],[108.0945,3.6962],[108.1745,3.6519],[108.3176,3.6838],[108.3962,3.8748]]],[[[104.5485,-0.398],[104.4696,-0.3321],[104.3827,-0.4015],[104.3247,-0.3648],[104.2559,-0.4755],[104.3358,-0.5427],[104.522,-0.5966],[104.5916,-0.4836],[104.5485,-0.398]]],[[[104.929,-0.2372],[104.8489,-0.1396],[104.7663,-0.1882],[104.6204,-0.0042],[104.5251,-0.0077],[104.4945,-0.1357],[104.4373,-0.1811],[104.5414,-0.2713],[104.7355,-0.2145],[104.8513,-0.3012],[104.929,-0.2372]]]]}},{"type":"Feature","properties":{"sourceId":"1159307945","regionId":"region.82eefe04-031e-4e48-9f7b-5978f799b9b5","countryId":"country.1gtbljd"},"geometry":{"type":"MultiPolygon","coordinates":[[[[100.3137,2.5546],[100.2787,2.3545],[100.3126,2.1773],[100.3036,1.8812],[100.3756,1.8145],[100.4409,1.5987],[100.3503,1.5248],[100.1048,1.4152],[100.071,1.3587],[100.2254,1.146],[100.2099,0.8664],[100.1734,0.7576],[100.163,0.6484],[100.2654,0.4505],[100.3687,0.4113],[100.5098,0.4439],[100.8472,0.186],[100.8456,-0.0303],[100.749,-0.064],[100.8558,-0.3223],[101.0001,-0.4013],[101.0403,-0.4745],[101.236,-0.7026],[101.5253,-0.9319],[101.6738,-0.9675],[101.7698,-1.0382],[101.8818,-1],[102.0126,-0.8804],[102.1889,-0.8557],[102.2606,-0.8804],[102.3562,-1.01],[102.5412,-1.0849],[102.6822,-0.9045],[102.8044,-0.793],[102.9173,-0.7634],[103.1001,-0.7722],[103.4387,-0.7462],[103.3729,-0.6481],[103.418,-0.5178],[103.5733,-0.4754],[103.4822,-0.3737],[103.4006,-0.3845],[103.4946,-0.2536],[103.4668,-0.183],[103.4944,-0.1184],[103.6712,-0.0174],[103.7915,-0.0125],[103.76,0.2395],[103.7112,0.3115],[103.3622,0.5363],[103.2236,0.4884],[103.1663,0.4079],[103.0759,0.383],[102.9027,0.2678],[102.7634,0.2289],[102.7157,0.2576],[103.0747,0.4423],[103.0563,0.5583],[102.8771,0.7264],[102.6672,0.7503],[102.5519,0.7381],[102.4251,0.8043],[102.2401,0.9821],[102.1942,1.0659],[102.201,1.1817],[102.1472,1.2478],[102.1182,1.3865],[102.0215,1.4379],[101.7786,1.6443],[101.5916,1.6547],[101.427,1.7093],[101.3776,1.7733],[101.3,2.0466],[101.0674,2.2198],[101.0503,2.2915],[100.9079,2.2995],[100.8128,2.2498],[100.8032,2.1618],[100.8557,1.9992],[100.6662,2.1345],[100.561,2.1568],[100.3817,2.355],[100.3137,2.5546]]],[[[103.2936,0.6254],[103.2118,0.7082],[103.1367,0.5739],[103.1707,0.5137],[103.2808,0.538],[103.2936,0.6254]]],[[[103.0487,0.797],[103.0217,0.8453],[102.7638,1.0112],[102.6637,0.9961],[102.5564,1.1257],[102.4699,1.0674],[102.5017,0.9729],[102.4065,0.8732],[102.5579,0.7803],[102.8522,0.7982],[103.0073,0.6938],[103.0487,0.797]]],[[[103.1265,0.9279],[103.0371,1.0446],[102.8018,1.1633],[102.7156,1.1544],[102.6372,1.041],[102.7907,1.0315],[103.0863,0.841],[103.1265,0.9279]]],[[[102.4734,1.242],[102.2909,1.4045],[102.2175,1.4092],[102.201,1.2978],[102.2419,1.2219],[102.2329,1.0995],[102.3338,0.9637],[102.4649,0.9634],[102.4474,1.1005],[102.4734,1.242]]],[[[102.4959,1.3636],[102.4905,1.4897],[102.349,1.5546],[102.0044,1.5857],[102.1345,1.4557],[102.3303,1.4133],[102.4347,1.2991],[102.4959,1.3636]]],[[[101.7212,2.0581],[101.6493,2.1285],[101.531,2.0565],[101.4409,2.0649],[101.3938,1.9306],[101.4601,1.7655],[101.5773,1.7093],[101.7151,1.7782],[101.7756,1.948],[101.7212,2.0581]]],[[[103.7127,-0.2697],[103.5579,-0.2234],[103.4606,-0.3339],[103.6126,-0.3874],[103.7124,-0.3464],[103.7127,-0.2697]]]]}},{"type":"Feature","properties":{"sourceId":"1159311291","regionId":"region.6099284a-0927-494d-b9f0-8c0c3d860290","countryId":"country.1gtbljd"},"geometry":{"type":"Polygon","coordinates":[[[122.1973,1.0277],[122.0457,0.9438],[121.8404,0.9704],[121.508,0.8469],[121.3785,0.861],[121.3032,0.8261],[121.1604,0.6861],[121.2567,0.5867],[121.3338,0.5756],[121.3333,0.4623],[121.5078,0.4868],[121.5283,0.5374],[121.6901,0.5238],[121.8005,0.4265],[122.3244,0.4971],[122.6081,0.4809],[122.9779,0.4828],[123.0742,0.5163],[123.2388,0.3245],[123.4575,0.3117],[123.4998,0.4298],[123.4394,0.611],[123.247,0.7329],[123.2052,0.8368],[123.0972,0.9291],[122.968,0.9626],[122.8489,0.818],[122.6238,0.9664],[122.4541,1.0207],[122.1973,1.0277]]]}},{"type":"Feature","properties":{"sourceId":"1159307977","regionId":"region.cef50980-0919-4923-8355-b77979e027cf","countryId":"country.1gtbljd"},"geometry":{"type":"MultiPolygon","coordinates":[[[[123.0972,0.9291],[123.2052,0.8368],[123.247,0.7329],[123.4394,0.611],[123.4998,0.4298],[123.4575,0.3117],[123.6325,0.2665],[123.7458,0.3109],[124.3218,0.3989],[124.5034,0.534],[124.6638,0.8056],[124.822,0.9415],[124.8987,0.973],[125.0337,1.1754],[125.1443,1.4213],[125.2492,1.4847],[125.1678,1.5848],[125.1799,1.6674],[124.9729,1.723],[124.8369,1.5889],[124.8504,1.4897],[124.6917,1.4014],[124.5484,1.3598],[124.5938,1.1959],[124.3894,1.1861],[124.315,1.0377],[124.153,0.946],[124.0081,0.8982],[123.9479,0.8389],[123.8318,0.8322],[123.563,0.8669],[123.3687,0.9274],[123.0972,0.9291]]],[[[125.6525,3.4696],[125.513,3.7079],[125.4421,3.6378],[125.521,3.577],[125.5051,3.4808],[125.6244,3.3977],[125.6525,3.4696]]],[[[126.8707,4.3314],[126.8848,4.4569],[126.8163,4.5465],[126.7337,4.5359],[126.7054,4.4237],[126.7107,4.2641],[126.7916,4.2411],[126.6648,4.0341],[126.81,4.0373],[126.8099,4.1572],[126.9221,4.2821],[126.8707,4.3314]]]]}},{"type":"Feature","properties":{"sourceId":"1159310005","regionId":"region.7438bd76-4fda-4344-99ce-2872d8c25cb6","countryId":"country.1gtbljd"},"geometry":{"type":"Polygon","coordinates":[[[119.4909,-3.4865],[119.4529,-3.2809],[119.4119,-3.2147],[119.6392,-3.1209],[119.5432,-2.9069],[119.5604,-2.7465],[119.6613,-2.7582],[119.7856,-2.695],[119.739,-2.5653],[119.7071,-2.3539],[119.6236,-2.2936],[119.6463,-2.1764],[119.825,-2.0462],[119.8735,-1.9554],[119.8227,-1.8718],[119.8224,-1.729],[119.7247,-1.6125],[119.6925,-1.4613],[119.6417,-1.3937],[119.4945,-1.3293],[119.5265,-1.2236],[119.6018,-1.1507],[119.5721,-1.052],[119.5662,-0.8337],[119.5252,-0.8604],[119.4531,-1.0964],[119.3284,-1.2145],[119.2986,-1.3879],[119.3333,-1.5735],[119.3084,-1.6949],[119.3652,-1.8277],[119.354,-1.9347],[119.2161,-2.0099],[119.134,-2.2035],[119.1414,-2.442],[118.9144,-2.6484],[118.8228,-2.6213],[118.7573,-2.7758],[118.7717,-2.8621],[118.8806,-2.861],[118.8533,-3.0534],[118.7642,-3.0909],[118.8526,-3.2956],[118.8399,-3.3481],[118.9268,-3.5661],[119.027,-3.5097],[119.209,-3.4898],[119.2976,-3.4279],[119.4909,-3.4865]]]}},{"type":"Feature","properties":{"sourceId":"1159311353","regionId":"region.8eac96cd-127d-4af3-b452-993f7c333e19","countryId":"country.1gtbljd"},"geometry":{"type":"Polygon","coordinates":[[[103.4387,-0.7462],[103.1001,-0.7722],[102.9173,-0.7634],[102.8044,-0.793],[102.6822,-0.9045],[102.5412,-1.0849],[102.3562,-1.01],[102.2606,-0.8804],[102.1889,-0.8557],[102.0126,-0.8804],[101.8818,-1],[101.7698,-1.0382],[101.7945,-1.2389],[101.6781,-1.289],[101.6753,-1.4999],[101.4757,-1.7021],[101.226,-1.7284],[101.1139,-1.7049],[101.1423,-1.92],[101.2597,-2.0815],[101.3356,-2.297],[101.4358,-2.2362],[101.5171,-2.3052],[101.5642,-2.4502],[101.7367,-2.6363],[101.9004,-2.7401],[102.0668,-2.7824],[102.2602,-2.6395],[102.4869,-2.7299],[102.7917,-2.5679],[102.8636,-2.4618],[102.862,-2.3539],[103.1229,-2.398],[103.2156,-2.186],[103.419,-2.3938],[103.4599,-2.2383],[103.5237,-2.2245],[103.535,-1.9679],[103.8864,-1.7948],[104.1256,-1.8306],[104.3215,-1.8043],[104.4283,-1.6938],[104.5316,-1.7341],[104.4544,-1.531],[104.445,-1.3046],[104.3975,-1.1913],[104.3772,-1.0317],[104.2124,-1.0733],[103.9558,-0.977],[103.8391,-1.0328],[103.6504,-0.943],[103.4387,-0.7462]]]}},{"type":"Feature","properties":{"sourceId":"1159310063","regionId":"region.010d1c50-90b0-4793-88b5-2e0b72172bf8","countryId":"country.1gtbljd"},"geometry":{"type":"Polygon","coordinates":[[[104.5316,-1.7341],[104.4283,-1.6938],[104.3215,-1.8043],[104.1256,-1.8306],[103.8864,-1.7948],[103.535,-1.9679],[103.5237,-2.2245],[103.4599,-2.2383],[103.419,-2.3938],[103.2156,-2.186],[103.1229,-2.398],[102.862,-2.3539],[102.8636,-2.4618],[102.7917,-2.5679],[102.4869,-2.7299],[102.2602,-2.6395],[102.0668,-2.7824],[102.2238,-2.9543],[102.2411,-3.0588],[102.4308,-3.0879],[102.4893,-3.1512],[102.4617,-3.2504],[102.6313,-3.373],[102.766,-3.279],[102.8702,-3.3759],[102.9749,-3.3956],[103.0173,-3.4854],[102.9931,-3.5841],[102.8972,-3.6308],[102.7018,-3.7911],[102.6299,-3.8137],[102.7685,-3.9614],[102.981,-4.0354],[103.1416,-4.0468],[103.1859,-4.2425],[103.6158,-4.418],[103.6218,-4.5053],[103.7653,-4.8047],[103.8895,-4.9336],[104.0811,-4.9467],[104.2979,-4.8925],[104.3365,-4.8143],[104.2649,-4.7078],[104.3088,-4.6278],[104.3091,-4.4402],[104.5272,-4.32],[104.6743,-4.2968],[105.0089,-4.1692],[105.1115,-4.06],[105.129,-3.9563],[105.2661,-3.8861],[105.3099,-3.7556],[105.5132,-3.8684],[105.7092,-4.15],[105.828,-4.158],[105.8701,-4.0042],[105.9525,-3.8338],[105.8196,-3.6725],[105.8811,-3.4511],[105.929,-3.3654],[106.0632,-3.2667],[106.054,-3.047],[106.0156,-2.9695],[105.8792,-2.9511],[105.7918,-2.8621],[105.7781,-2.6901],[105.6731,-2.663],[105.6084,-2.5523],[105.6238,-2.4018],[105.2022,-2.3474],[105.1167,-2.3805],[104.8833,-2.2849],[104.8743,-2.08],[104.7726,-1.9977],[104.6638,-2.0313],[104.637,-1.9216],[104.5645,-1.8577],[104.5316,-1.7341]]]}},{"type":"Feature","properties":{"sourceId":"1159309885","regionId":"region.dee27da2-82e5-4acd-a54d-5cc0d8c7e422","countryId":"country.1gtbljd"},"geometry":{"type":"Polygon","coordinates":[[[105.828,-4.158],[105.7092,-4.15],[105.5132,-3.8684],[105.3099,-3.7556],[105.2661,-3.8861],[105.129,-3.9563],[105.1115,-4.06],[105.0089,-4.1692],[104.6743,-4.2968],[104.5272,-4.32],[104.3091,-4.4402],[104.3088,-4.6278],[104.2649,-4.7078],[104.3365,-4.8143],[104.2979,-4.8925],[104.0811,-4.9467],[103.8895,-4.9336],[103.7653,-4.8047],[103.6082,-4.9165],[103.6541,-4.9792],[103.7922,-5.0309],[103.9134,-5.1393],[103.9014,-5.2185],[104.1109,-5.4462],[104.258,-5.5398],[104.2977,-5.6433],[104.384,-5.6925],[104.5418,-5.8419],[104.5613,-5.9283],[104.6991,-5.9304],[104.6887,-5.8079],[104.5332,-5.5598],[104.6228,-5.4907],[104.7908,-5.6095],[105.1184,-5.7822],[105.1992,-5.6789],[105.2505,-5.4591],[105.3107,-5.466],[105.4836,-5.6589],[105.5453,-5.6576],[105.6021,-5.8098],[105.7826,-5.8285],[105.8296,-5.6547],[105.8333,-5.3832],[105.8645,-5.2555],[105.8674,-5.0413],[105.9097,-4.9431],[105.8724,-4.8486],[105.9063,-4.4693],[105.819,-4.3002],[105.828,-4.158]]]}},{"type":"Feature","properties":{"sourceId":"1159309889","regionId":"region.f24cf003-1644-4c68-b8b4-4d1f0c90883a","countryId":"country.1gtbljd"},"geometry":{"type":"MultiPolygon","coordinates":[[[[103.6082,-4.9165],[103.7653,-4.8047],[103.6218,-4.5053],[103.6158,-4.418],[103.1859,-4.2425],[103.1416,-4.0468],[102.981,-4.0354],[102.7685,-3.9614],[102.6299,-3.8137],[102.7018,-3.7911],[102.8972,-3.6308],[102.9931,-3.5841],[103.0173,-3.4854],[102.9749,-3.3956],[102.8702,-3.3759],[102.766,-3.279],[102.6313,-3.373],[102.4617,-3.2504],[102.4893,-3.1512],[102.4308,-3.0879],[102.2411,-3.0588],[102.2238,-2.9543],[102.0668,-2.7824],[101.9004,-2.7401],[101.7367,-2.6363],[101.5642,-2.4502],[101.5171,-2.3052],[101.4358,-2.2362],[101.3356,-2.297],[101.171,-2.3671],[101.0266,-2.48],[101.1048,-2.5871],[101.327,-2.7392],[101.419,-2.9273],[101.6375,-3.2507],[102.0657,-3.5505],[102.2222,-3.6428],[102.3045,-3.8451],[102.3125,-3.9915],[102.7012,-4.2704],[102.8763,-4.4206],[102.9204,-4.4926],[103.1729,-4.6179],[103.3934,-4.8141],[103.6082,-4.9165]]],[[[102.4065,-5.4037],[102.172,-5.2804],[102.0986,-5.3349],[102.2979,-5.4728],[102.4065,-5.4037]]]]}},{"type":"Feature","properties":{"sourceId":"1159307903","regionId":"region.17211062-931f-4ccd-b957-547c71151fd6","countryId":"country.1gtbljd"},"geometry":{"type":"MultiPolygon","coordinates":[[[[101.0266,-2.48],[101.171,-2.3671],[101.3356,-2.297],[101.2597,-2.0815],[101.1423,-1.92],[101.1139,-1.7049],[101.226,-1.7284],[101.4757,-1.7021],[101.6753,-1.4999],[101.6781,-1.289],[101.7945,-1.2389],[101.7698,-1.0382],[101.6738,-0.9675],[101.5253,-0.9319],[101.236,-0.7026],[101.0403,-0.4745],[101.0001,-0.4013],[100.8558,-0.3223],[100.749,-0.064],[100.8456,-0.0303],[100.8472,0.186],[100.5098,0.4439],[100.3687,0.4113],[100.2654,0.4505],[100.163,0.6484],[100.1734,0.7576],[99.8264,0.8682],[99.7942,0.7801],[99.9147,0.5686],[99.8141,0.4682],[99.5845,0.5628],[99.3423,0.4736],[99.1512,0.2525],[99.3162,0.2426],[99.4082,0.1639],[99.6109,0.0986],[99.7472,-0.0298],[99.7595,-0.1684],[99.8138,-0.2946],[100.0013,-0.4563],[100.1597,-0.6679],[100.3014,-0.8163],[100.353,-0.9771],[100.4129,-1.0392],[100.3661,-1.1505],[100.406,-1.2644],[100.5692,-1.3308],[100.5706,-1.4426],[100.7839,-1.8155],[100.8576,-1.8919],[100.8872,-2.0372],[100.8316,-2.1413],[100.9231,-2.3334],[101.0266,-2.48]]],[[[100.3986,-3.1835],[100.4729,-3.1139],[100.4675,-3.0153],[100.2554,-2.7914],[100.1891,-2.7912],[100.1895,-2.9666],[100.3986,-3.1835]]],[[[100.2068,-2.6935],[99.9841,-2.4846],[100.0078,-2.8195],[100.1385,-2.8205],[100.2068,-2.6935]]],[[[99.8233,-2.2929],[99.7214,-2.1591],[99.6943,-2.0678],[99.594,-2.0148],[99.5313,-2.1559],[99.7134,-2.3134],[99.8233,-2.2929]]],[[[99.2744,-1.6349],[99.2097,-1.5729],[99.1647,-1.4142],[99.1167,-1.3666],[98.8828,-0.9132],[98.6582,-0.9635],[98.5938,-1.1984],[98.8117,-1.529],[98.8848,-1.6794],[99.1006,-1.7994],[99.2442,-1.779],[99.2744,-1.6349]]]]}},{"type":"Feature","properties":{"sourceId":"1159308865","regionId":"region.d2f5da5d-faac-420e-a1d7-6f2145a6f835","countryId":"country.1gtbljd"},"geometry":{"type":"MultiPolygon","coordinates":[[[[99.1512,0.2525],[99.3423,0.4736],[99.5845,0.5628],[99.8141,0.4682],[99.9147,0.5686],[99.7942,0.7801],[99.8264,0.8682],[100.1734,0.7576],[100.2099,0.8664],[100.2254,1.146],[100.071,1.3587],[100.1048,1.4152],[100.3503,1.5248],[100.4409,1.5987],[100.3756,1.8145],[100.3036,1.8812],[100.3126,2.1773],[100.2787,2.3545],[100.3137,2.5546],[100.2034,2.7099],[100.1311,2.6819],[100.0186,2.7317],[99.9795,2.9485],[99.7816,3.1208],[99.7507,3.1805],[99.5894,3.228],[99.4898,3.3362],[99.1798,3.5463],[98.9575,3.6713],[98.7966,3.7254],[98.7106,3.8038],[98.6766,3.9145],[98.4772,4.0462],[98.3057,4.0803],[98.2676,4.2879],[98.0627,4.2403],[98.001,3.9801],[97.8902,3.9152],[97.8933,3.8482],[97.7839,3.7448],[97.9068,3.433],[97.9896,3.3304],[97.864,3.2574],[97.9364,3.1406],[97.8956,3.0826],[97.9228,2.9093],[98.057,2.8121],[98.0694,2.677],[98.0253,2.5761],[98.1276,2.327],[98.1013,2.1886],[98.3545,2.0038],[98.5352,1.9365],[98.6582,1.7639],[98.7601,1.7641],[98.8189,1.6197],[98.7302,1.5144],[98.9173,1.1172],[98.9812,0.8317],[99.0418,0.777],[99.04,0.6505],[99.1226,0.509],[99.1512,0.2525]]],[[[98.502,-0.4605],[98.5073,-0.3649],[98.4512,-0.2584],[98.3689,-0.3492],[98.3167,-0.5351],[98.3903,-0.5771],[98.502,-0.4605]]],[[[98.48,-0.1584],[98.4434,-0.052],[98.3435,-0.0447],[98.5125,-0.319],[98.5598,-0.2783],[98.48,-0.1584]]],[[[97.9285,0.9961],[97.7922,1.144],[97.6936,1.186],[97.4863,1.4765],[97.3498,1.5454],[97.2359,1.4167],[97.0804,1.4291],[97.2331,1.2773],[97.3877,1.0188],[97.3888,0.9521],[97.6138,0.8236],[97.7041,0.5727],[97.8272,0.5627],[97.883,0.643],[97.9014,0.906],[97.9285,0.9961]]],[[[98.5476,0.1593],[98.5387,0.0903],[98.689,0.0708],[98.7174,0.1751],[98.5476,0.1593]]]]}},{"type":"Feature","properties":{"sourceId":"1159308869","regionId":"region.067fd986-249d-4872-b814-4b635738f53e","countryId":"country.1gtbljd"},"geometry":{"type":"MultiPolygon","coordinates":[[[[98.1013,2.1886],[98.1276,2.327],[98.0253,2.5761],[98.0694,2.677],[98.057,2.8121],[97.9228,2.9093],[97.8956,3.0826],[97.9364,3.1406],[97.864,3.2574],[97.9896,3.3304],[97.9068,3.433],[97.7839,3.7448],[97.8933,3.8482],[97.8902,3.9152],[98.001,3.9801],[98.0627,4.2403],[98.2676,4.2879],[98.2756,4.4254],[98.2057,4.498],[98.054,4.5532],[97.9092,4.8896],[97.6644,5.0734],[97.4968,5.2519],[97.2684,5.1551],[96.9734,5.2734],[96.8284,5.2802],[96.6506,5.2163],[96.3622,5.2255],[96.1262,5.2818],[95.9304,5.4145],[95.8875,5.5122],[95.6116,5.6267],[95.5112,5.603],[95.4129,5.6496],[95.1973,5.5464],[95.2517,5.3956],[95.199,5.2929],[95.2913,5.1916],[95.4263,4.8273],[95.5609,4.6457],[95.6165,4.6284],[96.01,4.2257],[96.1909,4.126],[96.4303,3.8253],[96.5598,3.7466],[96.7605,3.7487],[96.8836,3.6824],[97.0186,3.5227],[97.1826,3.246],[97.2708,3.2144],[97.332,3.0314],[97.4221,2.9284],[97.6027,2.8662],[97.6441,2.6689],[97.6582,2.4116],[97.7444,2.2811],[97.9559,2.2717],[98.1013,2.1886]]],[[[96.4795,2.415],[96.4441,2.4904],[96.2461,2.6],[96.0905,2.7578],[95.9817,2.7904],[95.884,2.919],[95.7732,2.905],[95.698,2.7788],[95.9314,2.5956],[96.0657,2.5794],[96.3076,2.3741],[96.4114,2.3438],[96.4795,2.415]]]]}},{"type":"Feature","properties":{"sourceId":"1159311333","regionId":"region.711eda38-796a-4f7d-a14a-1d9bc0bfe16a","countryId":"country.1gtbljd"},"geometry":{"type":"Polygon","coordinates":[[[114.3107,-3.4339],[114.4711,-3.004],[114.5045,-2.881],[114.6312,-2.8223],[114.7854,-2.6888],[114.8222,-2.562],[114.9081,-2.4187],[114.9048,-2.2625],[115.1309,-2.2076],[115.3301,-2.0371],[115.3584,-1.9039],[115.3383,-1.7654],[115.4266,-1.4345],[115.6801,-1.3609],[115.6775,-1.4259],[115.802,-1.2944],[115.8051,-1.0853],[115.7397,-1.1038],[115.6287,-0.978],[115.46,-0.886],[115.3813,-0.582],[115.3299,-0.511],[115.2742,-0.311],[115.2772,-0.2201],[115.3474,0.0023],[115.1874,0.0052],[115.0026,-0.1777],[114.9673,-0.0975],[115.0177,0.0577],[114.9531,0.2842],[114.9679,0.3642],[115.076,0.533],[115.0572,0.6369],[114.9765,0.7352],[114.7354,0.6726],[114.6631,0.6213],[114.3775,0.5886],[114.1839,0.6505],[114.0363,0.647],[113.9699,0.6036],[113.7764,0.5586],[113.6467,0.4101],[113.6229,0.3109],[113.5316,0.2614],[113.3245,0.2452],[113.4532,0.0659],[113.4785,-0.0475],[113.4293,-0.1904],[113.3262,-0.2517],[113.2492,-0.3611],[113.3008,-0.4228],[113.2564,-0.5514],[113.1611,-0.4699],[113.0042,-0.5187],[112.578,-0.7045],[112.38,-0.7546],[112.1185,-0.7354],[111.6514,-1.0155],[111.5774,-1.1867],[111.4161,-1.2688],[111.3271,-1.3733],[111.134,-1.5304],[111.0116,-1.5261],[110.9203,-1.6132],[111.0174,-1.6603],[111.0252,-1.867],[110.9948,-1.9853],[111.0123,-2.1274],[111.1377,-2.4048],[111.1376,-2.733],[110.9592,-2.8857],[110.7555,-3.0118],[110.9065,-3.0833],[111.0608,-3.0611],[111.2962,-2.9365],[111.4475,-2.9298],[111.5843,-3.0089],[111.7603,-2.9076],[111.8325,-3.0616],[111.815,-3.1904],[111.8428,-3.3617],[111.822,-3.5451],[111.9053,-3.572],[112.1169,-3.3823],[112.3027,-3.3139],[112.5247,-3.4378],[112.618,-3.4238],[113.0215,-3.1625],[112.9491,-3.086],[113.0371,-2.9931],[113.1826,-3.0771],[113.2412,-3.1769],[113.3452,-3.2465],[113.4663,-3.1843],[113.6204,-3.1853],[113.6325,-3.4568],[113.7131,-3.4726],[114.1082,-3.3473],[114.3107,-3.4339]]]}},{"type":"Feature","properties":{"sourceId":"1159309697","regionId":"region.2237aea9-932c-4f01-9b90-ce1984f0d27c","countryId":"country.1gtbljd"},"geometry":{"type":"MultiPolygon","coordinates":[[[[116.5729,-2.363],[116.3905,-2.3144],[115.9945,-2.271],[115.874,-2.3507],[115.8141,-2.1836],[115.8288,-2.0472],[115.7489,-2.0007],[115.7412,-1.7842],[115.6069,-1.4667],[115.6775,-1.4259],[115.6801,-1.3609],[115.4266,-1.4345],[115.3383,-1.7654],[115.3584,-1.9039],[115.3301,-2.0371],[115.1309,-2.2076],[114.9048,-2.2625],[114.9081,-2.4187],[114.8222,-2.562],[114.7854,-2.6888],[114.6312,-2.8223],[114.5045,-2.881],[114.4711,-3.004],[114.3107,-3.4339],[114.4124,-3.4853],[114.5239,-3.4758],[114.6111,-3.6839],[114.6043,-3.8552],[114.6316,-4.0129],[114.6066,-4.1323],[114.7129,-4.1708],[115.0603,-3.9858],[115.5833,-3.7805],[115.8362,-3.6332],[115.9679,-3.6088],[116.0095,-3.4511],[116.0852,-3.3071],[116.1685,-3.2658],[116.1633,-3.1729],[116.2649,-3.1369],[116.1113,-2.9303],[116.3342,-2.9256],[116.37,-2.8239],[116.3904,-2.589],[116.5401,-2.5129],[116.5729,-2.363]]],[[[116.3993,-3.3928],[116.3247,-3.533],[116.3931,-3.6324],[116.4344,-3.4098],[116.3993,-3.3928]]],[[[116.3037,-3.718],[116.263,-3.4055],[116.2678,-3.2188],[116.1262,-3.3186],[116.0525,-3.4787],[116.013,-3.6505],[116.0745,-3.8009],[116.0574,-4.0407],[116.1156,-4.0367],[116.308,-3.8786],[116.3037,-3.718]]]]}},{"type":"Feature","properties":{"sourceId":"1159309865","regionId":"region.0954e82c-7737-41dd-a56c-585016909ae7","countryId":"country.1gtbljd"},"geometry":{"type":"Polygon","coordinates":[[[115.6192,-8.2888],[115.5025,-8.1726],[115.2155,-8.0595],[115.1359,-8.0728],[115.0226,-8.1726],[114.8576,-8.1931],[114.6914,-8.135],[114.4479,-8.1218],[114.4684,-8.2185],[114.5491,-8.3342],[114.639,-8.3986],[114.7966,-8.4054],[114.927,-8.4675],[115.1561,-8.662],[115.2539,-8.7146],[115.3226,-8.6238],[115.6048,-8.5011],[115.7142,-8.3752],[115.6192,-8.2888]]]}},{"type":"Feature","properties":{"sourceId":"1159309895","regionId":"region.139f42fe-afff-488a-aaec-df5f334c5b95","countryId":"country.1gtbljd"},"geometry":{"type":"MultiPolygon","coordinates":[[[[106.9089,-2.9298],[106.8125,-2.8922],[106.7227,-2.9661],[106.8612,-3.029],[106.9089,-2.9298]]],[[[108.2937,-2.8484],[108.1978,-2.6782],[108.0666,-2.5945],[107.7891,-2.5538],[107.6703,-2.5615],[107.6426,-2.7485],[107.5942,-2.7863],[107.611,-2.9179],[107.5811,-3.0107],[107.6404,-3.1217],[107.6028,-3.2289],[107.7532,-3.1985],[107.8884,-3.0875],[107.9661,-3.151],[108.1877,-3.1369],[108.2044,-3.0055],[108.2937,-2.8484]]],[[[106.7691,-2.5603],[106.354,-2.463],[106.2642,-2.3513],[106.1626,-2.007],[106.1746,-1.8791],[106.0355,-1.6783],[106.0339,-1.5759],[105.8757,-1.4892],[105.72,-1.5242],[105.7576,-1.6452],[105.6517,-1.707],[105.611,-1.5402],[105.4596,-1.5629],[105.3499,-1.6487],[105.3757,-1.8219],[105.1543,-1.936],[105.1475,-2.08],[105.2298,-2.0701],[105.3064,-2.135],[105.4504,-2.1227],[105.5658,-2.067],[105.6074,-2.1148],[105.7957,-2.1718],[105.8288,-2.3951],[105.9443,-2.4988],[105.9016,-2.6287],[105.9865,-2.8212],[106.094,-2.8406],[106.447,-2.9811],[106.5322,-3.1056],[106.7073,-3.0942],[106.7458,-3.0201],[106.613,-2.9426],[106.6748,-2.6998],[106.7691,-2.5603]]]]}}]}