{"type":"FeatureCollection","features":[{"type":"Feature","properties":{"sourceId":"1159313853","regionId":"region.244f0963-f2b1-4fb2-8057-500a03858386","countryId":"country.d0e7yk"},"geometry":{"type":"Polygon","coordinates":[[[34.968,6.0081],[34.9844,5.841],[35.0987,5.6225],[35.262,5.5119],[35.2546,5.4259],[35.3208,5.3487],[35.4302,5.4272],[35.5982,5.3687],[35.6583,5.3864],[35.8042,5.318],[35.8071,5.1653],[35.7559,5.0634],[35.7516,4.8544],[35.7845,4.7642],[35.9208,4.6193],[35.9338,4.5222],[36.0453,4.4437],[36.6195,4.4434],[36.6489,4.4312],[36.8765,4.7261],[36.909,4.8362],[36.8744,4.959],[36.9715,5.1861],[37.2138,5.204],[37.4035,5.1652],[37.6857,5.313],[37.9006,5.2493],[37.9425,5.4463],[37.9374,5.6184],[38.0875,5.7057],[37.9717,5.9421],[37.7942,6.0087],[37.778,6.1217],[37.8573,6.348],[37.8025,6.4666],[37.8677,6.5746],[38.0215,6.5745],[38.1675,6.4574],[38.2943,6.4289],[38.2065,6.3269],[38.193,6.1916],[38.0921,6.1053],[38.2343,5.8648],[38.3922,5.9182],[38.2967,6.0192],[38.4364,6.2142],[38.4529,6.4123],[38.5382,6.4404],[38.7649,6.412],[38.8619,6.3426],[38.9934,6.1519],[39.135,6.1616],[39.0925,6.2644],[39.1288,6.3699],[39.0929,6.5234],[38.9374,6.661],[38.847,6.6748],[38.6401,6.7875],[38.6656,6.9734],[38.5807,7.1041],[38.5215,7.0851],[38.3311,7.1614],[38.2453,7.0565],[38.1538,7.0364],[38.0696,7.096],[38.1227,7.2225],[38.2596,7.3086],[38.3427,7.4752],[38.4298,7.5272],[38.4259,7.6915],[38.6186,8.0203],[38.5826,8.1699],[38.683,8.1836],[38.6463,8.4104],[38.5456,8.4573],[38.4607,8.3992],[38.4031,8.2778],[38.3248,8.2699],[38.2398,8.4145],[37.8595,8.3376],[37.489,8.3832],[37.4888,8.2716],[37.6049,8.2177],[37.5922,8.0596],[37.3945,7.9967],[37.4375,7.9015],[37.4049,7.7099],[37.4373,7.5819],[37.395,7.4041],[37.1071,7.2352],[36.9186,7.2242],[36.7838,7.2597],[36.6122,7.3735],[36.2618,7.4743],[36.0646,7.5597],[36,7.7442],[35.858,7.8571],[35.9053,7.9581],[35.857,8.0775],[35.7284,8.0088],[35.7578,7.8802],[35.5873,7.8126],[35.5333,7.8828],[35.3567,7.8419],[35.2425,7.6768],[35.2635,7.5396],[35.3632,7.3843],[35.3063,7.1294],[35.1822,7.1167],[35.065,7.1643],[34.9469,7.1044],[34.7915,7.0869],[34.6299,7.0121],[34.5131,7.0717],[34.2997,7.049],[34.1958,7.0977],[34.2976,6.9686],[34.5037,6.89],[34.5247,6.7529],[34.6355,6.7298],[34.7335,6.6376],[34.8447,6.2487],[34.968,6.0081]]]}},{"type":"Feature","properties":{"sourceId":"1159313865","regionId":"region.ed5ce34a-e3df-40c2-909c-bdb8ce549a55","countryId":"country.d0e7yk"},"geometry":{"type":"Polygon","coordinates":[[[47.9792,7.9966],[46.9792,7.9966],[46.9205,8.0256],[46.1019,8.2997],[45.5144,8.4965],[44.5448,8.8146],[44.0239,8.9855],[43.6215,9.3369],[43.5482,9.3361],[43.419,9.413],[43.3707,9.5442],[43.2353,9.6918],[43.1872,9.8833],[43.0677,9.9225],[42.9582,10.1156],[42.8363,10.2081],[42.7766,10.4246],[42.6472,10.6322],[42.6996,10.6586],[42.8194,10.8726],[42.9237,10.9988],[42.7718,10.9965],[42.7296,11.065],[42.6081,11.0891],[42.3918,11.0059],[42.0694,10.9815],[41.9542,10.9413],[41.7665,10.9895],[41.6911,10.9643],[41.2923,10.9671],[41.2041,10.8156],[41.0923,10.6992],[41.0866,10.5912],[40.9432,10.047],[41.0071,9.929],[40.826,9.7597],[40.7371,9.6236],[40.6951,9.4444],[40.8157,9.3973],[40.8464,9.3071],[41.0111,9.3582],[41.2309,9.4966],[41.4716,9.4611],[41.6375,9.514],[41.7369,9.4738],[41.763,9.6401],[41.9189,9.6766],[42.0404,9.629],[42.2031,9.7744],[42.341,9.7204],[42.3871,9.5677],[42.4874,9.4793],[42.5519,9.3515],[42.6257,9.1198],[42.7053,8.9832],[42.857,8.8404],[42.8333,8.7073],[42.9059,8.5898],[42.8969,8.4124],[42.7704,8.3655],[42.7039,8.1819],[42.6045,8.1838],[42.5036,8.4925],[42.3267,8.5387],[42.2071,8.6048],[42.0323,8.4337],[42.0293,8.3252],[41.9313,8.1156],[41.9177,7.8736],[41.9534,7.7514],[41.8765,7.5525],[41.9015,7.4123],[42.2075,7.293],[42.2271,7.2227],[42.1779,7.0337],[42.0756,6.8591],[42.0791,6.7957],[41.9858,6.5957],[41.7359,6.5116],[41.622,6.364],[41.4593,6.5294],[41.122,6.6927],[41.0284,6.6563],[40.8585,6.4199],[40.8825,6.2636],[40.8655,6.1104],[40.8873,5.7848],[40.9225,5.6995],[40.7043,5.5654],[40.5467,5.4235],[40.1874,5.3546],[40.0511,5.3997],[39.9195,5.2465],[39.7704,4.8515],[39.742,4.657],[39.4886,4.0618],[39.4986,3.9797],[39.3007,3.6426],[39.0904,3.5183],[39.1805,3.477],[39.2963,3.492],[39.5363,3.405],[39.575,3.4979],[39.7451,3.6606],[39.8485,3.8673],[40.3827,4.1214],[40.7007,4.2435],[40.7637,4.2849],[40.8874,4.1561],[41.0059,4.0867],[41.1145,3.9623],[41.2153,3.9366],[41.4295,3.9489],[41.6998,3.9969],[41.8359,3.9495],[41.885,3.9772],[41.9235,4.0706],[42.1353,4.2001],[42.2973,4.2017],[42.7898,4.2856],[42.8702,4.3282],[42.9604,4.5174],[43.1193,4.6477],[43.5285,4.8416],[43.969,4.954],[44.5968,4.9176],[44.9415,4.9115],[45.5185,5.5406],[45.936,5.9967],[46.467,6.5383],[47.0556,7.1061],[47.5324,7.5659],[47.9792,7.9966]]]}},{"type":"Feature","properties":{"sourceId":"1159313851","regionId":"region.a20e288a-98a4-47e6-9858-fd666d193bf6","countryId":"country.d0e7yk"},"geometry":{"type":"Polygon","coordinates":[[[41.9747,11.8809],[42.3795,12.4659],[42.1373,12.7733],[41.9466,12.8762],[41.8166,13.1128],[41.7118,13.2479],[41.5307,13.3938],[41.192,13.6159],[41.0436,13.8725],[40.8332,14.106],[40.5859,14.1947],[40.3537,14.3352],[40.2771,14.4046],[40.1046,14.466],[39.9998,14.4552],[39.9636,14.3684],[39.7348,14.3736],[39.692,14.304],[39.7922,14.062],[39.8209,13.8721],[39.7976,13.7353],[39.828,13.6146],[39.7241,13.4815],[39.7211,13.2654],[39.802,13.0708],[39.7564,12.8894],[39.8442,12.8488],[39.8919,12.7611],[39.8043,12.5661],[39.7797,12.325],[39.7694,12.2138],[39.8835,11.9193],[39.8832,11.7751],[39.9791,11.664],[40.0525,11.4895],[40.0674,11.3523],[40.1886,11.158],[40.1964,11.0572],[40.1286,10.9408],[40.1629,10.86],[40.1152,10.7397],[40.1579,10.6754],[40.177,10.4955],[40.1209,10.203],[40.1242,10.0975],[40.0171,10.104],[40.0773,9.8977],[39.9766,9.7283],[39.8555,9.701],[39.8922,9.6068],[39.869,9.4596],[39.7974,9.3929],[39.8953,9.3153],[39.8107,9.139],[39.9185,9.1185],[39.9499,9.0059],[40.0258,8.9985],[40.039,8.8429],[40.155,8.9677],[40.2369,9.0063],[40.2608,9.0898],[40.4053,9.2776],[40.5279,9.3824],[40.6951,9.4444],[40.7371,9.6236],[40.826,9.7597],[41.0071,9.929],[40.9432,10.047],[41.0866,10.5912],[41.0923,10.6992],[41.2041,10.8156],[41.2923,10.9671],[41.6911,10.9643],[41.7665,10.9895],[41.788,11.2597],[41.7491,11.538],[41.8082,11.7362],[41.9747,11.8809]]]}},{"type":"Feature","properties":{"sourceId":"1159313847","regionId":"region.d4af7d18-1bda-4d20-9b65-3b295d75fc5c","countryId":"country.d0e7yk"},"geometry":{"type":"Polygon","coordinates":[[[36.4399,13.7762],[36.3821,13.571],[36.2336,13.3616],[36.1144,12.9339],[36.1236,12.7214],[35.7014,12.6654],[35.6169,12.5752],[35.3537,12.146],[35.3174,12.0237],[35.2484,11.9579],[35.3131,11.8463],[35.4112,11.784],[35.5443,11.8069],[35.716,11.9464],[35.7656,12.0379],[35.9299,12.0059],[36.0355,11.9011],[36.1905,11.6952],[36.311,11.8006],[36.3408,11.6421],[36.4442,11.5018],[36.4059,11.4372],[36.5073,11.3459],[36.4612,11.2303],[36.4889,11.0778],[36.3392,10.9082],[36.312,10.8228],[36.3928,10.771],[36.3277,10.6243],[36.392,10.4692],[36.5221,10.4582],[36.5543,10.3793],[36.7145,10.3696],[37.0461,10.3027],[37.181,10.2615],[37.173,10.1682],[37.2739,10.1019],[37.5454,9.9961],[37.7028,9.8428],[37.7961,9.8593],[37.9813,9.9696],[38.1829,10.051],[38.2463,10.1165],[38.433,10.1615],[38.4979,10.3709],[38.7315,10.3822],[38.8636,10.3119],[38.821,10.1112],[38.6853,10.0129],[38.7968,9.94],[38.858,9.749],[39.2203,9.6309],[39.3363,9.4556],[39.4257,9.444],[39.4716,9.3505],[39.2579,9.2992],[39.3627,9.0874],[39.2762,8.9488],[39.3241,8.7817],[39.4152,8.8297],[39.5428,8.761],[39.769,8.9001],[39.7662,9.1035],[39.8107,9.139],[39.8953,9.3153],[39.7974,9.3929],[39.869,9.4596],[39.8922,9.6068],[39.8555,9.701],[39.9766,9.7283],[40.0773,9.8977],[40.0171,10.104],[40.1242,10.0975],[40.1209,10.203],[40.177,10.4955],[40.1579,10.6754],[40.1152,10.7397],[40.1629,10.86],[40.1286,10.9408],[40.1964,11.0572],[40.1886,11.158],[40.0674,11.3523],[40.0525,11.4895],[39.9791,11.664],[39.8832,11.7751],[39.8835,11.9193],[39.7694,12.2138],[39.7797,12.325],[39.6296,12.3038],[39.408,12.3323],[39.2727,12.3126],[39.1903,12.6659],[39.2637,12.7978],[39.2055,13.0236],[39.0144,13.015],[38.9958,13.1271],[38.7461,13.3749],[38.6751,13.4917],[38.4607,13.4635],[38.4853,13.5371],[38.1365,13.5249],[38.0585,13.4688],[37.8916,13.5395],[37.7187,13.5481],[37.6543,13.4317],[37.4864,13.3618],[37.299,13.3699],[37.1931,13.4318],[37.0531,13.3728],[36.9148,13.3892],[36.7062,13.558],[36.5246,13.6146],[36.4399,13.7762]]]}},{"type":"Feature","properties":{"sourceId":"1159313849","regionId":"region.f9aa70bf-6aad-41ce-af68-3297daf231c4","countryId":"country.d0e7yk"},"geometry":{"type":"Polygon","coordinates":[[[36.4399,13.7762],[36.5246,13.6146],[36.7062,13.558],[36.9148,13.3892],[37.0531,13.3728],[37.1931,13.4318],[37.299,13.3699],[37.4864,13.3618],[37.6543,13.4317],[37.7187,13.5481],[37.8916,13.5395],[38.0585,13.4688],[38.1365,13.5249],[38.4853,13.5371],[38.4607,13.4635],[38.6751,13.4917],[38.7461,13.3749],[38.9958,13.1271],[39.0144,13.015],[39.2055,13.0236],[39.2637,12.7978],[39.1903,12.6659],[39.2727,12.3126],[39.408,12.3323],[39.6296,12.3038],[39.7797,12.325],[39.8043,12.5661],[39.8919,12.7611],[39.8442,12.8488],[39.7564,12.8894],[39.802,13.0708],[39.7211,13.2654],[39.7241,13.4815],[39.828,13.6146],[39.7976,13.7353],[39.8209,13.8721],[39.7922,14.062],[39.692,14.304],[39.7348,14.3736],[39.9636,14.3684],[39.9998,14.4552],[39.9112,14.4234],[39.723,14.5017],[39.4894,14.5245],[39.2082,14.4402],[39.1585,14.5601],[39.0755,14.6374],[38.8661,14.4937],[38.6066,14.4365],[38.4268,14.4172],[38.325,14.5046],[38.2458,14.6525],[38.0067,14.7244],[37.8915,14.8795],[37.565,14.1167],[37.4754,14.1996],[37.394,14.3501],[37.2938,14.4574],[37.1211,14.4208],[37.0727,14.2853],[36.7481,14.3321],[36.5264,14.2635],[36.4366,13.9912],[36.4399,13.7762]]]}},{"type":"Feature","properties":{"sourceId":"1159313861","regionId":"region.78e8b85b-c5d0-45f0-a6bc-43a8ae2ff811","countryId":"country.d0e7yk"},"geometry":{"type":"MultiPolygon","coordinates":[[[[35.1486,11.8712],[35.0482,11.7714],[35.0731,11.549],[34.9471,11.2749],[34.9803,11.1553],[34.9143,10.964],[34.9338,10.8453],[34.8385,10.7291],[34.7507,10.7439],[34.5871,10.8793],[34.4373,10.7957],[34.2795,10.5655],[34.3249,10.2687],[34.3035,10.1135],[34.2219,10.026],[34.0982,9.6797],[34.0707,9.4546],[34.0831,9.2051],[34.3167,9.1883],[34.4051,9.2808],[34.4641,9.6391],[34.5483,9.6607],[34.6928,9.5914],[34.8051,9.7114],[34.902,9.963],[35.0025,10.0163],[35.0354,9.9348],[35.2579,9.9329],[35.518,9.6951],[35.7037,9.4816],[35.7588,9.4876],[35.8289,9.3382],[35.9267,9.3348],[36.0839,9.1387],[36.2298,9.3277],[36.2637,9.5348],[36.1184,9.6803],[36.1281,10.0515],[36.177,10.0396],[36.3255,10.1327],[36.5024,10.3353],[36.5382,10.2234],[36.6115,10.2092],[36.7348,10.3083],[36.8714,10.2427],[37.0065,10.216],[37.0461,10.3027],[36.7145,10.3696],[36.5543,10.3793],[36.5221,10.4582],[36.392,10.4692],[36.3277,10.6243],[36.3928,10.771],[36.312,10.8228],[36.3392,10.9082],[36.4889,11.0778],[36.4612,11.2303],[36.5073,11.3459],[36.4059,11.4372],[36.4442,11.5018],[36.3408,11.6421],[36.311,11.8006],[36.1905,11.6952],[36.0355,11.9011],[35.9299,12.0059],[35.7656,12.0379],[35.716,11.9464],[35.5443,11.8069],[35.4112,11.784],[35.3131,11.8463],[35.2484,11.9579],[35.1486,11.8712]]],[[[36.0644,9.0352],[36.0191,8.8566],[36.1217,8.8437],[36.2216,8.9472],[36.1777,9.0165],[36.0644,9.0352]]]]}},{"type":"Feature","properties":{"sourceId":"1159313855","regionId":"region.c82272d1-15b8-45f1-952e-4e25cd6bd9a3","countryId":"country.d0e7yk"},"geometry":{"type":"Polygon","coordinates":[[[34.1073,8.6015],[33.9708,8.4454],[33.6955,8.3729],[33.6001,8.464],[33.3614,8.4343],[33.2527,8.4582],[33.1741,8.4045],[33.2069,8.2407],[33.0076,7.9441],[33.0513,7.8011],[33.2424,7.7807],[33.3598,7.7193],[33.4623,7.7495],[33.5723,7.6852],[33.7161,7.6572],[33.8824,7.5361],[34.0065,7.4099],[34.0311,7.2554],[34.1958,7.0977],[34.2997,7.049],[34.5131,7.0717],[34.6299,7.0121],[34.7915,7.0869],[34.9469,7.1044],[35.065,7.1643],[35.1822,7.1167],[35.3063,7.1294],[35.3632,7.3843],[35.2635,7.5396],[35.1903,7.4616],[35.1338,7.56],[35.0331,7.5954],[34.9935,7.6966],[34.8921,7.7873],[34.8873,7.9186],[34.9505,8.0077],[34.9015,8.0698],[35.0061,8.1945],[34.8184,8.1919],[34.6745,8.2884],[34.5892,8.3859],[34.4886,8.4359],[34.3523,8.5578],[34.2451,8.6077],[34.1073,8.6015]]]}},{"type":"Feature","properties":{"sourceId":"1159313857","regionId":"region.b53a9784-46ab-468d-95ec-129606cb1db5","countryId":"country.d0e7yk"},"geometry":{"type":"Polygon","coordinates":[[[34.1073,8.6015],[34.2451,8.6077],[34.3523,8.5578],[34.4886,8.4359],[34.5892,8.3859],[34.6745,8.2884],[34.8184,8.1919],[35.0061,8.1945],[34.9015,8.0698],[34.9505,8.0077],[34.8873,7.9186],[34.8921,7.7873],[34.9935,7.6966],[35.0331,7.5954],[35.1338,7.56],[35.1903,7.4616],[35.2635,7.5396],[35.2425,7.6768],[35.3567,7.8419],[35.5333,7.8828],[35.5873,7.8126],[35.7578,7.8802],[35.7284,8.0088],[35.857,8.0775],[35.9053,7.9581],[35.858,7.8571],[36,7.7442],[36.0646,7.5597],[36.2618,7.4743],[36.6122,7.3735],[36.7838,7.2597],[36.9186,7.2242],[37.1071,7.2352],[37.395,7.4041],[37.4373,7.5819],[37.4049,7.7099],[37.4375,7.9015],[37.3945,7.9967],[37.5922,8.0596],[37.6049,8.2177],[37.4888,8.2716],[37.489,8.3832],[37.8595,8.3376],[38.2398,8.4145],[38.3248,8.2699],[38.4031,8.2778],[38.4607,8.3992],[38.5456,8.4573],[38.6463,8.4104],[38.683,8.1836],[38.5826,8.1699],[38.6186,8.0203],[38.4259,7.6915],[38.4298,7.5272],[38.3427,7.4752],[38.2596,7.3086],[38.1227,7.2225],[38.0696,7.096],[38.1538,7.0364],[38.2453,7.0565],[38.3311,7.1614],[38.5215,7.0851],[38.5807,7.1041],[38.6656,6.9734],[38.6401,6.7875],[38.847,6.6748],[38.9374,6.661],[39.0929,6.5234],[39.1288,6.3699],[39.0925,6.2644],[39.135,6.1616],[38.9934,6.1519],[38.8619,6.3426],[38.7649,6.412],[38.5382,6.4404],[38.4529,6.4123],[38.4364,6.2142],[38.2967,6.0192],[38.3922,5.9182],[38.2343,5.8648],[38.0921,6.1053],[38.193,6.1916],[38.2065,6.3269],[38.2943,6.4289],[38.1675,6.4574],[38.0215,6.5745],[37.8677,6.5746],[37.8025,6.4666],[37.8573,6.348],[37.778,6.1217],[37.7942,6.0087],[37.9717,5.9421],[38.0875,5.7057],[37.9374,5.6184],[37.9425,5.4463],[37.9006,5.2493],[37.6857,5.313],[37.4035,5.1652],[37.2138,5.204],[36.9715,5.1861],[36.8744,4.959],[36.909,4.8362],[36.8765,4.7261],[36.6489,4.4312],[36.8441,4.4322],[37.0157,4.3706],[37.1119,4.2823],[37.9767,3.7264],[38.1019,3.6126],[38.3899,3.5969],[38.4969,3.6239],[38.6603,3.5945],[38.8952,3.5136],[39.0904,3.5183],[39.3007,3.6426],[39.4986,3.9797],[39.4886,4.0618],[39.742,4.657],[39.7704,4.8515],[39.9195,5.2465],[40.0511,5.3997],[40.1874,5.3546],[40.5467,5.4235],[40.7043,5.5654],[40.9225,5.6995],[40.8873,5.7848],[40.8655,6.1104],[40.8825,6.2636],[40.8585,6.4199],[41.0284,6.6563],[41.122,6.6927],[41.4593,6.5294],[41.622,6.364],[41.7359,6.5116],[41.9858,6.5957],[42.0791,6.7957],[42.0756,6.8591],[42.1779,7.0337],[42.2271,7.2227],[42.2075,7.293],[41.9015,7.4123],[41.8765,7.5525],[41.9534,7.7514],[41.9177,7.8736],[41.9313,8.1156],[42.0293,8.3252],[42.0323,8.4337],[42.2071,8.6048],[42.3267,8.5387],[42.5036,8.4925],[42.6045,8.1838],[42.7039,8.1819],[42.7704,8.3655],[42.8969,8.4124],[42.9059,8.5898],[42.8333,8.7073],[42.857,8.8404],[42.7053,8.9832],[42.6257,9.1198],[42.5519,9.3515],[42.4874,9.4793],[42.3871,9.5677],[42.341,9.7204],[42.1337,9.6173],[42.1473,9.5419],[42.0767,9.4749],[41.7369,9.4738],[41.6375,9.514],[41.4716,9.4611],[41.2309,9.4966],[41.0111,9.3582],[40.8464,9.3071],[40.8157,9.3973],[40.6951,9.4444],[40.5279,9.3824],[40.4053,9.2776],[40.2608,9.0898],[40.2369,9.0063],[40.155,8.9677],[40.039,8.8429],[40.0258,8.9985],[39.9499,9.0059],[39.9185,9.1185],[39.8107,9.139],[39.7662,9.1035],[39.769,8.9001],[39.5428,8.761],[39.4152,8.8297],[39.3241,8.7817],[39.2762,8.9488],[39.3627,9.0874],[39.2579,9.2992],[39.4716,9.3505],[39.4257,9.444],[39.3363,9.4556],[39.2203,9.6309],[38.858,9.749],[38.7968,9.94],[38.6853,10.0129],[38.821,10.1112],[38.8636,10.3119],[38.7315,10.3822],[38.4979,10.3709],[38.433,10.1615],[38.2463,10.1165],[38.1829,10.051],[37.9813,9.9696],[37.7961,9.8593],[37.7028,9.8428],[37.5454,9.9961],[37.2739,10.1019],[37.173,10.1682],[37.181,10.2615],[37.0461,10.3027],[37.0065,10.216],[36.8714,10.2427],[36.7348,10.3083],[36.6115,10.2092],[36.5382,10.2234],[36.5024,10.3353],[36.3255,10.1327],[36.177,10.0396],[36.1281,10.0515],[36.1184,9.6803],[36.2637,9.5348],[36.2298,9.3277],[36.0839,9.1387],[35.9267,9.3348],[35.8289,9.3382],[35.7588,9.4876],[35.7037,9.4816],[35.518,9.6951],[35.2579,9.9329],[35.0354,9.9348],[35.0025,10.0163],[34.902,9.963],[34.8051,9.7114],[34.6928,9.5914],[34.5483,9.6607],[34.4641,9.6391],[34.4051,9.2808],[34.3167,9.1883],[34.0831,9.2051],[34.1073,8.6015]],[[38.83,9.0789],[38.9079,8.9845],[38.8166,8.8326],[38.6866,8.9233],[38.655,8.9966],[38.7101,9.0815],[38.83,9.0789]],[[36.0644,9.0352],[36.1777,9.0165],[36.2216,8.9472],[36.1217,8.8437],[36.0191,8.8566],[36.0644,9.0352]],[[42.2487,9.1887],[42.0637,9.2298],[42.1287,9.3837],[42.2719,9.3629],[42.2487,9.1887]]]}},{"type":"Feature","properties":{"sourceId":"1159313867","regionId":"region.58ea8f86-1445-4ef8-82b1-411335dceef3","countryId":"country.d0e7yk"},"geometry":{"type":"Polygon","coordinates":[[[42.341,9.7204],[42.2031,9.7744],[42.0404,9.629],[41.9189,9.6766],[41.763,9.6401],[41.7369,9.4738],[42.0767,9.4749],[42.1473,9.5419],[42.1337,9.6173],[42.341,9.7204]]]}},{"type":"Feature","properties":{"sourceId":"1159313863","regionId":"region.f9cb5b2f-1a4a-42a5-9f6c-19b15b830e66","countryId":"country.d0e7yk"},"geometry":{"type":"Polygon","coordinates":[[[38.83,9.0789],[38.7101,9.0815],[38.655,8.9966],[38.6866,8.9233],[38.8166,8.8326],[38.9079,8.9845],[38.83,9.0789]]]}},{"type":"Feature","properties":{"sourceId":"1159313869","regionId":"region.06260ce7-d0af-4e4d-9b8a-78ff2dcdc850","countryId":"country.d0e7yk"},"geometry":{"type":"Polygon","coordinates":[[[42.2487,9.1887],[42.2719,9.3629],[42.1287,9.3837],[42.0637,9.2298],[42.2487,9.1887]]]}}]}