{"type":"FeatureCollection","features":[{"type":"Feature","properties":{"sourceId":"1159315225","regionId":"region.599d7ae2-d8d7-440f-9b19-645847c51983","countryId":"country.1xyn8u3"},"geometry":{"type":"MultiPolygon","coordinates":[[[[131.1506,31.4713],[131.1918,31.5747],[131.0359,31.6454],[130.897,31.7843],[130.8734,31.8876],[130.7839,31.9548],[130.7124,32.0909],[130.5898,32.1635],[130.4244,32.1134],[130.3446,32.1618],[130.1799,32.0935],[130.2204,31.9296],[130.1714,31.7901],[130.3362,31.6262],[130.2933,31.4447],[130.193,31.3152],[130.2222,31.2463],[130.4511,31.2494],[130.5217,31.1687],[130.6398,31.1865],[130.5735,31.3146],[130.5291,31.5133],[130.613,31.6824],[130.686,31.7255],[130.8045,31.6872],[130.799,31.6117],[130.6956,31.5458],[130.7034,31.4593],[130.7953,31.3444],[130.7254,31.047],[130.924,31.113],[131.104,31.3288],[131.0136,31.3631],[131.1506,31.4713]]],[[[130.6746,30.3746],[130.499,30.468],[130.3863,30.3396],[130.4377,30.239],[130.5773,30.2359],[130.6746,30.3746]]],[[[131.052,30.8402],[130.9393,30.6723],[130.9302,30.5409],[130.8515,30.4701],[130.8858,30.3439],[131.0356,30.5572],[131.0789,30.6991],[131.052,30.8402]]]]}},{"type":"Feature","properties":{"sourceId":"1159311905","regionId":"region.3d5c7344-e76a-4904-ad5a-a973545b9b05","countryId":"country.1xyn8u3"},"geometry":{"type":"Polygon","coordinates":[[[131.2009,33.6127],[131.1495,33.4957],[130.9505,33.4852],[130.8413,33.352],[130.8347,33.0809],[130.9512,33.0323],[131.1249,33.1424],[131.3239,32.8223],[131.4642,32.8179],[131.5397,32.743],[131.8192,32.7984],[131.8723,32.7316],[131.9822,32.8889],[131.9032,32.9831],[131.9292,33.0683],[131.8096,33.1276],[131.8722,33.2003],[131.7109,33.2702],[131.5104,33.2734],[131.6974,33.4064],[131.7295,33.5802],[131.6674,33.6672],[131.521,33.6764],[131.4177,33.5817],[131.2009,33.6127]]]}},{"type":"Feature","properties":{"sourceId":"1159311899","regionId":"region.2a92efab-bf34-47b6-a2eb-e20f6712790f","countryId":"country.1xyn8u3"},"geometry":{"type":"Polygon","coordinates":[[[130.0363,33.4576],[130.259,33.468],[130.5319,33.3379],[130.3812,33.2364],[130.3494,33.142],[130.4222,33.0826],[130.4292,32.9805],[130.5799,33.0984],[130.7286,33.1345],[130.8347,33.0809],[130.8413,33.352],[130.9505,33.4852],[131.1495,33.4957],[131.2009,33.6127],[131.0813,33.635],[131.0098,33.7462],[130.9929,33.8977],[130.8282,33.9396],[130.6844,33.9342],[130.4544,33.8077],[130.3909,33.6049],[130.1564,33.5254],[130.0363,33.4576]]]}},{"type":"Feature","properties":{"sourceId":"1159311895","regionId":"region.a246c9b9-eef3-4363-9060-9529978c71c4","countryId":"country.1xyn8u3"},"geometry":{"type":"Polygon","coordinates":[[[129.8145,33.3312],[129.7582,33.2791],[129.9252,33.0688],[130.0322,32.9875],[130.2041,32.9436],[130.1319,33.102],[130.2193,33.1595],[130.3494,33.142],[130.3812,33.2364],[130.5319,33.3379],[130.259,33.468],[130.0363,33.4576],[129.9101,33.5472],[129.7873,33.4545],[129.8145,33.3312]]]}},{"type":"Feature","properties":{"sourceId":"1159315235","regionId":"region.d2ed1a97-6f32-45f1-8f47-916a68fc4524","countryId":"country.1xyn8u3"},"geometry":{"type":"MultiPolygon","coordinates":[[[[130.2041,32.9436],[130.0322,32.9875],[129.9252,33.0688],[129.7582,33.2791],[129.8145,33.3312],[129.5804,33.371],[129.5521,33.2258],[129.7285,33.1223],[129.6324,32.9791],[129.6981,32.8395],[129.771,32.814],[129.8949,32.6627],[129.9549,32.7452],[130.0938,32.7949],[130.2103,32.7333],[130.1815,32.5923],[130.3417,32.6673],[130.3758,32.7479],[130.3394,32.8566],[130.2041,32.9436]]],[[[128.8784,32.6739],[128.8423,32.7595],[128.6418,32.7614],[128.6629,32.6015],[128.8784,32.6739]]],[[[129.3125,34.2798],[129.1985,34.3162],[129.1704,34.1468],[129.2766,34.1291],[129.3125,34.2798]]],[[[129.4526,34.6195],[129.3233,34.6481],[129.2723,34.3757],[129.3618,34.4055],[129.4461,34.5148],[129.4526,34.6195]]]]}},{"type":"Feature","properties":{"sourceId":"1159311901","regionId":"region.2bcecd7e-c01d-408c-be4d-481a4693b25b","countryId":"country.1xyn8u3"},"geometry":{"type":"MultiPolygon","coordinates":[[[[130.3446,32.1618],[130.4244,32.1134],[130.5898,32.1635],[130.7124,32.0909],[130.9369,32.115],[131.0871,32.2996],[131,32.4601],[131.2423,32.7933],[131.3239,32.8223],[131.1249,33.1424],[130.9512,33.0323],[130.8347,33.0809],[130.7286,33.1345],[130.5799,33.0984],[130.4292,32.9805],[130.4413,32.9237],[130.593,32.8159],[130.5765,32.6984],[130.6413,32.6075],[130.562,32.4271],[130.3446,32.1618]]],[[[130.1605,32.5463],[130.033,32.5219],[129.9753,32.3554],[130.012,32.1906],[130.2034,32.3389],[130.1605,32.5463]]]]}},{"type":"Feature","properties":{"sourceId":"1159311903","regionId":"region.9c520a8e-232d-4061-b325-d647122d2e64","countryId":"country.1xyn8u3"},"geometry":{"type":"Polygon","coordinates":[[[131.8723,32.7316],[131.8192,32.7984],[131.5397,32.743],[131.4642,32.8179],[131.3239,32.8223],[131.2423,32.7933],[131,32.4601],[131.0871,32.2996],[130.9369,32.115],[130.7124,32.0909],[130.7839,31.9548],[130.8734,31.8876],[130.897,31.7843],[131.0359,31.6454],[131.1918,31.5747],[131.1506,31.4713],[131.2659,31.3812],[131.3455,31.395],[131.4753,31.7622],[131.4473,31.8769],[131.6821,32.5351],[131.8723,32.7316]]]}},{"type":"Feature","properties":{"sourceId":"1159311909","regionId":"region.c626ed8d-de27-4d96-a47f-484a173615c6","countryId":"country.1xyn8u3"},"geometry":{"type":"Polygon","coordinates":[[[134.4424,34.2083],[134.4197,34.1615],[134.2197,34.1626],[133.9654,34.072],[133.8282,34.0929],[133.6606,33.9979],[133.6479,33.8557],[133.885,33.7901],[134.0175,33.8108],[134.0602,33.6793],[134.1587,33.6562],[134.1901,33.5515],[134.2957,33.5303],[134.404,33.6545],[134.7323,33.826],[134.696,33.9519],[134.5998,34.0095],[134.6283,34.1779],[134.5942,34.2321],[134.4424,34.2083]]]}},{"type":"Feature","properties":{"sourceId":"1159311907","regionId":"region.a6d65824-7009-43a5-9ede-dfa43ec86aa1","countryId":"country.1xyn8u3"},"geometry":{"type":"MultiPolygon","coordinates":[[[[133.5919,34.0238],[133.6606,33.9979],[133.8282,34.0929],[133.9654,34.072],[134.2197,34.1626],[134.4197,34.1615],[134.4424,34.2083],[134.2578,34.2942],[134.153,34.3857],[134.0813,34.3477],[133.9465,34.3762],[133.6726,34.2231],[133.5919,34.0238]]],[[[134.3674,34.5543],[134.2038,34.5124],[134.3469,34.4308],[134.3674,34.5543]]]]}},{"type":"Feature","properties":{"sourceId":"1159311139","regionId":"region.fd76727d-04aa-49d1-a3bd-aaab2970d423","countryId":"country.1xyn8u3"},"geometry":{"type":"Polygon","coordinates":[[[132.6399,32.9089],[132.6733,33.1229],[132.8767,33.3027],[132.8202,33.4502],[132.9503,33.4497],[133.0354,33.5117],[133.0662,33.618],[133.1788,33.7716],[133.2684,33.8048],[133.6479,33.8557],[133.6606,33.9979],[133.5919,34.0238],[133.511,33.9652],[133.3226,33.9906],[133.127,33.9333],[132.9191,34.0684],[132.7699,33.9963],[132.7124,33.9045],[132.6766,33.7156],[132.5006,33.625],[132.3811,33.4661],[132.4201,33.3044],[132.5368,33.2426],[132.4518,33.0529],[132.4723,32.9337],[132.6399,32.9089]]]}},{"type":"Feature","properties":{"sourceId":"1159311863","regionId":"region.ad2511d9-1324-4f6f-adc2-327c8c9209b9","countryId":"country.1xyn8u3"},"geometry":{"type":"Polygon","coordinates":[[[134.2957,33.5303],[134.1901,33.5515],[134.1587,33.6562],[134.0602,33.6793],[134.0175,33.8108],[133.885,33.7901],[133.6479,33.8557],[133.2684,33.8048],[133.1788,33.7716],[133.0662,33.618],[133.0354,33.5117],[132.9503,33.4497],[132.8202,33.4502],[132.8767,33.3027],[132.6733,33.1229],[132.6399,32.9089],[132.6234,32.7995],[132.8122,32.7403],[132.9151,32.778],[133.0183,33.024],[133.0971,33.0481],[133.2533,33.2191],[133.2694,33.3469],[133.4148,33.3931],[133.4659,33.4543],[133.7394,33.5375],[133.9252,33.4937],[134.1903,33.2483],[134.2446,33.4608],[134.2957,33.5303]]]}},{"type":"Feature","properties":{"sourceId":"1159311913","regionId":"region.627e5dd2-94d8-4345-bec0-213a2337f5f9","countryId":"country.1xyn8u3"},"geometry":{"type":"MultiPolygon","coordinates":[[[[131.6756,34.6721],[131.6671,34.4961],[131.7685,34.4161],[131.7714,34.3143],[131.9468,34.306],[132.0504,34.4578],[132.1533,34.7165],[132.4241,34.7997],[132.6679,34.8382],[132.6425,34.8947],[132.8392,35.0665],[133.1279,35.0673],[133.1644,35.2059],[133.2998,35.2824],[133.317,35.4236],[133.2575,35.5362],[133.1054,35.5975],[132.9697,35.517],[132.6354,35.441],[132.6387,35.2946],[132.4081,35.1751],[132.3168,35.0623],[132.0633,34.9075],[131.8584,34.7145],[131.6756,34.6721]]],[[[133.367,36.2742],[133.292,36.3425],[133.1878,36.2161],[133.326,36.1581],[133.367,36.2742]]]]}},{"type":"Feature","properties":{"sourceId":"1159311893","regionId":"region.9a6ee463-89b9-4245-94ad-395d1bd7b0ce","countryId":"country.1xyn8u3"},"geometry":{"type":"Polygon","coordinates":[[[132.2404,34.1898],[132.144,34.2284],[132.0504,34.4578],[131.9468,34.306],[131.7714,34.3143],[131.7685,34.4161],[131.6671,34.4961],[131.6756,34.6721],[131.5969,34.6596],[131.4548,34.5191],[131.4143,34.424],[131.2362,34.3823],[131.0747,34.4248],[130.8716,34.2792],[130.9234,34.1838],[130.8616,34.1127],[130.9321,33.9454],[131.0356,34.048],[131.2722,33.9268],[131.4829,34.0321],[131.7415,34.0562],[132.0578,33.8953],[132.2132,33.9897],[132.2404,34.1898]]]}},{"type":"Feature","properties":{"sourceId":"1159312175","regionId":"region.256795e8-6d6d-4727-bdce-0c2d2c46b7de","countryId":"country.1xyn8u3"},"geometry":{"type":"Polygon","coordinates":[[[133.2575,35.5362],[133.317,35.4236],[133.2998,35.2824],[133.1644,35.2059],[133.1279,35.0673],[133.2643,35.0506],[133.3972,35.1566],[133.5042,35.1812],[133.5799,35.3152],[133.7352,35.2953],[133.8111,35.2422],[133.9291,35.3194],[134.0812,35.2792],[134.1746,35.1616],[134.3957,35.2292],[134.5048,35.2582],[134.4168,35.5442],[134.3656,35.6],[134.2378,35.5467],[133.7311,35.5029],[133.5802,35.5336],[133.3296,35.4655],[133.2575,35.5362]]]}},{"type":"Feature","properties":{"sourceId":"1159309339","regionId":"region.6a7afc00-bc7e-454f-bd17-8ba76195e911","countryId":"country.1xyn8u3"},"geometry":{"type":"MultiPolygon","coordinates":[[[[134.3656,35.6],[134.4168,35.5442],[134.5048,35.2582],[134.3957,35.2292],[134.3941,35.1407],[134.2636,35.001],[134.2597,34.8213],[134.3046,34.7091],[134.5191,34.7597],[134.7444,34.7665],[134.9603,34.6436],[135.2109,34.6552],[135.2869,34.7054],[135.4129,34.6921],[135.4398,34.9037],[135.3633,34.9975],[135.4009,35.0768],[134.9551,35.2858],[135.0505,35.4164],[135.0438,35.5027],[134.9109,35.5128],[134.8633,35.6583],[134.537,35.6722],[134.3656,35.6]]],[[[135.0027,34.6084],[134.799,34.4468],[134.6572,34.2882],[134.7287,34.1909],[134.9583,34.2704],[134.903,34.419],[135.0027,34.6084]]]]}},{"type":"Feature","properties":{"sourceId":"1159309411","regionId":"region.08051350-cd71-4af2-b600-94d27bf8266a","countryId":"country.1xyn8u3"},"geometry":{"type":"Polygon","coordinates":[[[134.8633,35.6583],[134.9109,35.5128],[135.0438,35.5027],[135.0505,35.4164],[134.9551,35.2858],[135.4009,35.0768],[135.3633,34.9975],[135.5382,34.9098],[135.6464,34.8992],[135.7063,34.7595],[135.8323,34.6991],[136.0365,34.7153],[136.0031,34.7737],[135.8735,34.8681],[135.8147,35.0056],[135.827,35.2633],[135.7429,35.3376],[135.5188,35.3734],[135.4531,35.4391],[135.4788,35.5437],[135.262,35.5575],[135.304,35.6889],[135.2268,35.7723],[135.0841,35.739],[134.927,35.6412],[134.8633,35.6583]]]}},{"type":"Feature","properties":{"sourceId":"1159309409","regionId":"region.9943f239-1224-4db2-9c1b-d615150636f3","countryId":"country.1xyn8u3"},"geometry":{"type":"Polygon","coordinates":[[[135.4788,35.5437],[135.4531,35.4391],[135.5188,35.3734],[135.7429,35.3376],[136.0886,35.5226],[136.1673,35.675],[136.2573,35.6456],[136.337,35.7664],[136.4554,35.7519],[136.7686,35.791],[136.779,35.887],[136.6986,35.9435],[136.7209,36.0748],[136.533,36.1399],[136.3052,36.1841],[136.2267,36.2856],[136.1626,36.2522],[135.9573,35.9731],[136.0995,35.7757],[135.956,35.7283],[135.9817,35.6436],[135.8547,35.579],[135.7061,35.5621],[135.5583,35.4918],[135.4788,35.5437]]]}},{"type":"Feature","properties":{"sourceId":"1159312025","regionId":"region.3a7fd1f6-7de3-49be-b5d3-dd25b83d9488","countryId":"country.1xyn8u3"},"geometry":{"type":"Polygon","coordinates":[[[136.2267,36.2856],[136.3052,36.1841],[136.533,36.1399],[136.7209,36.0748],[136.8119,36.2201],[136.7732,36.292],[136.7771,36.7189],[136.9149,36.9373],[137.0444,36.9564],[137.054,37.0798],[136.8747,37.0696],[136.9304,37.2216],[137.0142,37.1849],[137.1087,37.2835],[137.2302,37.2921],[137.2957,37.5315],[137.1138,37.4877],[136.9348,37.3995],[136.7491,37.3579],[136.6703,37.15],[136.7676,36.981],[136.7606,36.8706],[136.64,36.6626],[136.4302,36.4325],[136.2267,36.2856]]]}},{"type":"Feature","properties":{"sourceId":"1159312189","regionId":"region.c37e1ab2-5c76-44f2-a329-f019962217df","countryId":"country.1xyn8u3"},"geometry":{"type":"Polygon","coordinates":[[[137.0444,36.9564],[136.9149,36.9373],[136.7771,36.7189],[136.7732,36.292],[136.8505,36.3428],[136.958,36.2733],[137.1326,36.4252],[137.2848,36.4508],[137.5654,36.377],[137.7195,36.5898],[137.7327,36.7748],[137.6948,36.912],[137.6146,36.9751],[137.4271,36.922],[137.3333,36.7627],[137.157,36.7608],[137.0055,36.8359],[137.0444,36.9564]]]}},{"type":"Feature","properties":{"sourceId":"1159312033","regionId":"region.55515816-b071-47bc-a922-59663d9c9294","countryId":"country.1xyn8u3"},"geometry":{"type":"MultiPolygon","coordinates":[[[[137.6146,36.9751],[137.6948,36.912],[137.7327,36.7748],[137.8847,36.9221],[138.012,36.8258],[138.2154,36.8598],[138.3821,36.9862],[138.5552,37.0006],[138.6696,36.8226],[138.6795,36.7307],[138.8081,36.7678],[138.9587,36.8944],[138.974,36.972],[139.1045,37.0356],[139.2146,36.9457],[139.2352,37.1399],[139.1601,37.2408],[139.2088,37.4411],[139.3814,37.4608],[139.5561,37.5182],[139.5333,37.6137],[139.7246,37.8204],[139.6174,37.9096],[139.6792,38.1876],[139.8444,38.2409],[139.8622,38.3144],[139.7216,38.377],[139.7018,38.4944],[139.5487,38.545],[139.4622,38.375],[139.4324,38.1691],[139.3045,38.0419],[139.0599,37.9459],[138.8577,37.8278],[138.7656,37.6347],[138.5506,37.3779],[138.2449,37.1838],[138.0975,37.1711],[137.8967,37.0575],[137.6146,36.9751]]],[[[138.4592,38.0699],[138.5193,38.3074],[138.3101,38.1681],[138.2327,38.0078],[138.3425,37.9669],[138.2651,37.7983],[138.4865,37.8918],[138.5752,38.0351],[138.4592,38.0699]]]]}},{"type":"Feature","properties":{"sourceId":"1159312211","regionId":"region.8984fd56-dc75-4762-8014-da3faf6d5b7f","countryId":"country.1xyn8u3"},"geometry":{"type":"Polygon","coordinates":[[[139.5487,38.545],[139.7018,38.4944],[139.7216,38.377],[139.8622,38.3144],[139.8444,38.2409],[139.6792,38.1876],[139.6174,37.9096],[139.7246,37.8204],[139.9324,37.8116],[140.1043,37.7227],[140.2737,37.7996],[140.2696,37.9642],[140.2823,38.0451],[140.3965,38.0912],[140.5879,38.4657],[140.5411,38.6421],[140.616,38.7654],[140.5329,38.8817],[140.3428,39.0038],[140.2107,39.02],[140.0122,39.1098],[139.8809,39.1151],[139.7738,38.8171],[139.5992,38.6483],[139.5487,38.545]]]}},{"type":"Feature","properties":{"sourceId":"1159312199","regionId":"region.3574e371-5884-48be-ab3b-19a525dbd205","countryId":"country.1xyn8u3"},"geometry":{"type":"Polygon","coordinates":[[[139.8809,39.1151],[140.0122,39.1098],[140.2107,39.02],[140.3428,39.0038],[140.5329,38.8817],[140.7594,38.9517],[140.7961,39.1747],[140.6581,39.3923],[140.8138,39.6439],[140.7902,39.7198],[140.8706,39.8783],[140.8425,39.9775],[140.8554,40.1806],[140.9263,40.244],[140.9404,40.4682],[140.8499,40.4995],[140.7169,40.4255],[140.5442,40.408],[140.3847,40.4801],[140.3006,40.4471],[140.0614,40.4641],[139.9438,40.4293],[140.0243,40.355],[139.978,40.1255],[139.8221,39.9611],[140.0276,39.8245],[140.0593,39.7275],[140.0486,39.5047],[139.9953,39.3273],[139.9318,39.2871],[139.8809,39.1151]]]}},{"type":"Feature","properties":{"sourceId":"1159312201","regionId":"region.b565330c-1eec-459f-9962-08692880a616","countryId":"country.1xyn8u3"},"geometry":{"type":"Polygon","coordinates":[[[139.9438,40.4293],[140.0614,40.4641],[140.3006,40.4471],[140.3847,40.4801],[140.5442,40.408],[140.7169,40.4255],[140.8499,40.4995],[140.9404,40.4682],[140.9263,40.244],[141.0015,40.2113],[141.3025,40.3554],[141.5369,40.3564],[141.681,40.451],[141.5197,40.538],[141.4374,40.6701],[141.4056,40.8168],[141.3908,41.161],[141.4575,41.3775],[141.2761,41.3532],[141.1078,41.4639],[140.9071,41.5008],[140.837,41.4182],[140.7656,41.196],[140.7982,41.1286],[140.9776,41.1965],[141.0581,41.1831],[141.2059,41.2647],[141.2705,41.1852],[141.1852,40.9112],[141.1113,40.8726],[140.9751,40.9378],[140.7992,40.8391],[140.673,40.8956],[140.6427,41.1714],[140.3328,41.2372],[140.3248,41.0275],[140.2708,40.8124],[140.1076,40.7441],[140.046,40.7678],[139.8604,40.6088],[139.9428,40.5446],[139.9438,40.4293]]]}},{"type":"Feature","properties":{"sourceId":"1159312207","regionId":"region.26485e60-f596-4c33-ae9b-8f2c31ad04e4","countryId":"country.1xyn8u3"},"geometry":{"type":"Polygon","coordinates":[[[141.681,40.451],[141.5369,40.3564],[141.3025,40.3554],[141.0015,40.2113],[140.9263,40.244],[140.8554,40.1806],[140.8425,39.9775],[140.8706,39.8783],[140.7902,39.7198],[140.8138,39.6439],[140.6581,39.3923],[140.7961,39.1747],[140.7594,38.9517],[141.0053,38.8729],[141.1126,38.8695],[141.2178,38.7538],[141.3207,38.813],[141.4489,38.8163],[141.4824,38.9636],[141.6403,38.9675],[141.8065,39.0295],[141.9089,39.1098],[141.9053,39.3305],[142.0693,39.5405],[141.9783,39.6479],[142.0088,39.7528],[141.9496,39.9966],[141.855,40.055],[141.8772,40.1393],[141.681,40.451]]]}},{"type":"Feature","properties":{"sourceId":"1159312209","regionId":"region.9e3b4d29-454d-4caa-a8ff-ce3be62ca996","countryId":"country.1xyn8u3"},"geometry":{"type":"Polygon","coordinates":[[[141.6403,38.9675],[141.4824,38.9636],[141.4489,38.8163],[141.3207,38.813],[141.2178,38.7538],[141.1126,38.8695],[141.0053,38.8729],[140.7594,38.9517],[140.5329,38.8817],[140.616,38.7654],[140.5411,38.6421],[140.5879,38.4657],[140.3965,38.0912],[140.2823,38.0451],[140.2696,37.9642],[140.4046,37.9546],[140.5174,37.8932],[140.6516,37.8829],[140.6947,37.7985],[140.8496,37.7988],[140.9332,37.8898],[140.9258,38.0494],[140.9668,38.1705],[141.0978,38.3715],[141.4714,38.4357],[141.5476,38.5186],[141.4671,38.5695],[141.5726,38.7187],[141.5305,38.7808],[141.6367,38.8911],[141.6403,38.9675]]]}},{"type":"Feature","properties":{"sourceId":"1159312205","regionId":"region.a366252a-9d01-4b96-be39-827da532da99","countryId":"country.1xyn8u3"},"geometry":{"type":"Polygon","coordinates":[[[140.9332,37.8898],[140.8496,37.7988],[140.6947,37.7985],[140.6516,37.8829],[140.5174,37.8932],[140.4046,37.9546],[140.2696,37.9642],[140.2737,37.7996],[140.1043,37.7227],[139.9324,37.8116],[139.7246,37.8204],[139.5333,37.6137],[139.5561,37.5182],[139.3814,37.4608],[139.2088,37.4411],[139.1601,37.2408],[139.2352,37.1399],[139.2146,36.9457],[139.3596,36.902],[139.8613,37.1304],[140.0981,37.1058],[140.2313,37],[140.2373,36.9248],[140.4812,36.7971],[140.5615,36.9179],[140.7973,36.8465],[140.9603,36.9662],[141.0418,37.3771],[141.0222,37.727],[140.9332,37.8898]]]}},{"type":"Feature","properties":{"sourceId":"1159309423","regionId":"region.0e09ed4e-0f4a-48ef-bc17-d095b0dea2bc","countryId":"country.1xyn8u3"},"geometry":{"type":"Polygon","coordinates":[[[140.7973,36.8465],[140.5615,36.9179],[140.4812,36.7971],[140.2373,36.9248],[140.2668,36.7186],[140.2376,36.5413],[140.1811,36.4149],[139.9535,36.3621],[139.7918,36.2416],[139.6537,36.2031],[139.674,36.1522],[139.7528,36.0796],[139.9324,35.9385],[140.1273,35.8544],[140.3456,35.8554],[140.5515,35.8886],[140.8595,35.7354],[140.646,36.0133],[140.5641,36.2831],[140.6169,36.3378],[140.6235,36.5061],[140.7973,36.8465]]]}},{"type":"Feature","properties":{"sourceId":"1159309421","regionId":"region.89ec38f5-d106-4f9f-9a3f-9083c4bed396","countryId":"country.1xyn8u3"},"geometry":{"type":"Polygon","coordinates":[[[140.8595,35.7354],[140.5515,35.8886],[140.3456,35.8554],[140.1273,35.8544],[139.9324,35.9385],[139.7528,36.0796],[139.8748,35.8504],[139.8639,35.7781],[139.8642,35.6321],[140.009,35.6598],[140.0796,35.6036],[140.0059,35.4734],[139.8242,35.3284],[139.8677,35.0133],[139.991,35.0205],[140.1346,35.1226],[140.3212,35.1304],[140.3942,35.1966],[140.3859,35.381],[140.4835,35.566],[140.6611,35.6886],[140.8595,35.7354]]]}},{"type":"Feature","properties":{"sourceId":"1159311135","regionId":"region.33a20b69-63e9-4590-83a6-d265aafbf846","countryId":"country.1xyn8u3"},"geometry":{"type":"Polygon","coordinates":[[[139.8642,35.6321],[139.8639,35.7781],[139.7578,35.7953],[139.5356,35.7516],[139.3845,35.7549],[139.0136,35.8773],[138.9228,35.8354],[139.0358,35.6963],[139.1218,35.654],[139.3991,35.5563],[139.5394,35.6126],[139.7866,35.5115],[139.8642,35.6321]]]}},{"type":"Feature","properties":{"sourceId":"1159312191","regionId":"region.c95b3d69-d848-4b38-b4bf-b3bffaa6d3d1","countryId":"country.1xyn8u3"},"geometry":{"type":"Polygon","coordinates":[[[139.7866,35.5115],[139.5394,35.6126],[139.3991,35.5563],[139.1218,35.654],[139.0805,35.5049],[138.9003,35.3809],[138.9866,35.3811],[138.9736,35.205],[139.0944,35.1175],[139.146,35.2352],[139.4149,35.3188],[139.5266,35.302],[139.6606,35.1782],[139.6572,35.377],[139.7866,35.5115]]]}},{"type":"Feature","properties":{"sourceId":"1159312187","regionId":"region.d22bf940-a003-4c96-887a-e160f161218c","countryId":"country.1xyn8u3"},"geometry":{"type":"Polygon","coordinates":[[[139.0944,35.1175],[138.9736,35.205],[138.9866,35.3811],[138.9003,35.3809],[138.6972,35.3508],[138.534,35.4097],[138.5105,35.2075],[138.3835,35.1903],[138.3282,35.2999],[138.2359,35.3037],[138.2413,35.5178],[138.1961,35.6279],[138.1432,35.561],[138.0855,35.337],[137.8056,35.1945],[137.7702,35.0812],[137.5792,34.845],[137.4884,34.8098],[137.4679,34.671],[137.6835,34.6708],[137.7922,34.6394],[138.0472,34.6546],[138.1902,34.6012],[138.216,34.7123],[138.3408,34.8265],[138.3671,34.9173],[138.5143,34.9802],[138.5541,35.0961],[138.6962,35.139],[138.8033,35.1219],[138.744,34.7289],[138.8353,34.5959],[138.9408,34.6611],[139.1409,34.8706],[139.0865,34.9973],[139.0944,35.1175]]]}},{"type":"Feature","properties":{"sourceId":"1159312177","regionId":"region.fff41508-7808-418d-8854-660e5ddf32a5","countryId":"country.1xyn8u3"},"geometry":{"type":"Polygon","coordinates":[[[137.4679,34.671],[137.4884,34.8098],[137.5792,34.845],[137.7702,35.0812],[137.8056,35.1945],[137.5751,35.1882],[137.5479,35.2704],[137.422,35.216],[137.2932,35.2678],[137.1996,35.2412],[137.0708,35.2849],[136.9529,35.3841],[136.7706,35.3521],[136.6801,35.2364],[136.6734,35.1388],[136.7518,35.0262],[136.8277,34.8719],[136.9156,34.776],[137.2979,34.7972],[137.3093,34.7257],[137.121,34.6377],[137.1407,34.5893],[137.4679,34.671]]]}},{"type":"Feature","properties":{"sourceId":"1159312181","regionId":"region.89978f51-c30d-4dd5-9922-5da20961a502","countryId":"country.1xyn8u3"},"geometry":{"type":"Polygon","coordinates":[[[136.7518,35.0262],[136.6734,35.1388],[136.5152,35.2319],[136.3988,35.2026],[136.4432,35.1318],[136.3999,34.9495],[136.2405,34.8631],[136.1246,34.8723],[136.0031,34.7737],[136.0365,34.7153],[136.0525,34.5746],[136.2025,34.5015],[136.0692,34.377],[136.1187,34.2411],[136.0872,34.0094],[136.0038,33.9931],[135.8477,33.8381],[135.9937,33.6863],[136.1047,33.8914],[136.2732,33.9714],[136.2438,34.0642],[136.299,34.1543],[136.523,34.2731],[136.8464,34.3076],[136.916,34.434],[136.633,34.5911],[136.5195,34.6809],[136.6592,34.984],[136.7518,35.0262]]]}},{"type":"Feature","properties":{"sourceId":"1159309419","regionId":"region.63b7c135-ceee-4dcb-b6cf-8b1555a7fbf1","countryId":"country.1xyn8u3"},"geometry":{"type":"Polygon","coordinates":[[[135.9937,33.6863],[135.8477,33.8381],[135.5983,33.8901],[135.5511,34.0825],[135.7091,34.2254],[135.6468,34.3718],[135.1885,34.2743],[135.0853,34.2992],[135.187,34.1359],[135.0945,34.0676],[135.0655,33.8856],[135.3916,33.7136],[135.3277,33.6712],[135.4448,33.5508],[135.7656,33.4815],[135.8848,33.529],[135.9937,33.6863]]]}},{"type":"Feature","properties":{"sourceId":"1159308417","regionId":"region.37955b97-feb2-48df-a27c-496e64e8470e","countryId":"country.1xyn8u3"},"geometry":{"type":"Polygon","coordinates":[[[135.0853,34.2992],[135.1885,34.2743],[135.6468,34.3718],[135.622,34.5534],[135.7063,34.7595],[135.6464,34.8992],[135.5382,34.9098],[135.3633,34.9975],[135.4398,34.9037],[135.4129,34.6921],[135.4144,34.5581],[135.3197,34.4288],[135.0853,34.2992]]]}},{"type":"Feature","properties":{"sourceId":"1159312173","regionId":"region.3ae3a4de-1aa4-43d1-a0b1-54456015b501","countryId":"country.1xyn8u3"},"geometry":{"type":"Polygon","coordinates":[[[134.3046,34.7091],[134.2597,34.8213],[134.2636,35.001],[134.3941,35.1407],[134.3957,35.2292],[134.1746,35.1616],[134.0812,35.2792],[133.9291,35.3194],[133.8111,35.2422],[133.7352,35.2953],[133.5799,35.3152],[133.5042,35.1812],[133.3972,35.1566],[133.2643,35.0506],[133.3622,34.7927],[133.443,34.4727],[133.5689,34.4599],[133.7,34.5259],[133.9363,34.4512],[133.9832,34.5286],[134.1773,34.6144],[134.3046,34.7091]]]}},{"type":"Feature","properties":{"sourceId":"1159311137","regionId":"region.60884d5a-1013-4d9a-96d0-75107ee71e40","countryId":"country.1xyn8u3"},"geometry":{"type":"Polygon","coordinates":[[[133.443,34.4727],[133.3622,34.7927],[133.2643,35.0506],[133.1279,35.0673],[132.8392,35.0665],[132.6425,34.8947],[132.6679,34.8382],[132.4241,34.7997],[132.1533,34.7165],[132.0504,34.4578],[132.144,34.2284],[132.2404,34.1898],[132.2225,34.239],[132.3835,34.3657],[132.4968,34.3625],[132.5598,34.2184],[132.6563,34.1993],[132.8362,34.3111],[133.0769,34.3167],[133.1658,34.2923],[133.2473,34.4265],[133.3411,34.348],[133.443,34.4727]]]}},{"type":"Feature","properties":{"sourceId":"1159309533","regionId":"region.b650a589-67ec-437f-a73c-7fc7679b5f9d","countryId":"country.1xyn8u3"},"geometry":{"type":"Polygon","coordinates":[[[145.7674,43.3873],[145.676,43.382],[145.4684,43.253],[145.3216,43.2763],[145.3117,43.3668],[145.1948,43.6207],[145.0747,43.7537],[145.1223,43.9171],[145.3499,44.2116],[145.2017,44.2058],[145.0485,44.1221],[144.8312,43.9422],[144.7405,43.9146],[144.4304,43.9426],[144.3186,43.9912],[144.2151,44.1115],[143.9992,44.134],[143.7832,44.1007],[143.6804,44.1824],[143.4053,44.3175],[143.3514,44.381],[142.9815,44.5865],[142.6307,44.8837],[142.5393,45.0185],[142.2212,45.2996],[142.0567,45.402],[141.9605,45.5102],[141.8233,45.4226],[141.6921,45.4023],[141.5838,45.2512],[141.5864,45.1644],[141.7219,44.9551],[141.7835,44.7654],[141.7918,44.597],[141.7472,44.4242],[141.6554,44.2769],[141.6702,44.0666],[141.6406,43.9379],[141.5282,43.8412],[141.385,43.7913],[141.3374,43.7128],[141.3709,43.4971],[141.4401,43.3617],[141.3709,43.2507],[141.1691,43.1409],[140.9883,43.227],[140.8099,43.1925],[140.4872,43.3724],[140.3601,43.3252],[140.3381,43.2105],[140.5271,43.0154],[140.2608,42.761],[140.2004,42.8143],[140.0539,42.6942],[139.877,42.6634],[139.8496,42.4693],[139.7676,42.311],[139.7874,42.2468],[140.0276,42.1055],[140.145,41.9827],[140.1297,41.8232],[140.0195,41.697],[139.9837,41.5605],[140.0383,41.4426],[140.209,41.4011],[140.2747,41.4824],[140.4006,41.513],[140.4529,41.6811],[140.6043,41.7363],[140.6416,41.8151],[140.96,41.722],[141.0433,41.7239],[141.1828,41.8183],[140.9743,41.9138],[140.7136,42.1335],[140.5488,42.1055],[140.2918,42.2596],[140.2886,42.3502],[140.3809,42.5051],[140.5256,42.5806],[140.7337,42.5642],[141.0168,42.3161],[141.0916,42.3918],[141.4277,42.5644],[141.7261,42.6172],[141.926,42.5586],[142.0626,42.4707],[142.1678,42.4599],[142.46,42.2713],[142.7577,42.1584],[142.9597,42.1054],[143.2529,41.9419],[143.3379,42.1502],[143.349,42.3192],[143.6388,42.6611],[143.8864,42.8442],[144.042,42.9266],[144.323,43.0026],[144.4959,42.9333],[144.742,42.9242],[144.7576,43.0188],[145.0002,42.9862],[145.1255,43.1201],[145.3025,43.1735],[145.5171,43.175],[145.6292,43.3098],[145.7674,43.3873]]]}},{"type":"Feature","properties":{"sourceId":"1159314883","regionId":"region.ce90f4af-382c-4273-acfb-6331b3cfcf43","countryId":"country.1xyn8u3"},"geometry":{"type":"MultiPolygon","coordinates":[[[[123.8147,24.3917],[123.6834,24.2853],[123.8731,24.2582],[123.936,24.3415],[123.8147,24.3917]]],[[[124.3291,24.5836],[124.1431,24.3849],[124.2419,24.3637],[124.3291,24.5836]]],[[[125.3872,24.7822],[125.2748,24.8564],[125.2588,24.7334],[125.3872,24.7822]]],[[[128.3377,26.7969],[128.2259,26.801],[128.0149,26.6348],[127.9375,26.5321],[127.7313,26.4399],[127.7419,26.3205],[127.6359,26.1914],[127.6517,26.0844],[127.7969,26.1397],[127.7775,26.2333],[127.9403,26.4477],[128.1722,26.6235],[128.2433,26.6333],[128.3377,26.7969]]],[[[129.7075,28.4621],[129.6878,28.509],[129.2277,28.3046],[129.2424,28.2143],[129.3711,28.1672],[129.4202,28.2499],[129.554,28.3284],[129.7075,28.4621]]]]}},{"type":"Feature","properties":{"sourceId":"1159315271","regionId":"region.7dc3e537-8551-4117-a3ab-a674f0b57aec","countryId":"country.1xyn8u3"},"geometry":{"type":"Polygon","coordinates":[[[139.2146,36.9457],[139.1045,37.0356],[138.974,36.972],[138.9587,36.8944],[138.8081,36.7678],[138.6795,36.7307],[138.4992,36.6821],[138.4047,36.5704],[138.3768,36.4678],[138.4384,36.4003],[138.5838,36.4169],[138.6145,36.031],[138.7009,35.9695],[138.7507,36.0272],[139.0182,36.1289],[139.1119,36.2709],[139.674,36.1522],[139.6537,36.2031],[139.5887,36.2601],[139.4405,36.2685],[139.3384,36.3686],[139.4459,36.5859],[139.312,36.6322],[139.3596,36.902],[139.2146,36.9457]]]}},{"type":"Feature","properties":{"sourceId":"1159312183","regionId":"region.008761ca-0799-4997-87c5-063048d95963","countryId":"country.1xyn8u3"},"geometry":{"type":"Polygon","coordinates":[[[138.6795,36.7307],[138.6696,36.8226],[138.5552,37.0006],[138.3821,36.9862],[138.2154,36.8598],[138.012,36.8258],[137.8847,36.9221],[137.7327,36.7748],[137.7195,36.5898],[137.5654,36.377],[137.6245,36.315],[137.5394,36.1179],[137.5773,36.0312],[137.4628,35.8894],[137.3232,35.8016],[137.444,35.7334],[137.5852,35.4951],[137.6057,35.394],[137.5479,35.2704],[137.5751,35.1882],[137.8056,35.1945],[138.0855,35.337],[138.1432,35.561],[138.1961,35.6279],[138.1685,35.6988],[138.2165,35.8504],[138.3603,35.9578],[138.4663,35.8882],[138.7157,35.8965],[138.7009,35.9695],[138.6145,36.031],[138.5838,36.4169],[138.4384,36.4003],[138.3768,36.4678],[138.4047,36.5704],[138.4992,36.6821],[138.6795,36.7307]]]}},{"type":"Feature","properties":{"sourceId":"1159312195","regionId":"region.7b9c9c9a-3eac-44a1-9408-7f712219a720","countryId":"country.1xyn8u3"},"geometry":{"type":"Polygon","coordinates":[[[139.3596,36.902],[139.312,36.6322],[139.4459,36.5859],[139.3384,36.3686],[139.4405,36.2685],[139.5887,36.2601],[139.6537,36.2031],[139.7918,36.2416],[139.9535,36.3621],[140.1811,36.4149],[140.2376,36.5413],[140.2668,36.7186],[140.2373,36.9248],[140.2313,37],[140.0981,37.1058],[139.8613,37.1304],[139.3596,36.902]]]}},{"type":"Feature","properties":{"sourceId":"1159312179","regionId":"region.622884dd-f224-40fd-b6b5-daeee61ca253","countryId":"country.1xyn8u3"},"geometry":{"type":"Polygon","coordinates":[[[137.5654,36.377],[137.2848,36.4508],[137.1326,36.4252],[136.958,36.2733],[136.8505,36.3428],[136.7732,36.292],[136.8119,36.2201],[136.7209,36.0748],[136.6986,35.9435],[136.779,35.887],[136.7686,35.791],[136.4554,35.7519],[136.337,35.7664],[136.2573,35.6456],[136.3594,35.5339],[136.4076,35.3934],[136.3988,35.2026],[136.5152,35.2319],[136.6734,35.1388],[136.6801,35.2364],[136.7706,35.3521],[136.9529,35.3841],[137.0708,35.2849],[137.1996,35.2412],[137.2932,35.2678],[137.422,35.216],[137.5479,35.2704],[137.6057,35.394],[137.5852,35.4951],[137.444,35.7334],[137.3232,35.8016],[137.4628,35.8894],[137.5773,36.0312],[137.5394,36.1179],[137.6245,36.315],[137.5654,36.377]]]}},{"type":"Feature","properties":{"sourceId":"1159309417","regionId":"region.78c66cd7-9ef3-4d77-a975-a8194f4f30d8","countryId":"country.1xyn8u3"},"geometry":{"type":"Polygon","coordinates":[[[136.2573,35.6456],[136.1673,35.675],[136.0886,35.5226],[135.7429,35.3376],[135.827,35.2633],[135.8147,35.0056],[135.8735,34.8681],[136.0031,34.7737],[136.1246,34.8723],[136.2405,34.8631],[136.3999,34.9495],[136.4432,35.1318],[136.3988,35.2026],[136.4076,35.3934],[136.3594,35.5339],[136.2573,35.6456]]]}},{"type":"Feature","properties":{"sourceId":"1159312193","regionId":"region.6c5916d5-ce3f-4551-b736-4fe77bc01398","countryId":"country.1xyn8u3"},"geometry":{"type":"Polygon","coordinates":[[[139.674,36.1522],[139.1119,36.2709],[139.0182,36.1289],[138.7507,36.0272],[138.7009,35.9695],[138.7157,35.8965],[138.9228,35.8354],[139.0136,35.8773],[139.3845,35.7549],[139.5356,35.7516],[139.7578,35.7953],[139.8639,35.7781],[139.8748,35.8504],[139.7528,36.0796],[139.674,36.1522]]]}},{"type":"Feature","properties":{"sourceId":"1159312197","regionId":"region.0e048b73-e9a6-402b-87cd-570fb4307969","countryId":"country.1xyn8u3"},"geometry":{"type":"Polygon","coordinates":[[[138.7157,35.8965],[138.4663,35.8882],[138.3603,35.9578],[138.2165,35.8504],[138.1685,35.6988],[138.1961,35.6279],[138.2413,35.5178],[138.2359,35.3037],[138.3282,35.2999],[138.3835,35.1903],[138.5105,35.2075],[138.534,35.4097],[138.6972,35.3508],[138.9003,35.3809],[139.0805,35.5049],[139.1218,35.654],[139.0358,35.6963],[138.9228,35.8354],[138.7157,35.8965]]]}},{"type":"Feature","properties":{"sourceId":"1159309415","regionId":"region.ec87a3ae-f078-4180-91a9-8b7ef563e11d","countryId":"country.1xyn8u3"},"geometry":{"type":"Polygon","coordinates":[[[136.0365,34.7153],[135.8323,34.6991],[135.7063,34.7595],[135.622,34.5534],[135.6468,34.3718],[135.7091,34.2254],[135.5511,34.0825],[135.5983,33.8901],[135.8477,33.8381],[136.0038,33.9931],[136.0872,34.0094],[136.1187,34.2411],[136.0692,34.377],[136.2025,34.5015],[136.0525,34.5746],[136.0365,34.7153]]]}}]}