{"type":"FeatureCollection","features":[{"type":"Feature","properties":{"sourceId":"1159313647","regionId":"region.2a781ef5-e7df-4d68-bb61-16fedf58612c","countryId":"country.yhajqy"},"geometry":{"type":"Polygon","coordinates":[[[-69.5101,-17.5066],[-69.6839,-17.656],[-69.8181,-17.6591],[-69.8576,-17.7342],[-69.7831,-17.9816],[-69.8653,-18.1446],[-69.9703,-18.2506],[-70.1342,-18.3189],[-70.3947,-18.3377],[-70.3036,-18.4454],[-70.3566,-18.7734],[-70.2703,-19.1715],[-70.0132,-19.0456],[-69.7883,-18.9882],[-69.6604,-18.9882],[-69.193,-19.1029],[-69.0783,-19.0499],[-68.9896,-18.9465],[-68.9546,-18.857],[-69.0428,-18.6005],[-69.0344,-18.4783],[-69.1004,-18.2343],[-69.1554,-18.1402],[-69.0823,-18.0391],[-69.3024,-17.9762],[-69.3342,-17.8058],[-69.4758,-17.6524],[-69.5101,-17.5066]]]}},{"type":"Feature","properties":{"sourceId":"1159313645","regionId":"region.74f5ed6b-e578-413e-b647-4a700d961b2d","countryId":"country.yhajqy"},"geometry":{"type":"Polygon","coordinates":[[[-68.9896,-18.9465],[-69.0783,-19.0499],[-69.193,-19.1029],[-69.6604,-18.9882],[-69.7883,-18.9882],[-70.0132,-19.0456],[-70.2703,-19.1715],[-70.2877,-19.301],[-70.2263,-19.4108],[-70.2144,-19.5964],[-70.1512,-19.7194],[-70.1233,-20.0722],[-70.1921,-20.3668],[-70.2056,-20.7394],[-70.1275,-20.9353],[-70.1644,-21.0405],[-70.0801,-21.2333],[-70.0614,-21.4483],[-69.9133,-21.4513],[-69.8134,-21.3895],[-69.6127,-21.3932],[-69.5059,-21.4446],[-69.3449,-21.4171],[-68.7943,-21.2409],[-68.6535,-21.1006],[-68.5697,-21.0732],[-68.5316,-20.9277],[-68.5728,-20.7429],[-68.4816,-20.643],[-68.6855,-20.5168],[-68.769,-20.3905],[-68.6785,-20.3286],[-68.7755,-20.0897],[-68.5883,-20.0556],[-68.5535,-19.8579],[-68.6984,-19.7463],[-68.5767,-19.5646],[-68.4932,-19.377],[-68.6633,-19.2736],[-68.8154,-19.1133],[-68.9197,-19.0538],[-68.9896,-18.9465]]]}},{"type":"Feature","properties":{"sourceId":"1159313649","regionId":"region.8ca6d672-c063-481c-9b9d-029f1beae70f","countryId":"country.yhajqy"},"geometry":{"type":"Polygon","coordinates":[[[-68.5316,-20.9277],[-68.5697,-21.0732],[-68.6535,-21.1006],[-68.7943,-21.2409],[-69.3449,-21.4171],[-69.5059,-21.4446],[-69.6127,-21.3932],[-69.8134,-21.3895],[-69.9133,-21.4513],[-70.0614,-21.4483],[-70.152,-21.6648],[-70.1501,-21.862],[-70.2001,-22.0055],[-70.2811,-22.6952],[-70.297,-22.9177],[-70.3729,-23.0509],[-70.4508,-23.0971],[-70.5622,-23.0598],[-70.6001,-23.2442],[-70.5851,-23.4236],[-70.4131,-23.5113],[-70.4053,-23.6508],[-70.4985,-23.7846],[-70.5264,-23.9963],[-70.5003,-24.0974],[-70.5828,-24.5248],[-70.5764,-24.7317],[-70.521,-24.919],[-70.4727,-24.9753],[-70.4972,-25.1043],[-70.437,-25.1935],[-70.4448,-25.3449],[-70.5309,-25.4568],[-70.6514,-25.5408],[-70.7104,-25.8354],[-70.6346,-26.0286],[-70.5514,-25.9217],[-70.3987,-25.8231],[-70.2714,-25.8262],[-70.1473,-25.7371],[-69.8832,-25.7467],[-69.7114,-25.6608],[-69.5683,-25.648],[-69.441,-25.6799],[-69.0795,-25.6495],[-68.9998,-25.4955],[-69.0002,-25.3827],[-68.7167,-25.3794],[-68.5542,-25.2912],[-68.4965,-25.16],[-68.3792,-25.1368],[-68.4793,-24.8996],[-68.5724,-24.7699],[-68.5037,-24.6123],[-68.3977,-24.5005],[-68.314,-24.4873],[-68.2445,-24.3854],[-67.3624,-24.0304],[-67.2513,-23.7331],[-67.014,-23.0007],[-67.1939,-22.8222],[-67.5471,-22.8925],[-67.7714,-22.8887],[-67.8763,-22.8336],[-67.8913,-22.7157],[-67.8587,-22.5668],[-67.9453,-22.3542],[-67.9348,-22.2517],[-67.9902,-22.0576],[-68.0962,-21.954],[-68.1076,-21.7896],[-68.1984,-21.5719],[-68.2075,-21.2843],[-68.4163,-20.9598],[-68.5316,-20.9277]]]}},{"type":"Feature","properties":{"sourceId":"1159313627","regionId":"region.64a14410-bd2b-4a41-b551-84648cfe1b68","countryId":"country.yhajqy"},"geometry":{"type":"Polygon","coordinates":[[[-68.5542,-25.2912],[-68.7167,-25.3794],[-69.0002,-25.3827],[-68.9998,-25.4955],[-69.0795,-25.6495],[-69.441,-25.6799],[-69.5683,-25.648],[-69.7114,-25.6608],[-69.8832,-25.7467],[-70.1473,-25.7371],[-70.2714,-25.8262],[-70.3987,-25.8231],[-70.5514,-25.9217],[-70.6346,-26.0286],[-70.6719,-26.1608],[-70.6424,-26.3153],[-70.7067,-26.4929],[-70.7325,-26.7493],[-70.8227,-26.887],[-70.7886,-26.9963],[-70.8708,-27.1179],[-70.96,-27.1614],[-70.9458,-27.3718],[-70.8917,-27.4931],[-70.9124,-27.6218],[-71.0387,-27.6664],[-71.1381,-27.946],[-71.1739,-28.3606],[-71.3126,-28.5834],[-71.3019,-28.6749],[-71.3913,-28.7995],[-71.4878,-28.8451],[-71.522,-28.9401],[-71.4875,-29.0356],[-71.4871,-29.2113],[-71.3924,-29.1845],[-71.2642,-29.2302],[-71.1993,-29.3355],[-71.0221,-29.3614],[-70.9747,-29.2066],[-70.7938,-29.1619],[-70.6728,-29.071],[-70.5738,-29.1171],[-70.4703,-29.4749],[-70.2743,-29.691],[-70.0892,-29.747],[-69.9294,-29.7179],[-70.0426,-29.3631],[-70.0311,-29.2772],[-69.9109,-29.1432],[-69.8039,-29.0987],[-69.8066,-28.9599],[-69.7358,-28.8124],[-69.7409,-28.6406],[-69.6748,-28.5631],[-69.654,-28.401],[-69.4203,-28.2126],[-69.3032,-27.9995],[-69.173,-27.9241],[-69.1341,-27.7723],[-69.0286,-27.5513],[-69.0101,-27.4489],[-68.9314,-27.3952],[-68.8797,-27.2215],[-68.8011,-27.1128],[-68.5859,-27.1628],[-68.518,-27.0769],[-68.3305,-27.045],[-68.3201,-26.8701],[-68.5702,-26.5506],[-68.5953,-26.4573],[-68.5752,-26.3035],[-68.4199,-26.1793],[-68.4171,-26.0936],[-68.4985,-25.7549],[-68.5594,-25.663],[-68.606,-25.437],[-68.5542,-25.2912]]]}},{"type":"Feature","properties":{"sourceId":"1159313629","regionId":"region.2c4f41a6-537f-44ac-aec2-25716f72e728","countryId":"country.yhajqy"},"geometry":{"type":"Polygon","coordinates":[[[-69.9294,-29.7179],[-70.0892,-29.747],[-70.2743,-29.691],[-70.4703,-29.4749],[-70.5738,-29.1171],[-70.6728,-29.071],[-70.7938,-29.1619],[-70.9747,-29.2066],[-71.0221,-29.3614],[-71.1993,-29.3355],[-71.2642,-29.2302],[-71.3924,-29.1845],[-71.4871,-29.2113],[-71.3761,-29.2824],[-71.3072,-29.4212],[-71.336,-29.525],[-71.3241,-29.7873],[-71.2866,-29.9103],[-71.4125,-29.9918],[-71.3826,-30.1477],[-71.5176,-30.2786],[-71.6392,-30.2522],[-71.6768,-30.3425],[-71.7134,-30.6149],[-71.7073,-30.7795],[-71.6549,-30.976],[-71.6678,-31.1505],[-71.5704,-31.5916],[-71.515,-31.7755],[-71.5077,-31.9775],[-71.5438,-32.193],[-71.4243,-32.0382],[-71.339,-32.0792],[-71.1385,-31.9891],[-71.0454,-32.0307],[-70.9599,-31.9739],[-70.7212,-32.0305],[-70.5105,-32.1425],[-70.4621,-32.2054],[-70.3308,-32.2096],[-70.3846,-32.062],[-70.2754,-32.0378],[-70.2417,-31.9615],[-70.3133,-31.8821],[-70.4283,-31.8701],[-70.484,-31.7976],[-70.5914,-31.5496],[-70.569,-31.3042],[-70.4798,-31.0967],[-70.3398,-31.0417],[-70.3195,-30.8008],[-70.2171,-30.5151],[-69.9028,-30.3127],[-69.8497,-30.1266],[-69.9756,-30.0586],[-69.9222,-29.9396],[-69.9294,-29.7179]]]}},{"type":"Feature","properties":{"sourceId":"1159313631","regionId":"region.51729b5f-3b36-4536-a26d-0921e263b7fc","countryId":"country.yhajqy"},"geometry":{"type":"Polygon","coordinates":[[[-70.1061,-33.0526],[-70.302,-33.1714],[-70.6162,-32.9736],[-70.7427,-32.958],[-70.9183,-32.9849],[-71.0656,-33.0579],[-71.4443,-33.3369],[-71.4512,-33.4333],[-71.3667,-33.5127],[-71.4007,-33.7971],[-71.5198,-33.8364],[-71.7179,-33.9712],[-71.1824,-34.1648],[-70.9876,-34.1733],[-70.815,-34.0274],[-70.8116,-33.9576],[-70.456,-33.8988],[-70.3299,-34.0442],[-70.2045,-34.0715],[-70.0482,-34.2835],[-69.8328,-34.2432],[-69.8732,-34.14],[-69.8558,-33.9847],[-69.9096,-33.9557],[-69.8954,-33.6623],[-69.7877,-33.3794],[-69.8139,-33.2895],[-69.9053,-33.2382],[-70.01,-33.2991],[-70.1008,-33.1869],[-70.1061,-33.0526]]]}},{"type":"Feature","properties":{"sourceId":"1159313633","regionId":"region.d2112cb4-35b7-40c1-b5b8-25d12f90a7a2","countryId":"country.yhajqy"},"geometry":{"type":"MultiPolygon","coordinates":[[[[-70.2561,-32.3143],[-70.3308,-32.2096],[-70.4621,-32.2054],[-70.5105,-32.1425],[-70.7212,-32.0305],[-70.9599,-31.9739],[-71.0454,-32.0307],[-71.1385,-31.9891],[-71.339,-32.0792],[-71.4243,-32.0382],[-71.5438,-32.193],[-71.4125,-32.3696],[-71.4767,-32.5353],[-71.4459,-32.6428],[-71.5682,-33.0019],[-71.6457,-33.019],[-71.7203,-33.1676],[-71.6408,-33.5006],[-71.6877,-33.7209],[-71.8081,-33.777],[-71.8713,-33.9328],[-71.7179,-33.9712],[-71.5198,-33.8364],[-71.4007,-33.7971],[-71.3667,-33.5127],[-71.4512,-33.4333],[-71.4443,-33.3369],[-71.0656,-33.0579],[-70.9183,-32.9849],[-70.7427,-32.958],[-70.6162,-32.9736],[-70.302,-33.1714],[-70.1061,-33.0526],[-70.0002,-32.8766],[-70.14,-32.7683],[-70.1804,-32.6302],[-70.1725,-32.4649],[-70.2561,-32.3143]]],[[[-109.2316,-27.0925],[-109.3663,-27.0618],[-109.4537,-27.1878],[-109.2436,-27.1292],[-109.2316,-27.0925]]]]}},{"type":"Feature","properties":{"sourceId":"1159313641","regionId":"region.3a215163-5a32-488a-81b6-117be80f03d1","countryId":"country.yhajqy"},"geometry":{"type":"Polygon","coordinates":[[[-70.3724,-35.0274],[-70.6805,-35.0005],[-70.8088,-34.9153],[-70.957,-34.9154],[-71.1886,-34.8199],[-71.3257,-34.8452],[-71.4443,-34.9301],[-71.6412,-34.9214],[-71.7368,-34.951],[-71.8181,-34.8753],[-71.9426,-34.8503],[-72.103,-34.7609],[-72.1878,-34.8855],[-72.2306,-35.1161],[-72.364,-35.2078],[-72.4813,-35.3632],[-72.5297,-35.4904],[-72.6466,-35.5666],[-72.598,-35.8102],[-72.7801,-35.9526],[-72.7991,-36.0531],[-72.6982,-36.0127],[-72.4961,-36.0599],[-72.383,-36.1874],[-72.1904,-36.1956],[-72.0506,-36.124],[-71.8627,-36.2257],[-71.4147,-36.4261],[-71.0692,-36.4191],[-71.0278,-36.4812],[-70.8904,-36.4004],[-70.7186,-36.4146],[-70.7031,-36.2601],[-70.5885,-36.1502],[-70.4307,-36.1294],[-70.3803,-36.046],[-70.4202,-35.8684],[-70.3573,-35.8152],[-70.4215,-35.6597],[-70.4082,-35.5062],[-70.5429,-35.2093],[-70.3866,-35.1667],[-70.3724,-35.0274]]]}},{"type":"Feature","properties":{"sourceId":"1159313639","regionId":"region.954c7f95-a5f5-4830-b681-28113a0b6567","countryId":"country.yhajqy"},"geometry":{"type":"Polygon","coordinates":[[[-70.0482,-34.2835],[-70.2045,-34.0715],[-70.3299,-34.0442],[-70.456,-33.8988],[-70.8116,-33.9576],[-70.815,-34.0274],[-70.9876,-34.1733],[-71.1824,-34.1648],[-71.7179,-33.9712],[-71.8713,-33.9328],[-72.0268,-34.1627],[-71.9952,-34.37],[-72.0481,-34.4039],[-72.0572,-34.6588],[-72.103,-34.7609],[-71.9426,-34.8503],[-71.8181,-34.8753],[-71.7368,-34.951],[-71.6412,-34.9214],[-71.4443,-34.9301],[-71.3257,-34.8452],[-71.1886,-34.8199],[-70.957,-34.9154],[-70.8088,-34.9153],[-70.6805,-35.0005],[-70.3724,-35.0274],[-70.2767,-34.7982],[-70.2278,-34.5853],[-70.0587,-34.3958],[-70.0482,-34.2835]]]}},{"type":"Feature","properties":{"sourceId":"1730006243","regionId":"region.88180f3c-3ebd-4a18-80f3-641ac59bf0e8","countryId":"country.yhajqy"},"geometry":{"type":"Polygon","coordinates":[[[-71.0278,-36.4812],[-71.0692,-36.4191],[-71.4147,-36.4261],[-71.8627,-36.2257],[-72.0506,-36.124],[-72.1904,-36.1956],[-72.383,-36.1874],[-72.4961,-36.0599],[-72.6982,-36.0127],[-72.7991,-36.0531],[-72.8323,-36.308],[-72.8959,-36.4381],[-72.8177,-36.4587],[-72.7982,-36.606],[-72.6204,-36.6982],[-72.539,-36.9278],[-72.3859,-36.9248],[-72.1919,-37.0332],[-72.2594,-37.098],[-72.204,-37.1983],[-71.8572,-37.1615],[-71.7296,-37.1177],[-71.5723,-37.1309],[-71.3971,-37.0389],[-71.2998,-37.0937],[-71.0891,-37.1034],[-71.1396,-37.0617],[-71.1952,-36.8391],[-71.1453,-36.6882],[-71.0553,-36.6713],[-71.0278,-36.4812]]]}},{"type":"Feature","properties":{"sourceId":"1159313623","regionId":"region.b2a8718b-4c72-4abe-a627-657de3ca6497","countryId":"country.yhajqy"},"geometry":{"type":"Polygon","coordinates":[[[-71.0161,-38.1437],[-71.2025,-38.0699],[-71.3897,-38.0892],[-71.4641,-38.1609],[-71.6933,-38.2172],[-71.7179,-38.0719],[-72.0892,-38.0165],[-72.2188,-37.9138],[-72.3478,-37.8682],[-72.4749,-37.7602],[-72.5056,-37.6795],[-72.8353,-37.6332],[-73.109,-37.7087],[-73.0592,-37.8113],[-73.1307,-37.8931],[-73.1654,-38.048],[-73.0914,-38.1378],[-73.2808,-38.3317],[-73.267,-38.4486],[-73.3885,-38.4285],[-73.5251,-38.4757],[-73.3613,-38.9138],[-73.2834,-39.0753],[-73.2211,-39.3417],[-73.2467,-39.3859],[-73.0353,-39.3643],[-72.9426,-39.4075],[-72.9662,-39.5892],[-72.7887,-39.5848],[-72.5453,-39.6232],[-72.3738,-39.733],[-72.0673,-39.7451],[-71.9369,-39.69],[-71.7985,-39.4663],[-71.6809,-39.496],[-71.6411,-39.6],[-71.4617,-39.4338],[-71.402,-39.236],[-71.4158,-38.9353],[-71.228,-38.8088],[-70.8738,-38.6914],[-70.8487,-38.5276],[-70.9738,-38.4247],[-71.0161,-38.1437]]]}},{"type":"Feature","properties":{"sourceId":"1159313637","regionId":"region.eef101be-abc1-494b-b19c-b2f14214d10c","countryId":"country.yhajqy"},"geometry":{"type":"Polygon","coordinates":[[[-71.0891,-37.1034],[-71.2998,-37.0937],[-71.3971,-37.0389],[-71.5723,-37.1309],[-71.7296,-37.1177],[-71.8572,-37.1615],[-72.204,-37.1983],[-72.2594,-37.098],[-72.1919,-37.0332],[-72.3859,-36.9248],[-72.539,-36.9278],[-72.6204,-36.6982],[-72.7982,-36.606],[-72.8177,-36.4587],[-72.8959,-36.4381],[-72.9881,-36.529],[-73.002,-36.7138],[-73.1597,-36.735],[-73.1733,-37.0763],[-73.2826,-37.214],[-73.4674,-37.2346],[-73.6076,-37.1554],[-73.6718,-37.3626],[-73.6041,-37.5124],[-73.6776,-37.5794],[-73.6681,-37.7194],[-73.5032,-37.9333],[-73.4628,-38.0917],[-73.5433,-38.4207],[-73.5251,-38.4757],[-73.3885,-38.4285],[-73.267,-38.4486],[-73.2808,-38.3317],[-73.0914,-38.1378],[-73.1654,-38.048],[-73.1307,-37.8931],[-73.0592,-37.8113],[-73.109,-37.7087],[-72.8353,-37.6332],[-72.5056,-37.6795],[-72.4749,-37.7602],[-72.3478,-37.8682],[-72.2188,-37.9138],[-72.0892,-38.0165],[-71.7179,-38.0719],[-71.6933,-38.2172],[-71.4641,-38.1609],[-71.3897,-38.0892],[-71.2025,-38.0699],[-71.0161,-38.1437],[-71.01,-38.0655],[-71.185,-37.7061],[-71.1331,-37.5906],[-71.1231,-37.4432],[-71.2056,-37.2927],[-71.0891,-37.1034]]]}},{"type":"Feature","properties":{"sourceId":"1159313635","regionId":"region.4edb320c-696b-49b4-a15e-8334b7b161e2","countryId":"country.yhajqy"},"geometry":{"type":"Polygon","coordinates":[[[-71.6411,-39.6],[-71.6809,-39.496],[-71.7985,-39.4663],[-71.9369,-39.69],[-72.0673,-39.7451],[-72.3738,-39.733],[-72.5453,-39.6232],[-72.7887,-39.5848],[-72.9662,-39.5892],[-72.9426,-39.4075],[-73.0353,-39.3643],[-73.2467,-39.3859],[-73.2416,-39.4895],[-73.4061,-39.6949],[-73.4019,-39.8041],[-73.5171,-39.8876],[-73.6832,-39.9425],[-73.66,-40.1096],[-73.7486,-40.273],[-73.4509,-40.296],[-73.1999,-40.353],[-72.9929,-40.353],[-72.8863,-40.5223],[-72.7206,-40.6183],[-72.5267,-40.6726],[-72.0114,-40.6513],[-71.8606,-40.5594],[-71.8042,-40.4264],[-71.6785,-40.3402],[-71.8238,-40.2101],[-71.8007,-40.0797],[-71.6837,-40.099],[-71.6248,-39.931],[-71.7144,-39.7263],[-71.6411,-39.6]]]}},{"type":"Feature","properties":{"sourceId":"1159313621","regionId":"region.9a5e3447-eeed-4474-8cfc-63ca324b274e","countryId":"country.yhajqy"},"geometry":{"type":"MultiPolygon","coordinates":[[[[-71.7693,-41.9996],[-71.794,-41.8675],[-71.926,-41.6229],[-71.8533,-41.5673],[-71.904,-41.3677],[-71.8528,-41.0572],[-71.8674,-41.0102],[-71.8514,-40.9383],[-71.9556,-40.7204],[-71.8606,-40.5594],[-72.0114,-40.6513],[-72.5267,-40.6726],[-72.7206,-40.6183],[-72.8863,-40.5223],[-72.9929,-40.353],[-73.1999,-40.353],[-73.4509,-40.296],[-73.7486,-40.273],[-73.7809,-40.4373],[-73.7285,-40.5442],[-73.8415,-40.6667],[-73.9469,-40.9728],[-73.9197,-41.1527],[-73.8412,-41.3328],[-73.7982,-41.5657],[-73.6941,-41.5924],[-73.66,-41.7575],[-73.515,-41.8036],[-73.2014,-41.7848],[-73.0592,-41.6974],[-73.1119,-41.5862],[-72.9573,-41.4836],[-72.7516,-41.5484],[-72.6451,-41.7228],[-72.8636,-41.9059],[-72.7373,-42.0139],[-72.488,-42.0647],[-72.4762,-42.3078],[-72.6199,-42.1847],[-72.8097,-42.2433],[-72.6798,-42.5042],[-72.8238,-42.5042],[-72.8649,-42.6209],[-72.8422,-42.8381],[-72.7471,-42.9098],[-72.7611,-43.009],[-72.9344,-43.0982],[-72.9122,-43.2354],[-73.0846,-43.3163],[-73.1113,-43.461],[-72.973,-43.6214],[-73.0423,-43.7296],[-72.9426,-43.6923],[-72.5153,-43.7727],[-72.3482,-43.733],[-72.1416,-43.9398],[-71.7964,-44],[-71.7453,-44.045],[-71.6599,-43.9263],[-71.8192,-43.7581],[-71.7037,-43.6716],[-71.7238,-43.5948],[-71.8738,-43.5389],[-71.9373,-43.4569],[-71.9017,-43.322],[-71.7507,-43.2953],[-71.743,-43.1901],[-72.0098,-43.1204],[-72.1485,-42.9987],[-72.1127,-42.8638],[-72.1484,-42.5926],[-72.0419,-42.491],[-72.1247,-42.2633],[-72.0399,-42.1447],[-71.948,-42.1673],[-71.7363,-42.0839],[-71.7693,-41.9996]]],[[[-73.4123,-42.5256],[-73.5432,-42.3792],[-73.6252,-42.4435],[-73.4123,-42.5256]]],[[[-74.3346,-43.2817],[-74.2934,-43.32],[-73.877,-43.422],[-73.6817,-43.3811],[-73.7214,-43.1417],[-73.4901,-43.1],[-73.6497,-42.8832],[-73.4943,-42.8668],[-73.5167,-42.7892],[-73.8092,-42.6087],[-73.7077,-42.5383],[-73.6815,-42.37],[-73.374,-42.2574],[-73.4891,-42.1456],[-73.4475,-42.0623],[-73.5333,-41.9661],[-73.537,-41.84],[-73.691,-41.809],[-73.866,-41.8923],[-73.9836,-41.8665],[-74.0553,-41.945],[-74.0533,-42.1303],[-74.1471,-42.2165],[-74.1896,-42.4319],[-74.1275,-42.6711],[-74.1674,-42.8825],[-74.2295,-43.0229],[-74.3384,-43.1],[-74.401,-43.2604],[-74.3346,-43.2817]]]]}},{"type":"Feature","properties":{"sourceId":"1159313253","regionId":"region.569649f5-7e6e-405b-85ff-e2d309a14195","countryId":"country.yhajqy"},"geometry":{"type":"MultiPolygon","coordinates":[[[[-71.7453,-44.045],[-71.7964,-44],[-72.1416,-43.9398],[-72.3482,-43.733],[-72.5153,-43.7727],[-72.9426,-43.6923],[-73.0423,-43.7296],[-72.9794,-43.7612],[-73.1391,-43.9851],[-73.1328,-44.0486],[-73.2777,-44.11],[-72.9266,-44.3206],[-72.9337,-44.3647],[-72.6868,-44.4885],[-72.7277,-44.7586],[-72.81,-44.7678],[-73.1171,-44.9483],[-73.3483,-44.9578],[-73.4061,-45.0261],[-73.3044,-45.1448],[-73.4371,-45.1906],[-73.4607,-45.2663],[-73.3277,-45.3409],[-73.5173,-45.4604],[-73.5752,-45.7232],[-73.5548,-45.8776],[-73.6606,-45.9757],[-73.619,-46.1023],[-73.6481,-46.1948],[-73.5802,-46.3102],[-73.7423,-46.421],[-73.8316,-46.5779],[-73.9892,-46.5597],[-73.7942,-46.3616],[-73.7698,-46.2346],[-73.8818,-46.1418],[-74.1894,-45.7936],[-74.6909,-45.8416],[-74.7134,-45.9845],[-74.9581,-46.2153],[-75.0907,-46.2161],[-75.3905,-46.4273],[-75.5171,-46.5543],[-75.7047,-46.6393],[-75.707,-46.7866],[-75.5517,-46.9483],[-75.3526,-46.9006],[-75.4372,-46.6498],[-75.0834,-46.6409],[-75.0162,-46.7193],[-74.681,-46.8839],[-74.6509,-46.7883],[-74.2668,-46.7817],[-74.1186,-46.9881],[-74.0201,-46.9783],[-73.9576,-47.0603],[-74.1391,-47.2223],[-74.3247,-47.2189],[-74.4072,-47.3425],[-74.5289,-47.4223],[-74.4199,-47.5634],[-74.6121,-47.5685],[-74.7362,-47.7045],[-74.6284,-47.7678],[-74.0737,-47.773],[-73.9237,-47.8427],[-73.7097,-47.7761],[-73.5782,-47.7997],[-73.6553,-47.9323],[-73.5917,-48.1407],[-73.8911,-48.0222],[-74.4154,-47.9837],[-74.6254,-48.0042],[-74.4425,-48.1824],[-74.3179,-48.2121],[-74.2616,-48.3351],[-73.9955,-48.4142],[-74.0528,-48.5499],[-74.1971,-48.4733],[-74.3922,-48.5991],[-74.3062,-48.7277],[-74.1693,-48.7033],[-74.0667,-48.742],[-73.1704,-49.2509],[-73.1713,-49.1893],[-73.0097,-48.9904],[-72.7429,-48.9138],[-72.5923,-48.7911],[-72.5768,-48.4521],[-72.4331,-48.4004],[-72.3256,-48.2855],[-72.343,-48.0704],[-72.5439,-47.9148],[-72.3444,-47.6023],[-72.3287,-47.4265],[-72.1706,-47.4075],[-72.0579,-47.3119],[-72.0098,-47.1982],[-71.8626,-47.1689],[-72,-47.0422],[-71.9341,-46.7995],[-71.6872,-46.6901],[-71.6849,-46.5192],[-71.7519,-46.393],[-71.7633,-46.2445],[-71.9147,-46.1523],[-71.7702,-46.1126],[-71.6492,-45.9994],[-71.6659,-45.884],[-71.7985,-45.7399],[-71.7651,-45.5724],[-71.5258,-45.519],[-71.5083,-45.4084],[-71.3115,-45.2995],[-71.4971,-45.1117],[-71.5887,-44.9781],[-71.7599,-44.9318],[-71.8894,-44.9472],[-72.0809,-44.8866],[-72.0478,-44.7548],[-71.8545,-44.791],[-71.4971,-44.7429],[-71.336,-44.8016],[-71.1227,-44.5303],[-71.2098,-44.4276],[-71.4378,-44.4015],[-71.822,-44.4032],[-71.8063,-44.2225],[-71.8587,-44.1078],[-71.7453,-44.045]]],[[[-75.3284,-48.5522],[-75.3662,-48.4529],[-75.6064,-48.4392],[-75.6754,-48.5832],[-75.6261,-48.632],[-75.3399,-48.6148],[-75.3284,-48.5522]]],[[[-74.4954,-48.3499],[-74.2717,-48.4627],[-74.2322,-48.4216],[-74.3454,-48.2833],[-74.4954,-48.3499]]],[[[-74.4991,-48.5832],[-74.5994,-48.5637],[-74.5869,-48.4034],[-74.6673,-48.2643],[-74.7987,-48.2664],[-74.82,-48.4035],[-74.9456,-48.4176],[-75.0331,-48.5045],[-74.9471,-48.6196],[-74.7506,-48.6295],[-74.621,-48.6918],[-74.4991,-48.5832]]],[[[-74.5438,-48.322],[-74.4039,-48.29],[-74.4096,-48.2131],[-74.5582,-48.1223],[-74.6037,-48.2354],[-74.5438,-48.322]]],[[[-75.1608,-48.2984],[-75.0311,-48.4438],[-74.8374,-48.3448],[-74.8278,-48.1455],[-75.0175,-48.083],[-75.2563,-48.0686],[-75.1608,-48.2984]]],[[[-75.1499,-48.6584],[-75.0714,-48.5963],[-75.0987,-48.4659],[-75.2039,-48.3355],[-75.2689,-48.1659],[-75.3781,-48.0082],[-75.5853,-48.0857],[-75.5205,-48.2332],[-75.555,-48.3786],[-75.2706,-48.4181],[-75.3041,-48.5777],[-75.1499,-48.6584]]],[[[-75.2706,-48.0278],[-75.1024,-47.9902],[-74.7274,-48.1059],[-74.8728,-47.8155],[-74.9429,-47.8837],[-75.0879,-47.8673],[-75.207,-47.9169],[-75.2706,-48.0278]]],[[[-74.4137,-47.9382],[-74.3185,-47.9812],[-73.9314,-47.8801],[-74.2452,-47.8064],[-74.3964,-47.8395],[-74.4137,-47.9382]]],[[[-75.1824,-47.8315],[-75.0237,-47.8033],[-75.0916,-47.6805],[-75.334,-47.759],[-75.1824,-47.8315]]],[[[-74.0746,-47.0203],[-74.2307,-47.1021],[-74.1459,-47.1712],[-73.9752,-47.0476],[-74.0746,-47.0203]]],[[[-73.7251,-46.0505],[-73.8374,-46.013],[-73.9405,-46.0681],[-73.7454,-46.1872],[-73.7251,-46.0505]]],[[[-74.7529,-45.8075],[-74.8894,-45.8819],[-75.1129,-45.8857],[-75.0743,-46.0938],[-74.9197,-46.1042],[-74.7663,-45.9889],[-74.7529,-45.8075]]],[[[-73.7419,-45.7939],[-73.9405,-45.9099],[-73.8566,-45.9675],[-73.7419,-45.7939]]],[[[-74.5544,-45.5748],[-74.6605,-45.6015],[-74.7005,-45.7276],[-74.5839,-45.7353],[-74.5544,-45.5748]]],[[[-74.0714,-45.6909],[-73.9206,-45.6977],[-73.9102,-45.591],[-74.0306,-45.5331],[-74.1124,-45.5878],[-74.0714,-45.6909]]],[[[-74.5028,-45.7324],[-74.3416,-45.7331],[-74.208,-45.6355],[-74.2935,-45.4791],[-74.4213,-45.4543],[-74.5028,-45.7324]]],[[[-73.6662,-45.4369],[-73.7709,-45.512],[-73.8183,-45.6425],[-73.6804,-45.7529],[-73.586,-45.4802],[-73.6662,-45.4369]]],[[[-73.7319,-45.2148],[-73.7146,-45.1142],[-73.9147,-44.9953],[-74.2069,-45.0427],[-74.0074,-45.2321],[-73.7319,-45.2148]]],[[[-74.2701,-44.9441],[-74.0658,-44.9988],[-73.9696,-44.904],[-74.1883,-44.8691],[-74.2701,-44.9441]]],[[[-73.9268,-44.6288],[-74.0256,-44.6031],[-74.4005,-44.6261],[-74.407,-44.6943],[-74.2797,-44.8038],[-74.0118,-44.7165],[-73.9268,-44.6288]]],[[[-73.66,-44.6765],[-73.6995,-44.5368],[-73.7965,-44.5532],[-73.8379,-44.6643],[-73.66,-44.6765]]],[[[-74.393,-44.547],[-74.2231,-44.4674],[-74.3064,-44.3937],[-74.5477,-44.4767],[-74.393,-44.547]]],[[[-73.3825,-44.5878],[-73.4681,-44.6425],[-73.4076,-44.8224],[-73.257,-44.94],[-73.1475,-44.9119],[-72.8376,-44.7101],[-72.7212,-44.528],[-72.9058,-44.4527],[-73.002,-44.3613],[-73.2612,-44.4772],[-73.3825,-44.5878]]],[[[-74.1439,-43.8276],[-73.9957,-43.9367],[-73.7623,-43.8889],[-73.8654,-43.7893],[-74.1439,-43.8276]]],[[[-74.8182,-43.635],[-74.7754,-43.6746],[-74.5784,-43.6357],[-74.6482,-43.554],[-74.825,-43.5624],[-74.8182,-43.635]]]]}},{"type":"Feature","properties":{"sourceId":"1159313251","regionId":"region.fafd78b7-3d44-42eb-8956-e31aab79025d","countryId":"country.yhajqy"},"geometry":{"type":"MultiPolygon","coordinates":[[[[-73.1704,-49.2509],[-74.0667,-48.742],[-74.2006,-48.7192],[-74.3069,-48.7499],[-74.3719,-48.7192],[-74.4535,-48.831],[-74.4005,-48.9748],[-74.3935,-49.3175],[-74.4241,-49.3712],[-74.2149,-49.5231],[-74.3223,-49.6325],[-74.2663,-49.9325],[-74.3649,-49.9903],[-74.2507,-50.081],[-74.5737,-50.0993],[-74.683,-50.2094],[-74.493,-50.2615],[-74.4755,-50.3442],[-74.1289,-50.4229],[-74.2974,-50.4806],[-74.1261,-50.7625],[-73.947,-50.8298],[-74.2564,-50.9394],[-74.1481,-51.0522],[-74.1295,-51.1877],[-73.7843,-51.2236],[-73.7196,-51.3565],[-73.9343,-51.3993],[-73.9042,-51.6117],[-73.6804,-51.7692],[-73.54,-52.0553],[-73.3162,-52.1661],[-73.1767,-52.0812],[-73.1453,-51.94],[-72.9194,-51.8586],[-72.4669,-51.7897],[-72.4533,-51.9133],[-72.529,-51.9548],[-72.8028,-51.9374],[-72.8945,-52.0571],[-73.0869,-52.0825],[-73.3339,-52.2187],[-73.4317,-52.153],[-73.5806,-52.2084],[-73.563,-52.3228],[-73.6662,-52.424],[-73.5309,-52.457],[-73.6879,-52.5978],[-73.6281,-52.7452],[-73.4497,-52.6352],[-73.2689,-52.6736],[-73.2887,-52.9021],[-73.3924,-52.982],[-73.3273,-53.0715],[-73.1163,-53.0969],[-72.9536,-53.0236],[-73.0053,-52.8333],[-72.7908,-52.7527],[-72.6802,-52.6625],[-72.7987,-52.6154],[-72.6561,-52.5217],[-72.4136,-52.6489],[-72.3278,-52.5252],[-72.0872,-52.5209],[-71.7599,-52.5684],[-71.5716,-52.5613],[-71.4781,-52.6461],[-71.8505,-52.6947],[-72.1609,-52.6521],[-72.3131,-52.7512],[-72.5622,-52.8337],[-72.6116,-52.7419],[-72.9604,-52.825],[-72.891,-53.0568],[-72.9809,-53.1603],[-73.1991,-53.2408],[-72.5225,-53.5444],[-72.3646,-53.5369],[-72.4835,-53.4091],[-72.4669,-53.2831],[-72.3276,-53.2213],[-72.286,-53.0299],[-72.0856,-53.1344],[-71.9062,-53.0109],[-71.5308,-52.8667],[-71.2492,-52.7888],[-71.1693,-52.8128],[-71.2541,-53.0168],[-71.4671,-53.1329],[-71.835,-53.252],[-71.9809,-53.2223],[-72.0972,-53.2678],[-72.2823,-53.2428],[-72.4533,-53.4073],[-72.2841,-53.5812],[-72.0535,-53.707],[-71.8651,-53.7332],[-71.6446,-53.8237],[-71.2287,-53.8747],[-70.9736,-53.756],[-70.9394,-53.5922],[-70.9927,-53.383],[-70.9576,-53.2228],[-70.8169,-52.9924],[-70.8121,-52.8214],[-70.583,-52.672],[-70.5177,-52.7233],[-70.3218,-52.6381],[-69.8466,-52.4865],[-69.6724,-52.5309],[-69.4969,-52.3853],[-69.4825,-52.2905],[-69.2347,-52.2031],[-69.1301,-52.2081],[-68.8985,-52.3035],[-68.4486,-52.3466],[-68.4545,-52.2999],[-68.8205,-52.2432],[-69.2123,-52.138],[-69.4853,-52.1325],[-69.9528,-52.0074],[-71.9177,-51.9901],[-71.9585,-51.868],[-72.0726,-51.7786],[-72.2811,-51.7015],[-72.3515,-51.5835],[-72.3134,-51.298],[-72.2576,-51.2306],[-72.3822,-51.1606],[-72.2934,-51.0292],[-72.2635,-50.8363],[-72.3381,-50.7606],[-72.3028,-50.6489],[-72.506,-50.6013],[-72.6181,-50.6668],[-72.7784,-50.6196],[-73.0961,-50.7706],[-73.1777,-50.7495],[-73.2619,-50.5566],[-73.2742,-50.3645],[-73.3229,-50.2684],[-73.5306,-50.1408],[-73.4808,-50.0227],[-73.5727,-49.9324],[-73.4651,-49.76],[-73.5866,-49.53],[-73.4579,-49.3077],[-73.145,-49.3037],[-73.0982,-49.2728],[-73.1704,-49.2509]]],[[[-68.642,-54.7992],[-68.6419,-54.783],[-68.6347,-53.7109],[-68.6276,-52.6396],[-68.746,-52.5569],[-68.9207,-52.6402],[-69.1402,-52.6838],[-69.3742,-52.4703],[-69.5839,-52.5099],[-69.591,-52.6419],[-69.7344,-52.7745],[-70.0011,-52.8417],[-70.1286,-52.7323],[-70.2747,-52.7356],[-70.2572,-52.8683],[-70.0892,-52.9111],[-70.2435,-53.0617],[-70.419,-53.0117],[-70.4735,-53.3093],[-70.2567,-53.461],[-69.6755,-53.3584],[-69.3527,-53.3557],[-69.3608,-53.5217],[-69.6514,-53.6362],[-69.8793,-53.6579],[-70.137,-53.7387],[-70.1853,-53.8113],[-70.0568,-54.087],[-69.8837,-54.1613],[-69.2796,-54.3215],[-69.1749,-54.476],[-69.5005,-54.3422],[-70.073,-54.2488],[-70.3225,-54.3253],[-70.9327,-54.1135],[-70.8686,-54.2462],[-70.5777,-54.2748],[-70.4276,-54.4377],[-70.8603,-54.3178],[-71.0109,-54.4487],[-71.514,-54.4338],[-71.725,-54.4054],[-71.94,-54.5108],[-71.9619,-54.6471],[-71.7545,-54.5927],[-71.4774,-54.6764],[-71.4003,-54.5561],[-71.2654,-54.5686],[-71.2897,-54.6764],[-70.6105,-54.7807],[-70.2397,-54.8578],[-69.7949,-54.7877],[-69.067,-54.9488],[-68.6541,-54.8862],[-68.642,-54.7992]]],[[[-67.9993,-55.6275],[-68.2396,-55.3985],[-68.2392,-55.2922],[-68.5306,-55.1098],[-68.3348,-55.0624],[-68.4412,-54.9397],[-68.8344,-54.9815],[-69.3197,-54.9933],[-69.4265,-55.0313],[-69.886,-55.0636],[-70.0315,-55.1533],[-69.8524,-55.2155],[-69.6077,-55.3655],[-69.4515,-55.4089],[-69.4371,-55.4913],[-69.2062,-55.4378],[-69.3928,-55.2874],[-69.2721,-55.2135],[-68.8558,-55.2575],[-68.9674,-55.4299],[-68.8653,-55.5053],[-68.6025,-55.4623],[-68.2525,-55.5245],[-68.2675,-55.6179],[-68.1438,-55.6729],[-67.9993,-55.6275]]],[[[-67.8832,-55.2438],[-67.6474,-55.2615],[-67.6088,-55.1887],[-67.4232,-55.2165],[-67.2706,-55.3069],[-67.0885,-55.1905],[-67.0619,-55.072],[-67.3018,-54.9289],[-67.9418,-54.9054],[-68.1863,-54.9782],[-68.1569,-55.1961],[-67.8832,-55.2438]]],[[[-70.2952,-55.0825],[-70.5097,-54.9882],[-70.9872,-54.9484],[-70.9911,-55.0336],[-70.7158,-55.1228],[-70.2952,-55.0825]]],[[[-69.9042,-54.9968],[-69.7764,-55.0346],[-69.2084,-54.9701],[-69.2349,-54.9319],[-69.6715,-54.8665],[-69.9283,-54.8976],[-69.9042,-54.9968]]],[[[-71.6309,-54.0788],[-71.6998,-54.1662],[-71.4999,-54.211],[-71.1139,-54.3798],[-70.9901,-54.2658],[-71.0125,-54.1008],[-71.2145,-54.1501],[-71.3015,-53.9915],[-71.4633,-53.9416],[-71.6571,-53.9832],[-71.6309,-54.0788]]],[[[-72.0151,-54.2023],[-71.7134,-54.1477],[-71.7273,-53.8986],[-71.9457,-53.8528],[-72.0325,-53.9242],[-72.2582,-53.9451],[-72.228,-54.0584],[-72.0151,-54.2023]]],[[[-70.455,-53.6116],[-70.7129,-53.7014],[-70.6993,-53.7872],[-70.8815,-53.8423],[-70.8842,-54.027],[-70.8227,-54.1135],[-70.5404,-54.2216],[-70.6105,-53.9484],[-70.4393,-54.0604],[-70.3363,-54.0074],[-70.4522,-53.8869],[-70.455,-53.6116]]],[[[-73.3924,-53.414],[-73.5567,-53.4046],[-73.5934,-53.49],[-73.3924,-53.5307],[-73.3924,-53.414]]],[[[-72.5297,-54.0754],[-72.3852,-53.9811],[-72.3285,-53.8396],[-72.187,-53.7765],[-72.3973,-53.6335],[-72.6559,-53.5368],[-72.8725,-53.5348],[-73.0326,-53.3903],[-73.1317,-53.4892],[-73.5847,-53.5828],[-73.6161,-53.6516],[-73.3625,-53.7133],[-73.2041,-53.9894],[-73.0665,-53.8313],[-72.7431,-53.8936],[-72.9337,-54.0584],[-72.817,-54.1266],[-72.6588,-54.0514],[-72.5297,-54.0754]]],[[[-73.2074,-53.3178],[-73.4351,-53.1402],[-73.8759,-53.0032],[-74.4072,-52.9138],[-74.425,-52.9738],[-74.2626,-53.0912],[-74.0863,-53.1049],[-73.8804,-53.0577],[-73.6059,-53.2111],[-73.5596,-53.3237],[-73.4203,-53.2831],[-73.2074,-53.3178]]],[[[-73.8374,-52.7009],[-73.6779,-52.4733],[-73.8949,-52.4081],[-74.1278,-52.6659],[-73.9098,-52.6564],[-73.8374,-52.7009]]],[[[-74.6726,-52.3905],[-74.5361,-52.2719],[-74.5893,-52.2129],[-74.8152,-52.2366],[-74.8154,-52.3504],[-74.6726,-52.3905]]],[[[-73.7698,-52.3793],[-73.8153,-52.2411],[-74.0026,-52.2558],[-73.7698,-52.3793]]],[[[-74.1225,-52.3977],[-73.951,-52.3071],[-74.1191,-52.1818],[-74.2145,-52.1694],[-74.1873,-52.3674],[-74.1225,-52.3977]]],[[[-73.7077,-52.1869],[-73.784,-52.0597],[-74.0533,-51.9085],[-74.0902,-52.01],[-73.7077,-52.1869]]],[[[-74.7499,-52.0431],[-74.6409,-51.8982],[-74.7799,-51.8717],[-74.7499,-52.0431]]],[[[-74.4346,-51.8449],[-74.2422,-51.9406],[-74.0963,-51.8774],[-74.3179,-51.7624],[-74.4346,-51.8449]]],[[[-73.9439,-51.7413],[-74.0714,-51.6047],[-74.2322,-51.7072],[-74.0496,-51.7934],[-73.9439,-51.7413]]],[[[-75.0236,-51.331],[-75.2198,-51.3054],[-75.2253,-51.4907],[-75.0236,-51.331]]],[[[-74.739,-51.3686],[-74.5942,-51.3995],[-74.549,-51.2844],[-74.6019,-51.206],[-74.7931,-51.2112],[-74.9628,-51.3294],[-74.739,-51.3686]]],[[[-74.3856,-50.9811],[-74.3949,-50.8698],[-74.5506,-50.7516],[-74.6255,-50.9249],[-74.8787,-50.8863],[-74.8932,-51.0492],[-74.6344,-51.0401],[-74.3856,-50.9811]]],[[[-75.126,-50.4943],[-75.4276,-50.5148],[-75.4823,-50.6751],[-75.2904,-50.6458],[-75.126,-50.4943]]],[[[-74.3104,-50.8342],[-74.1861,-50.8331],[-74.2711,-50.6243],[-74.3831,-50.456],[-74.5812,-50.6336],[-74.5171,-50.7316],[-74.3104,-50.8342]]],[[[-75.0406,-50.2895],[-74.9424,-50.2201],[-74.9521,-50.1088],[-75.1334,-50.0834],[-75.198,-50.2563],[-75.3975,-50.1716],[-75.4609,-50.35],[-75.2701,-50.3276],[-75.1808,-50.3808],[-75.0406,-50.2895]]],[[[-75.4481,-49.775],[-75.3397,-49.8596],[-75.2113,-49.7927],[-75.3553,-49.6102],[-75.5087,-49.5638],[-75.6135,-49.6364],[-75.6174,-49.8642],[-75.4481,-49.775]]],[[[-74.9032,-49.0768],[-75.0954,-49.0299],[-75.2296,-49.117],[-75.0898,-49.1584],[-74.9205,-49.2726],[-74.9032,-49.0768]]],[[[-75.558,-49.2473],[-75.3893,-49.1791],[-75.4412,-49.0852],[-75.6073,-49.1511],[-75.558,-49.2473]]],[[[-75.2154,-49.0146],[-75.306,-48.8649],[-75.6147,-48.8587],[-75.6474,-48.9669],[-75.3151,-48.9655],[-75.2154,-49.0146]]],[[[-75.1983,-49.7712],[-75.1339,-49.8583],[-74.9615,-49.7853],[-74.8677,-50.0162],[-74.6606,-50.0506],[-74.4855,-49.9531],[-74.4205,-49.6896],[-74.5364,-49.508],[-74.4481,-49.3224],[-74.4755,-48.9464],[-74.5301,-48.8669],[-74.5255,-48.7228],[-74.7563,-48.6782],[-74.985,-48.759],[-75.0515,-48.857],[-74.9547,-49.0071],[-74.8045,-49.1039],[-74.9302,-49.3142],[-75.0031,-49.2678],[-75.1874,-49.2952],[-75.4272,-49.2795],[-75.4673,-49.3327],[-75.3054,-49.5602],[-75.1983,-49.7712]]],[[[-75.085,-48.6373],[-75.2296,-48.7524],[-75.1193,-48.8172],[-75.085,-48.6373]]],[[[-74.9703,-50.2875],[-75.1212,-50.3821],[-74.9763,-50.4329],[-74.9703,-50.2875]]]]}}]}