{"type":"FeatureCollection","features":[{"type":"Feature","properties":{"sourceId":"1159314733","regionId":"region.0b709978-0af8-4d7c-bcde-5d4dc468bd17","countryId":"country.1y9w9xr"},"geometry":{"type":"Polygon","coordinates":[[[87.3238,49.0853],[87.218,49.2298],[87.076,49.2369],[86.9051,49.3519],[86.8243,49.5092],[86.5918,49.5872],[86.7759,49.695],[86.7484,49.783],[86.6102,49.7955],[86.3918,49.625],[86.1115,49.5202],[85.9314,49.4928],[85.8275,49.541],[85.384,49.6157],[85.2631,49.5815],[85.0326,49.885],[84.9546,49.9069],[84.9758,50.0752],[84.8387,50.0808],[84.642,50.1849],[84.3688,50.2118],[84.25,50.2599],[84.1979,50.4931],[84.0886,50.6346],[83.9758,50.6864],[83.9506,50.7804],[83.8205,50.868],[83.434,50.9927],[83.1076,50.9927],[82.9759,50.8819],[82.7645,50.9067],[82.698,50.811],[82.4758,50.714],[82.4083,50.7484],[82.0731,50.7157],[81.7635,50.7843],[81.6741,50.736],[81.4602,50.7303],[81.4008,50.9591],[81.0583,50.9471],[81.1472,51.136],[80.6828,51.302],[80.5992,51.2086],[80.4762,51.2096],[80.4105,51.1048],[80.439,50.9581],[80.0493,50.8523],[79.9901,50.7881],[79.4698,51.4926],[79.3043,51.6864],[79.2503,51.6032],[79.1085,51.5621],[78.9857,51.4359],[78.8167,51.4379],[78.758,51.2968],[78.4941,51.2076],[78.1892,51.1419],[78.1345,51.0279],[78.2973,50.881],[78.6885,50.7011],[78.7177,50.4639],[78.8202,50.3512],[78.6709,50.1558],[78.4728,50.0272],[78.1617,50.0797],[77.7329,50.2026],[77.6703,50.125],[77.4484,49.986],[77.2451,49.9338],[77.1854,49.8752],[77.1692,49.645],[76.972,49.5455],[76.7693,49.4916],[76.6301,49.3523],[77.0466,49.0532],[76.8855,48.9826],[76.8883,48.8625],[76.9717,48.8047],[77.3613,48.8165],[77.3472,48.613],[77.1268,48.49],[77.021,48.4861],[76.9526,48.3506],[77.1571,48.2762],[77.1713,48.1483],[77.4093,48.0711],[77.2711,48.0196],[77.164,47.8598],[77.0718,47.6257],[77.16,47.4286],[76.982,47.3943],[76.9315,47.222],[77.0577,47.1273],[77.2643,47.089],[77.3162,47.1639],[77.5809,47.1748],[77.8511,47.1798],[78.0462,47.2596],[78.1101,47.2139],[78.2753,47.3043],[78.7366,47.1352],[78.8046,47.0687],[79.3085,47.031],[79.4914,46.862],[80.0187,46.8795],[80.2671,46.8152],[80.3495,46.7363],[80.7795,46.592],[81.1669,46.5403],[81.261,46.4908],[81.6048,46.3902],[81.6476,46.3109],[81.9135,46.0635],[81.9836,45.903],[82.1397,45.689],[82.125,45.5877],[82.2971,45.5545],[82.3722,45.7342],[82.4889,45.9017],[82.5683,46.1965],[82.6744,46.3311],[82.839,46.7324],[82.9855,46.9425],[83.0135,47.1946],[83.1504,47.2115],[83.5245,47.0671],[83.9053,46.974],[84.1591,46.9933],[84.6635,46.9839],[84.7317,46.9478],[84.7396,46.8148],[84.916,46.8506],[85.2051,47.0337],[85.4986,47.0518],[85.5568,47.1787],[85.6597,47.2065],[85.6704,47.3843],[85.58,47.5238],[85.5954,47.6241],[85.5154,47.9203],[85.5864,48.1412],[85.7837,48.4076],[86.192,48.4182],[86.3338,48.4904],[86.5651,48.5273],[86.7445,48.7035],[86.7895,48.8391],[86.7275,48.9903],[86.8873,49.1068],[87.1163,49.1298],[87.3238,49.0853]]]}},{"type":"Feature","properties":{"sourceId":"1159314735","regionId":"region.a2f7a8d2-1ce7-4ae3-88ec-964bd1d43b26","countryId":"country.1y9w9xr"},"geometry":{"type":"Polygon","coordinates":[[[82.2971,45.5545],[82.125,45.5877],[82.1397,45.689],[81.9836,45.903],[81.9135,46.0635],[81.6476,46.3109],[81.6048,46.3902],[81.261,46.4908],[81.1669,46.5403],[80.7795,46.592],[80.3495,46.7363],[80.2671,46.8152],[80.0187,46.8795],[79.4914,46.862],[79.3085,47.031],[78.8046,47.0687],[78.7366,47.1352],[78.2753,47.3043],[78.1101,47.2139],[78.0462,47.2596],[77.8511,47.1798],[77.5809,47.1748],[77.6111,46.8167],[77.5996,46.6758],[77.307,46.618],[77.1597,46.5466],[77.0192,46.6469],[76.5972,46.6758],[76.526,46.6462],[75.896,46.69],[75.4028,46.6795],[74.7619,46.3995],[74.1843,45.9559],[74.0564,45.7768],[74.0304,45.5358],[74.0941,45.2693],[73.8468,45.2583],[73.8132,45.1722],[73.8998,45.0776],[74.0946,45.0599],[74.1556,44.9076],[74.5396,44.6553],[74.6106,44.4129],[74.7587,44.3134],[74.9786,44.2911],[75.1488,44.2208],[75.3265,44.0783],[75.273,43.8771],[75.018,43.5627],[75.4282,43.4685],[75.2971,43.2977],[75.3654,43.1578],[75.8071,42.9368],[76.2545,42.9212],[76.4045,42.8892],[76.6888,42.9103],[76.9569,42.9885],[77.2119,42.9099],[77.4033,42.9198],[77.907,42.8913],[78.0306,42.8547],[78.4961,42.8756],[78.6871,42.8046],[79.0309,42.7562],[79.1483,42.791],[79.2421,42.6298],[79.353,42.5773],[79.4764,42.454],[79.6965,42.4598],[79.9179,42.4244],[80.2103,42.1895],[80.2684,42.238],[80.14,42.623],[80.2275,42.791],[80.4762,42.8639],[80.3681,43.0285],[80.5759,43.1194],[80.7734,43.1129],[80.7355,43.2889],[80.6429,43.3262],[80.7127,43.4589],[80.4762,43.9102],[80.3451,44.1031],[80.373,44.2702],[80.3329,44.4174],[80.3763,44.6713],[80.4762,44.7354],[80.2183,44.8181],[79.9917,44.7936],[79.8582,44.9037],[80.0617,45.019],[80.365,45.0432],[80.4251,45.0921],[80.6971,45.1437],[80.8539,45.1265],[81.7393,45.3381],[81.8073,45.1887],[81.9501,45.1445],[82.2946,45.2282],[82.4758,45.1157],[82.5852,45.1768],[82.6339,45.3394],[82.6157,45.4354],[82.3275,45.4933],[82.2971,45.5545]],[[76.9618,43.1923],[76.8087,43.2713],[76.902,43.3646],[77.0335,43.3789],[76.9618,43.1923]]]}},{"type":"Feature","properties":{"sourceId":"1159314739","regionId":"region.81e42536-2d26-4f7d-8ad5-148310368aea","countryId":"country.1y9w9xr"},"geometry":{"type":"Polygon","coordinates":[[[73.5051,42.4216],[73.41,42.5897],[73.5036,42.7941],[73.493,42.895],[73.6341,43.0625],[74.0399,43.1819],[74.2587,43.2158],[74.5582,43.115],[74.7139,42.9999],[74.8629,42.9758],[75.1786,42.8497],[75.6462,42.8061],[75.8071,42.9368],[75.3654,43.1578],[75.2971,43.2977],[75.4282,43.4685],[75.018,43.5627],[75.273,43.8771],[75.3265,44.0783],[75.1488,44.2208],[74.9786,44.2911],[74.7587,44.3134],[74.6106,44.4129],[74.5396,44.6553],[74.1556,44.9076],[74.0946,45.0599],[73.8998,45.0776],[73.8132,45.1722],[73.8468,45.2583],[74.0941,45.2693],[74.0304,45.5358],[74.0564,45.7768],[74.1843,45.9559],[69.1708,45.9369],[69.297,45.7926],[69.5162,45.3888],[69.8047,44.6633],[69.9112,44.1705],[69.8844,44.0596],[69.6424,43.5333],[69.531,43.4125],[69.6742,43.2641],[70.1032,43.1566],[70.2562,42.9832],[70.2679,42.7603],[70.4372,42.6738],[70.8888,42.3386],[71.0032,42.5635],[71.127,42.5906],[71.149,42.6779],[71.4046,42.7949],[71.5836,42.7596],[71.8477,42.8341],[72.1049,42.7503],[72.2924,42.7611],[72.4767,42.6826],[72.7258,42.6529],[72.8408,42.5557],[73.1151,42.5508],[73.3166,42.4937],[73.3262,42.4287],[73.5051,42.4216]]]}},{"type":"Feature","properties":{"sourceId":"1159314737","regionId":"region.5d57f06d-cab0-4a5f-b9a9-53d9107f1032","countryId":"country.1y9w9xr"},"geometry":{"type":"Polygon","coordinates":[[[70.8888,42.3386],[70.4372,42.6738],[70.2679,42.7603],[70.2562,42.9832],[70.1032,43.1566],[69.6742,43.2641],[69.531,43.4125],[69.6424,43.5333],[69.8844,44.0596],[69.9112,44.1705],[69.8047,44.6633],[69.5162,45.3888],[69.297,45.7926],[69.1708,45.9369],[67.2757,45.9577],[67.2892,45.8609],[67.3965,45.8007],[67.4361,45.6984],[67.3592,45.6085],[67.2922,45.2535],[67.5935,45.0717],[67.6073,44.3104],[67.8637,44.2136],[67.9685,44.1003],[68.2023,43.9731],[68.0448,43.8496],[68.0804,43.743],[67.932,43.6048],[67.8353,43.4226],[67.9244,43.1604],[67.4346,42.9854],[66.9497,42.7493],[66.7361,42.6089],[66.6475,42.6347],[66.4966,42.5787],[66.1843,42.3529],[66.0132,42.3729],[66.0172,41.9976],[66.5041,41.9935],[66.5389,41.7408],[66.6882,41.1992],[66.7579,41.1531],[66.8153,41.1419],[67.7481,41.1841],[67.9374,41.2004],[68.0212,41.0591],[68.1313,41.0296],[68.0675,40.788],[68.2665,40.6627],[68.4617,40.5847],[68.593,40.5995],[68.6274,40.6671],[68.5497,40.835],[68.6495,40.9517],[68.7463,41.0638],[69.0392,41.2203],[69.0444,41.3792],[69.2171,41.4601],[69.3907,41.4697],[69.3938,41.545],[69.6246,41.6683],[69.8709,41.6996],[70.1364,41.8481],[70.3151,42.0346],[70.4554,42.0937],[70.6102,42.0274],[70.7343,42.1973],[70.9478,42.2481],[70.8888,42.3386]]]}},{"type":"Feature","properties":{"sourceId":"1159314605","regionId":"region.260254e4-70e3-4f9b-a683-e852da32e846","countryId":"country.1y9w9xr"},"geometry":{"type":"Polygon","coordinates":[[[52.4377,41.7489],[52.7647,41.9938],[52.9787,42.1266],[53.4123,42.2582],[54.0472,42.3454],[54.1953,42.3181],[54.7383,42.0482],[54.9071,41.9321],[54.9507,41.7956],[55.2284,41.4728],[55.4295,41.2908],[55.6355,41.2644],[55.9784,41.3217],[55.978,41.7807],[55.9774,42.6985],[55.9768,43.6164],[55.9764,44.3048],[55.9784,44.9962],[56.7076,45.1619],[56.5412,45.9538],[56.4732,46.0845],[56.0403,46.2068],[55.8316,46.2351],[55.8266,46.332],[55.6753,46.358],[55.4769,46.4804],[55.2466,46.346],[54.9035,46.3339],[53.9491,46.1875],[53.6942,45.9716],[53.7576,45.9214],[53.5361,45.8257],[53.039,45.7384],[52.8619,45.7675],[52.7456,45.6391],[52.7385,45.5256],[53.1429,45.384],[53.1082,45.2996],[52.9097,45.3127],[52.5667,45.4007],[52.4031,45.4094],[51.9578,45.3716],[51.7925,45.4055],[51.5929,45.3447],[51.3972,45.3326],[51.2444,45.1618],[51.2434,45.1011],[50.9822,44.9895],[50.9707,44.8472],[51.2009,44.7409],[51.3193,44.5964],[51.1433,44.4848],[50.8479,44.6328],[50.4978,44.6258],[50.2991,44.6553],[50.2246,44.5677],[50.2302,44.3909],[50.3446,44.3113],[50.6963,44.2644],[50.8472,44.1893],[50.8528,44.0388],[50.9832,43.919],[51.0231,43.801],[51.1419,43.6337],[51.273,43.5586],[51.3196,43.4425],[51.2663,43.1876],[51.3678,43.1545],[51.6511,43.1914],[51.8539,42.8938],[51.9328,42.8349],[52.1692,42.887],[52.273,42.7988],[52.3718,42.8324],[52.5742,42.7985],[52.7129,42.7308],[52.7446,42.6574],[52.5991,42.3447],[52.402,42.0925],[52.4845,41.9416],[52.4377,41.7489]]]}},{"type":"Feature","properties":{"sourceId":"1159314717","regionId":"region.e7ade9f9-538f-482d-93e5-99223d446062","countryId":"country.1y9w9xr"},"geometry":{"type":"Polygon","coordinates":[[[59.0551,45.324],[59.6758,45.0291],[61.0363,44.3828],[61.1617,44.1681],[61.9857,43.4933],[62.0283,43.4809],[63.208,43.6275],[64.4267,43.547],[64.855,43.7129],[64.9565,43.6974],[65.2714,43.417],[65.5169,43.2972],[65.7952,42.8772],[66.1013,42.9903],[66.0532,42.4409],[66.0132,42.3729],[66.1843,42.3529],[66.4966,42.5787],[66.6475,42.6347],[66.7361,42.6089],[66.9497,42.7493],[67.4346,42.9854],[67.9244,43.1604],[67.8353,43.4226],[67.932,43.6048],[68.0804,43.743],[68.0448,43.8496],[68.2023,43.9731],[67.9685,44.1003],[67.8637,44.2136],[67.6073,44.3104],[67.5935,45.0717],[67.2922,45.2535],[67.3592,45.6085],[67.4361,45.6984],[67.3965,45.8007],[67.2892,45.8609],[67.2757,45.9577],[67.2478,46.0571],[66.9789,46.0561],[65.5531,46.2908],[65.3425,46.3608],[65.1,46.5113],[65.0132,46.5174],[63.8186,46.8502],[63.6006,46.8661],[63.3503,46.9477],[63.2098,46.9612],[62.9504,47.0801],[62.6697,47.0918],[62.8421,47.1839],[62.4499,47.2482],[62.4672,47.2918],[62.3195,47.4455],[62.1703,47.544],[62.0484,47.5707],[61.859,47.7765],[61.5738,47.776],[61.3271,47.7335],[61.1084,47.5282],[61.0166,47.3612],[60.7647,47.0999],[60.5378,47.112],[60.4406,47.0463],[60.4114,46.9238],[60.1691,46.8846],[59.9209,46.7598],[59.6684,46.5802],[59.1126,46.066],[59.0272,45.8181],[59.0551,45.324]],[[63.3839,45.5658],[63.2105,45.5844],[63.0129,45.66],[62.9003,45.7477],[62.8125,45.8952],[62.8125,46.0614],[62.9003,46.209],[63.0129,46.2967],[63.2105,46.3723],[63.4435,46.3887],[63.7549,46.2967],[63.8676,46.209],[63.9553,46.0614],[63.9553,45.8952],[63.8676,45.7477],[63.7549,45.66],[63.5574,45.5844],[63.3839,45.5658]]]}},{"type":"Feature","properties":{"sourceId":"1159314713","regionId":"region.d8d68ace-f2f2-4962-8f08-bafe35aff1a6","countryId":"country.1y9w9xr"},"geometry":{"type":"Polygon","coordinates":[[[59.0551,45.324],[59.0272,45.8181],[59.1126,46.066],[59.6684,46.5802],[59.9209,46.7598],[60.1691,46.8846],[60.4114,46.9238],[60.4406,47.0463],[60.5378,47.112],[60.7647,47.0999],[61.0166,47.3612],[61.1084,47.5282],[61.3271,47.7335],[61.5738,47.776],[61.859,47.7765],[62.0484,47.5707],[62.1703,47.544],[62.3195,47.4455],[62.4672,47.2918],[62.4499,47.2482],[62.8421,47.1839],[64.1063,47.8056],[64.2036,47.8785],[63.9705,48.1512],[63.6615,48.4697],[63.0297,48.6919],[63.0309,48.863],[62.6645,48.8783],[62.4471,49.0506],[62.3733,49.167],[62.485,49.2281],[62.2936,49.4438],[62.4595,49.6868],[62.6106,49.8551],[62.714,49.9083],[62.9131,49.8972],[62.8897,50.0242],[62.6928,50.2224],[62.5342,50.439],[62.4457,50.6748],[62.3039,50.7543],[62.3752,50.8506],[62.2391,50.9457],[62.2939,51.0397],[62.1544,51.1104],[62.0301,51.0652],[61.9245,51.2395],[61.6463,51.2632],[61.5132,51.1595],[61.4418,50.875],[61.3721,50.7825],[60.7185,50.6527],[60.3004,50.6847],[60.1767,50.7422],[60.1362,50.8445],[60.0213,50.8541],[59.7747,50.5337],[59.5228,50.4746],[59.4376,50.6311],[58.9259,50.6781],[58.6644,50.7899],[58.5544,50.9254],[58.595,51.0234],[58.398,51.0637],[58.3084,51.15],[58.1906,51.0655],[57.7688,51.1197],[57.7373,50.9382],[57.3527,50.886],[57.1682,51.0938],[56.8651,51.0518],[56.508,51.0663],[56.3357,50.8959],[56.1749,50.9087],[56.0789,50.7248],[55.66,50.53],[55.4911,50.6459],[55.3054,50.665],[55.084,50.7969],[55.0477,50.8842],[54.8943,50.9124],[54.6382,51.0277],[54.503,50.9283],[54.6382,50.8857],[54.6763,50.6025],[54.5455,50.5305],[54.3915,50.3583],[54.4238,50.1501],[54.5512,50.0314],[54.4532,49.8147],[54.1792,49.6127],[54.0059,49.6172],[53.7645,49.4715],[53.671,49.2883],[53.6732,49.1844],[53.8586,49.1037],[53.9789,49.1278],[54.0533,49.0055],[54.0718,48.7168],[54.4426,48.6576],[54.5776,48.8134],[54.8005,48.7412],[54.8488,48.6289],[54.7937,48.4277],[54.8755,48.1996],[54.8729,48.0908],[54.9732,48.0123],[55.0725,47.6458],[55.0017,47.2968],[54.9975,47.1523],[55.1667,46.9173],[55.2913,46.7911],[55.4938,46.6596],[56.2712,46.4572],[56.4732,46.0845],[56.5412,45.9538],[56.7076,45.1619],[57.4783,45.3369],[58.5314,45.5587],[59.0551,45.324]]]}},{"type":"Feature","properties":{"sourceId":"1159314729","regionId":"region.db6b4c9c-5753-4810-b59e-0250b9fc31cb","countryId":"country.1y9w9xr"},"geometry":{"type":"Polygon","coordinates":[[[70.4686,55.2855],[70.197,55.1335],[69.9117,55.2116],[69.6739,55.334],[69.3346,55.3851],[69.1861,55.3258],[68.7342,55.3517],[68.6053,55.1956],[68.2624,55.194],[68.3082,55.0728],[68.1661,54.9561],[67.8173,54.9522],[67.6227,54.8539],[67.2839,54.8533],[67.2133,54.7972],[66.4465,54.7109],[66.0978,54.6372],[66.2285,54.2973],[66.3719,54.1024],[66.0198,53.9939],[66.0951,53.8109],[66.2308,53.7441],[66.1199,53.5797],[66.2877,53.4795],[66.3246,53.2562],[66.474,53.139],[66.1632,53.0793],[66.1059,53.0096],[66.182,52.9008],[66.092,52.7275],[66.053,52.4021],[66.2355,52.3687],[66.3102,52.2963],[66.641,52.3213],[66.6913,52.2506],[67.148,52.2084],[67.4529,52.2352],[67.4658,52.3826],[67.7002,52.3723],[68.0263,52.2636],[68.225,52.4064],[68.2102,52.5162],[68.4598,52.5772],[68.5752,52.6965],[68.8442,52.809],[68.8155,52.9622],[68.9226,53.1115],[68.822,53.2429],[68.7184,53.2714],[68.5824,53.4007],[68.8988,53.5563],[69.0008,53.6447],[69.2296,53.668],[69.4027,53.5751],[69.6651,53.6834],[69.8376,53.6877],[70.0044,53.5015],[70.1611,53.4938],[70.1132,53.3629],[70.3053,53.366],[70.4654,53.2617],[70.6334,53.3251],[70.6722,53.3951],[71.0597,53.4134],[71.098,53.328],[71.3134,53.2895],[71.6084,53.3798],[71.8251,53.1969],[71.7311,53.0115],[71.9238,52.9125],[72.2389,52.9072],[72.4425,52.9928],[72.8077,53.0188],[72.8952,52.9947],[72.9626,52.7618],[73.4764,52.668],[73.6572,52.582],[73.9678,52.5677],[73.8972,52.61],[74.0316,52.8547],[73.5739,52.9711],[73.7688,53.1926],[73.6542,53.2218],[73.486,53.1286],[73.4531,53.2592],[73.5761,53.2926],[73.4507,53.4486],[73.2306,53.5723],[73.2297,53.6624],[73.4853,53.8749],[73.6971,53.9008],[73.7406,54.0579],[73.3603,53.9384],[73.0628,53.9791],[72.9568,54.1175],[72.6242,54.135],[72.6562,54.0425],[72.4556,53.9053],[72.3569,54.0818],[72.4829,54.1356],[72.1518,54.3683],[72.0667,54.2224],[71.7625,54.2476],[71.7087,54.1322],[71.4771,54.1097],[71.3206,54.201],[71.1823,54.1016],[71.044,54.1859],[70.98,54.3251],[71.1906,54.3182],[71.1476,54.5914],[71.2649,54.6392],[71.1803,54.7274],[71.006,54.7742],[70.9459,54.8879],[70.9771,55.078],[70.6657,55.3092],[70.4686,55.2855]]]}},{"type":"Feature","properties":{"sourceId":"1159314715","regionId":"region.b1c901d4-3142-437c-99ea-3060c2824e05","countryId":"country.1y9w9xr"},"geometry":{"type":"Polygon","coordinates":[[[66.0978,54.6372],[65.9519,54.6937],[65.713,54.5972],[65.4774,54.6327],[65.4275,54.5528],[65.2143,54.5279],[65.2129,54.343],[65.0854,54.3086],[64.9106,54.4027],[64.7202,54.3338],[64.5785,54.3856],[63.9804,54.3037],[63.856,54.2019],[63.7086,54.2504],[63.3286,54.1631],[63.1238,54.1741],[63.0847,54.0856],[62.8121,54.095],[62.5506,54.0268],[61.4786,54.0029],[61.4177,54.056],[61.1935,54.0183],[61.0652,53.8785],[61.202,53.8196],[61.0076,53.6357],[61.2807,53.5424],[61.503,53.589],[61.5553,53.5057],[61.3816,53.4361],[61.2182,53.4927],[61.1372,53.3731],[61.2029,53.2764],[61.478,53.2151],[61.6431,53.2433],[61.7642,53.1695],[62.0507,53.1248],[62.0942,52.9925],[61.9226,52.9382],[61.8198,52.9782],[61.5743,52.9558],[61.478,53.0123],[61.1903,53.0131],[60.8291,52.7716],[60.6962,52.7349],[60.8031,52.6277],[60.8314,52.5132],[60.9446,52.4791],[61.0399,52.335],[60.6722,52.1443],[60.5065,52.1516],[60.2028,51.9927],[60.0298,51.9926],[60.1381,51.8889],[60.4521,51.8055],[60.3759,51.6625],[60.5151,51.6179],[60.9374,51.6112],[61.0233,51.4855],[61.4738,51.4258],[61.6463,51.2632],[61.9245,51.2395],[62.0301,51.0652],[62.1544,51.1104],[62.2939,51.0397],[62.2391,50.9457],[62.3752,50.8506],[62.3039,50.7543],[62.4457,50.6748],[62.5342,50.439],[62.6928,50.2224],[62.8897,50.0242],[62.9131,49.8972],[62.714,49.9083],[62.6106,49.8551],[62.4595,49.6868],[62.2936,49.4438],[62.485,49.2281],[62.3733,49.167],[62.4471,49.0506],[62.6645,48.8783],[63.0309,48.863],[63.0297,48.6919],[63.6615,48.4697],[63.9705,48.1512],[64.2091,48.2991],[64.2168,48.4022],[64.5472,48.5023],[64.506,48.6537],[64.6246,48.6568],[64.7413,48.8405],[65.0714,48.8768],[65.5242,48.8328],[65.7348,48.8619],[65.9621,48.9846],[66.1591,49.0024],[66.5064,49.2107],[66.6203,49.2342],[66.6696,49.3316],[66.8725,49.4422],[67.5252,49.834],[67.7621,50.0299],[67.7556,50.1893],[68.1088,50.2646],[68.2729,50.4119],[68.0967,50.5055],[67.8583,50.4377],[67.5985,50.4144],[67.3341,50.3325],[67.1882,50.4325],[67.2331,50.5628],[67.1246,50.6179],[66.8349,50.5866],[66.477,50.6641],[66.3135,50.7731],[66.2142,50.7711],[66.0602,50.8975],[65.8498,50.8005],[65.7209,50.7938],[65.7084,50.9738],[65.5328,51.1656],[65.5033,51.262],[65.5917,51.3734],[65.6445,51.557],[65.4301,51.694],[65.7081,51.7895],[65.8605,51.8941],[65.9566,52.1199],[66.0372,52.1783],[66.053,52.4021],[66.092,52.7275],[66.182,52.9008],[66.1059,53.0096],[66.1632,53.0793],[66.474,53.139],[66.3246,53.2562],[66.2877,53.4795],[66.1199,53.5797],[66.2308,53.7441],[66.0951,53.8109],[66.0198,53.9939],[66.3719,54.1024],[66.2285,54.2973],[66.0978,54.6372]]]}},{"type":"Feature","properties":{"sourceId":"1159314731","regionId":"region.5e5d60e4-76cb-4900-ab0b-c45b02342a4a","countryId":"country.1y9w9xr"},"geometry":{"type":"Polygon","coordinates":[[[77.7847,53.3274],[77.6128,53.4428],[76.5257,53.9613],[76.3744,54.1478],[76.6646,54.1341],[76.8377,54.2969],[76.7661,54.3646],[76.4331,54.3166],[76.2342,54.3474],[76.1838,54.2516],[75.6912,54.1131],[75.3607,54.0595],[75.434,53.9865],[75.0279,53.8079],[74.772,53.8309],[74.6165,53.6807],[74.4535,53.685],[74.4091,53.4776],[74.2139,53.597],[73.8727,53.6321],[73.6407,53.5632],[73.4507,53.4486],[73.5761,53.2926],[73.4531,53.2592],[73.486,53.1286],[73.6542,53.2218],[73.7688,53.1926],[73.5739,52.9711],[74.0316,52.8547],[73.8972,52.61],[73.9678,52.5677],[74.0279,52.4681],[74.0524,51.9065],[73.9012,51.8269],[73.8362,51.6234],[74.2736,51.5372],[73.8523,51.4099],[73.7139,51.2565],[74.0342,51.1783],[74.0944,51.0372],[73.9737,50.6442],[74.0822,50.5775],[74.4796,50.6172],[74.6602,50.5743],[74.9497,50.4305],[75.1619,50.2281],[74.8898,50.0887],[75.0392,50.0027],[75.3755,50.1502],[75.6553,50.1498],[76.1775,50.2243],[76.5837,50.2968],[76.7054,50.2681],[76.7632,50.4892],[76.98,50.6353],[77.6238,50.461],[77.672,50.2304],[77.7329,50.2026],[78.1617,50.0797],[78.4728,50.0272],[78.6709,50.1558],[78.8202,50.3512],[78.7177,50.4639],[78.6885,50.7011],[78.2973,50.881],[78.1345,51.0279],[78.1892,51.1419],[78.4941,51.2076],[78.758,51.2968],[78.8167,51.4379],[78.9857,51.4359],[79.1085,51.5621],[79.2503,51.6032],[79.3043,51.6864],[78.4765,52.6379],[77.9764,53.1685],[77.7847,53.3274]]]}},{"type":"Feature","properties":{"sourceId":"1159314721","regionId":"region.9ab28b29-b1ee-46e0-ba6a-591cf38db1cb","countryId":"country.1y9w9xr"},"geometry":{"type":"Polygon","coordinates":[[[54.5455,50.5305],[54.3798,50.6194],[54.4786,50.8535],[54.1766,50.9679],[54.1116,51.096],[53.9359,51.1856],[53.6739,51.2199],[53.5941,51.2894],[53.6103,51.3884],[53.4073,51.4842],[53.1533,51.5127],[52.9598,51.4559],[52.7897,51.5048],[52.5058,51.4789],[52.3349,51.7637],[52.0918,51.6587],[51.8692,51.6731],[51.6205,51.5187],[51.3795,51.4671],[51.3719,51.6296],[51.2339,51.6855],[50.9254,51.6797],[50.767,51.7594],[50.7907,51.5973],[50.5817,51.6353],[50.5183,51.4598],[50.3796,51.4212],[50.3254,51.3035],[49.9868,51.2298],[49.7791,51.1022],[49.4231,51.102],[49.3474,50.9643],[49.3694,50.8268],[49.1441,50.7817],[48.8304,50.596],[48.6734,50.5795],[48.7013,50.3346],[48.8857,50.0199],[48.7846,49.9334],[48.4176,49.8117],[48.2393,49.8648],[47.9932,50.1818],[47.6247,50.4408],[47.4345,50.3765],[47.2948,50.2754],[47.3087,50.0448],[47.1774,49.9472],[46.9586,49.8841],[46.8999,49.8203],[46.7751,49.3325],[47.0286,49.2015],[47.0209,49.0968],[46.93,49.004],[46.7538,48.9141],[46.6202,48.6696],[46.4793,48.4102],[47.0783,48.2753],[47.1121,48.2422],[48.9075,48.0601],[49.4321,47.9381],[49.4568,48.0139],[49.9109,48.041],[50.7261,48.4214],[50.948,48.4823],[51.1557,48.6302],[51.3699,48.663],[51.7549,48.6309],[51.8113,48.5047],[52.1377,48.4509],[52.1755,48.4833],[52.5251,48.4057],[52.5891,48.4262],[52.6218,48.5882],[52.7711,48.7425],[52.7635,48.8621],[52.9134,48.9854],[53.3249,48.975],[53.6732,49.1844],[53.671,49.2883],[53.7645,49.4715],[54.0059,49.6172],[54.1792,49.6127],[54.4532,49.8147],[54.5512,50.0314],[54.4238,50.1501],[54.3915,50.3583],[54.5455,50.5305]]]}},{"type":"Feature","properties":{"sourceId":"1159314719","regionId":"region.c9fdf236-69e0-4385-9a22-0dc4f7f59ac0","countryId":"country.1y9w9xr"},"geometry":{"type":"Polygon","coordinates":[[[47.1121,48.2422],[47.0512,47.9746],[47.1553,47.8774],[47.1745,47.7705],[47.3597,47.6833],[47.4353,47.8344],[47.6497,47.7656],[48.0445,47.7697],[48.1744,47.7129],[48.3606,47.4931],[48.5251,47.4102],[48.6973,47.101],[49.0063,46.7691],[48.9169,46.7026],[48.764,46.6828],[48.6766,46.758],[48.5567,46.7617],[48.4551,46.6608],[48.5732,46.5583],[48.705,46.5504],[49.2271,46.3279],[49.3036,46.4665],[49.4692,46.5626],[49.6377,46.5773],[49.8174,46.5404],[50.034,46.6352],[50.1688,46.7491],[50.3836,46.8178],[50.4158,46.8824],[50.6069,46.8681],[50.8574,47.04],[51.187,47.1169],[51.5026,47.0613],[51.7637,46.9157],[52,46.8906],[52.1126,46.8127],[52.2389,46.8068],[52.4559,47.0012],[52.6148,46.95],[52.9199,46.9575],[53.0835,46.8533],[53.1882,46.718],[53.0957,46.5683],[53.0829,46.435],[53.1567,46.3417],[53.0866,46.0205],[52.9199,45.7961],[52.8619,45.7675],[53.039,45.7384],[53.5361,45.8257],[53.7576,45.9214],[53.6942,45.9716],[53.9491,46.1875],[54.9035,46.3339],[55.2466,46.346],[55.4769,46.4804],[55.6753,46.358],[55.8266,46.332],[55.8316,46.2351],[56.0403,46.2068],[56.4732,46.0845],[56.2712,46.4572],[55.4938,46.6596],[55.2913,46.7911],[55.1667,46.9173],[54.9975,47.1523],[55.0017,47.2968],[55.0725,47.6458],[54.9732,48.0123],[54.8729,48.0908],[54.8755,48.1996],[54.7937,48.4277],[54.8488,48.6289],[54.8005,48.7412],[54.5776,48.8134],[54.4426,48.6576],[54.0718,48.7168],[54.0533,49.0055],[53.9789,49.1278],[53.8586,49.1037],[53.6732,49.1844],[53.3249,48.975],[52.9134,48.9854],[52.7635,48.8621],[52.7711,48.7425],[52.6218,48.5882],[52.5891,48.4262],[52.5251,48.4057],[52.1755,48.4833],[52.1377,48.4509],[51.8113,48.5047],[51.7549,48.6309],[51.3699,48.663],[51.1557,48.6302],[50.948,48.4823],[50.7261,48.4214],[49.9109,48.041],[49.4568,48.0139],[49.4321,47.9381],[48.9075,48.0601],[47.1121,48.2422]]]}},{"type":"Feature","properties":{"sourceId":"1159308537","regionId":"region.cef7064d-b14e-49a0-ba50-f5578a6dbd67","countryId":"country.1y9w9xr"},"geometry":{"type":"Polygon","coordinates":[[[63.3839,45.5658],[63.5574,45.5844],[63.7549,45.66],[63.8676,45.7477],[63.9553,45.8952],[63.9553,46.0614],[63.8676,46.209],[63.7549,46.2967],[63.4435,46.3887],[63.2105,46.3723],[63.0129,46.2967],[62.9003,46.209],[62.8125,46.0614],[62.8125,45.8952],[62.9003,45.7477],[63.0129,45.66],[63.2105,45.5844],[63.3839,45.5658]]]}},{"type":"Feature","properties":{"sourceId":"1159314725","regionId":"region.5a24f38b-a77b-408d-8582-ef5d92ba1c07","countryId":"country.1y9w9xr"},"geometry":{"type":"Polygon","coordinates":[[[66.053,52.4021],[66.0372,52.1783],[65.9566,52.1199],[65.8605,51.8941],[65.7081,51.7895],[65.4301,51.694],[65.6445,51.557],[65.5917,51.3734],[65.5033,51.262],[65.5328,51.1656],[65.7084,50.9738],[65.7209,50.7938],[65.8498,50.8005],[66.0602,50.8975],[66.2142,50.7711],[66.3135,50.7731],[66.477,50.6641],[66.8349,50.5866],[67.1246,50.6179],[67.2331,50.5628],[67.1882,50.4325],[67.3341,50.3325],[67.5985,50.4144],[67.8583,50.4377],[68.0967,50.5055],[68.0312,50.6139],[68.384,50.6157],[68.7781,50.7536],[68.9954,50.6993],[68.9885,50.59],[68.8209,50.187],[69.1563,50.1164],[69.3949,50.2041],[69.5008,50.331],[69.656,50.3157],[69.751,50.188],[69.9292,50.1798],[70.2471,50.2216],[70.3263,50.1486],[70.2499,50.0651],[70.291,49.9871],[70.6144,50.0728],[70.6742,50.2351],[70.8091,50.2692],[70.9503,50.4145],[71.4181,50.5986],[71.5146,50.7042],[71.7572,50.7422],[71.9403,50.6504],[71.886,50.4654],[72.2755,50.415],[72.2918,50.5202],[72.4998,50.5296],[72.5428,50.6764],[72.7762,50.7336],[72.9004,50.8689],[73.071,50.8443],[73.2239,50.9494],[73.4572,51.0059],[73.2692,51.2243],[73.5263,51.273],[73.7139,51.2565],[73.8523,51.4099],[74.2736,51.5372],[73.8362,51.6234],[73.9012,51.8269],[74.0524,51.9065],[74.0279,52.4681],[73.9678,52.5677],[73.6572,52.582],[73.4764,52.668],[72.9626,52.7618],[72.8952,52.9947],[72.8077,53.0188],[72.4425,52.9928],[72.2389,52.9072],[71.9238,52.9125],[71.7311,53.0115],[71.8251,53.1969],[71.6084,53.3798],[71.3134,53.2895],[71.098,53.328],[71.0597,53.4134],[70.6722,53.3951],[70.6334,53.3251],[70.4654,53.2617],[70.3053,53.366],[70.1132,53.3629],[70.1611,53.4938],[70.0044,53.5015],[69.8376,53.6877],[69.6651,53.6834],[69.4027,53.5751],[69.2296,53.668],[69.0008,53.6447],[68.8988,53.5563],[68.5824,53.4007],[68.7184,53.2714],[68.822,53.2429],[68.9226,53.1115],[68.8155,52.9622],[68.8442,52.809],[68.5752,52.6965],[68.4598,52.5772],[68.2102,52.5162],[68.225,52.4064],[68.0263,52.2636],[67.7002,52.3723],[67.4658,52.3826],[67.4529,52.2352],[67.148,52.2084],[66.6913,52.2506],[66.641,52.3213],[66.3102,52.2963],[66.2355,52.3687],[66.053,52.4021]],[[71.4695,50.9747],[71.2501,51.1563],[71.3139,51.2879],[71.4257,51.2999],[71.5813,51.2061],[71.5753,51.0365],[71.4695,50.9747]]]}},{"type":"Feature","properties":{"sourceId":"1159314727","regionId":"region.c8a9b2b9-4748-4753-b0ec-a4f2d66c472e","countryId":"country.1y9w9xr"},"geometry":{"type":"Polygon","coordinates":[[[68.0967,50.5055],[68.2729,50.4119],[68.1088,50.2646],[67.7556,50.1893],[67.7621,50.0299],[67.5252,49.834],[66.8725,49.4422],[66.6696,49.3316],[66.6203,49.2342],[66.5064,49.2107],[66.1591,49.0024],[65.9621,48.9846],[65.7348,48.8619],[65.5242,48.8328],[65.0714,48.8768],[64.7413,48.8405],[64.6246,48.6568],[64.506,48.6537],[64.5472,48.5023],[64.2168,48.4022],[64.2091,48.2991],[63.9705,48.1512],[64.2036,47.8785],[64.1063,47.8056],[62.8421,47.1839],[62.6697,47.0918],[62.9504,47.0801],[63.2098,46.9612],[63.3503,46.9477],[63.6006,46.8661],[63.8186,46.8502],[65.0132,46.5174],[65.1,46.5113],[65.3425,46.3608],[65.5531,46.2908],[66.9789,46.0561],[67.2478,46.0571],[67.2757,45.9577],[69.1708,45.9369],[74.1843,45.9559],[74.7619,46.3995],[75.4028,46.6795],[75.896,46.69],[76.526,46.6462],[76.5972,46.6758],[77.0192,46.6469],[77.1597,46.5466],[77.307,46.618],[77.5996,46.6758],[77.6111,46.8167],[77.5809,47.1748],[77.3162,47.1639],[77.2643,47.089],[77.0577,47.1273],[76.9315,47.222],[76.982,47.3943],[77.16,47.4286],[77.0718,47.6257],[77.164,47.8598],[77.2711,48.0196],[77.4093,48.0711],[77.1713,48.1483],[77.1571,48.2762],[76.9526,48.3506],[77.021,48.4861],[77.1268,48.49],[77.3472,48.613],[77.3613,48.8165],[76.9717,48.8047],[76.8883,48.8625],[76.8855,48.9826],[77.0466,49.0532],[76.6301,49.3523],[76.7693,49.4916],[76.972,49.5455],[77.1692,49.645],[77.1854,49.8752],[77.2451,49.9338],[77.4484,49.986],[77.6703,50.125],[77.7329,50.2026],[77.672,50.2304],[77.6238,50.461],[76.98,50.6353],[76.7632,50.4892],[76.7054,50.2681],[76.5837,50.2968],[76.1775,50.2243],[75.6553,50.1498],[75.3755,50.1502],[75.0392,50.0027],[74.8898,50.0887],[75.1619,50.2281],[74.9497,50.4305],[74.6602,50.5743],[74.4796,50.6172],[74.0822,50.5775],[73.9737,50.6442],[74.0944,51.0372],[74.0342,51.1783],[73.7139,51.2565],[73.5263,51.273],[73.2692,51.2243],[73.4572,51.0059],[73.2239,50.9494],[73.071,50.8443],[72.9004,50.8689],[72.7762,50.7336],[72.5428,50.6764],[72.4998,50.5296],[72.2918,50.5202],[72.2755,50.415],[71.886,50.4654],[71.9403,50.6504],[71.7572,50.7422],[71.5146,50.7042],[71.4181,50.5986],[70.9503,50.4145],[70.8091,50.2692],[70.6742,50.2351],[70.6144,50.0728],[70.291,49.9871],[70.2499,50.0651],[70.3263,50.1486],[70.2471,50.2216],[69.9292,50.1798],[69.751,50.188],[69.656,50.3157],[69.5008,50.331],[69.3949,50.2041],[69.1563,50.1164],[68.8209,50.187],[68.9885,50.59],[68.9954,50.6993],[68.7781,50.7536],[68.384,50.6157],[68.0312,50.6139],[68.0967,50.5055]]]}},{"type":"Feature","properties":{"sourceId":"1159315881","regionId":"region.26f8a7f4-c438-4070-83b3-70ce5246514b","countryId":"country.1y9w9xr"},"geometry":{"type":"Polygon","coordinates":[[[76.9618,43.1923],[77.0335,43.3789],[76.902,43.3646],[76.8087,43.2713],[76.9618,43.1923]]]}},{"type":"Feature","properties":{"sourceId":"1159315883","regionId":"region.6ea276d5-f719-4ec3-a36d-b614e3029585","countryId":"country.1y9w9xr"},"geometry":{"type":"Polygon","coordinates":[[[71.4695,50.9747],[71.5753,51.0365],[71.5813,51.2061],[71.4257,51.2999],[71.3139,51.2879],[71.2501,51.1563],[71.4695,50.9747]]]}}]}