{"type":"FeatureCollection","features":[{"type":"Feature","properties":{"sourceId":"1159307663","regionId":"region.8343b62a-22e3-45f2-ae8f-bd2a8970cb51","countryId":"country.1s29x2y"},"geometry":{"type":"Polygon","coordinates":[[[7.8496,45.9397],[7.9858,45.9993],[8.1106,46.127],[8.0773,46.262],[8.3859,46.4502],[8.4769,46.5318],[8.4094,46.6557],[8.3387,46.5663],[8.1903,46.5219],[8.0031,46.5574],[7.7231,46.4202],[7.6244,46.4434],[7.4947,46.374],[7.2278,46.3314],[7.0449,46.1899],[6.8546,46.3977],[6.7881,46.405],[6.8539,46.1226],[7.0221,45.9253],[7.1837,45.8805],[7.3618,45.9078],[7.5411,45.9841],[7.694,45.9287],[7.8496,45.9397]]]}},{"type":"Feature","properties":{"sourceId":"1159307671","regionId":"region.79241b89-d0c4-4dcc-aee7-b6298c54efdf","countryId":"country.1s29x2y"},"geometry":{"type":"Polygon","coordinates":[[[8.729,46.1082],[8.8344,46.0664],[8.9089,45.8283],[9.0593,45.882],[9.0021,46.0393],[9.1638,46.173],[9.057,46.299],[9.0978,46.4161],[8.956,46.6306],[8.7884,46.5681],[8.6779,46.5836],[8.4769,46.5318],[8.3859,46.4502],[8.4416,46.4349],[8.4272,46.2514],[8.6018,46.1228],[8.729,46.1082]]]}},{"type":"Feature","properties":{"sourceId":"1159307675","regionId":"region.b3a7c54c-4a83-4143-8c41-ceac484f0c7a","countryId":"country.1s29x2y"},"geometry":{"type":"Polygon","coordinates":[[[9.2248,46.2312],[9.269,46.3094],[9.2632,46.4851],[9.4379,46.492],[9.4516,46.3704],[9.5597,46.2927],[9.6743,46.2918],[9.899,46.3722],[10.0427,46.2205],[10.1334,46.414],[10.0263,46.4463],[10.0975,46.608],[10.2954,46.5511],[10.4518,46.5467],[10.3692,46.6724],[10.4538,46.8644],[10.3679,46.9955],[10.1252,46.8468],[9.8624,46.9398],[9.858,47.0155],[9.5812,47.0569],[9.5331,47.0555],[9.477,47.0639],[9.532,46.9833],[9.4612,46.8938],[9.2409,46.9203],[9.0032,46.8196],[8.8717,46.8154],[8.6794,46.6946],[8.6779,46.5836],[8.7884,46.5681],[8.956,46.6306],[9.0978,46.4161],[9.057,46.299],[9.1638,46.173],[9.2248,46.2312]]]}},{"type":"Feature","properties":{"sourceId":"1159307677","regionId":"region.46151456-6e52-4760-8c3e-f838387b6fce","countryId":"country.1s29x2y"},"geometry":{"type":"Polygon","coordinates":[[[8.8519,47.6713],[8.635,47.7846],[8.4636,47.7639],[8.4583,47.6399],[8.5936,47.6582],[8.7885,47.6626],[8.8519,47.6713]]]}},{"type":"Feature","properties":{"sourceId":"1159307681","regionId":"region.5670a805-cd35-40f8-bcee-3fb046cdadf6","countryId":"country.1s29x2y"},"geometry":{"type":"Polygon","coordinates":[[[8.8519,47.6713],[8.7885,47.6626],[8.8911,47.5249],[8.9324,47.38],[9.0312,47.4964],[9.2557,47.4774],[9.5531,47.5169],[9.5475,47.5345],[9.2732,47.6501],[8.8519,47.6713]]]}},{"type":"Feature","properties":{"sourceId":"1159307687","regionId":"region.ee22c0d6-9441-475f-b2f4-447c7f4407bb","countryId":"country.1s29x2y"},"geometry":{"type":"Polygon","coordinates":[[[8.5936,47.6582],[8.5763,47.595],[8.5517,47.5969],[8.4211,47.5811],[8.3526,47.4876],[8.4035,47.4104],[8.4074,47.2455],[8.6835,47.1654],[8.7754,47.2206],[8.9207,47.2691],[8.9324,47.38],[8.8911,47.5249],[8.7885,47.6626],[8.5936,47.6582]]]}},{"type":"Feature","properties":{"sourceId":"1159307657","regionId":"region.580855ba-51bc-47f0-96e2-4710731bd456","countryId":"country.1s29x2y"},"geometry":{"type":"Polygon","coordinates":[[[8.4211,47.5811],[8.179,47.6158],[8.0872,47.5674],[7.7273,47.5504],[7.8494,47.5453],[7.9549,47.4577],[8.0291,47.3792],[7.8229,47.269],[7.8393,47.2318],[8.2886,47.2681],[8.4056,47.1423],[8.4074,47.2455],[8.4035,47.4104],[8.3526,47.4876],[8.4211,47.5811]]]}},{"type":"Feature","properties":{"sourceId":"1159314897","regionId":"region.601ee39a-b8ca-4c94-8c18-55e2045dfee2","countryId":"country.1s29x2y"},"geometry":{"type":"Polygon","coordinates":[[[7.6469,47.5514],[7.586,47.5846],[7.5209,47.5634],[7.6469,47.5514]]]}},{"type":"Feature","properties":{"sourceId":"1159314893","regionId":"region.b5529754-28de-45bb-9322-e23c6d048832","countryId":"country.1s29x2y"},"geometry":{"type":"MultiPolygon","coordinates":[[[[7.7273,47.5504],[7.6469,47.5514],[7.5209,47.5634],[7.4858,47.4988],[7.446,47.4869],[7.4206,47.4509],[7.3842,47.4131],[7.4371,47.3793],[7.8053,47.3636],[7.9549,47.4577],[7.8494,47.5453],[7.7273,47.5504]]],[[[7.3882,47.4333],[7.3369,47.4319],[7.3842,47.4131],[7.3882,47.4333]]]]}},{"type":"Feature","properties":{"sourceId":"1159307669","regionId":"region.789a740a-a275-4e34-a125-d22b6207c3c4","countryId":"country.1s29x2y"},"geometry":{"type":"Polygon","coordinates":[[[9.5531,47.5169],[9.2557,47.4774],[9.0312,47.4964],[8.9324,47.38],[8.9207,47.2691],[8.7754,47.2206],[8.9851,47.1689],[9.1799,47.1222],[9.1578,47.0312],[9.2409,46.9203],[9.4612,46.8938],[9.532,46.9833],[9.477,47.0639],[9.5029,47.0947],[9.5119,47.1294],[9.4955,47.156],[9.4864,47.1969],[9.497,47.2289],[9.5212,47.2628],[9.6495,47.4097],[9.5531,47.5169]],[[9.4882,47.3534],[9.3315,47.2531],[9.2174,47.2715],[9.226,47.4003],[9.6084,47.4498],[9.5815,47.4244],[9.5405,47.3972],[9.4866,47.3936],[9.4882,47.3534]]]}},{"type":"Feature","properties":{"sourceId":"1159314899","regionId":"region.a8bc0cb1-a677-4723-a7d5-69720e2980f8","countryId":"country.1s29x2y"},"geometry":{"type":"MultiPolygon","coordinates":[[[[7.3882,47.4333],[7.3842,47.4131],[7.4206,47.4509],[7.3882,47.4333]]],[[[7.559,47.3207],[7.5563,47.3182],[7.3488,47.2166],[7.4376,47.1243],[7.6769,47.1788],[7.5834,47.2776],[7.8229,47.269],[8.0291,47.3792],[7.9549,47.4577],[7.8053,47.3636],[7.4371,47.3793],[7.5545,47.344],[7.559,47.3207]]]]}},{"type":"Feature","properties":{"sourceId":"1159307653","regionId":"region.7f725c56-5b6d-4b21-b233-fd70cc80105c","countryId":"country.1s29x2y"},"geometry":{"type":"Polygon","coordinates":[[[7.1422,47.4877],[6.9733,47.4891],[6.9392,47.4268],[6.9562,47.2452],[6.8381,47.1681],[6.8498,47.1651],[6.9935,47.1844],[7.3872,47.3126],[7.5563,47.3182],[7.559,47.3207],[7.5545,47.344],[7.4371,47.3793],[7.3842,47.4131],[7.3369,47.4319],[7.1422,47.4877]]]}},{"type":"Feature","properties":{"sourceId":"1159307651","regionId":"region.1c714cc1-ebff-455b-8013-85af5078b06a","countryId":"country.1s29x2y"},"geometry":{"type":"Polygon","coordinates":[[[6.1186,46.3318],[6.0897,46.2464],[5.9585,46.212],[5.9588,46.1305],[6.1079,46.1386],[6.2812,46.2401],[6.2166,46.3095],[6.1186,46.3318]]]}},{"type":"Feature","properties":{"sourceId":"1159314891","regionId":"region.5096dd58-987c-41e6-8da9-30d2c4c6c6a9","countryId":"country.1s29x2y"},"geometry":{"type":"MultiPolygon","coordinates":[[[[6.1186,46.3318],[6.2166,46.3095],[6.3016,46.3945],[6.6137,46.4559],[6.7881,46.405],[6.8546,46.3977],[7.0449,46.1899],[7.2278,46.3314],[7.2425,46.5561],[7.0003,46.4445],[6.807,46.5807],[7.0006,46.8412],[6.9074,46.9255],[6.8751,46.9072],[6.766,46.8453],[6.7255,46.939],[6.4431,46.8515],[6.4292,46.7608],[6.1319,46.5956],[6.138,46.5576],[6.059,46.4174],[6.1186,46.3318]]],[[[7.0211,46.9897],[6.9459,46.9472],[7.0624,46.9782],[7.0211,46.9897]]]]}},{"type":"Feature","properties":{"sourceId":"1159307655","regionId":"region.a9315659-3442-4ac5-8627-1db221c02277","countryId":"country.1s29x2y"},"geometry":{"type":"Polygon","coordinates":[[[6.4431,46.8515],[6.7255,46.939],[6.766,46.8453],[6.8751,46.9072],[6.9074,46.9255],[6.9459,46.9472],[7.0211,46.9897],[7.0825,47.096],[6.8798,47.0898],[6.8498,47.1651],[6.8381,47.1681],[6.6654,47.0213],[6.4426,46.9442],[6.4431,46.8515]]]}},{"type":"Feature","properties":{"sourceId":"1159314895","regionId":"region.d241f043-2e49-4e2a-9b90-e7d09166dd85","countryId":"country.1s29x2y"},"geometry":{"type":"Polygon","coordinates":[[[8.4462,46.7692],[8.3916,46.7751],[8.3682,46.7895],[8.1581,46.759],[8.0437,46.7883],[7.8705,46.8503],[7.9525,47.0027],[7.8733,47.0481],[7.8393,47.2318],[7.8229,47.269],[7.5834,47.2776],[7.6769,47.1788],[7.4376,47.1243],[7.3488,47.2166],[7.5563,47.3182],[7.3872,47.3126],[6.9935,47.1844],[6.8498,47.1651],[6.8798,47.0898],[7.0825,47.096],[7.0211,46.9897],[7.0624,46.9782],[7.3149,46.8559],[7.3127,46.7227],[7.3827,46.6908],[7.2425,46.5561],[7.2278,46.3314],[7.4947,46.374],[7.6244,46.4434],[7.7231,46.4202],[8.0031,46.5574],[8.1903,46.5219],[8.3387,46.5663],[8.4094,46.6557],[8.4462,46.7692]]]}},{"type":"Feature","properties":{"sourceId":"1159307659","regionId":"region.05d48494-8921-492d-9f31-0e9821c117bb","countryId":"country.1s29x2y"},"geometry":{"type":"Polygon","coordinates":[[[8.4056,47.1423],[8.2886,47.2681],[7.8393,47.2318],[7.8733,47.0481],[7.9525,47.0027],[7.8705,46.8503],[8.0437,46.7883],[8.0767,46.8982],[8.2271,46.9716],[8.4651,46.9933],[8.4424,47.1133],[8.4056,47.1423]]]}},{"type":"Feature","properties":{"sourceId":"1159307689","regionId":"region.75cc589e-ca48-4d0b-8d3e-bab253464c70","countryId":"country.1s29x2y"},"geometry":{"type":"Polygon","coordinates":[[[8.4424,47.1133],[8.6375,47.1002],[8.6835,47.1654],[8.4074,47.2455],[8.4056,47.1423],[8.4424,47.1133]]]}},{"type":"Feature","properties":{"sourceId":"1159307683","regionId":"region.53c1f6ff-8950-4b23-a912-2b0f4aea5d93","countryId":"country.1s29x2y"},"geometry":{"type":"Polygon","coordinates":[[[8.9303,46.9222],[8.5617,46.9881],[8.4726,46.8557],[8.4462,46.7692],[8.4094,46.6557],[8.4769,46.5318],[8.6779,46.5836],[8.6794,46.6946],[8.8717,46.8154],[8.9303,46.9222]]]}},{"type":"Feature","properties":{"sourceId":"1159307679","regionId":"region.985e8476-0b72-4ff8-9090-6ce602181f6d","countryId":"country.1s29x2y"},"geometry":{"type":"Polygon","coordinates":[[[8.5617,46.9881],[8.9303,46.9222],[8.8899,47.0265],[8.9851,47.1689],[8.7754,47.2206],[8.6835,47.1654],[8.6375,47.1002],[8.4424,47.1133],[8.4651,46.9933],[8.5617,46.9881]]]}},{"type":"Feature","properties":{"sourceId":"1159307673","regionId":"region.15b340e8-d1cd-4bb1-a668-c4f13211e7d1","countryId":"country.1s29x2y"},"geometry":{"type":"Polygon","coordinates":[[[8.9303,46.9222],[8.8717,46.8154],[9.0032,46.8196],[9.2409,46.9203],[9.1578,47.0312],[9.1799,47.1222],[8.9851,47.1689],[8.8899,47.0265],[8.9303,46.9222]]]}},{"type":"Feature","properties":{"sourceId":"1159307661","regionId":"region.284dfc2c-86f0-4bb5-b54c-6c6728a18bb8","countryId":"country.1s29x2y"},"geometry":{"type":"Polygon","coordinates":[[[8.4651,46.9933],[8.2271,46.9716],[8.3076,46.9673],[8.3682,46.7895],[8.3916,46.7751],[8.4726,46.8557],[8.5617,46.9881],[8.4651,46.9933]]]}},{"type":"Feature","properties":{"sourceId":"1159314889","regionId":"region.a62c2311-0b54-4196-9e33-4464dba259d1","countryId":"country.1s29x2y"},"geometry":{"type":"Polygon","coordinates":[[[7.2425,46.5561],[7.3827,46.6908],[7.3127,46.7227],[7.3149,46.8559],[7.0624,46.9782],[6.9459,46.9472],[6.9074,46.9255],[7.0006,46.8412],[6.807,46.5807],[7.0003,46.4445],[7.2425,46.5561]]]}},{"type":"Feature","properties":{"sourceId":"1159314901","regionId":"region.da6b85d9-6f86-46da-a968-8c0b328ccb10","countryId":"country.1s29x2y"},"geometry":{"type":"MultiPolygon","coordinates":[[[[8.3682,46.7895],[8.3076,46.9673],[8.2271,46.9716],[8.0767,46.8982],[8.0437,46.7883],[8.1581,46.759],[8.3682,46.7895]]],[[[8.3916,46.7751],[8.4462,46.7692],[8.4726,46.8557],[8.3916,46.7751]]]]}},{"type":"Feature","properties":{"sourceId":"1159307665","regionId":"region.935976d8-44d1-476d-8c36-41239c944006","countryId":"country.1s29x2y"},"geometry":{"type":"Polygon","coordinates":[[[9.4866,47.3936],[9.5405,47.3972],[9.5815,47.4244],[9.6084,47.4498],[9.226,47.4003],[9.2174,47.2715],[9.3315,47.2531],[9.3498,47.388],[9.4882,47.3534],[9.4866,47.3936]]]}},{"type":"Feature","properties":{"sourceId":"1159314905","regionId":"region.2085f857-bd53-4ed6-99bd-8aa46a668d4e","countryId":"country.1s29x2y"},"geometry":{"type":"Polygon","coordinates":[[[9.4882,47.3534],[9.3498,47.388],[9.3315,47.2531],[9.4882,47.3534]]]}}]}