{"type":"FeatureCollection","features":[{"type":"Feature","properties":{"sourceId":"1159309857","regionId":"region.7a9a5d4f-d65a-4126-9e09-9498d407f436","countryId":"country.1ena0me"},"geometry":{"type":"Polygon","coordinates":[[[34.0785,-9.5102],[33.9459,-9.55],[33.9513,-9.6736],[33.8653,-9.6696],[33.7346,-9.5841],[33.6501,-9.6109],[33.699,-9.7711],[33.4857,-9.9723],[33.6353,-10.0685],[33.6942,-10.0649],[33.9485,-10.452],[34.0901,-10.5694],[34.1844,-10.5849],[34.6209,-10.5824],[34.5801,-10.5318],[34.5853,-10.3007],[34.4833,-9.9462],[34.1908,-9.6068],[34.0785,-9.5102]]]}},{"type":"Feature","properties":{"sourceId":"1159311203","regionId":"region.b5f31e63-c908-458a-bb88-7ee981c8cb6a","countryId":"country.1ena0me"},"geometry":{"type":"Polygon","coordinates":[[[34.6209,-10.5824],[34.1844,-10.5849],[34.0901,-10.5694],[33.9485,-10.452],[33.6738,-10.573],[33.501,-10.7692],[33.3191,-10.8181],[33.291,-10.9751],[33.6096,-11.0533],[33.9519,-10.966],[34.0565,-11.077],[34.2349,-10.9657],[34.6178,-10.9657],[34.6724,-10.7395],[34.6209,-10.5824]]]}},{"type":"Feature","properties":{"sourceId":"1159311199","regionId":"region.90693c41-81de-4d32-9bec-17cb261eb955","countryId":"country.1ena0me"},"geometry":{"type":"Polygon","coordinates":[[[34.6178,-10.9657],[34.2349,-10.9657],[34.0565,-11.077],[34.0219,-11.2286],[34.1029,-11.4279],[33.9643,-11.5338],[33.8628,-11.5361],[33.7822,-11.6159],[33.7708,-11.7242],[33.8204,-11.7909],[33.8212,-11.9926],[33.7168,-12.1006],[33.8427,-12.1433],[34.0287,-12.2047],[34.3556,-12.2049],[34.3801,-12.1039],[34.5638,-11.8309],[34.6512,-11.57],[34.9646,-11.5736],[34.8866,-11.3754],[34.7591,-11.3375],[34.7141,-11.2027],[34.6211,-11.1197],[34.6178,-10.9657]]]}},{"type":"Feature","properties":{"sourceId":"1159317167","regionId":"region.b546845c-63aa-495a-9da2-67c27887a195","countryId":"country.1ena0me"},"geometry":{"type":"Polygon","coordinates":[[[34.6941,-12.0004],[34.6562,-12.0972],[34.7325,-12.109],[34.7542,-12.0201],[34.6941,-12.0004]]]}},{"type":"Feature","properties":{"sourceId":"1159311233","regionId":"region.7a9a5d4f-d65a-4126-9e09-9498d407f436","countryId":"country.1ena0me"},"geometry":{"type":"Polygon","coordinates":[[[32.9209,-9.4079],[32.992,-9.5018],[32.9747,-9.6013],[33.0892,-9.644],[33.1754,-9.6023],[33.2167,-9.7271],[33.337,-9.8237],[33.3656,-9.8988],[33.31,-10.0127],[33.5333,-10.2312],[33.5592,-10.4043],[33.6738,-10.573],[33.9485,-10.452],[33.6942,-10.0649],[33.6353,-10.0685],[33.4857,-9.9723],[33.699,-9.7711],[33.6501,-9.6109],[33.4042,-9.6049],[33.3003,-9.4922],[33.1729,-9.511],[32.9923,-9.3914],[32.9209,-9.4079]]]}},{"type":"Feature","properties":{"sourceId":"1159311197","regionId":"region.a212997f-c87b-467d-9649-7ee4e5be41e2","countryId":"country.1ena0me"},"geometry":{"type":"Polygon","coordinates":[[[33.291,-10.9751],[33.3909,-11.1648],[33.2303,-11.4166],[33.2126,-11.5638],[33.305,-11.644],[33.3127,-11.8987],[33.2549,-12.0726],[33.3301,-12.2983],[33.4583,-12.3181],[33.5139,-12.3743],[33.6512,-12.7025],[33.8351,-12.7096],[33.8847,-12.6348],[34.0572,-12.5642],[34.1019,-12.5023],[33.908,-12.4389],[33.8473,-12.3092],[33.7607,-12.2238],[33.8427,-12.1433],[33.7168,-12.1006],[33.8212,-11.9926],[33.8204,-11.7909],[33.7708,-11.7242],[33.7822,-11.6159],[33.8628,-11.5361],[33.9643,-11.5338],[34.1029,-11.4279],[34.0219,-11.2286],[34.0565,-11.077],[33.9519,-10.966],[33.6096,-11.0533],[33.291,-10.9751]]]}},{"type":"Feature","properties":{"sourceId":"1159311193","regionId":"region.f62436b7-87c4-41dc-b0f3-11e7c18f7fd5","countryId":"country.1ena0me"},"geometry":{"type":"Polygon","coordinates":[[[33.5139,-12.3743],[33.3732,-12.5185],[33.2551,-12.5319],[33.0248,-12.6127],[32.9411,-12.7699],[33.005,-12.893],[32.9659,-13.1168],[32.9951,-13.1909],[32.9055,-13.3514],[33.1396,-13.3366],[33.2057,-13.5096],[33.3334,-13.6283],[33.4223,-13.4805],[33.4639,-13.3971],[33.6189,-13.234],[33.6985,-13.2085],[33.8483,-13.0578],[33.9209,-13.0228],[34.0004,-12.9415],[33.9435,-12.854],[33.8327,-12.846],[33.8351,-12.7096],[33.6512,-12.7025],[33.5139,-12.3743]]]}},{"type":"Feature","properties":{"sourceId":"1159311217","regionId":"region.8ea15b62-0802-4ca7-b29c-703cd5fc1ad6","countryId":"country.1ena0me"},"geometry":{"type":"Polygon","coordinates":[[[32.9055,-13.3514],[32.8131,-13.5282],[32.7228,-13.5734],[32.8594,-13.8081],[33.0494,-13.9966],[33.1545,-13.9366],[33.2027,-14.0139],[33.2802,-14.0608],[33.2906,-14.1569],[33.3571,-14.2306],[33.3415,-13.9897],[33.2544,-13.8253],[33.3334,-13.6283],[33.2057,-13.5096],[33.1396,-13.3366],[32.9055,-13.3514]]]}},{"type":"Feature","properties":{"sourceId":"1159311201","regionId":"region.7cd9b828-3d73-40ec-9c20-de5010857d3a","countryId":"country.1ena0me"},"geometry":{"type":"Polygon","coordinates":[[[34.3556,-12.2049],[34.0287,-12.2047],[33.8427,-12.1433],[33.7607,-12.2238],[33.8473,-12.3092],[33.908,-12.4389],[34.1019,-12.5023],[34.0572,-12.5642],[33.8847,-12.6348],[33.8351,-12.7096],[33.8327,-12.846],[33.9435,-12.854],[34.0004,-12.9415],[33.9209,-13.0228],[34.0977,-13.1645],[34.1336,-13.4896],[34.3277,-13.4038],[34.5828,-13.4036],[34.5453,-13.3257],[34.5493,-13.1591],[34.4945,-12.6874],[34.3556,-12.2049]]]}},{"type":"Feature","properties":{"sourceId":"1159311223","regionId":"region.f0075218-eb52-4632-b916-866fac54cc6c","countryId":"country.1ena0me"},"geometry":{"type":"Polygon","coordinates":[[[34.5828,-13.4036],[34.3277,-13.4038],[34.1336,-13.4896],[34.1167,-13.5046],[34.1215,-13.6239],[34.2504,-13.7803],[34.2836,-13.8508],[34.4964,-14.1143],[34.5499,-14.0728],[34.736,-14.0781],[34.8639,-13.5163],[34.6406,-13.4924],[34.5828,-13.4036]]]}},{"type":"Feature","properties":{"sourceId":"1159311215","regionId":"region.01afb1f5-91f8-4fea-9681-d7b74917c522","countryId":"country.1ena0me"},"geometry":{"type":"Polygon","coordinates":[[[34.8639,-13.5163],[34.736,-14.0781],[34.7482,-14.3032],[34.797,-14.555],[34.9132,-14.7061],[34.9903,-14.7554],[35.275,-14.7557],[35.4395,-14.7622],[35.5312,-14.7081],[35.5964,-14.5888],[35.7505,-14.5431],[35.5228,-14.2627],[35.4557,-14.137],[35.0841,-13.7042],[34.8639,-13.5163]]]}},{"type":"Feature","properties":{"sourceId":"1159311205","regionId":"region.748703a6-fd61-4c7d-aa28-b3ae05215be9","countryId":"country.1ena0me"},"geometry":{"type":"Polygon","coordinates":[[[35.7505,-14.5431],[35.5964,-14.5888],[35.5312,-14.7081],[35.4395,-14.7622],[35.275,-14.7557],[35.3152,-14.8725],[35.1726,-15.2302],[35.4432,-15.2417],[35.5306,-15.2071],[35.7886,-15.2114],[35.7908,-15.1468],[35.9043,-14.8869],[35.8633,-14.8767],[35.853,-14.6675],[35.7505,-14.5431]]]}},{"type":"Feature","properties":{"sourceId":"1159311207","regionId":"region.b3eb1d57-550a-4e8b-a78e-08798bf2b508","countryId":"country.1ena0me"},"geometry":{"type":"Polygon","coordinates":[[[33.6184,-14.5618],[33.7204,-14.4897],[33.7742,-14.53],[33.8889,-14.4882],[34.0508,-14.4952],[34.0775,-14.4547],[34.3441,-14.3874],[34.3804,-14.4136],[34.5091,-14.4317],[34.7482,-14.3032],[34.736,-14.0781],[34.5499,-14.0728],[34.4964,-14.1143],[34.2836,-13.8508],[34.205,-13.9277],[34.0934,-14.113],[33.9639,-14.1957],[33.9418,-14.2823],[33.7163,-14.3861],[33.6184,-14.5618]]]}},{"type":"Feature","properties":{"sourceId":"1159311211","regionId":"region.bbbc88aa-1e2c-4811-83f5-d3e5a3ce533e","countryId":"country.1ena0me"},"geometry":{"type":"Polygon","coordinates":[[[33.6184,-14.5618],[33.7163,-14.3861],[33.9418,-14.2823],[33.9639,-14.1957],[34.0934,-14.113],[34.205,-13.9277],[34.2836,-13.8508],[34.2504,-13.7803],[34.0495,-13.8234],[33.9972,-13.7817],[33.7747,-13.7482],[33.7548,-13.6621],[33.5824,-13.7036],[33.467,-13.6652],[33.4223,-13.4805],[33.3334,-13.6283],[33.2544,-13.8253],[33.3415,-13.9897],[33.3571,-14.2306],[33.4392,-14.3807],[33.6184,-14.5618]]]}},{"type":"Feature","properties":{"sourceId":"1159311191","regionId":"region.ceeca9c2-d632-49a0-b3a8-a98767889d38","countryId":"country.1ena0me"},"geometry":{"type":"Polygon","coordinates":[[[34.8866,-16.7008],[35.0045,-16.8146],[35.0958,-16.8173],[35.1134,-16.9603],[35.0365,-17.0359],[35.0813,-17.1241],[35.2917,-17.1294],[35.2782,-16.7007],[35.1743,-16.6255],[35.1319,-16.5376],[35.2373,-16.3991],[35.0961,-16.3314],[35.0634,-16.4783],[34.8866,-16.7008]]]}},{"type":"Feature","properties":{"sourceId":"1159311227","regionId":"region.ce776587-6ddd-4e3f-88ad-4f43c31c0087","countryId":"country.1ena0me"},"geometry":{"type":"Polygon","coordinates":[[[34.8866,-16.7008],[35.0634,-16.4783],[35.0961,-16.3314],[35.0823,-16.2642],[34.8916,-16.0267],[34.8505,-15.9724],[34.8635,-15.8237],[34.7498,-15.8122],[34.537,-15.8068],[34.3422,-15.7303],[34.2471,-15.7941],[34.2332,-15.8898],[34.3877,-16.037],[34.3852,-16.1865],[34.446,-16.2932],[34.5247,-16.3008],[34.655,-16.4894],[34.7321,-16.5292],[34.8866,-16.7008]]]}},{"type":"Feature","properties":{"sourceId":"1159311239","regionId":"region.20cc824d-dc24-4897-b56f-234b3894343a","countryId":"country.1ena0me"},"geometry":{"type":"Polygon","coordinates":[[[34.3422,-15.7303],[34.537,-15.8068],[34.7498,-15.8122],[34.763,-15.6107],[34.4191,-15.5753],[34.3422,-15.7303]]]}},{"type":"Feature","properties":{"sourceId":"1159317169","regionId":"region.ebd60827-6e32-4cf5-b684-d4024cfc2130","countryId":"country.1ena0me"},"geometry":{"type":"Polygon","coordinates":[[[34.4191,-15.5753],[34.763,-15.6107],[34.8429,-15.5458],[34.8947,-15.4185],[35.0111,-15.351],[35.0546,-15.3246],[34.8431,-15.3137],[34.7698,-15.2406],[34.5591,-15.2002],[34.5691,-15.2712],[34.4101,-15.4813],[34.4191,-15.5753]]]}},{"type":"Feature","properties":{"sourceId":"1159311219","regionId":"region.90fee6b9-a105-49c0-8da5-95f775e275b0","countryId":"country.1ena0me"},"geometry":{"type":"Polygon","coordinates":[[[34.5591,-15.2002],[34.7698,-15.2406],[34.8431,-15.3137],[34.9174,-14.9925],[34.9903,-14.7554],[34.9132,-14.7061],[34.797,-14.555],[34.7482,-14.3032],[34.5091,-14.4317],[34.3804,-14.4136],[34.5018,-14.5757],[34.5058,-14.7003],[34.5842,-14.9845],[34.5487,-15.0576],[34.5591,-15.2002]]]}},{"type":"Feature","properties":{"sourceId":"1159311235","regionId":"region.3ddbec89-0556-4513-9ead-9315f57cd2c4","countryId":"country.1ena0me"},"geometry":{"type":"Polygon","coordinates":[[[35.7886,-15.2114],[35.5306,-15.2071],[35.4432,-15.2417],[35.1726,-15.2302],[35.0546,-15.3246],[35.0111,-15.351],[35.1424,-15.5373],[35.3407,-15.6834],[35.4653,-15.6634],[35.5266,-15.6067],[35.661,-15.4855],[35.8376,-15.4592],[35.8376,-15.4583],[35.7886,-15.2114]]]}},{"type":"Feature","properties":{"sourceId":"1159311243","regionId":"region.cf3cb038-1266-42ba-bb94-9e7a69717676","countryId":"country.1ena0me"},"geometry":{"type":"Polygon","coordinates":[[[35.8376,-15.4592],[35.661,-15.4855],[35.5266,-15.6067],[35.5336,-15.8299],[35.6006,-15.9355],[35.6653,-15.8933],[35.7966,-15.9332],[35.8376,-15.4592]]]}},{"type":"Feature","properties":{"sourceId":"1159311241","regionId":"region.00d137a8-3d2b-4517-99ec-0fd1a7c4bab5","countryId":"country.1ena0me"},"geometry":{"type":"Polygon","coordinates":[[[35.7966,-15.9332],[35.6653,-15.8933],[35.6006,-15.9355],[35.5336,-15.8299],[35.5266,-15.6067],[35.4653,-15.6634],[35.3407,-15.6834],[35.3348,-15.9427],[35.3104,-16.0053],[35.2992,-16.2087],[35.3746,-16.141],[35.6976,-16.1075],[35.77,-16.0588],[35.7966,-15.9332]]]}},{"type":"Feature","properties":{"sourceId":"1159311189","regionId":"region.6525778d-63c2-4e80-b6a6-7933c2a38eb3","countryId":"country.1ena0me"},"geometry":{"type":"Polygon","coordinates":[[[35.2992,-16.2087],[35.3104,-16.0053],[35.1463,-15.8609],[34.9942,-15.9319],[34.8916,-16.0267],[35.0823,-16.2642],[35.0961,-16.3314],[35.2373,-16.3991],[35.2992,-16.2087]]]}},{"type":"Feature","properties":{"sourceId":"1159311209","regionId":"region.74b54e6a-3ddc-4d4e-857e-cf688fc8637c","countryId":"country.1ena0me"},"geometry":{"type":"Polygon","coordinates":[[[34.1167,-13.5046],[33.7478,-13.4933],[33.6915,-13.322],[33.6189,-13.234],[33.4639,-13.3971],[33.4223,-13.4805],[33.467,-13.6652],[33.5824,-13.7036],[33.7548,-13.6621],[33.7747,-13.7482],[33.9972,-13.7817],[34.0495,-13.8234],[34.2504,-13.7803],[34.1215,-13.6239],[34.1167,-13.5046]]]}},{"type":"Feature","properties":{"sourceId":"1159311225","regionId":"region.b14bbc04-66ff-4507-9a68-f0978edeb8c0","countryId":"country.1ena0me"},"geometry":{"type":"Polygon","coordinates":[[[35.1726,-15.2302],[35.3152,-14.8725],[35.275,-14.7557],[34.9903,-14.7554],[34.9174,-14.9925],[34.8431,-15.3137],[35.0546,-15.3246],[35.1726,-15.2302]]]}},{"type":"Feature","properties":{"sourceId":"1159311229","regionId":"region.c35c9979-20b0-44de-8b9b-3dda511212e7","countryId":"country.1ena0me"},"geometry":{"type":"Polygon","coordinates":[[[35.3407,-15.6834],[35.1424,-15.5373],[35.105,-15.6047],[35.1463,-15.8609],[35.3104,-16.0053],[35.3348,-15.9427],[35.3407,-15.6834]]]}},{"type":"Feature","properties":{"sourceId":"1159311237","regionId":"region.a114adb9-5644-4de5-9ceb-da3ee0a1e8e1","countryId":"country.1ena0me"},"geometry":{"type":"Polygon","coordinates":[[[35.1424,-15.5373],[35.0111,-15.351],[34.8947,-15.4185],[34.8429,-15.5458],[34.763,-15.6107],[34.7498,-15.8122],[34.8635,-15.8237],[34.8505,-15.9724],[34.8916,-16.0267],[34.9942,-15.9319],[35.1463,-15.8609],[35.105,-15.6047],[35.1424,-15.5373]]]}},{"type":"Feature","properties":{"sourceId":"1159311221","regionId":"region.d3cd9faf-9130-475d-a457-60f104c99289","countryId":"country.1ena0me"},"geometry":{"type":"Polygon","coordinates":[[[33.9209,-13.0228],[33.8483,-13.0578],[33.6985,-13.2085],[33.6189,-13.234],[33.6915,-13.322],[33.7478,-13.4933],[34.1167,-13.5046],[34.1336,-13.4896],[34.0977,-13.1645],[33.9209,-13.0228]]]}}]}