{"type":"FeatureCollection","features":[{"type":"Feature","properties":{"sourceId":"1159310507","regionId":"region.43659a7f-f100-4dbd-ae00-e304d7a7a234","countryId":"country.e06wze"},"geometry":{"type":"Polygon","coordinates":[[[-5.3407,35.8474],[-5.2919,35.8905],[-5.3989,35.9245],[-5.3407,35.8474]]]}},{"type":"Feature","properties":{"sourceId":"1159310505","regionId":"region.975b46a8-fed9-4794-94ef-0bb433e9eb0a","countryId":"country.e06wze"},"geometry":{"type":"Polygon","coordinates":[[[-2.9478,35.3298],[-2.9669,35.3139],[-2.943,35.2679],[-2.9129,35.2769],[-2.9478,35.3298]]]}},{"type":"Feature","properties":{"sourceId":"1159315293","regionId":"region.26a448c2-06bf-4770-ba11-539085659194","countryId":"country.e06wze"},"geometry":{"type":"Polygon","coordinates":[[[-1.7497,43.2948],[-1.9187,43.1922],[-1.9267,43.1144],[-2.0427,42.9945],[-2.253,42.9001],[-2.2927,42.6631],[-2.4087,42.6602],[-2.4061,42.4971],[-2.0765,42.4426],[-1.8619,42.2842],[-1.6971,42.2158],[-1.8961,42.0761],[-1.8524,42.0012],[-1.5559,41.9116],[-1.4193,41.9089],[-1.316,42.0371],[-1.4164,42.2206],[-1.342,42.4148],[-1.145,42.6414],[-0.9044,42.7426],[-0.8062,42.9044],[-0.745,42.9187],[-0.9815,42.957],[-1.2749,43.0468],[-1.435,43.0357],[-1.4035,43.2433],[-1.7497,43.2948]]]}},{"type":"Feature","properties":{"sourceId":"1159317787","regionId":"region.8d328579-ba08-4422-aa1f-7b22e102dcae","countryId":"country.e06wze"},"geometry":{"type":"Polygon","coordinates":[[[-1.7941,43.386],[-2.0989,43.3041],[-2.4068,43.3293],[-2.5465,43.088],[-2.559,42.9628],[-2.3547,42.9501],[-2.253,42.9001],[-2.0427,42.9945],[-1.9267,43.1144],[-1.9187,43.1922],[-1.7497,43.2948],[-1.7941,43.386]]]}},{"type":"Feature","properties":{"sourceId":"1159317789","regionId":"region.0c0d5f1b-61e5-4670-affa-376c34adf296","countryId":"country.e06wze"},"geometry":{"type":"Polygon","coordinates":[[[-0.745,42.9187],[-0.8062,42.9044],[-0.9044,42.7426],[-0.8982,42.4326],[-0.8389,42.3687],[-0.9225,42.2716],[-0.7574,42.2585],[-0.7451,42.1009],[-0.8537,41.9967],[-0.668,41.9553],[-0.5249,41.8398],[-0.4888,41.7355],[-0.2583,41.5782],[-0.1749,41.582],[-0.0699,41.3729],[0.1061,41.3509],[0.2407,41.4285],[0.3383,41.4059],[0.4412,41.5461],[0.3285,41.6774],[0.5976,41.8744],[0.7031,42.1203],[0.7511,42.348],[0.7014,42.4843],[0.7615,42.5693],[0.6634,42.6962],[0.4669,42.6904],[0.2754,42.6687],[0.1692,42.7265],[-0.0389,42.6851],[-0.3051,42.8308],[-0.5612,42.7735],[-0.745,42.9187]]]}},{"type":"Feature","properties":{"sourceId":"1159317793","regionId":"region.c066a49c-998b-4e22-8738-711ade72cbb0","countryId":"country.e06wze"},"geometry":{"type":"Polygon","coordinates":[[[0.8561,42.8128],[0.6563,42.8384],[0.6634,42.6962],[0.7615,42.5693],[0.7014,42.4843],[0.7511,42.348],[0.7031,42.1203],[0.5976,41.8744],[0.3285,41.6774],[0.4412,41.5461],[0.3383,41.4059],[0.3604,41.2328],[0.4381,41.3248],[0.5314,41.2928],[0.9577,41.3545],[1.073,41.4827],[1.2078,41.5723],[1.3927,41.575],[1.4385,41.6435],[1.4095,41.7825],[1.5602,41.7678],[1.6302,41.8291],[1.7068,42.1308],[1.7156,42.2881],[1.8425,42.3063],[1.8072,42.4185],[1.7122,42.4937],[1.707,42.5028],[1.657,42.4976],[1.5727,42.4531],[1.45,42.5041],[1.4293,42.5954],[1.3191,42.7134],[1.1343,42.716],[1.0682,42.7761],[0.8561,42.8128]]]}},{"type":"Feature","properties":{"sourceId":"1159317795","regionId":"region.666e858a-2009-42c9-8f40-0ecc1dab1b4b","countryId":"country.e06wze"},"geometry":{"type":"Polygon","coordinates":[[[1.7122,42.4937],[1.8072,42.4185],[1.8425,42.3063],[2.0407,42.2935],[2.0588,42.1434],[2.3659,42.1213],[2.5026,42.0259],[2.4399,41.9494],[2.4366,41.8029],[2.5474,41.7192],[2.7015,41.7489],[2.7785,41.6456],[3.1502,41.8454],[3.2357,41.9655],[3.2145,42.0683],[3.1225,42.1405],[3.1516,42.2568],[3.263,42.2399],[3.3177,42.323],[3.1745,42.3638],[3.181,42.4315],[2.9337,42.4702],[2.6403,42.3728],[2.4649,42.3406],[2.2774,42.4286],[2.137,42.4162],[2.0517,42.3524],[1.9275,42.4369],[1.7122,42.4937]]]}},{"type":"Feature","properties":{"sourceId":"1159310641","regionId":"region.4f346058-7831-4b35-ae71-acb8796e1350","countryId":"country.e06wze"},"geometry":{"type":"Polygon","coordinates":[[[-7.2259,38.7661],[-7.3592,38.4464],[-7.1672,38.2721],[-7.1171,38.1836],[-6.9506,38.1984],[-6.8104,38.113],[-6.6446,38.0937],[-6.5717,38.0239],[-6.4496,38.0514],[-6.1833,37.939],[-5.976,37.9986],[-5.9154,38.1141],[-5.7275,38.1883],[-5.581,38.1351],[-5.5213,38.2668],[-5.5694,38.4253],[-5.3624,38.5839],[-5.0366,38.7284],[-4.9129,38.8823],[-4.9443,39.0097],[-4.8068,39.1988],[-4.6927,39.4498],[-4.753,39.4182],[-4.9444,39.3919],[-5.1788,39.31],[-5.3396,39.3236],[-5.3472,39.2288],[-5.4445,39.1586],[-5.6899,39.0829],[-5.8104,39.1447],[-6.1422,39.0315],[-6.3715,39.1629],[-6.6597,39.1989],[-6.7995,39.377],[-7.0492,39.4367],[-7.073,39.3806],[-7.2508,39.2706],[-7.1675,39.1135],[-7.0388,39.1091],[-6.9733,39.014],[-7.0561,38.8551],[-7.2259,38.7661]]]}},{"type":"Feature","properties":{"sourceId":"1159317821","regionId":"region.ec739441-4cb0-485d-b8a6-b857db739b5b","countryId":"country.e06wze"},"geometry":{"type":"Polygon","coordinates":[[[-5.3388,36.1411],[-5.2537,36.2971],[-5.4413,36.5236],[-5.4449,36.6182],[-5.3393,36.6663],[-5.2627,36.8739],[-5.1941,36.8291],[-5.0881,36.8936],[-5.1422,37.0037],[-5.219,36.9496],[-5.315,37.0164],[-5.489,37.0397],[-5.5237,36.9386],[-5.6422,36.9585],[-5.8662,36.897],[-5.891,36.8421],[-6.1052,36.8575],[-6.2316,36.9028],[-6.4333,36.7512],[-6.3947,36.6369],[-6.2349,36.5758],[-6.2184,36.4025],[-6.0368,36.1895],[-5.9172,36.1841],[-5.7961,36.0855],[-5.6118,36.0065],[-5.4455,36.0574],[-5.3584,36.1411],[-5.3388,36.1411]]]}},{"type":"Feature","properties":{"sourceId":"1159317761","regionId":"region.74247e4c-e8e8-42d9-9218-494c97ee2622","countryId":"country.e06wze"},"geometry":{"type":"Polygon","coordinates":[[[-8.2224,42.1536],[-8.108,42.0109],[-8.2317,41.886],[-8.1793,41.8126],[-8.0504,41.816],[-7.722,41.8993],[-7.5884,41.8242],[-7.4054,41.8352],[-7.2093,41.8892],[-7.1454,41.9875],[-6.9835,41.963],[-7.0247,42.0757],[-6.9329,42.1741],[-6.7832,42.2529],[-6.7554,42.3627],[-6.8211,42.4851],[-7.071,42.5035],[-7.2557,42.4062],[-7.4183,42.4332],[-7.6173,42.4021],[-7.8615,42.504],[-7.9308,42.5785],[-8.0187,42.5421],[-8.1738,42.5719],[-8.3423,42.4325],[-8.262,42.3152],[-8.2224,42.1536]]]}},{"type":"Feature","properties":{"sourceId":"1159317813","regionId":"region.95771f99-e99e-4830-a4b1-9f38d5826e87","countryId":"country.e06wze"},"geometry":{"type":"Polygon","coordinates":[[[-7.2508,39.2706],[-7.073,39.3806],[-7.0492,39.4367],[-6.7995,39.377],[-6.6597,39.1989],[-6.3715,39.1629],[-6.1422,39.0315],[-5.8104,39.1447],[-5.6899,39.0829],[-5.4445,39.1586],[-5.3472,39.2288],[-5.3396,39.3236],[-5.1788,39.31],[-4.9444,39.3919],[-5.1976,39.5996],[-5.1417,39.7203],[-5.1681,39.7929],[-5.391,39.9204],[-5.328,40.1159],[-5.3731,40.2544],[-5.4781,40.2042],[-5.6038,40.2194],[-5.7277,40.294],[-5.9037,40.2843],[-6.08,40.3484],[-6.2067,40.4776],[-6.5155,40.3524],[-6.5851,40.272],[-6.8245,40.2464],[-6.8745,40.2792],[-6.9421,40.255],[-7.0158,40.1191],[-6.8797,40.0092],[-6.9242,39.8716],[-7.0358,39.6893],[-7.5559,39.6772],[-7.5158,39.5938],[-7.3135,39.4574],[-7.3267,39.3413],[-7.2508,39.2706]]]}},{"type":"Feature","properties":{"sourceId":"1159317773","regionId":"region.0c82f24c-a860-40e4-a4ad-b03240d623d0","countryId":"country.e06wze"},"geometry":{"type":"Polygon","coordinates":[[[-6.8745,40.2792],[-6.8245,40.2464],[-6.5851,40.272],[-6.5155,40.3524],[-6.2067,40.4776],[-6.08,40.3484],[-5.9037,40.2843],[-5.7277,40.294],[-5.6877,40.4246],[-5.4596,40.4797],[-5.363,40.6744],[-5.1615,40.8185],[-5.0958,41.0017],[-5.1251,41.132],[-5.2888,41.1821],[-5.3011,41.1199],[-5.6605,41.2441],[-5.8892,41.2353],[-5.9468,41.1411],[-6.3219,41.2805],[-6.4821,41.303],[-6.6466,41.2676],[-6.818,41.0541],[-6.9274,41.0481],[-6.8367,40.8402],[-6.8143,40.6472],[-6.8571,40.4421],[-6.7944,40.3564],[-6.8745,40.2792]]]}},{"type":"Feature","properties":{"sourceId":"1159317775","regionId":"region.73806a97-7b36-4077-8a61-cbe967d3b45f","countryId":"country.e06wze"},"geometry":{"type":"Polygon","coordinates":[[[-6.4821,41.303],[-6.3219,41.2805],[-5.9468,41.1411],[-5.8892,41.2353],[-5.6605,41.2441],[-5.3011,41.1199],[-5.2888,41.1821],[-5.3315,41.4809],[-5.2898,41.563],[-5.3912,41.761],[-5.2796,41.8133],[-5.2805,41.9789],[-5.3763,42.0414],[-5.4216,42.0308],[-5.5208,42.097],[-5.6433,42.1287],[-5.9559,42.1258],[-6.2037,42.1483],[-6.3115,42.2081],[-6.4906,42.1842],[-6.7832,42.2529],[-6.9329,42.1741],[-7.0247,42.0757],[-6.9835,41.963],[-6.6568,41.9331],[-6.5242,41.8674],[-6.5553,41.6749],[-6.3659,41.6636],[-6.2059,41.5703],[-6.321,41.4196],[-6.4821,41.303]]]}},{"type":"Feature","properties":{"sourceId":"1159317759","regionId":"region.3523e79e-377f-4fff-9f61-6211455d05d0","countryId":"country.e06wze"},"geometry":{"type":"Polygon","coordinates":[[[-8.2224,42.1536],[-8.262,42.3152],[-8.3423,42.4325],[-8.1738,42.5719],[-8.0187,42.5421],[-7.9308,42.5785],[-7.8804,42.722],[-7.9998,42.8489],[-8.1744,42.853],[-8.7309,42.6884],[-8.823,42.5695],[-8.8675,42.4147],[-8.7958,42.2582],[-8.8986,42.1018],[-8.8787,41.9071],[-8.7508,41.969],[-8.6269,42.051],[-8.3467,42.1017],[-8.2224,42.1536]]]}},{"type":"Feature","properties":{"sourceId":"1159317817","regionId":"region.231e6ddc-e1f3-417f-8bf5-4c933468c332","countryId":"country.e06wze"},"geometry":{"type":"Polygon","coordinates":[[[-7.4144,37.1928],[-7.0294,37.2055],[-6.7449,37.1014],[-6.4996,36.9597],[-6.3391,36.9047],[-6.3642,37.3982],[-6.3152,37.4382],[-6.4432,37.6234],[-6.469,37.7247],[-6.185,37.8034],[-6.1833,37.939],[-6.4496,38.0514],[-6.5717,38.0239],[-6.6446,38.0937],[-6.8104,38.113],[-6.9506,38.1984],[-7.024,38.0226],[-7.1233,38.04],[-7.2686,37.9492],[-7.3344,37.8119],[-7.4263,37.7506],[-7.5146,37.5283],[-7.4759,37.4943],[-7.4144,37.1928]]]}},{"type":"Feature","properties":{"sourceId":"1159309497","regionId":"region.2dc4cd18-4d84-486e-9e2b-c5c078d70627","countryId":"country.e06wze"},"geometry":{"type":"Polygon","coordinates":[[[2.7785,41.6456],[2.7015,41.7489],[2.5474,41.7192],[2.4366,41.8029],[2.4399,41.9494],[2.5026,42.0259],[2.3659,42.1213],[2.0588,42.1434],[2.0407,42.2935],[1.8425,42.3063],[1.7156,42.2881],[1.7068,42.1308],[1.6302,41.8291],[1.5602,41.7678],[1.4095,41.7825],[1.4385,41.6435],[1.3927,41.575],[1.5596,41.3663],[1.6244,41.1922],[2.0603,41.2746],[2.2967,41.4653],[2.7785,41.6456]]]}},{"type":"Feature","properties":{"sourceId":"1159317797","regionId":"region.5c28f471-5d48-4e5d-9a45-94c15115bd57","countryId":"country.e06wze"},"geometry":{"type":"Polygon","coordinates":[[[1.6244,41.1922],[1.5596,41.3663],[1.3927,41.575],[1.2078,41.5723],[1.073,41.4827],[0.9577,41.3545],[0.5314,41.2928],[0.4381,41.3248],[0.3604,41.2328],[0.2089,41.1196],[0.2165,41.0706],[0.2897,40.9825],[0.2719,40.8292],[0.173,40.7309],[0.2931,40.6321],[0.5238,40.5262],[0.5998,40.6137],[0.8724,40.7071],[0.7142,40.8152],[0.9904,41.0397],[1.6244,41.1922]]]}},{"type":"Feature","properties":{"sourceId":"1159317799","regionId":"region.2a1cb97e-08f9-45fa-8d4d-b8b2e386be3b","countryId":"country.e06wze"},"geometry":{"type":"Polygon","coordinates":[[[0.5238,40.5262],[0.2931,40.6321],[0.173,40.7309],[-0.0745,40.7308],[-0.1658,40.7799],[-0.2944,40.6058],[-0.2891,40.3892],[-0.4423,40.2378],[-0.5344,40.2404],[-0.6143,40.0717],[-0.7577,40.0346],[-0.8391,39.9458],[-0.7913,39.8775],[-0.5331,39.7962],[-0.4782,39.7281],[-0.3092,39.7874],[-0.1945,39.7154],[0.2053,40.1715],[0.3506,40.2849],[0.5238,40.5262]]]}},{"type":"Feature","properties":{"sourceId":"1159315295","regionId":"region.a4143772-c084-4c36-96bf-5b789dbd917d","countryId":"country.e06wze"},"geometry":{"type":"MultiPolygon","coordinates":[[[[-0.1945,39.7154],[-0.3092,39.7874],[-0.4782,39.7281],[-0.5331,39.7962],[-0.7913,39.8775],[-1.0003,39.9792],[-1.1455,39.9723],[-1.2922,39.6727],[-1.372,39.6836],[-1.4944,39.5673],[-1.501,39.422],[-1.3397,39.3417],[-1.1777,39.3041],[-1.1786,39.2206],[-1.2621,39.0737],[-1.121,38.9326],[-0.9592,38.94],[-0.9306,38.7855],[-0.7301,38.7527],[-0.031,38.8828],[-0.21,39.0787],[-0.2155,39.1818],[-0.3013,39.322],[-0.3234,39.5162],[-0.1945,39.7154]]],[[[-1.1627,40.0115],[-1.1511,40.1101],[-1.4485,40.1498],[-1.3695,40.0163],[-1.1627,40.0115]]]]}},{"type":"Feature","properties":{"sourceId":"1159317803","regionId":"region.c0f6f177-6c42-46d6-8140-f6870095b378","countryId":"country.e06wze"},"geometry":{"type":"Polygon","coordinates":[[[-0.031,38.8828],[-0.7301,38.7527],[-0.9306,38.7855],[-0.9035,38.6887],[-1.0221,38.6545],[-1.024,38.4834],[-1.0767,38.3497],[-0.9692,38.2708],[-1.0329,38.1169],[-0.9167,37.9336],[-0.7606,37.8459],[-0.6545,37.9893],[-0.6095,38.178],[-0.504,38.2072],[-0.5188,38.2987],[-0.3294,38.47],[-0.0902,38.5353],[-0.0148,38.6244],[0.2341,38.7579],[0.154,38.831],[-0.031,38.8828]]]}},{"type":"Feature","properties":{"sourceId":"1159310549","regionId":"region.98b16a8e-4c0a-43e1-8a20-9d9d9480c8ae","countryId":"country.e06wze"},"geometry":{"type":"Polygon","coordinates":[[[-0.7606,37.8459],[-0.9167,37.9336],[-1.0329,38.1169],[-0.9692,38.2708],[-1.0767,38.3497],[-1.024,38.4834],[-1.0221,38.6545],[-1.1742,38.7541],[-1.4336,38.6558],[-1.502,38.5349],[-1.4779,38.4037],[-1.6267,38.3114],[-1.7505,38.3803],[-1.8858,38.3062],[-2.0591,38.2904],[-2.2119,38.1959],[-2.3385,38.0265],[-2.2097,37.9157],[-1.9828,37.8708],[-2.0007,37.6538],[-1.8384,37.4548],[-1.6416,37.381],[-1.4884,37.4332],[-1.3237,37.562],[-1.1671,37.5438],[-1.0699,37.5826],[-0.9252,37.5559],[-0.7053,37.6195],[-0.8526,37.7238],[-0.7606,37.8459]]]}},{"type":"Feature","properties":{"sourceId":"1159317829","regionId":"region.cb2cfd87-047d-4a5f-8143-d069f3ea3f83","countryId":"country.e06wze"},"geometry":{"type":"Polygon","coordinates":[[[-1.6416,37.381],[-1.8384,37.4548],[-2.0007,37.6538],[-1.9828,37.8708],[-2.2097,37.9157],[-2.376,37.6121],[-2.3585,37.5222],[-2.4902,37.4894],[-2.6421,37.3832],[-2.6601,37.212],[-2.8599,37.2609],[-2.8847,37.1794],[-3.0154,37.0697],[-3.029,36.8445],[-3.1282,36.7464],[-2.9333,36.7517],[-2.7567,36.6804],[-2.6589,36.6948],[-2.5769,36.8113],[-2.3617,36.8368],[-2.2036,36.7371],[-2.0712,36.7753],[-2.0028,36.887],[-1.8987,36.9501],[-1.8127,37.2071],[-1.6416,37.381]]]}},{"type":"Feature","properties":{"sourceId":"1159317827","regionId":"region.fa2b155c-bae5-4c48-8c56-f878a5c240a8","countryId":"country.e06wze"},"geometry":{"type":"Polygon","coordinates":[[[-3.1282,36.7464],[-3.029,36.8445],[-3.0154,37.0697],[-2.8847,37.1794],[-2.8599,37.2609],[-2.6601,37.212],[-2.6421,37.3832],[-2.4902,37.4894],[-2.3585,37.5222],[-2.376,37.6121],[-2.2097,37.9157],[-2.3385,38.0265],[-2.5474,38.0806],[-2.5983,38.0057],[-2.7863,37.9125],[-2.8896,37.7743],[-2.9021,37.6657],[-3.0908,37.596],[-3.2518,37.633],[-3.424,37.5685],[-3.5071,37.6133],[-3.7919,37.4663],[-3.8413,37.3863],[-4.0009,37.4021],[-4.2092,37.3524],[-4.3203,37.1866],[-4.261,37.024],[-4.1485,36.9485],[-3.7682,36.8019],[-3.7772,36.7358],[-3.6011,36.7426],[-3.4152,36.6955],[-3.3296,36.7449],[-3.1282,36.7464]]]}},{"type":"Feature","properties":{"sourceId":"1159317823","regionId":"region.875dc2cb-93a8-419c-9a42-39bbc22203d7","countryId":"country.e06wze"},"geometry":{"type":"Polygon","coordinates":[[[-3.7772,36.7358],[-3.7682,36.8019],[-4.1485,36.9485],[-4.261,37.024],[-4.3203,37.1866],[-4.4449,37.2776],[-4.5393,37.2113],[-4.6532,37.2559],[-4.7381,37.1812],[-4.8399,37.1918],[-4.9166,37.113],[-5.1422,37.0037],[-5.0881,36.8936],[-5.1941,36.8291],[-5.2627,36.8739],[-5.3393,36.6663],[-5.4449,36.6182],[-5.4413,36.5236],[-5.2537,36.2971],[-5.1866,36.4112],[-4.9027,36.5065],[-4.7228,36.493],[-4.5248,36.5807],[-4.4333,36.7107],[-4.2247,36.7124],[-4.0567,36.748],[-3.7772,36.7358]]]}},{"type":"Feature","properties":{"sourceId":"1159317815","regionId":"region.d0cf5293-3378-4aef-a4ca-207a527d6dbe","countryId":"country.e06wze"},"geometry":{"type":"Polygon","coordinates":[[[-6.2316,36.9028],[-6.1052,36.8575],[-5.891,36.8421],[-5.8662,36.897],[-5.6422,36.9585],[-5.5237,36.9386],[-5.489,37.0397],[-5.315,37.0164],[-5.219,36.9496],[-5.1422,37.0037],[-4.9166,37.113],[-4.8399,37.1918],[-4.7381,37.1812],[-4.6532,37.2559],[-4.6772,37.3408],[-4.8221,37.3582],[-4.9439,37.5202],[-4.928,37.5837],[-5.0266,37.7105],[-5.3444,37.61],[-5.3097,37.7734],[-5.4134,37.8851],[-5.581,38.1351],[-5.7275,38.1883],[-5.9154,38.1141],[-5.976,37.9986],[-6.1833,37.939],[-6.185,37.8034],[-6.469,37.7247],[-6.4432,37.6234],[-6.3152,37.4382],[-6.3642,37.3982],[-6.3391,36.9047],[-6.2316,36.9028]]]}},{"type":"Feature","properties":{"sourceId":"1159310639","regionId":"region.26cd0d4e-fa7d-4732-bfbf-1d0c96b5beb1","countryId":"country.e06wze"},"geometry":{"type":"Polygon","coordinates":[[[-8.7309,42.6884],[-8.1744,42.853],[-7.9998,42.8489],[-7.9118,42.9367],[-7.9614,43.19],[-7.9317,43.2999],[-7.7802,43.4491],[-7.6962,43.7315],[-7.953,43.7301],[-8.3082,43.5463],[-8.3331,43.4715],[-8.506,43.3315],[-8.6931,43.2934],[-8.8412,43.3389],[-8.9709,43.2866],[-9.0524,43.1964],[-9.2176,43.1553],[-9.251,43.0168],[-9.1414,42.9214],[-9.1134,42.7661],[-8.9774,42.7923],[-9.0709,42.5961],[-8.7309,42.6884]]]}},{"type":"Feature","properties":{"sourceId":"1159317757","regionId":"region.e2bd6bda-9baf-4e2a-97d3-2b1f173d2b6a","countryId":"country.e06wze"},"geometry":{"type":"Polygon","coordinates":[[[-7.6962,43.7315],[-7.7802,43.4491],[-7.9317,43.2999],[-7.9614,43.19],[-7.9118,42.9367],[-7.9998,42.8489],[-7.8804,42.722],[-7.9308,42.5785],[-7.8615,42.504],[-7.6173,42.4021],[-7.4183,42.4332],[-7.2557,42.4062],[-7.071,42.5035],[-7.0328,42.7063],[-6.8633,42.8084],[-6.8283,42.9148],[-6.9452,43.0767],[-6.8663,43.1753],[-7.051,43.2373],[-7.1669,43.3862],[-7.0469,43.4837],[-7.0323,43.553],[-7.2301,43.5686],[-7.3671,43.6801],[-7.5414,43.7316],[-7.6962,43.7315]]]}},{"type":"Feature","properties":{"sourceId":"1159310635","regionId":"region.1b10615d-3d18-471e-a86d-0e904094392f","countryId":"country.e06wze"},"geometry":{"type":"Polygon","coordinates":[[[-7.0469,43.4837],[-7.1669,43.3862],[-7.051,43.2373],[-6.8663,43.1753],[-6.9452,43.0767],[-6.8283,42.9148],[-6.5621,42.9167],[-6.449,42.9511],[-6.3649,43.0514],[-6.2344,43.0144],[-6.0791,43.0651],[-5.8448,42.9717],[-5.73,43.0406],[-5.541,43.0218],[-5.1181,43.1086],[-5.0721,43.1725],[-4.9085,43.2373],[-4.8319,43.1887],[-4.5926,43.2982],[-4.5138,43.4028],[-5.1779,43.4894],[-5.4242,43.5611],[-5.7089,43.5686],[-5.8522,43.663],[-5.9074,43.5884],[-6.0692,43.5697],[-6.2228,43.5959],[-6.5101,43.5475],[-6.6487,43.579],[-7.0014,43.5567],[-7.0469,43.4837]]]}},{"type":"Feature","properties":{"sourceId":"1159308497","regionId":"region.b09e58c1-fa05-4216-92ff-8a3ec45b9f5a","countryId":"country.e06wze"},"geometry":{"type":"Polygon","coordinates":[[[-4.5138,43.4028],[-4.5926,43.2982],[-4.8319,43.1887],[-4.8279,43.1081],[-4.7269,43.0159],[-4.4629,43.0509],[-4.2541,42.9576],[-4.2214,42.8502],[-4.0858,42.7631],[-3.8158,42.81],[-3.8362,42.9279],[-3.9526,42.9992],[-3.6478,43.1762],[-3.4238,43.1406],[-3.4309,43.2435],[-3.1506,43.3602],[-3.47,43.4542],[-3.5544,43.5169],[-3.8267,43.497],[-4.1886,43.4054],[-4.5138,43.4028]]]}},{"type":"Feature","properties":{"sourceId":"1159317785","regionId":"region.251655c6-783e-4308-9079-4692aa68dcab","countryId":"country.e06wze"},"geometry":{"type":"Polygon","coordinates":[[[-3.1506,43.3602],[-3.4309,43.2435],[-3.4238,43.1406],[-3.2785,43.1973],[-3.1418,43.1651],[-2.9359,43.1469],[-2.8954,43.0475],[-2.6979,43.0206],[-2.5465,43.088],[-2.4068,43.3293],[-2.7558,43.4503],[-2.9301,43.4379],[-3.1506,43.3602]]]}},{"type":"Feature","properties":{"sourceId":"1159315577","regionId":"region.34fd8539-6e12-4ce6-a151-7b41eea701d8","countryId":"country.e06wze"},"geometry":{"type":"MultiPolygon","coordinates":[[[[-17.9339,27.852],[-18.0568,27.7565],[-17.9941,27.6422],[-17.8793,27.8145],[-17.9339,27.852]]],[[[-17.3097,28.2071],[-17.3432,28.0977],[-17.2327,28.0191],[-17.0984,28.1008],[-17.2127,28.2054],[-17.3097,28.2071]]],[[[-16.4277,28.1497],[-16.3555,28.3812],[-16.2314,28.4884],[-16.3002,28.5666],[-16.5071,28.4241],[-16.9161,28.355],[-16.8371,28.209],[-16.6763,27.9971],[-16.5458,28.024],[-16.4277,28.1497]]],[[[-17.7558,28.8185],[-17.9111,28.8556],[-18.0022,28.7496],[-17.8309,28.4554],[-17.721,28.7306],[-17.7558,28.8185]]]]}},{"type":"Feature","properties":{"sourceId":"1159317831","regionId":"region.f08fc992-22bb-493c-a76d-5d3bfac5adb1","countryId":"country.e06wze"},"geometry":{"type":"MultiPolygon","coordinates":[[[[-15.3916,28.0302],[-15.4156,28.1415],[-15.7062,28.1674],[-15.7252,28.0569],[-15.8161,27.996],[-15.786,27.8442],[-15.578,27.7344],[-15.3778,27.8523],[-15.3916,28.0302]]],[[[-13.9726,28.7359],[-14.0361,28.5874],[-14.1464,28.4233],[-14.2122,28.1605],[-13.9668,28.228],[-13.8478,28.3974],[-13.8355,28.7155],[-13.9726,28.7359]]],[[[-13.483,29.2399],[-13.5261,29.1503],[-13.7506,29.0806],[-13.8321,29.0004],[-13.8597,28.8594],[-13.7746,28.8396],[-13.7093,28.9147],[-13.482,28.9995],[-13.483,29.2399]]]]}},{"type":"Feature","properties":{"sourceId":"1159308465","regionId":"region.f8a1eeef-5b78-4112-8f7a-0747f3c4cae8","countryId":"country.e06wze"},"geometry":{"type":"MultiPolygon","coordinates":[[[[1.606,39.0913],[1.5371,39.118],[1.3568,39.0776],[1.2122,38.9032],[1.3435,38.8624],[1.5098,38.9302],[1.6231,39.0292],[1.606,39.0913]]],[[[3.3545,39.7844],[3.2925,39.7497],[3.1248,39.8111],[3.1409,39.9281],[2.9333,39.9145],[2.7039,39.8142],[2.5697,39.7131],[2.3577,39.6119],[2.3821,39.5292],[2.4927,39.4702],[2.6553,39.5647],[2.7549,39.5026],[2.7617,39.4002],[2.9588,39.3632],[3.0608,39.2691],[3.221,39.3599],[3.406,39.592],[3.4685,39.7393],[3.3545,39.7844]]],[[[4.3029,39.9255],[4.2546,39.9975],[4.1078,40.0676],[3.8219,40.0476],[3.8693,39.9255],[4.0151,39.9258],[4.2481,39.8165],[4.3029,39.9255]]]]}},{"type":"Feature","properties":{"sourceId":"1159315291","regionId":"region.628207f5-bded-4a74-83d8-9b79ec451aff","countryId":"country.e06wze"},"geometry":{"type":"Polygon","coordinates":[[[-0.9044,42.7426],[-1.145,42.6414],[-1.342,42.4148],[-1.4164,42.2206],[-1.316,42.0371],[-1.4193,41.9089],[-1.5559,41.9116],[-1.8524,42.0012],[-1.8577,41.9548],[-1.8073,41.6704],[-1.9883,41.5955],[-1.9459,41.4155],[-2.0997,41.4426],[-2.1662,41.346],[-2.1491,41.1939],[-2.0532,41.1504],[-1.9449,41.1644],[-1.6219,40.9468],[-1.4644,40.9513],[-1.3933,41.0703],[-1.0865,41.1593],[-0.9383,41.0824],[-0.694,41.1126],[-0.6101,41.1917],[-0.6311,41.3099],[-0.493,41.3543],[-0.4059,41.2724],[0.0725,41.0771],[0.2165,41.0706],[0.2089,41.1196],[0.3604,41.2328],[0.3383,41.4059],[0.2407,41.4285],[0.1061,41.3509],[-0.0699,41.3729],[-0.1749,41.582],[-0.2583,41.5782],[-0.4888,41.7355],[-0.5249,41.8398],[-0.668,41.9553],[-0.8537,41.9967],[-0.7451,42.1009],[-0.7574,42.2585],[-0.9225,42.2716],[-0.8389,42.3687],[-0.8982,42.4326],[-0.9044,42.7426]]]}},{"type":"Feature","properties":{"sourceId":"1159310643","regionId":"region.c360d167-4c67-4da3-a729-7d4e7bb635c3","countryId":"country.e06wze"},"geometry":{"type":"Polygon","coordinates":[[[-2.4061,42.4971],[-2.6179,42.5077],[-2.8373,42.6441],[-3.0142,42.6409],[-3.1139,42.5484],[-3.0492,42.4523],[-3.1079,42.349],[-3.1204,42.1963],[-2.9102,42.0234],[-2.8128,42.0381],[-2.5729,42.0002],[-2.5116,42.1051],[-2.2961,42.1378],[-2.1379,42.1016],[-2.1106,41.9634],[-1.9225,41.9257],[-1.8577,41.9548],[-1.8524,42.0012],[-1.8961,42.0761],[-1.6971,42.2158],[-1.8619,42.2842],[-2.0765,42.4426],[-2.4061,42.4971]]]}},{"type":"Feature","properties":{"sourceId":"1159310645","regionId":"region.a41d76dc-53c8-446d-b165-631092018139","countryId":"country.e06wze"},"geometry":{"type":"Polygon","coordinates":[[[-2.8373,42.6441],[-2.6179,42.5077],[-2.4061,42.4971],[-2.4087,42.6602],[-2.2927,42.6631],[-2.253,42.9001],[-2.3547,42.9501],[-2.559,42.9628],[-2.5465,43.088],[-2.6979,43.0206],[-2.8954,43.0475],[-2.9359,43.1469],[-3.1418,43.1651],[-3.1651,43.0267],[-2.9874,43.0089],[-3.0753,42.9056],[-3.1883,42.9467],[-3.2791,42.8872],[-3.0635,42.7853],[-2.8373,42.6441]],[[-2.6263,42.7732],[-2.6341,42.6548],[-2.8141,42.7029],[-2.8166,42.794],[-2.6263,42.7732]]]}},{"type":"Feature","properties":{"sourceId":"1159317811","regionId":"region.bd87ff81-c774-4c30-ae36-22eab46dc248","countryId":"country.e06wze"},"geometry":{"type":"Polygon","coordinates":[[[-1.0221,38.6545],[-0.9035,38.6887],[-0.9306,38.7855],[-0.9592,38.94],[-1.121,38.9326],[-1.2621,39.0737],[-1.1786,39.2206],[-1.1777,39.3041],[-1.3397,39.3417],[-1.501,39.422],[-1.7394,39.3211],[-2.049,39.2668],[-2.1684,39.281],[-2.3739,39.2329],[-2.5112,39.342],[-2.7421,39.318],[-2.7222,39.2686],[-2.8427,39.1344],[-2.8074,39.0538],[-2.8798,38.9455],[-2.7624,38.8808],[-2.6453,38.7074],[-2.756,38.5331],[-2.5719,38.5005],[-2.4887,38.3987],[-2.4448,38.1882],[-2.5474,38.0806],[-2.3385,38.0265],[-2.2119,38.1959],[-2.0591,38.2904],[-1.8858,38.3062],[-1.7505,38.3803],[-1.6267,38.3114],[-1.4779,38.4037],[-1.502,38.5349],[-1.4336,38.6558],[-1.1742,38.7541],[-1.0221,38.6545]]]}},{"type":"Feature","properties":{"sourceId":"1159317791","regionId":"region.cf1333a3-673c-48d0-90a1-f8a412744a79","countryId":"country.e06wze"},"geometry":{"type":"Polygon","coordinates":[[[-1.1455,39.9723],[-1.0003,39.9792],[-0.7913,39.8775],[-0.8391,39.9458],[-0.7577,40.0346],[-0.6143,40.0717],[-0.5344,40.2404],[-0.4423,40.2378],[-0.2891,40.3892],[-0.2944,40.6058],[-0.1658,40.7799],[-0.0745,40.7308],[0.173,40.7309],[0.2719,40.8292],[0.2897,40.9825],[0.2165,41.0706],[0.0725,41.0771],[-0.4059,41.2724],[-0.493,41.3543],[-0.6311,41.3099],[-0.6101,41.1917],[-0.694,41.1126],[-0.9383,41.0824],[-1.0865,41.1593],[-1.3933,41.0703],[-1.4644,40.9513],[-1.6219,40.9468],[-1.5446,40.8174],[-1.5374,40.663],[-1.5867,40.5706],[-1.8083,40.402],[-1.5551,40.2054],[-1.4485,40.1498],[-1.1511,40.1101],[-1.1627,40.0115],[-1.1455,39.9723]]]}},{"type":"Feature","properties":{"sourceId":"1159317809","regionId":"region.706f3492-2155-4936-a58f-5b36fbeb3915","countryId":"country.e06wze"},"geometry":{"type":"Polygon","coordinates":[[[-1.1627,40.0115],[-1.3695,40.0163],[-1.4485,40.1498],[-1.5551,40.2054],[-1.8083,40.402],[-1.9299,40.5927],[-2.157,40.6588],[-2.6269,40.4531],[-2.8077,40.4069],[-2.8163,40.2099],[-2.9128,40.1576],[-3.0728,40.1576],[-3.1635,40.0662],[-2.9995,39.7219],[-2.9082,39.6423],[-2.9312,39.4714],[-2.7421,39.318],[-2.5112,39.342],[-2.3739,39.2329],[-2.1684,39.281],[-2.049,39.2668],[-1.7394,39.3211],[-1.501,39.422],[-1.4944,39.5673],[-1.372,39.6836],[-1.2922,39.6727],[-1.1455,39.9723],[-1.1627,40.0115]]]}},{"type":"Feature","properties":{"sourceId":"1159317805","regionId":"region.ac516f64-3d3d-4de0-aa83-61afb789a8f6","countryId":"country.e06wze"},"geometry":{"type":"Polygon","coordinates":[[[-5.328,40.1159],[-5.391,39.9204],[-5.1681,39.7929],[-5.1417,39.7203],[-5.1976,39.5996],[-4.9444,39.3919],[-4.8627,39.556],[-4.7749,39.5194],[-4.753,39.4182],[-4.6927,39.4498],[-4.5122,39.5485],[-4.2421,39.4779],[-4.1587,39.5768],[-4.0417,39.5754],[-4.1403,39.359],[-3.9721,39.3523],[-3.8416,39.2597],[-3.7804,39.2944],[-3.5561,39.2991],[-3.2942,39.4707],[-3.1433,39.4954],[-3.0695,39.4501],[-2.9312,39.4714],[-2.9082,39.6423],[-2.9995,39.7219],[-3.1635,40.0662],[-3.5021,40.0487],[-3.6245,40.1132],[-4.1747,40.2837],[-4.296,40.2208],[-4.5719,40.212],[-4.815,40.2298],[-4.9886,40.114],[-5.1412,40.0948],[-5.328,40.1159]]]}},{"type":"Feature","properties":{"sourceId":"1159317781","regionId":"region.effe3bab-20b6-4456-94c1-1cbc090b99d7","countryId":"country.e06wze"},"geometry":{"type":"Polygon","coordinates":[[[-4.8319,43.1887],[-4.9085,43.2373],[-5.0721,43.1725],[-5.1181,43.1086],[-5.541,43.0218],[-5.73,43.0406],[-5.8448,42.9717],[-6.0791,43.0651],[-6.2344,43.0144],[-6.3649,43.0514],[-6.449,42.9511],[-6.5621,42.9167],[-6.8283,42.9148],[-6.8633,42.8084],[-7.0328,42.7063],[-7.071,42.5035],[-6.8211,42.4851],[-6.7554,42.3627],[-6.7832,42.2529],[-6.4906,42.1842],[-6.3115,42.2081],[-6.2037,42.1483],[-5.9559,42.1258],[-5.6433,42.1287],[-5.5208,42.097],[-5.4216,42.0308],[-5.3763,42.0414],[-5.3872,42.1952],[-5.2653,42.2182],[-5.0938,42.3094],[-5.0022,42.2892],[-4.9113,42.3815],[-4.8819,42.698],[-4.9019,42.8481],[-4.7269,43.0159],[-4.8279,43.1081],[-4.8319,43.1887]]]}},{"type":"Feature","properties":{"sourceId":"1159317767","regionId":"region.70d45f1a-3b9f-4d0a-9f27-4e43aacaae8c","countryId":"country.e06wze"},"geometry":{"type":"Polygon","coordinates":[[[-1.8577,41.9548],[-1.9225,41.9257],[-2.1106,41.9634],[-2.1379,42.1016],[-2.2961,42.1378],[-2.5116,42.1051],[-2.5729,42.0002],[-2.8128,42.0381],[-2.9102,42.0234],[-3.0168,41.8868],[-3.1714,41.7929],[-3.3543,41.7373],[-3.4597,41.5894],[-3.5417,41.5778],[-3.3369,41.448],[-3.3326,41.3771],[-3.1988,41.3012],[-2.9823,41.2872],[-2.5919,41.222],[-2.4676,41.0861],[-2.2884,41.0675],[-2.0532,41.1504],[-2.1491,41.1939],[-2.1662,41.346],[-2.0997,41.4426],[-1.9459,41.4155],[-1.9883,41.5955],[-1.8073,41.6704],[-1.8577,41.9548]]]}},{"type":"Feature","properties":{"sourceId":"1159317763","regionId":"region.508dbd4a-4587-4246-af35-a399a1d31bbf","countryId":"country.e06wze"},"geometry":{"type":"MultiPolygon","coordinates":[[[[-2.8373,42.6441],[-3.0635,42.7853],[-3.2791,42.8872],[-3.1883,42.9467],[-3.0753,42.9056],[-2.9874,43.0089],[-3.1651,43.0267],[-3.1418,43.1651],[-3.2785,43.1973],[-3.4238,43.1406],[-3.6478,43.1762],[-3.9526,42.9992],[-3.8362,42.9279],[-3.8158,42.81],[-4.0858,42.7631],[-4.285,42.676],[-4.2971,42.5666],[-4.2439,42.4553],[-4.277,42.3833],[-4.235,42.2291],[-4.0799,42.0401],[-3.9727,42.0308],[-3.9145,41.9427],[-4.0887,41.8705],[-4.041,41.7682],[-3.9806,41.5832],[-3.7699,41.4601],[-3.6728,41.5592],[-3.5417,41.5778],[-3.4597,41.5894],[-3.3543,41.7373],[-3.1714,41.7929],[-3.0168,41.8868],[-2.9102,42.0234],[-3.1204,42.1963],[-3.1079,42.349],[-3.0492,42.4523],[-3.1139,42.5484],[-3.0142,42.6409],[-2.8373,42.6441]]],[[[-2.6263,42.7732],[-2.8166,42.794],[-2.8141,42.7029],[-2.6341,42.6548],[-2.6263,42.7732]]]]}},{"type":"Feature","properties":{"sourceId":"1159317771","regionId":"region.29c31deb-90c6-458c-a1ca-c0c54c472174","countryId":"country.e06wze"},"geometry":{"type":"Polygon","coordinates":[[[-5.328,40.1159],[-5.1412,40.0948],[-4.9886,40.114],[-4.815,40.2298],[-4.5719,40.212],[-4.4073,40.4085],[-4.3248,40.4133],[-4.319,40.544],[-4.1713,40.6299],[-4.1613,40.6873],[-4.2763,40.6927],[-4.3219,40.6579],[-4.4195,40.6334],[-4.5636,40.9463],[-4.7139,41.0906],[-4.7015,41.155],[-4.8853,41.106],[-4.9747,41.1553],[-5.1251,41.132],[-5.0958,41.0017],[-5.1615,40.8185],[-5.363,40.6744],[-5.4596,40.4797],[-5.6877,40.4246],[-5.7277,40.294],[-5.6038,40.2194],[-5.4781,40.2042],[-5.3731,40.2544],[-5.328,40.1159]]]}},{"type":"Feature","properties":{"sourceId":"1159317779","regionId":"region.29ab2dba-e65a-4752-9d9a-1ae5a91a5e4d","countryId":"country.e06wze"},"geometry":{"type":"Polygon","coordinates":[[[-4.0858,42.7631],[-4.2214,42.8502],[-4.2541,42.9576],[-4.4629,43.0509],[-4.7269,43.0159],[-4.9019,42.8481],[-4.8819,42.698],[-4.9113,42.3815],[-5.0022,42.2892],[-5.027,42.154],[-4.9274,42.1502],[-4.9441,42.0183],[-4.7891,41.818],[-4.6756,41.8969],[-4.4937,41.7802],[-4.2401,41.8043],[-4.041,41.7682],[-4.0887,41.8705],[-3.9145,41.9427],[-3.9727,42.0308],[-4.0799,42.0401],[-4.235,42.2291],[-4.277,42.3833],[-4.2439,42.4553],[-4.2971,42.5666],[-4.285,42.676],[-4.0858,42.7631]]]}},{"type":"Feature","properties":{"sourceId":"1159308493","regionId":"region.4e030bab-11b7-47b6-a187-dcdf8a59fc5e","countryId":"country.e06wze"},"geometry":{"type":"MultiPolygon","coordinates":[[[[-2.7421,39.318],[-2.9312,39.4714],[-3.0695,39.4501],[-3.1433,39.4954],[-3.2942,39.4707],[-3.5561,39.2991],[-3.7804,39.2944],[-3.8416,39.2597],[-3.9721,39.3523],[-4.1403,39.359],[-4.0417,39.5754],[-4.1587,39.5768],[-4.2421,39.4779],[-4.5122,39.5485],[-4.6927,39.4498],[-4.8068,39.1988],[-4.9443,39.0097],[-4.9129,38.8823],[-5.0366,38.7284],[-4.883,38.6852],[-4.4497,38.396],[-4.2755,38.3509],[-4.265,38.4014],[-3.8937,38.3816],[-3.7942,38.4261],[-3.4452,38.4065],[-3.3619,38.4733],[-3.0094,38.4345],[-2.756,38.5331],[-2.6453,38.7074],[-2.7624,38.8808],[-2.8798,38.9455],[-2.8074,39.0538],[-2.8427,39.1344],[-2.7222,39.2686],[-2.7421,39.318]]],[[[-4.753,39.4182],[-4.7749,39.5194],[-4.8627,39.556],[-4.9444,39.3919],[-4.753,39.4182]]]]}},{"type":"Feature","properties":{"sourceId":"1159308491","regionId":"region.f41eb883-ad16-4215-a00a-84d72828009b","countryId":"country.e06wze"},"geometry":{"type":"Polygon","coordinates":[[[-4.0009,37.4021],[-4.2131,37.6263],[-4.172,37.6972],[-4.2838,37.8205],[-4.2843,38.0037],[-4.168,38.1808],[-4.2755,38.3509],[-4.4497,38.396],[-4.883,38.6852],[-5.0366,38.7284],[-5.3624,38.5839],[-5.5694,38.4253],[-5.5213,38.2668],[-5.581,38.1351],[-5.4134,37.8851],[-5.3097,37.7734],[-5.3444,37.61],[-5.0266,37.7105],[-4.928,37.5837],[-4.9439,37.5202],[-4.8221,37.3582],[-4.6772,37.3408],[-4.6532,37.2559],[-4.5393,37.2113],[-4.4449,37.2776],[-4.3203,37.1866],[-4.2092,37.3524],[-4.0009,37.4021]]]}},{"type":"Feature","properties":{"sourceId":"1159317807","regionId":"region.4d663fb4-4501-4ac0-9672-5b8ee1b5dadc","countryId":"country.e06wze"},"geometry":{"type":"Polygon","coordinates":[[[-3.0728,40.1576],[-2.9128,40.1576],[-2.8163,40.2099],[-2.8077,40.4069],[-2.6269,40.4531],[-2.157,40.6588],[-1.9299,40.5927],[-1.8083,40.402],[-1.5867,40.5706],[-1.5374,40.663],[-1.5446,40.8174],[-1.6219,40.9468],[-1.9449,41.1644],[-2.0532,41.1504],[-2.2884,41.0675],[-2.4676,41.0861],[-2.5919,41.222],[-2.9823,41.2872],[-3.1988,41.3012],[-3.3897,41.2556],[-3.5458,41.1618],[-3.4365,41.0774],[-3.4123,40.9892],[-3.4984,40.7962],[-3.3182,40.6463],[-3.295,40.5388],[-3.2045,40.513],[-3.1387,40.3947],[-3.1879,40.2743],[-3.0728,40.1576]]]}},{"type":"Feature","properties":{"sourceId":"1159317825","regionId":"region.8b1c1dda-2dfc-4ede-b39a-2fadd19a430a","countryId":"country.e06wze"},"geometry":{"type":"Polygon","coordinates":[[[-2.5474,38.0806],[-2.4448,38.1882],[-2.4887,38.3987],[-2.5719,38.5005],[-2.756,38.5331],[-3.0094,38.4345],[-3.3619,38.4733],[-3.4452,38.4065],[-3.7942,38.4261],[-3.8937,38.3816],[-4.265,38.4014],[-4.2755,38.3509],[-4.168,38.1808],[-4.2843,38.0037],[-4.2838,37.8205],[-4.172,37.6972],[-4.2131,37.6263],[-4.0009,37.4021],[-3.8413,37.3863],[-3.7919,37.4663],[-3.5071,37.6133],[-3.424,37.5685],[-3.2518,37.633],[-3.0908,37.596],[-2.9021,37.6657],[-2.8896,37.7743],[-2.7863,37.9125],[-2.5983,38.0057],[-2.5474,38.0806]]]}},{"type":"Feature","properties":{"sourceId":"1159308499","regionId":"region.86d80593-4b40-4839-b5c7-aea18052109f","countryId":"country.e06wze"},"geometry":{"type":"Polygon","coordinates":[[[-3.0728,40.1576],[-3.1879,40.2743],[-3.1387,40.3947],[-3.2045,40.513],[-3.295,40.5388],[-3.3182,40.6463],[-3.4984,40.7962],[-3.4123,40.9892],[-3.4365,41.0774],[-3.5458,41.1618],[-3.6239,41.1394],[-3.7871,40.9968],[-3.9348,40.9262],[-3.9841,40.7887],[-4.1613,40.6873],[-4.1713,40.6299],[-4.319,40.544],[-4.3248,40.4133],[-4.4073,40.4085],[-4.5719,40.212],[-4.296,40.2208],[-4.1747,40.2837],[-3.6245,40.1132],[-3.5021,40.0487],[-3.1635,40.0662],[-3.0728,40.1576]]]}},{"type":"Feature","properties":{"sourceId":"1159317769","regionId":"region.e8812b92-f988-405a-bfe9-ae0a80b0cb07","countryId":"country.e06wze"},"geometry":{"type":"Polygon","coordinates":[[[-4.1613,40.6873],[-3.9841,40.7887],[-3.9348,40.9262],[-3.7871,40.9968],[-3.6239,41.1394],[-3.5458,41.1618],[-3.3897,41.2556],[-3.1988,41.3012],[-3.3326,41.3771],[-3.3369,41.448],[-3.5417,41.5778],[-3.6728,41.5592],[-3.7699,41.4601],[-3.9806,41.5832],[-4.0149,41.5139],[-4.5149,41.4096],[-4.4956,41.3411],[-4.7015,41.155],[-4.7139,41.0906],[-4.5636,40.9463],[-4.4195,40.6334],[-4.3219,40.6579],[-4.2763,40.6927],[-4.1613,40.6873]]]}},{"type":"Feature","properties":{"sourceId":"1159317777","regionId":"region.abde1281-93f7-47bc-a664-9111204f21f0","countryId":"country.e06wze"},"geometry":{"type":"Polygon","coordinates":[[[-3.9806,41.5832],[-4.041,41.7682],[-4.2401,41.8043],[-4.4937,41.7802],[-4.6756,41.8969],[-4.7891,41.818],[-4.9441,42.0183],[-4.9274,42.1502],[-5.027,42.154],[-5.0022,42.2892],[-5.0938,42.3094],[-5.2653,42.2182],[-5.3872,42.1952],[-5.3763,42.0414],[-5.2805,41.9789],[-5.2796,41.8133],[-5.3912,41.761],[-5.2898,41.563],[-5.3315,41.4809],[-5.2888,41.1821],[-5.1251,41.132],[-4.9747,41.1553],[-4.8853,41.106],[-4.7015,41.155],[-4.4956,41.3411],[-4.5149,41.4096],[-4.0149,41.5139],[-3.9806,41.5832]]]}}]}