{"type":"FeatureCollection","features":[{"type":"Feature","properties":{"sourceId":"1159309263","regionId":"region.edc5c627-2272-46e9-8182-23b0f36418aa","countryId":"country.1i4b92q"},"geometry":{"type":"MultiPolygon","coordinates":[[[[-114.8194,32.4994],[-114.906,32.4917],[-115.0397,32.2772],[-114.9559,32.1416],[-114.9336,31.9088],[-114.6772,31.7641],[-114.5847,31.7608],[-114.4943,31.6774],[-114.159,31.4945],[-114.0289,31.4915],[-113.8757,31.5967],[-113.6596,31.4975],[-113.5489,31.2957],[-113.1169,31.2176],[-113.0487,31.1567],[-113.1288,30.8124],[-113.0799,30.6704],[-112.9865,30.5324],[-112.8707,30.4285],[-112.8486,30.2885],[-112.7532,30.1859],[-112.7515,29.9243],[-112.6863,29.9078],[-112.506,29.6169],[-112.3778,29.4857],[-112.4198,29.3759],[-112.2635,29.33],[-112.1507,28.963],[-111.8944,28.7807],[-111.9204,28.72],[-111.7606,28.584],[-111.7084,28.4601],[-111.4735,28.381],[-111.2507,28.052],[-111.0591,27.937],[-110.9993,27.9641],[-110.8628,27.8763],[-110.8082,27.9278],[-110.671,27.8984],[-110.5866,27.8371],[-110.6267,27.6085],[-110.5548,27.3848],[-110.4997,27.3934],[-110.4037,27.2454],[-110.2876,27.1484],[-110.0908,27.1027],[-109.9822,27.1151],[-109.917,27.0601],[-109.8563,26.801],[-109.6944,26.6782],[-109.5499,26.728],[-109.4285,26.6719],[-109.2557,26.498],[-109.253,26.3491],[-109.1393,26.3318],[-108.5074,26.8016],[-108.4665,26.9799],[-108.5738,27.0433],[-108.6775,27.1834],[-108.6374,27.3138],[-108.67,27.5379],[-108.7786,27.622],[-108.9063,27.8362],[-109.0207,27.9071],[-109.1456,28.1775],[-109.0692,28.2764],[-108.8799,28.2891],[-108.6573,28.2401],[-108.5402,28.3201],[-108.6457,28.6077],[-108.624,28.7711],[-108.7078,29.4008],[-108.6133,29.4076],[-108.5555,29.9985],[-108.5368,30.0386],[-108.5835,30.5066],[-108.7997,30.6362],[-109.0432,30.8285],[-108.9683,31.3274],[-109.0474,31.3274],[-109.9663,31.3272],[-111.0063,31.3272],[-111.0671,31.3336],[-112.3247,31.728],[-113.1432,31.981],[-113.9617,32.2341],[-114.8194,32.4994]]],[[[-112.2747,28.7684],[-112.1956,29.0213],[-112.2816,29.2255],[-112.4387,29.2021],[-112.5004,29.0756],[-112.4859,28.9716],[-112.583,28.8754],[-112.382,28.7738],[-112.2747,28.7684]]]]}},{"type":"Feature","properties":{"sourceId":"1159309265","regionId":"region.3f982a34-ae54-4a93-ac8a-f259db55fd25","countryId":"country.1i4b92q"},"geometry":{"type":"MultiPolygon","coordinates":[[[[-114.7243,32.7128],[-115.7941,32.632],[-117.1251,32.5317],[-117.025,32.2769],[-116.9483,32.247],[-116.8423,31.9865],[-116.6197,31.8576],[-116.6756,31.5526],[-116.5301,31.4403],[-116.3415,31.2196],[-116.3094,31.1485],[-116.3354,30.9563],[-116.2497,30.9568],[-116.1758,30.8601],[-116.068,30.8132],[-116.0311,30.6271],[-116.0493,30.4796],[-115.8373,30.3465],[-115.7833,30.0926],[-115.8112,29.968],[-115.7289,29.9351],[-115.6976,29.7558],[-115.4986,29.6114],[-115.2857,29.5299],[-115.1871,29.4286],[-114.972,29.3778],[-114.722,29.1175],[-114.6314,29.0945],[-114.5299,28.9255],[-114.4023,28.8602],[-114.2718,28.6588],[-114.1658,28.647],[-114.0426,28.4584],[-114.1249,28.2557],[-114.0628,28.0005],[-112.7636,27.9994],[-112.7938,28.1903],[-112.8721,28.2837],[-112.8495,28.3823],[-112.9024,28.4753],[-113.0016,28.4556],[-113.103,28.5046],[-113.1942,28.744],[-113.2604,28.8401],[-113.4787,28.9462],[-113.6566,29.2184],[-113.6231,29.2527],[-113.7709,29.4078],[-114.0463,29.5964],[-114.2712,29.7721],[-114.3922,29.783],[-114.4277,29.9073],[-114.5331,29.968],[-114.6603,30.1833],[-114.6295,30.4248],[-114.6985,30.6372],[-114.7203,30.9411],[-114.8324,31.0067],[-114.8887,31.1629],[-114.8529,31.5266],[-114.7806,31.6558],[-114.828,31.7898],[-114.9336,31.9088],[-114.9559,32.1416],[-115.0397,32.2772],[-114.906,32.4917],[-114.8194,32.4994],[-114.7243,32.7128]]],[[[-115.195,28.3414],[-115.334,28.1249],[-115.2063,28.0379],[-115.1555,28.1707],[-115.195,28.3414]]],[[[-113.1382,29.0649],[-113.1828,29.2897],[-113.3703,29.31],[-113.3498,29.3841],[-113.4768,29.5321],[-113.5491,29.5331],[-113.5891,29.4096],[-113.2295,29.0596],[-113.1382,29.0649]]]]}},{"type":"Feature","properties":{"sourceId":"1159314061","regionId":"region.99778a36-d523-481c-8731-d2a0bf90e16a","countryId":"country.1i4b92q"},"geometry":{"type":"Polygon","coordinates":[[[-106.5061,31.7703],[-107.2835,31.7755],[-108.2151,31.7778],[-108.2148,31.3274],[-108.9683,31.3274],[-109.0432,30.8285],[-108.7997,30.6362],[-108.5835,30.5066],[-108.5368,30.0386],[-108.5555,29.9985],[-108.6133,29.4076],[-108.7078,29.4008],[-108.624,28.7711],[-108.6457,28.6077],[-108.5402,28.3201],[-108.6573,28.2401],[-108.8799,28.2891],[-109.0692,28.2764],[-109.1456,28.1775],[-109.0207,27.9071],[-108.9063,27.8362],[-108.7786,27.622],[-108.67,27.5379],[-108.6374,27.3138],[-108.6775,27.1834],[-108.5738,27.0433],[-108.4665,26.9799],[-108.3743,27.0774],[-108.2541,27.041],[-108.1973,26.9708],[-108.0451,26.9309],[-107.9996,26.8146],[-107.8351,26.5996],[-107.7854,26.2156],[-107.4141,26.1298],[-107.3438,26.0838],[-107.2594,25.8693],[-106.9369,25.6416],[-106.7209,25.6332],[-106.5445,25.7799],[-106.5249,25.9928],[-106.4265,26.0391],[-106.3783,26.1315],[-106.4273,26.3013],[-106.4015,26.381],[-106.2272,26.4292],[-106.2248,26.5597],[-106.0275,26.8386],[-105.8085,26.6933],[-105.6804,26.6989],[-105.5559,26.5728],[-105.3275,26.4595],[-105.1168,26.5524],[-104.8333,26.4868],[-104.5978,26.351],[-104.5198,26.3715],[-104.2346,26.7232],[-104.1156,26.7731],[-103.9415,26.7604],[-103.6273,26.6439],[-103.9635,27.9189],[-103.6398,28.4652],[-103.3115,29.026],[-103.3721,29.0237],[-103.5417,29.1488],[-103.6731,29.1736],[-103.7942,29.2776],[-104.0573,29.339],[-104.2672,29.5266],[-104.349,29.5376],[-104.5308,29.6679],[-104.5703,29.7875],[-104.6805,29.9423],[-104.6816,30.1929],[-104.8524,30.4389],[-104.8866,30.5519],[-105.0085,30.677],[-105.2293,30.8102],[-105.3638,30.8504],[-105.556,31.0026],[-105.5909,31.0714],[-105.7682,31.18],[-106.0047,31.3969],[-106.1643,31.4478],[-106.2863,31.5801],[-106.3585,31.7175],[-106.5061,31.7703]]]}},{"type":"Feature","properties":{"sourceId":"1159314059","regionId":"region.5421babd-11cf-469d-b4be-226026d50936","countryId":"country.1i4b92q"},"geometry":{"type":"Polygon","coordinates":[[[-99.807,27.7714],[-99.8788,27.9018],[-100.0006,28.0204],[-100.0749,28.1544],[-100.1976,28.2072],[-100.2843,28.2965],[-100.3971,28.5927],[-100.4939,28.7084],[-100.5191,28.805],[-100.6243,28.9247],[-100.669,29.1162],[-100.8161,29.2708],[-101.0162,29.3901],[-101.0378,29.4601],[-101.1636,29.5013],[-101.219,29.6103],[-101.3644,29.6767],[-101.4093,29.7658],[-101.6322,29.7757],[-101.9722,29.8182],[-102.1093,29.8021],[-102.3022,29.8894],[-102.4061,29.7773],[-102.6835,29.7437],[-102.7797,29.5923],[-102.8831,29.3438],[-102.8969,29.2203],[-102.9884,29.1771],[-103.148,28.9851],[-103.3115,29.026],[-103.6398,28.4652],[-103.9635,27.9189],[-103.6273,26.6439],[-103.3257,26.4087],[-103.2813,26.2624],[-103.3453,26.1239],[-103.3202,25.6987],[-103.4878,25.5409],[-103.4249,25.4275],[-103.5092,25.2978],[-103.388,25.1406],[-103.2753,25.0721],[-103.2515,24.923],[-103.1395,24.8478],[-102.9719,24.8067],[-102.8431,24.7283],[-102.8158,24.9044],[-102.6682,25.0789],[-102.5824,25.1251],[-102.1734,25.163],[-101.8607,25.0756],[-101.7678,24.9381],[-101.5908,24.8824],[-101.5744,24.8069],[-101.4617,24.7493],[-101.3416,24.8119],[-101.1969,24.7965],[-101.0966,24.641],[-100.8284,24.565],[-100.7723,24.7501],[-100.7962,24.8935],[-100.7316,24.9624],[-100.8355,25.0413],[-100.7706,25.1473],[-100.6573,25.2118],[-100.5288,25.2294],[-100.3803,25.1929],[-100.2596,25.2091],[-100.2118,25.2916],[-100.3035,25.3449],[-100.4518,25.3413],[-100.5723,25.4139],[-100.8463,25.7853],[-100.8477,25.9569],[-100.9347,26.0817],[-101.0389,26.157],[-101.1087,26.2834],[-101.2157,26.373],[-100.7526,26.7319],[-100.7115,26.6173],[-100.587,26.7646],[-100.5534,27.0326],[-100.6717,27.0981],[-100.7996,27.0597],[-100.802,27.2119],[-100.6275,27.3279],[-100.4352,27.3797],[-100.3847,27.6023],[-100.331,27.7006],[-100.1819,27.7935],[-99.9672,27.6402],[-99.807,27.7714]]]}},{"type":"Feature","properties":{"sourceId":"1159313993","regionId":"region.ec42a6a7-b8ff-4495-b485-f2759e76815d","countryId":"country.1i4b92q"},"geometry":{"type":"Polygon","coordinates":[[[-99.7107,27.6701],[-99.9099,27.5722],[-99.9036,27.4998],[-99.7779,27.4819],[-99.68,27.1352],[-99.728,26.9931],[-99.7004,26.8963],[-99.5626,26.835],[-99.6097,26.7322],[-99.4132,26.6241],[-99.3838,26.569],[-99.4197,26.3992],[-99.3469,26.3934],[-99.2545,26.2948],[-99.1732,26.2793],[-99.1522,26.084],[-99.0199,26.0929],[-98.8888,25.9708],[-98.8101,26.0601],[-98.5557,25.9713],[-98.561,25.5026],[-98.4457,25.4246],[-98.8687,25.0988],[-99.0338,25.1196],[-99.1425,25.013],[-99.193,24.878],[-99.4785,24.7398],[-99.5473,24.6458],[-99.6506,24.6391],[-99.7368,24.5697],[-99.71,24.4725],[-99.6063,24.5125],[-99.5751,24.3447],[-99.6165,24.1377],[-99.5928,24.0651],[-99.4637,23.9574],[-99.5997,23.7668],[-99.8401,23.7408],[-99.9521,23.5277],[-99.906,23.3751],[-100.0429,23.4153],[-100.0573,23.2411],[-99.9158,22.9574],[-100.0398,22.8683],[-99.9874,22.7773],[-99.5545,22.621],[-99.3792,22.6834],[-99.2484,22.4589],[-98.9394,22.3723],[-98.6162,22.4186],[-98.4392,22.4327],[-98.2977,22.4066],[-98.1977,22.4805],[-98.0928,22.3726],[-97.7819,22.2733],[-97.8894,22.6254],[-97.7948,22.8083],[-97.7423,22.9721],[-97.7685,23.2601],[-97.7222,23.7393],[-97.7167,24.0081],[-97.6514,24.5159],[-97.459,25.1794],[-97.3194,25.39],[-97.1652,25.7233],[-97.1393,25.9658],[-97.2531,25.9635],[-97.4254,25.8549],[-97.6796,26.0346],[-97.802,26.0637],[-98.2227,26.0754],[-98.3693,26.194],[-98.5816,26.2623],[-98.6406,26.2418],[-98.7959,26.3683],[-99.0855,26.4076],[-99.1649,26.5404],[-99.2483,26.8271],[-99.4617,27.057],[-99.432,27.2076],[-99.4976,27.3388],[-99.4729,27.4266],[-99.5072,27.5738],[-99.7107,27.6701]]]}},{"type":"Feature","properties":{"sourceId":"1159314067","regionId":"region.052b7d0a-0c32-4462-8aae-5f6ba491d7a7","countryId":"country.1i4b92q"},"geometry":{"type":"Polygon","coordinates":[[[-99.807,27.7714],[-99.9672,27.6402],[-100.1819,27.7935],[-100.331,27.7006],[-100.3847,27.6023],[-100.4352,27.3797],[-100.6275,27.3279],[-100.802,27.2119],[-100.7996,27.0597],[-100.6717,27.0981],[-100.5534,27.0326],[-100.587,26.7646],[-100.7115,26.6173],[-100.7526,26.7319],[-101.2157,26.373],[-101.1087,26.2834],[-101.0389,26.157],[-100.9347,26.0817],[-100.8477,25.9569],[-100.8463,25.7853],[-100.5723,25.4139],[-100.4518,25.3413],[-100.3035,25.3449],[-100.2118,25.2916],[-100.2596,25.2091],[-100.3803,25.1929],[-100.5288,25.2294],[-100.6573,25.2118],[-100.7706,25.1473],[-100.8355,25.0413],[-100.7316,24.9624],[-100.7962,24.8935],[-100.7723,24.7501],[-100.8284,24.565],[-100.6103,24.2833],[-100.6039,24.0262],[-100.5798,23.9305],[-100.4876,23.8215],[-100.4943,23.6616],[-100.4548,23.5134],[-100.4709,23.4178],[-100.4393,23.229],[-100.3268,23.2541],[-100.0573,23.2411],[-100.0429,23.4153],[-99.906,23.3751],[-99.9521,23.5277],[-99.8401,23.7408],[-99.5997,23.7668],[-99.4637,23.9574],[-99.5928,24.0651],[-99.6165,24.1377],[-99.5751,24.3447],[-99.6063,24.5125],[-99.71,24.4725],[-99.7368,24.5697],[-99.6506,24.6391],[-99.5473,24.6458],[-99.4785,24.7398],[-99.193,24.878],[-99.1425,25.013],[-99.0338,25.1196],[-98.8687,25.0988],[-98.4457,25.4246],[-98.561,25.5026],[-98.5557,25.9713],[-98.8101,26.0601],[-98.8888,25.9708],[-99.0199,26.0929],[-99.1522,26.084],[-99.1732,26.2793],[-99.2545,26.2948],[-99.3469,26.3934],[-99.4197,26.3992],[-99.3838,26.569],[-99.4132,26.6241],[-99.6097,26.7322],[-99.5626,26.835],[-99.7004,26.8963],[-99.728,26.9931],[-99.68,27.1352],[-99.7779,27.4819],[-99.9036,27.4998],[-99.9099,27.5722],[-99.7107,27.6701],[-99.807,27.7714]]]}},{"type":"Feature","properties":{"sourceId":"1159313971","regionId":"region.a663ad29-a627-4e3b-bb2d-73510fbaef7a","countryId":"country.1i4b92q"},"geometry":{"type":"MultiPolygon","coordinates":[[[[-88.6141,18.247],[-88.4892,18.4845],[-88.3038,18.4814],[-88.1039,18.8027],[-88.0022,18.6901],[-88.0778,18.4986],[-87.9352,18.4431],[-87.8446,18.2622],[-87.7712,18.4064],[-87.7234,18.6812],[-87.662,18.7668],[-87.6062,19.0204],[-87.4957,19.3276],[-87.5261,19.4064],[-87.4232,19.558],[-87.6664,19.5525],[-87.7347,19.6838],[-87.6287,19.7086],[-87.4715,19.8847],[-87.444,20.1911],[-87.235,20.4926],[-87.0675,20.6192],[-86.8753,20.855],[-86.8235,21.0202],[-86.7416,21.1641],[-86.8151,21.2048],[-86.828,21.4333],[-86.9248,21.4461],[-86.9979,21.5659],[-87.1342,21.6195],[-87.13,21.5194],[-87.2382,21.443],[-87.4741,21.4671],[-87.5398,21.4993],[-87.5251,21.2988],[-87.585,21.1111],[-87.534,20.9557],[-87.6749,20.6479],[-87.9043,20.4863],[-88.0139,20.4347],[-88.2184,20.4326],[-88.2724,20.3434],[-88.3738,20.3006],[-88.4453,20.1837],[-88.7074,20.0808],[-88.9112,19.9487],[-89.0557,19.9318],[-89.202,19.8417],[-89.3688,19.8201],[-89.4154,19.651],[-89.3739,19.5939],[-89.1346,19.4052],[-89.0135,19.2178],[-89.0207,19.0335],[-89.0824,18.9614],[-89.1088,18.6908],[-89.0445,18.4922],[-89.0357,18.2027],[-89.1541,18.0314],[-89.1463,17.9515],[-89.0494,17.9992],[-88.8803,17.8885],[-88.7364,18.0519],[-88.6966,18.1781],[-88.6141,18.247]]],[[[-86.749,20.5922],[-86.9368,20.5472],[-87.0079,20.4362],[-87.0189,20.3325],[-86.9265,20.3137],[-86.7971,20.4775],[-86.749,20.5922]]]]}},{"type":"Feature","properties":{"sourceId":"1159313973","regionId":"region.0027566e-6e08-4bea-83f9-05b06dbba6b2","countryId":"country.1i4b92q"},"geometry":{"type":"Polygon","coordinates":[[[-89.1463,17.9515],[-89.1541,18.0314],[-89.0357,18.2027],[-89.0445,18.4922],[-89.1088,18.6908],[-89.0824,18.9614],[-89.0207,19.0335],[-89.0135,19.2178],[-89.1346,19.4052],[-89.3739,19.5939],[-89.4154,19.651],[-89.4547,19.777],[-89.63,20.0191],[-89.8107,20.1374],[-89.8698,20.2686],[-90.0638,20.4125],[-90.1692,20.4247],[-90.2363,20.51],[-90.392,20.5472],[-90.3811,20.824],[-90.4491,20.7421],[-90.4899,20.5341],[-90.4745,20.4085],[-90.4974,20.0674],[-90.4778,19.9221],[-90.6645,19.7819],[-90.7095,19.6875],[-90.7301,19.3759],[-90.9355,19.1631],[-91.1616,19.0163],[-91.4312,18.8801],[-91.367,18.7712],[-91.2655,18.7357],[-91.3328,18.5734],[-91.5041,18.5119],[-91.5444,18.4492],[-91.8291,18.4773],[-91.8782,18.538],[-91.9907,18.5393],[-91.9481,18.6912],[-92.0601,18.7016],[-92.4861,18.6485],[-92.3576,18.457],[-92.1491,18.4619],[-92.1556,18.1688],[-91.8909,17.9667],[-91.6331,17.9509],[-91.5687,18.1036],[-91.316,18.0584],[-91.1094,17.9728],[-90.9917,17.9682],[-90.9909,17.802],[-90.9622,17.816],[-90.2597,17.8153],[-89.1605,17.8143],[-89.1463,17.9515]]]}},{"type":"Feature","properties":{"sourceId":"1159314083","regionId":"region.d39367e6-4179-4f3d-b8ab-7d8dae7d2289","countryId":"country.1i4b92q"},"geometry":{"type":"Polygon","coordinates":[[[-90.9909,17.802],[-90.9917,17.9682],[-91.1094,17.9728],[-91.316,18.0584],[-91.5687,18.1036],[-91.6331,17.9509],[-91.8909,17.9667],[-92.1556,18.1688],[-92.1491,18.4619],[-92.3576,18.457],[-92.4861,18.6485],[-92.681,18.6229],[-92.8557,18.466],[-92.9398,18.4457],[-93.4447,18.4418],[-93.5803,18.4163],[-93.6839,18.3549],[-94.1371,18.2074],[-94.0508,17.9937],[-94.0767,17.882],[-93.9705,17.8323],[-93.9369,17.7586],[-93.7338,17.6715],[-93.6148,17.5465],[-93.6434,17.4208],[-93.5895,17.3755],[-93.5058,17.553],[-93.4144,17.6377],[-93.3134,17.9639],[-93.1959,17.979],[-93.0876,17.9003],[-92.9946,17.9095],[-93.0111,17.7488],[-92.9897,17.5613],[-92.9102,17.5258],[-92.8422,17.4166],[-92.6954,17.3835],[-92.4395,17.6073],[-92.3681,17.6969],[-92.2417,17.7393],[-91.9956,17.9047],[-91.7853,17.8466],[-91.7815,17.7209],[-91.6981,17.7136],[-91.6279,17.5136],[-91.4927,17.4571],[-91.4314,17.3894],[-91.4333,17.2545],[-90.992,17.2519],[-90.9909,17.802]]]}},{"type":"Feature","properties":{"sourceId":"1159314103","regionId":"region.febd1793-f63c-4ae1-8d68-8a0d94b4284e","countryId":"country.1i4b92q"},"geometry":{"type":"Polygon","coordinates":[[[-91.4333,17.2545],[-91.4314,17.3894],[-91.4927,17.4571],[-91.6279,17.5136],[-91.6981,17.7136],[-91.7815,17.7209],[-91.7853,17.8466],[-91.9956,17.9047],[-92.2417,17.7393],[-92.3681,17.6969],[-92.4395,17.6073],[-92.6954,17.3835],[-92.8422,17.4166],[-92.9102,17.5258],[-92.9897,17.5613],[-93.0111,17.7488],[-92.9946,17.9095],[-93.0876,17.9003],[-93.1959,17.979],[-93.3134,17.9639],[-93.4144,17.6377],[-93.5058,17.553],[-93.5895,17.3755],[-93.6366,17.3],[-93.8734,17.1502],[-93.8681,17.0122],[-93.9113,16.8807],[-94.029,16.8132],[-94.0354,16.6626],[-94.1251,16.5088],[-94.0369,16.2733],[-94.0836,16.1489],[-93.8981,16.0889],[-93.9434,16.0106],[-93.656,15.8393],[-93.2286,15.5019],[-92.9831,15.2656],[-92.824,15.1728],[-92.6999,14.9991],[-92.2463,14.5463],[-92.1617,14.7023],[-92.1908,14.8142],[-92.1542,14.9959],[-92.0738,15.0737],[-92.2034,15.2372],[-92.1059,15.4545],[-91.7519,16.0463],[-91.7238,16.0688],[-90.9948,16.0699],[-90.4482,16.0793],[-90.4478,16.0797],[-90.4594,16.2591],[-90.3988,16.3476],[-90.4758,16.4307],[-90.6482,16.5296],[-90.6338,16.5922],[-90.7353,16.7466],[-91.0669,16.9182],[-91.2904,17.1891],[-91.4333,17.2545]]]}},{"type":"Feature","properties":{"sourceId":"1159313969","regionId":"region.800e7ebd-5b58-4535-8dcb-e31b6c573e2b","countryId":"country.1i4b92q"},"geometry":{"type":"Polygon","coordinates":[[[-103.742,18.6904],[-103.586,18.8821],[-103.4778,18.9664],[-103.5252,19.0925],[-103.4965,19.3161],[-103.6353,19.4871],[-103.8335,19.3976],[-104.0249,19.4872],[-104.1222,19.4726],[-104.2145,19.3204],[-104.5364,19.2489],[-104.5926,19.1496],[-104.3543,19.1119],[-104.3317,19.0223],[-103.98,18.8749],[-103.742,18.6904]]]}},{"type":"Feature","properties":{"sourceId":"1159313979","regionId":"region.8faf5c1d-c043-4707-9cc8-26b6b83afe12","countryId":"country.1i4b92q"},"geometry":{"type":"Polygon","coordinates":[[[-105.2908,20.6852],[-105.0946,20.9181],[-104.9243,20.9312],[-104.7973,21.0176],[-104.7279,21.0097],[-104.2856,20.708],[-104.2711,20.8615],[-104.2129,20.9725],[-104.2241,21.1693],[-104.0824,21.2051],[-103.9826,21.2705],[-103.9447,21.3752],[-104.2103,21.5192],[-104.0984,21.7845],[-104.3987,22.0854],[-104.3297,22.2644],[-104.3114,22.3191],[-104.3346,22.4749],[-104.4772,22.4168],[-104.5874,22.4596],[-104.6679,22.6256],[-104.7743,22.6762],[-104.9707,22.5417],[-104.9942,22.6751],[-104.8886,22.7903],[-104.9455,22.9156],[-105.1315,23.017],[-105.3886,23.0333],[-105.4523,22.9013],[-105.5717,22.7907],[-105.4865,22.6841],[-105.466,22.4949],[-105.6135,22.5485],[-105.7241,22.5095],[-105.655,22.2563],[-105.6323,21.9557],[-105.4141,21.6011],[-105.185,21.443],[-105.2431,21.3421],[-105.2161,21.2044],[-105.2343,21.061],[-105.3097,21.0307],[-105.5141,20.7703],[-105.2908,20.6852]]]}},{"type":"Feature","properties":{"sourceId":"1159309245","regionId":"region.3f844576-5fa5-45e2-afc6-bd823f736d29","countryId":"country.1i4b92q"},"geometry":{"type":"MultiPolygon","coordinates":[[[[-111.7535,24.447],[-111.8644,24.5205],[-111.9716,24.5185],[-111.7104,24.3183],[-111.7535,24.447]]],[[[-114.0713,28.0004],[-114.0983,28.0003],[-114.1475,28.0002],[-114.207,28],[-114.1344,27.8772],[-114.1732,27.8268],[-114.1046,27.7077],[-113.9938,27.7499],[-113.9533,27.6557],[-114.1509,27.6697],[-114.2824,27.7358],[-114.3253,27.8747],[-114.4991,27.7741],[-114.6045,27.7744],[-114.9234,27.8363],[-115.0529,27.8221],[-115.0017,27.7159],[-114.8866,27.6949],[-114.7342,27.5213],[-114.5065,27.4062],[-114.4875,27.2381],[-114.2903,27.1465],[-114.1144,27.1055],[-114.0052,26.9774],[-113.8164,26.949],[-113.7252,26.8],[-113.6371,26.7255],[-113.5039,26.7934],[-113.364,26.7951],[-113.2858,26.7496],[-113.1431,26.7577],[-113.0607,26.5991],[-112.7284,26.3702],[-112.4983,26.235],[-112.3435,26.1781],[-112.2929,26.0497],[-112.1983,25.9951],[-112.076,25.7134],[-112.0631,25.6253],[-112.0779,25.2587],[-112.1425,25.086],[-112.088,24.7734],[-111.9667,24.7783],[-111.8489,24.6537],[-111.8129,24.5059],[-111.679,24.5863],[-111.6194,24.4731],[-111.4444,24.3244],[-111.0397,24.1042],[-110.5773,23.6816],[-110.3074,23.541],[-110.1673,23.3211],[-110.0984,23.0176],[-109.9545,22.8722],[-109.8954,22.8742],[-109.7132,23.0311],[-109.5317,23.1082],[-109.4256,23.2972],[-109.4263,23.4585],[-109.4765,23.5602],[-109.6798,23.6482],[-109.6984,23.7984],[-109.8391,23.9518],[-109.8283,24.0628],[-109.9877,24.0463],[-110.0181,24.1693],[-110.1728,24.253],[-110.2326,24.3432],[-110.3325,24.3288],[-110.3008,24.217],[-110.4021,24.1755],[-110.5624,24.2125],[-110.6818,24.3607],[-110.7386,24.5546],[-110.7235,24.6812],[-110.657,24.8069],[-110.7578,25.0122],[-110.9045,25.143],[-111.0263,25.4586],[-111.1917,25.6148],[-111.225,25.7244],[-111.3071,25.7792],[-111.3603,25.9641],[-111.3183,26.0737],[-111.4616,26.4001],[-111.4422,26.5175],[-111.5691,26.5762],[-111.5601,26.6957],[-111.8181,26.8962],[-111.7941,26.6901],[-111.6768,26.5819],[-111.7358,26.5397],[-111.9052,26.7343],[-111.8707,26.8281],[-112.0172,26.9785],[-112.0112,27.1168],[-112.1549,27.162],[-112.287,27.3658],[-112.3731,27.5641],[-112.598,27.6543],[-112.7732,27.8639],[-112.7636,27.9994],[-114.0628,28.0005],[-114.0713,28.0004]]]]}},{"type":"Feature","properties":{"sourceId":"1159314007","regionId":"region.2828dc6f-3432-4389-aadc-b38585adca33","countryId":"country.1i4b92q"},"geometry":{"type":"Polygon","coordinates":[[[-105.7241,22.5095],[-105.6135,22.5485],[-105.466,22.4949],[-105.4865,22.6841],[-105.5717,22.7907],[-105.4523,22.9013],[-105.3886,23.0333],[-105.3923,23.1498],[-105.5501,23.163],[-105.6878,23.2972],[-105.7153,23.4641],[-105.826,23.5666],[-105.8974,23.7135],[-105.9161,23.9402],[-105.8717,24.031],[-105.9484,24.0733],[-106.0533,24.2833],[-106.1956,24.3898],[-106.274,24.3909],[-106.4046,24.2896],[-106.5064,24.2938],[-106.5959,24.368],[-106.6218,24.4819],[-106.7564,24.7035],[-107.0364,24.9197],[-107.1263,25.1899],[-107.0961,25.4203],[-106.9369,25.6416],[-107.2594,25.8693],[-107.3438,26.0838],[-107.4141,26.1298],[-107.7854,26.2156],[-107.8351,26.5996],[-107.9996,26.8146],[-108.0451,26.9309],[-108.1973,26.9708],[-108.2541,27.041],[-108.3743,27.0774],[-108.4665,26.9799],[-108.5074,26.8016],[-109.1393,26.3318],[-109.1563,26.3081],[-109.2314,26.2634],[-109.2836,26.2406],[-109.2929,26.2369],[-109.4333,26.0217],[-109.4405,25.7934],[-109.1712,25.6487],[-109.1161,25.5363],[-108.8878,25.4897],[-108.7934,25.5363],[-108.7299,25.406],[-108.4508,25.2694],[-108.3336,25.161],[-108.218,25.1732],[-108.1069,25.1169],[-108.1055,25.0269],[-108.1864,24.9866],[-108.1556,24.883],[-108.0362,24.7852],[-107.9952,24.6484],[-107.8205,24.5952],[-107.7391,24.5073],[-107.6241,24.4585],[-107.5192,24.5114],[-107.4783,24.4001],[-107.5432,24.3466],[-107.3778,24.2069],[-107.0359,23.9808],[-106.902,23.8466],[-106.7932,23.6324],[-106.5228,23.4075],[-106.4298,23.2304],[-106.2203,23.0519],[-106.032,22.8301],[-105.9425,22.7817],[-105.8002,22.6385],[-105.7241,22.5095]]]}},{"type":"Feature","properties":{"sourceId":"1159314105","regionId":"region.a44bfcdf-3562-40bd-b3e0-880f4c5a296c","countryId":"country.1i4b92q"},"geometry":{"type":"Polygon","coordinates":[[[-90.3811,20.824],[-90.392,20.5472],[-90.2363,20.51],[-90.1692,20.4247],[-90.0638,20.4125],[-89.8698,20.2686],[-89.8107,20.1374],[-89.63,20.0191],[-89.4547,19.777],[-89.4154,19.651],[-89.3688,19.8201],[-89.202,19.8417],[-89.0557,19.9318],[-88.9112,19.9487],[-88.7074,20.0808],[-88.4453,20.1837],[-88.3738,20.3006],[-88.2724,20.3434],[-88.2184,20.4326],[-88.0139,20.4347],[-87.9043,20.4863],[-87.6749,20.6479],[-87.534,20.9557],[-87.585,21.1111],[-87.5251,21.2988],[-87.5398,21.4993],[-87.9621,21.6001],[-88.1295,21.616],[-88.2827,21.5567],[-88.4478,21.5751],[-88.6055,21.5341],[-88.7027,21.4586],[-89.1232,21.3635],[-89.786,21.2846],[-90.0995,21.1641],[-90.3324,21.0325],[-90.3811,20.824]]]}},{"type":"Feature","properties":{"sourceId":"1159313983","regionId":"region.1fd918a7-ac61-4d00-9fba-4f98b061ae49","countryId":"country.1i4b92q"},"geometry":{"type":"Polygon","coordinates":[[[-97.7819,22.2733],[-98.0928,22.3726],[-98.1977,22.4805],[-98.2977,22.4066],[-98.4392,22.4327],[-98.6162,22.4186],[-98.3737,22.2649],[-98.3613,22.1526],[-98.4523,21.9804],[-98.5383,21.9723],[-98.489,21.7527],[-98.624,21.6849],[-98.6423,21.6089],[-98.5301,21.5248],[-98.5151,21.3988],[-98.4428,21.3537],[-98.4932,21.2634],[-98.4101,21.1776],[-98.2124,21.1506],[-98.1299,21.0722],[-98.2324,20.9383],[-98.2357,20.829],[-98.3932,20.877],[-98.4372,20.6768],[-98.5079,20.6245],[-98.5685,20.4723],[-98.5006,20.3624],[-98.3358,20.435],[-98.1108,20.6884],[-98.0216,20.6608],[-98.0002,20.4845],[-97.9509,20.55],[-97.9359,20.7305],[-97.8964,20.8064],[-97.7792,20.8138],[-97.6622,20.6069],[-97.5586,20.5042],[-97.6398,20.4158],[-97.7697,20.4387],[-97.7741,20.2732],[-97.69,20.1882],[-97.5431,20.1367],[-97.4035,20.2596],[-97.1529,20.1458],[-97.1542,20.0803],[-97.3105,19.8902],[-97.3245,19.6945],[-97.3924,19.5758],[-97.2258,19.3387],[-96.982,19.288],[-97.1091,19.1787],[-97.2641,19.1604],[-97.2269,18.9134],[-97.3309,18.8099],[-97.3104,18.6845],[-97.1364,18.6499],[-97.0914,18.5511],[-96.9873,18.5135],[-96.8002,18.5505],[-96.7281,18.4102],[-96.5968,18.6124],[-96.411,18.5393],[-96.3775,18.428],[-96.2504,18.2842],[-96.2289,18.201],[-96.1093,18.1428],[-95.9562,18.1643],[-95.8377,18.1204],[-95.7755,17.9954],[-95.9103,17.7836],[-95.797,17.5375],[-95.6123,17.5154],[-95.4515,17.6244],[-95.3079,17.6727],[-95.2547,17.5826],[-95.0755,17.3911],[-94.9988,17.3604],[-94.9385,17.2165],[-93.8734,17.1502],[-93.6366,17.3],[-93.5895,17.3755],[-93.6434,17.4208],[-93.6148,17.5465],[-93.7338,17.6715],[-93.9369,17.7586],[-93.9705,17.8323],[-94.0767,17.882],[-94.0508,17.9937],[-94.1371,18.2074],[-94.4669,18.1442],[-94.5809,18.1898],[-94.8079,18.5236],[-95.0026,18.5554],[-95.2084,18.7086],[-95.4952,18.7073],[-95.7284,18.7572],[-95.852,18.7168],[-95.9772,19.0583],[-96.0412,19.0657],[-96.1574,19.2252],[-96.2783,19.3146],[-96.36,19.5369],[-96.4561,19.8688],[-96.676,20.1579],[-97.0344,20.5146],[-97.1505,20.647],[-97.1972,20.8102],[-97.338,21.055],[-97.4968,21.4006],[-97.6576,21.6365],[-97.6251,21.7944],[-97.4869,21.6364],[-97.379,21.5543],[-97.4722,21.4378],[-97.3479,21.4179],[-97.3162,21.5609],[-97.6105,21.8358],[-97.7606,22.0959],[-97.7819,22.2733]]]}},{"type":"Feature","properties":{"sourceId":"1159314073","regionId":"region.0e43bd37-87ac-45ed-8b8f-6b0aa9143e95","countryId":"country.1i4b92q"},"geometry":{"type":"Polygon","coordinates":[[[-104.5926,19.1496],[-104.5364,19.2489],[-104.2145,19.3204],[-104.1222,19.4726],[-104.0249,19.4872],[-103.8335,19.3976],[-103.6353,19.4871],[-103.4965,19.3161],[-103.5252,19.0925],[-103.4778,18.9664],[-103.3481,18.9778],[-103.2963,19.0477],[-103.1223,19.0061],[-102.9883,19.0584],[-102.8844,19.2025],[-102.728,19.2575],[-102.6575,19.2311],[-102.5486,19.3869],[-102.6142,19.4909],[-102.7457,19.4756],[-102.7375,19.5823],[-102.7965,19.6887],[-102.8098,19.8209],[-102.7286,19.8389],[-102.7726,19.9571],[-102.9339,19.9904],[-103.0364,19.9704],[-103.0482,20.1204],[-102.6778,20.2182],[-102.4983,20.3147],[-102.0997,20.3868],[-101.9806,20.5553],[-101.9769,20.6286],[-102.0851,20.7293],[-102.0456,20.8725],[-101.855,21.1484],[-101.7719,21.2301],[-101.6875,21.2361],[-101.5727,21.3476],[-101.6369,21.5167],[-101.5383,21.6369],[-101.5797,21.7785],[-101.5205,21.8409],[-101.6231,21.9307],[-101.8454,22.0175],[-102.0491,21.8659],[-102.0799,21.7679],[-102.2312,21.6777],[-102.5142,21.7061],[-102.6303,21.773],[-102.7605,21.7488],[-102.7762,21.6078],[-102.6405,21.5683],[-102.6857,21.401],[-102.9149,21.2823],[-103.0559,21.2658],[-103.0475,21.074],[-103.2317,21.0791],[-103.3638,21.1504],[-103.5914,21.193],[-103.7465,21.2973],[-103.6663,21.4879],[-103.5193,21.6003],[-103.5268,21.8172],[-103.289,21.9855],[-103.1561,21.9984],[-103.0457,22.2515],[-103.1318,22.3383],[-103.3728,22.5168],[-103.4271,22.4176],[-103.3586,22.3488],[-103.4886,22.1349],[-103.6783,22.1369],[-103.683,22.322],[-103.608,22.5244],[-103.6569,22.5913],[-103.7611,22.5596],[-103.8482,22.1973],[-103.889,22.3445],[-103.8513,22.5685],[-103.7787,22.7347],[-103.9832,22.7716],[-103.9918,22.5743],[-103.9261,22.4902],[-103.9482,22.3788],[-104.1318,22.3434],[-104.3297,22.2644],[-104.3987,22.0854],[-104.0984,21.7845],[-104.2103,21.5192],[-103.9447,21.3752],[-103.9826,21.2705],[-104.0824,21.2051],[-104.2241,21.1693],[-104.2129,20.9725],[-104.2711,20.8615],[-104.2856,20.708],[-104.7279,21.0097],[-104.7973,21.0176],[-104.9243,20.9312],[-105.0946,20.9181],[-105.2908,20.6852],[-105.2436,20.5836],[-105.3287,20.5137],[-105.5756,20.4877],[-105.6987,20.4069],[-105.5532,20.2015],[-105.5256,20.0319],[-105.2508,19.6661],[-105.0877,19.5611],[-105.0171,19.3685],[-104.8069,19.2291],[-104.7336,19.2285],[-104.5926,19.1496]]]}},{"type":"Feature","properties":{"sourceId":"1159314077","regionId":"region.c8e28d23-5713-4f59-90f5-e09e81d301e2","countryId":"country.1i4b92q"},"geometry":{"type":"Polygon","coordinates":[[[-102.1689,17.9212],[-102.1591,18.1624],[-101.9411,18.2047],[-101.8747,18.3203],[-101.8933,18.4586],[-101.8388,18.5765],[-101.6451,18.5798],[-101.4918,18.4771],[-101.2571,18.5371],[-101.0244,18.5388],[-100.9923,18.5029],[-100.7319,18.5074],[-100.7889,18.7823],[-100.6848,18.7941],[-100.6236,18.8706],[-100.2988,19.2585],[-100.3301,19.3229],[-100.1586,19.4198],[-100.2145,19.565],[-100.1228,19.938],[-100.1765,20.0862],[-100.286,20.2134],[-100.3988,20.0743],[-100.396,19.9643],[-100.7267,19.9371],[-100.8296,19.9756],[-100.9145,19.9252],[-101.0172,19.9513],[-100.9989,20.09],[-101.1634,20.1016],[-101.1941,20.0348],[-101.4197,20.0536],[-101.3828,20.287],[-101.4803,20.3311],[-101.6078,20.3203],[-101.6896,20.2012],[-101.9051,20.2033],[-101.9493,20.366],[-102.0997,20.3868],[-102.4983,20.3147],[-102.6778,20.2182],[-103.0482,20.1204],[-103.0364,19.9704],[-102.9339,19.9904],[-102.7726,19.9571],[-102.7286,19.8389],[-102.8098,19.8209],[-102.7965,19.6887],[-102.7375,19.5823],[-102.7457,19.4756],[-102.6142,19.4909],[-102.5486,19.3869],[-102.6575,19.2311],[-102.728,19.2575],[-102.8844,19.2025],[-102.9883,19.0584],[-103.1223,19.0061],[-103.2963,19.0477],[-103.3481,18.9778],[-103.4778,18.9664],[-103.586,18.8821],[-103.742,18.6904],[-103.71,18.6012],[-103.5751,18.4923],[-103.4984,18.3335],[-103.3616,18.2668],[-103.0244,18.1858],[-102.7423,18.067],[-102.5972,18.0491],[-102.1689,17.9212]]]}},{"type":"Feature","properties":{"sourceId":"1159314091","regionId":"region.dfee562e-f145-40f2-98aa-9afe99f42b14","countryId":"country.1i4b92q"},"geometry":{"type":"Polygon","coordinates":[[[-98.5545,16.3183],[-98.3933,16.3721],[-98.3219,16.4372],[-98.3332,16.5661],[-98.2356,16.5783],[-98.2402,16.7026],[-98.0729,16.7791],[-98.003,17.0259],[-98.1496,17.2151],[-98.2276,17.2229],[-98.3308,17.3372],[-98.3277,17.4788],[-98.3887,17.6406],[-98.328,17.858],[-98.3478,17.8922],[-98.417,17.9603],[-98.5552,17.9519],[-98.7884,18.0342],[-99.0307,18.2527],[-99.0497,18.3499],[-99.1415,18.4966],[-99.3314,18.4529],[-99.4955,18.6741],[-99.6603,18.7638],[-99.7473,18.6918],[-100.0712,18.6096],[-100.1479,18.4913],[-100.2748,18.392],[-100.3665,18.4554],[-100.3495,18.5327],[-100.4329,18.6474],[-100.4552,18.8436],[-100.6236,18.8706],[-100.6848,18.7941],[-100.7889,18.7823],[-100.7319,18.5074],[-100.9923,18.5029],[-101.0244,18.5388],[-101.2571,18.5371],[-101.4918,18.4771],[-101.6451,18.5798],[-101.8388,18.5765],[-101.8933,18.4586],[-101.8747,18.3203],[-101.9411,18.2047],[-102.1591,18.1624],[-102.1689,17.9212],[-102.0367,17.9907],[-101.8111,17.8903],[-101.6445,17.6683],[-101.4965,17.6144],[-101.4558,17.5263],[-101.1822,17.4125],[-101.0082,17.253],[-99.9917,16.9097],[-99.7412,16.7306],[-99.6054,16.6828],[-99.3743,16.6679],[-98.8565,16.5282],[-98.7769,16.5551],[-98.5545,16.3183]]]}},{"type":"Feature","properties":{"sourceId":"1159314079","regionId":"region.79f5823d-078f-43f0-8bb3-1637a2967838","countryId":"country.1i4b92q"},"geometry":{"type":"Polygon","coordinates":[[[-94.1149,16.0572],[-94.094,16.099],[-94.23,16.1633],[-94.2926,16.1411],[-94.4142,16.234],[-94.3636,16.287],[-94.2242,16.2036],[-94.1278,16.2209],[-94.0836,16.1489],[-94.0369,16.2733],[-94.1251,16.5088],[-94.0354,16.6626],[-94.029,16.8132],[-93.9113,16.8807],[-93.8681,17.0122],[-93.8734,17.1502],[-94.9385,17.2165],[-94.9988,17.3604],[-95.0755,17.3911],[-95.2547,17.5826],[-95.3079,17.6727],[-95.4515,17.6244],[-95.6123,17.5154],[-95.797,17.5375],[-95.9103,17.7836],[-95.7755,17.9954],[-95.8377,18.1204],[-95.9562,18.1643],[-96.1093,18.1428],[-96.2289,18.201],[-96.2504,18.2842],[-96.3775,18.428],[-96.411,18.5393],[-96.5968,18.6124],[-96.7281,18.4102],[-96.7895,18.2837],[-96.8811,18.244],[-97.0257,18.1223],[-97.1879,18.1763],[-97.3136,18.1446],[-97.427,17.9901],[-97.6402,18.1705],[-97.6056,18.3204],[-97.7249,18.3022],[-97.8178,18.137],[-97.7325,18.0048],[-97.8907,17.9374],[-97.9251,18.0359],[-98.1731,18.0175],[-98.2428,17.9138],[-98.3478,17.8922],[-98.328,17.858],[-98.3887,17.6406],[-98.3277,17.4788],[-98.3308,17.3372],[-98.2276,17.2229],[-98.1496,17.2151],[-98.003,17.0259],[-98.0729,16.7791],[-98.2402,16.7026],[-98.2356,16.5783],[-98.3332,16.5661],[-98.3219,16.4372],[-98.3933,16.3721],[-98.5545,16.3183],[-98.4453,16.2781],[-98.1238,16.2092],[-98.0852,16.1651],[-97.7727,15.9795],[-97.266,15.9359],[-97.1607,15.9038],[-97.0223,15.8072],[-96.8451,15.7326],[-96.681,15.7094],[-96.556,15.659],[-96.4311,15.6959],[-96.2366,15.6833],[-95.9599,15.8279],[-95.4345,15.9754],[-95.2332,16.1582],[-94.8959,16.2117],[-95.0638,16.2683],[-94.8521,16.4289],[-94.7633,16.2935],[-94.6544,16.3636],[-94.5871,16.2824],[-94.701,16.1956],[-94.4396,16.1868],[-94.1149,16.0572]]]}},{"type":"Feature","properties":{"sourceId":"1159315571","regionId":"region.e7f81283-2550-4239-ae7e-a0ea0a89ef88","countryId":"country.1i4b92q"},"geometry":{"type":"Polygon","coordinates":[[[-89.6642,22.3711],[-89.6102,22.4611],[-89.6552,22.472],[-89.698,22.4175],[-89.6642,22.3711]]]}},{"type":"Feature","properties":{"sourceId":"1159314097","regionId":"region.d3954832-9550-4670-b7c1-9bec65526ce6","countryId":"country.1i4b92q"},"geometry":{"type":"Polygon","coordinates":[[[-98.6409,19.4619],[-98.6595,19.5855],[-98.6051,19.741],[-98.6977,19.8504],[-98.8348,19.8864],[-98.9663,19.8215],[-98.9426,19.9904],[-99.0177,20.0421],[-99.2021,19.9791],[-99.3866,19.7563],[-99.4472,19.9102],[-99.5186,19.9531],[-99.4858,20.061],[-99.5487,20.1576],[-99.7165,20.1838],[-99.8441,20.3089],[-99.9377,20.2523],[-99.9509,20.1709],[-100.1228,19.938],[-100.2145,19.565],[-100.1586,19.4198],[-100.3301,19.3229],[-100.2988,19.2585],[-100.6236,18.8706],[-100.4552,18.8436],[-100.4329,18.6474],[-100.3495,18.5327],[-100.3665,18.4554],[-100.2748,18.392],[-100.1479,18.4913],[-100.0712,18.6096],[-99.7473,18.6918],[-99.6603,18.7638],[-99.4955,18.6741],[-99.4724,18.8005],[-99.3076,18.9348],[-99.3335,19.0298],[-99.2851,19.1424],[-99.3329,19.2977],[-99.2597,19.3609],[-99.1237,19.5711],[-98.9587,19.2614],[-98.964,19.0891],[-98.8401,19.0446],[-98.8149,18.9743],[-98.6464,19.0236],[-98.6328,19.1896],[-98.6717,19.3899],[-98.6409,19.4619]]]}},{"type":"Feature","properties":{"sourceId":"1159314081","regionId":"region.b54e9915-8759-4bcc-88e6-64039182c884","countryId":"country.1i4b92q"},"geometry":{"type":"Polygon","coordinates":[[[-98.6464,19.0236],[-98.6582,18.8913],[-98.7334,18.8119],[-98.75,18.6919],[-98.6769,18.4275],[-98.8072,18.4948],[-99.0497,18.3499],[-99.0307,18.2527],[-98.7884,18.0342],[-98.5552,17.9519],[-98.417,17.9603],[-98.3478,17.8922],[-98.2428,17.9138],[-98.1731,18.0175],[-97.9251,18.0359],[-97.8907,17.9374],[-97.7325,18.0048],[-97.8178,18.137],[-97.7249,18.3022],[-97.6056,18.3204],[-97.6402,18.1705],[-97.427,17.9901],[-97.3136,18.1446],[-97.1879,18.1763],[-97.0257,18.1223],[-96.8811,18.244],[-96.7895,18.2837],[-96.7281,18.4102],[-96.8002,18.5505],[-96.9873,18.5135],[-97.0914,18.5511],[-97.1364,18.6499],[-97.3104,18.6845],[-97.3309,18.8099],[-97.2269,18.9134],[-97.2641,19.1604],[-97.1091,19.1787],[-96.982,19.288],[-97.2258,19.3387],[-97.3924,19.5758],[-97.3245,19.6945],[-97.3105,19.8902],[-97.1542,20.0803],[-97.1529,20.1458],[-97.4035,20.2596],[-97.5431,20.1367],[-97.69,20.1882],[-97.7741,20.2732],[-97.7697,20.4387],[-97.6398,20.4158],[-97.5586,20.5042],[-97.6622,20.6069],[-97.7792,20.8138],[-97.8964,20.8064],[-97.9359,20.7305],[-97.9509,20.55],[-98.0002,20.4845],[-98.1594,20.3297],[-98.2355,20.3145],[-98.2459,20.2024],[-98.1353,20.2103],[-98.101,20.0862],[-98.245,19.8713],[-98.1431,19.6728],[-97.9408,19.5798],[-97.8445,19.4363],[-97.759,19.4479],[-97.6412,19.3728],[-97.6681,19.2839],[-97.8276,19.3114],[-97.8467,19.2119],[-97.9291,19.1585],[-98.0501,19.2092],[-98.1935,19.1065],[-98.3517,19.2414],[-98.4659,19.4383],[-98.6409,19.4619],[-98.6717,19.3899],[-98.6328,19.1896],[-98.6464,19.0236]]]}},{"type":"Feature","properties":{"sourceId":"1159314099","regionId":"region.2dadacce-eea4-4dda-a81d-575e66b5e88a","countryId":"country.1i4b92q"},"geometry":{"type":"Polygon","coordinates":[[[-98.6464,19.0236],[-98.8149,18.9743],[-98.8401,19.0446],[-98.964,19.0891],[-99.0428,19.0578],[-99.2851,19.1424],[-99.3335,19.0298],[-99.3076,18.9348],[-99.4724,18.8005],[-99.4955,18.6741],[-99.3314,18.4529],[-99.1415,18.4966],[-99.0497,18.3499],[-98.8072,18.4948],[-98.6769,18.4275],[-98.75,18.6919],[-98.7334,18.8119],[-98.6582,18.8913],[-98.6464,19.0236]]]}},{"type":"Feature","properties":{"sourceId":"1159314101","regionId":"region.90837e60-6129-46ca-a3e6-d4db5486789e","countryId":"country.1i4b92q"},"geometry":{"type":"Polygon","coordinates":[[[-99.0434,21.2683],[-99.1983,21.6231],[-99.3324,21.5228],[-99.3812,21.4326],[-99.5702,21.3924],[-99.7201,21.5147],[-99.7906,21.4191],[-99.7925,21.2914],[-99.7255,21.2243],[-99.8269,21.1583],[-99.9598,21.2012],[-100.0525,21.1582],[-100.1058,20.9167],[-100.1832,20.879],[-100.4739,20.9506],[-100.5652,20.7398],[-100.4911,20.5434],[-100.4846,20.4356],[-100.374,20.2725],[-100.286,20.2134],[-100.1765,20.0862],[-100.1228,19.938],[-99.9509,20.1709],[-99.9377,20.2523],[-99.8441,20.3089],[-99.8195,20.5125],[-99.645,20.562],[-99.49,20.6611],[-99.492,20.8344],[-99.4155,20.8961],[-99.3543,21.0278],[-99.3641,21.1112],[-99.2279,21.1188],[-99.0423,21.1758],[-99.0434,21.2683]]]}},{"type":"Feature","properties":{"sourceId":"1159314095","regionId":"region.0249e484-e91e-4e7a-9bd9-190fbab0a37d","countryId":"country.1i4b92q"},"geometry":{"type":"Polygon","coordinates":[[[-99.0434,21.2683],[-99.0423,21.1758],[-99.2279,21.1188],[-99.3641,21.1112],[-99.3543,21.0278],[-99.4155,20.8961],[-99.492,20.8344],[-99.49,20.6611],[-99.645,20.562],[-99.8195,20.5125],[-99.8441,20.3089],[-99.7165,20.1838],[-99.5487,20.1576],[-99.4858,20.061],[-99.5186,19.9531],[-99.4472,19.9102],[-99.3866,19.7563],[-99.2021,19.9791],[-99.0177,20.0421],[-98.9426,19.9904],[-98.9663,19.8215],[-98.8348,19.8864],[-98.6977,19.8504],[-98.6051,19.741],[-98.6595,19.5855],[-98.5725,19.6337],[-98.3307,19.607],[-98.2672,19.7145],[-98.1431,19.6728],[-98.245,19.8713],[-98.101,20.0862],[-98.1353,20.2103],[-98.2459,20.2024],[-98.2355,20.3145],[-98.1594,20.3297],[-98.0002,20.4845],[-98.0216,20.6608],[-98.1108,20.6884],[-98.3358,20.435],[-98.5006,20.3624],[-98.5685,20.4723],[-98.5079,20.6245],[-98.4372,20.6768],[-98.3932,20.877],[-98.2357,20.829],[-98.2324,20.9383],[-98.1299,21.0722],[-98.2124,21.1506],[-98.4101,21.1776],[-98.4932,21.2634],[-98.4428,21.3537],[-98.5151,21.3988],[-98.5852,21.377],[-98.5923,21.2122],[-98.8236,21.1769],[-98.9391,21.2912],[-99.0434,21.2683]]]}},{"type":"Feature","properties":{"sourceId":"1159314089","regionId":"region.ec59819e-6f11-4e24-b4cc-e5eaaaa494a8","countryId":"country.1i4b92q"},"geometry":{"type":"Polygon","coordinates":[[[-99.7906,21.4191],[-99.9586,21.4591],[-100.0761,21.5543],[-100.404,21.6777],[-100.4992,21.5136],[-100.6273,21.4918],[-100.9615,21.7504],[-101.2597,21.772],[-101.326,21.8729],[-101.5205,21.8409],[-101.5797,21.7785],[-101.5383,21.6369],[-101.6369,21.5167],[-101.5727,21.3476],[-101.6875,21.2361],[-101.7719,21.2301],[-101.855,21.1484],[-102.0456,20.8725],[-102.0851,20.7293],[-101.9769,20.6286],[-101.9806,20.5553],[-102.0997,20.3868],[-101.9493,20.366],[-101.9051,20.2033],[-101.6896,20.2012],[-101.6078,20.3203],[-101.4803,20.3311],[-101.3828,20.287],[-101.4197,20.0536],[-101.1941,20.0348],[-101.1634,20.1016],[-100.9989,20.09],[-101.0172,19.9513],[-100.9145,19.9252],[-100.8296,19.9756],[-100.7267,19.9371],[-100.396,19.9643],[-100.3988,20.0743],[-100.286,20.2134],[-100.374,20.2725],[-100.4846,20.4356],[-100.4911,20.5434],[-100.5652,20.7398],[-100.4739,20.9506],[-100.1832,20.879],[-100.1058,20.9167],[-100.0525,21.1582],[-99.9598,21.2012],[-99.8269,21.1583],[-99.7255,21.2243],[-99.7925,21.2914],[-99.7906,21.4191]]]}},{"type":"Feature","properties":{"sourceId":"1159314069","regionId":"region.5690e6c8-7110-4ca8-93ae-6fb4537c6794","countryId":"country.1i4b92q"},"geometry":{"type":"Polygon","coordinates":[[[-100.8284,24.565],[-100.8697,24.4671],[-100.9942,24.3714],[-101.2455,23.9927],[-101.6635,23.7071],[-101.716,23.6308],[-101.8283,23.5812],[-101.9385,23.4544],[-102.0726,23.3546],[-102.1904,23.4042],[-102.253,23.189],[-102.251,22.9837],[-102.1169,22.757],[-101.9532,22.6476],[-101.8327,22.4821],[-101.7617,22.4495],[-101.6302,22.498],[-101.512,22.6087],[-101.3519,22.5896],[-101.3015,22.4809],[-101.3794,22.3608],[-101.3224,22.1016],[-101.5205,21.8409],[-101.326,21.8729],[-101.2597,21.772],[-100.9615,21.7504],[-100.6273,21.4918],[-100.4992,21.5136],[-100.404,21.6777],[-100.0761,21.5543],[-99.9586,21.4591],[-99.7906,21.4191],[-99.7201,21.5147],[-99.5702,21.3924],[-99.3812,21.4326],[-99.3324,21.5228],[-99.1983,21.6231],[-99.0434,21.2683],[-98.9391,21.2912],[-98.8236,21.1769],[-98.5923,21.2122],[-98.5852,21.377],[-98.5151,21.3988],[-98.5301,21.5248],[-98.6423,21.6089],[-98.624,21.6849],[-98.489,21.7527],[-98.5383,21.9723],[-98.4523,21.9804],[-98.3613,22.1526],[-98.3737,22.2649],[-98.6162,22.4186],[-98.9394,22.3723],[-99.2484,22.4589],[-99.3792,22.6834],[-99.5545,22.621],[-99.9874,22.7773],[-100.0398,22.8683],[-99.9158,22.9574],[-100.0573,23.2411],[-100.3268,23.2541],[-100.4393,23.229],[-100.4709,23.4178],[-100.4548,23.5134],[-100.4943,23.6616],[-100.4876,23.8215],[-100.5798,23.9305],[-100.6039,24.0262],[-100.6103,24.2833],[-100.8284,24.565]]]}},{"type":"Feature","properties":{"sourceId":"1159314065","regionId":"region.b610a6d1-aa3f-494b-a7a2-b1181cf44de9","countryId":"country.1i4b92q"},"geometry":{"type":"Polygon","coordinates":[[[-100.8284,24.565],[-101.0966,24.641],[-101.1969,24.7965],[-101.3416,24.8119],[-101.4617,24.7493],[-101.5744,24.8069],[-101.5908,24.8824],[-101.7678,24.9381],[-101.8607,25.0756],[-102.1734,25.163],[-102.5824,25.1251],[-102.6682,25.0789],[-102.4917,24.824],[-102.4902,24.4742],[-102.8009,24.41],[-103.2466,24.4911],[-103.5161,24.3406],[-103.6704,24.1618],[-103.8359,24.085],[-103.8514,23.8507],[-103.941,23.5671],[-104.109,23.4353],[-104.1343,23.1868],[-104.1891,23.1177],[-104.2088,22.6437],[-104.3114,22.3191],[-104.3297,22.2644],[-104.1318,22.3434],[-103.9482,22.3788],[-103.9261,22.4902],[-103.9918,22.5743],[-103.9832,22.7716],[-103.7787,22.7347],[-103.8513,22.5685],[-103.889,22.3445],[-103.8482,22.1973],[-103.7611,22.5596],[-103.6569,22.5913],[-103.608,22.5244],[-103.683,22.322],[-103.6783,22.1369],[-103.4886,22.1349],[-103.3586,22.3488],[-103.4271,22.4176],[-103.3728,22.5168],[-103.1318,22.3383],[-103.0457,22.2515],[-103.1561,21.9984],[-103.289,21.9855],[-103.5268,21.8172],[-103.5193,21.6003],[-103.6663,21.4879],[-103.7465,21.2973],[-103.5914,21.193],[-103.3638,21.1504],[-103.2317,21.0791],[-103.0475,21.074],[-103.0559,21.2658],[-102.9149,21.2823],[-102.6857,21.401],[-102.6405,21.5683],[-102.7762,21.6078],[-102.7605,21.7488],[-102.8564,21.8503],[-102.8418,21.933],[-102.6478,22.2129],[-102.621,22.3066],[-102.511,22.3055],[-102.3451,22.397],[-102.2291,22.369],[-101.9876,22.2501],[-101.9798,22.123],[-101.8454,22.0175],[-101.6231,21.9307],[-101.5205,21.8409],[-101.3224,22.1016],[-101.3794,22.3608],[-101.3015,22.4809],[-101.3519,22.5896],[-101.512,22.6087],[-101.6302,22.498],[-101.7617,22.4495],[-101.8327,22.4821],[-101.9532,22.6476],[-102.1169,22.757],[-102.251,22.9837],[-102.253,23.189],[-102.1904,23.4042],[-102.0726,23.3546],[-101.9385,23.4544],[-101.8283,23.5812],[-101.716,23.6308],[-101.6635,23.7071],[-101.2455,23.9927],[-100.9942,24.3714],[-100.8697,24.4671],[-100.8284,24.565]]]}},{"type":"Feature","properties":{"sourceId":"1159314071","regionId":"region.cb73fec4-b302-4142-82f8-d3e1551bb528","countryId":"country.1i4b92q"},"geometry":{"type":"Polygon","coordinates":[[[-101.8454,22.0175],[-101.9798,22.123],[-101.9876,22.2501],[-102.2291,22.369],[-102.3451,22.397],[-102.511,22.3055],[-102.621,22.3066],[-102.6478,22.2129],[-102.8418,21.933],[-102.8564,21.8503],[-102.7605,21.7488],[-102.6303,21.773],[-102.5142,21.7061],[-102.2312,21.6777],[-102.0799,21.7679],[-102.0491,21.8659],[-101.8454,22.0175]]]}},{"type":"Feature","properties":{"sourceId":"1159314063","regionId":"region.4d16db18-3d1b-4aff-86bd-c2283981167c","countryId":"country.1i4b92q"},"geometry":{"type":"Polygon","coordinates":[[[-106.9369,25.6416],[-107.0961,25.4203],[-107.1263,25.1899],[-107.0364,24.9197],[-106.7564,24.7035],[-106.6218,24.4819],[-106.5959,24.368],[-106.5064,24.2938],[-106.4046,24.2896],[-106.274,24.3909],[-106.1956,24.3898],[-106.0533,24.2833],[-105.9484,24.0733],[-105.8717,24.031],[-105.9161,23.9402],[-105.8974,23.7135],[-105.826,23.5666],[-105.7153,23.4641],[-105.6878,23.2972],[-105.5501,23.163],[-105.3923,23.1498],[-105.3886,23.0333],[-105.1315,23.017],[-104.9455,22.9156],[-104.8886,22.7903],[-104.9942,22.6751],[-104.9707,22.5417],[-104.7743,22.6762],[-104.6679,22.6256],[-104.5874,22.4596],[-104.4772,22.4168],[-104.3346,22.4749],[-104.3114,22.3191],[-104.2088,22.6437],[-104.1891,23.1177],[-104.1343,23.1868],[-104.109,23.4353],[-103.941,23.5671],[-103.8514,23.8507],[-103.8359,24.085],[-103.6704,24.1618],[-103.5161,24.3406],[-103.2466,24.4911],[-102.8009,24.41],[-102.4902,24.4742],[-102.4917,24.824],[-102.6682,25.0789],[-102.8158,24.9044],[-102.8431,24.7283],[-102.9719,24.8067],[-103.1395,24.8478],[-103.2515,24.923],[-103.2753,25.0721],[-103.388,25.1406],[-103.5092,25.2978],[-103.4249,25.4275],[-103.4878,25.5409],[-103.3202,25.6987],[-103.3453,26.1239],[-103.2813,26.2624],[-103.3257,26.4087],[-103.6273,26.6439],[-103.9415,26.7604],[-104.1156,26.7731],[-104.2346,26.7232],[-104.5198,26.3715],[-104.5978,26.351],[-104.8333,26.4868],[-105.1168,26.5524],[-105.3275,26.4595],[-105.5559,26.5728],[-105.6804,26.6989],[-105.8085,26.6933],[-106.0275,26.8386],[-106.2248,26.5597],[-106.2272,26.4292],[-106.4015,26.381],[-106.4273,26.3013],[-106.3783,26.1315],[-106.4265,26.0391],[-106.5249,25.9928],[-106.5445,25.7799],[-106.7209,25.6332],[-106.9369,25.6416]]]}},{"type":"Feature","properties":{"sourceId":"1159314085","regionId":"region.ddd4046d-b88d-4a3d-ab96-512538becebd","countryId":"country.1i4b92q"},"geometry":{"type":"Polygon","coordinates":[[[-98.1431,19.6728],[-98.2672,19.7145],[-98.3307,19.607],[-98.5725,19.6337],[-98.6595,19.5855],[-98.6409,19.4619],[-98.4659,19.4383],[-98.3517,19.2414],[-98.1935,19.1065],[-98.0501,19.2092],[-97.9291,19.1585],[-97.8467,19.2119],[-97.8276,19.3114],[-97.6681,19.2839],[-97.6412,19.3728],[-97.759,19.4479],[-97.8445,19.4363],[-97.9408,19.5798],[-98.1431,19.6728]]]}},{"type":"Feature","properties":{"sourceId":"1159314087","regionId":"region.807c4be7-4692-4be8-b6d5-267458076fbb","countryId":"country.1i4b92q"},"geometry":{"type":"Polygon","coordinates":[[[-98.964,19.0891],[-98.9587,19.2614],[-99.1237,19.5711],[-99.2597,19.3609],[-99.3329,19.2977],[-99.2851,19.1424],[-99.0428,19.0578],[-98.964,19.0891]]]}}]}