{"type":"FeatureCollection","features":[{"type":"Feature","properties":{"sourceId":"1159317947","regionId":"region.06f798f7-4072-46a3-95b5-26b252fa2880","countryId":"country.11efhcg"},"geometry":{"type":"Polygon","coordinates":[[[40.3797,-22.3239],[40.3364,-22.3205],[40.3318,-22.3481],[40.3687,-22.3626],[40.3797,-22.3239]]]}},{"type":"Feature","properties":{"sourceId":"1159315609","regionId":"region.01808a2d-55c3-49a4-bf98-bd0547abc837","countryId":"country.11efhcg"},"geometry":{"type":"MultiPolygon","coordinates":[[[[69.1921,-48.9866],[69.3113,-49.0694],[69.4113,-48.9286],[69.3128,-48.8925],[69.1921,-48.9866]]],[[[70.5488,-49.1832],[70.522,-49.0959],[70.273,-49.0764],[69.8538,-49.2091],[69.7123,-49.3068],[69.4959,-49.2397],[69.4722,-49.1518],[69.6577,-49.0624],[69.438,-49.0146],[69.2145,-49.1213],[69.0838,-48.9734],[69.1637,-48.8461],[69.1165,-48.7267],[68.9568,-48.6715],[68.8787,-48.9446],[68.7555,-49.0476],[68.8543,-49.149],[68.7928,-49.2481],[68.9017,-49.4311],[68.7782,-49.5925],[68.8317,-49.7172],[69.0666,-49.691],[69.1145,-49.6031],[69.3734,-49.5661],[69.4697,-49.6314],[70.1232,-49.7136],[70.2959,-49.5304],[70.1384,-49.5056],[70.0653,-49.5735],[69.8138,-49.5325],[70.1399,-49.3388],[70.3115,-49.3785],[70.4639,-49.3566],[70.5488,-49.1832]]]]}},{"type":"Feature","properties":{"sourceId":"1159317941","regionId":"region.d70b5be9-73ad-475e-ba3d-2e13049d0152","countryId":"country.11efhcg"},"geometry":{"type":"Polygon","coordinates":[[[51.8342,-46.3766],[51.736,-46.3274],[51.7056,-46.4376],[51.8235,-46.4513],[51.8342,-46.3766]]]}},{"type":"Feature","properties":{"sourceId":"1159317943","regionId":"region.324b8a43-219a-477e-8d81-a2f10b3d57b9","countryId":"country.11efhcg"},"geometry":{"type":"Polygon","coordinates":[[[77.5038,-37.8235],[77.5366,-37.9011],[77.5852,-37.8742],[77.5038,-37.8235]]]}}]}