{"type":"FeatureCollection","features":[{"type":"Feature","properties":{"sourceId":"1159309023","regionId":"region.f57aacfa-a7e5-4009-8991-2d37c4168bfa","countryId":"country.tyezxm"},"geometry":{"type":"Polygon","coordinates":[[[-13.6953,12.2925],[-13.6634,12.4758],[-13.7251,12.5581],[-13.7283,12.6734],[-14.3431,12.6759],[-14.4139,12.6277],[-14.4191,12.5148],[-14.5548,12.362],[-14.4824,12.3245],[-14.4507,12.1336],[-14.5034,11.9801],[-14.469,11.9237],[-14.5071,11.6416],[-14.4323,11.5606],[-14.2787,11.6651],[-14.0151,11.6371],[-13.8735,11.6945],[-13.7299,11.7098],[-13.7239,12.0028],[-13.9649,12.1479],[-13.9439,12.2186],[-13.84,12.2771],[-13.6953,12.2925]]]}},{"type":"Feature","properties":{"sourceId":"1159309025","regionId":"region.21873fda-cff7-4b46-8a11-37ff12d5212c","countryId":"country.tyezxm"},"geometry":{"type":"Polygon","coordinates":[[[-14.4323,11.5606],[-14.5071,11.6416],[-14.7339,11.5976],[-14.8298,11.6986],[-14.9556,11.4481],[-15.0892,11.4071],[-15.1963,11.473],[-15.2732,11.42],[-15.4139,11.3364],[-15.4095,11.1896],[-15.3582,11.1442],[-15.2066,11.1251],[-15.1172,10.9843],[-15.021,10.9675],[-14.8631,11.2186],[-14.8282,11.3348],[-14.6868,11.5107],[-14.5209,11.5129],[-14.4323,11.5606]]]}},{"type":"Feature","properties":{"sourceId":"1159309021","regionId":"region.bbfbceb3-83c3-4d43-949d-99248fc77b76","countryId":"country.tyezxm"},"geometry":{"type":"Polygon","coordinates":[[[-14.8722,12.6781],[-14.8993,12.5313],[-14.9594,12.4275],[-14.9288,12.1916],[-15.0399,12.2116],[-14.9938,11.9576],[-15.0702,11.8607],[-14.9254,11.7694],[-14.8298,11.6986],[-14.7339,11.5976],[-14.5071,11.6416],[-14.469,11.9237],[-14.5034,11.9801],[-14.4507,12.1336],[-14.4824,12.3245],[-14.5548,12.362],[-14.4191,12.5148],[-14.4139,12.6277],[-14.3431,12.6759],[-14.8722,12.6781]]]}},{"type":"Feature","properties":{"sourceId":"1159309015","regionId":"region.bf256092-b1ce-4ec7-9850-19b53d64cb81","countryId":"country.tyezxm"},"geometry":{"type":"Polygon","coordinates":[[[-15.1462,12.6792],[-15.2238,12.6752],[-15.4217,12.5571],[-15.411,12.4113],[-15.5187,12.4041],[-15.7527,12.2464],[-15.6519,12.147],[-15.6658,12.0315],[-15.6241,11.9659],[-15.5456,11.8981],[-15.3585,11.9632],[-15.2151,11.9096],[-15.0797,11.9879],[-14.9938,11.9576],[-15.0399,12.2116],[-14.9288,12.1916],[-14.9594,12.4275],[-14.8993,12.5313],[-14.8722,12.6781],[-15.1462,12.6792]]]}},{"type":"Feature","properties":{"sourceId":"1159309013","regionId":"region.ae8f43b5-b51b-4fa1-92ea-c5abe1803bce","countryId":"country.tyezxm"},"geometry":{"type":"Polygon","coordinates":[[[-15.4217,12.5571],[-15.677,12.4393],[-15.884,12.4422],[-16.0905,12.4643],[-16.2329,12.4529],[-16.382,12.3738],[-16.7284,12.3325],[-16.6615,12.3323],[-16.4719,12.1863],[-16.3653,12.1923],[-16.3318,12.0046],[-16.1343,11.8889],[-15.9816,11.9213],[-15.9328,11.9953],[-15.7063,12.0083],[-15.6658,12.0315],[-15.6519,12.147],[-15.7527,12.2464],[-15.5187,12.4041],[-15.411,12.4113],[-15.4217,12.5571]]]}},{"type":"Feature","properties":{"sourceId":"1159317147","regionId":"region.24964b1b-947b-4b60-b895-479a6358cd4c","countryId":"country.tyezxm"},"geometry":{"type":"MultiPolygon","coordinates":[[[[-15.6768,11.8048],[-15.6241,11.9659],[-15.6658,12.0315],[-15.7063,12.0083],[-15.8653,11.9722],[-15.9696,11.7683],[-15.8304,11.7484],[-15.6768,11.8048]]],[[[-16.1655,11.8712],[-16.1548,11.8078],[-16.0294,11.7692],[-15.9949,11.8991],[-16.1655,11.8712]]]]}},{"type":"Feature","properties":{"sourceId":"1159310193","regionId":"region.7fcf7da1-7ea0-41e6-8f72-ee3125717438","countryId":"country.tyezxm"},"geometry":{"type":"Polygon","coordinates":[[[-15.5456,11.8981],[-15.6241,11.9659],[-15.6768,11.8048],[-15.5456,11.8981]]]}},{"type":"Feature","properties":{"sourceId":"1159309019","regionId":"region.ad31f489-50f6-4fb8-9135-9d5930d6430f","countryId":"country.tyezxm"},"geometry":{"type":"Polygon","coordinates":[[[-15.4276,11.6804],[-15.3414,11.6828],[-15.2947,11.6049],[-15.3961,11.5321],[-15.489,11.4047],[-15.2732,11.42],[-15.1963,11.473],[-15.0892,11.4071],[-14.9556,11.4481],[-14.8298,11.6986],[-14.9254,11.7694],[-15.0694,11.8036],[-15.0899,11.9401],[-15.1892,11.8712],[-15.4387,11.8854],[-15.5514,11.7331],[-15.4276,11.6804]]]}},{"type":"Feature","properties":{"sourceId":"1159308987","regionId":"region.7a806572-d362-4760-a229-a585c49e2917","countryId":"country.tyezxm"},"geometry":{"type":"MultiPolygon","coordinates":[[[[-16.0489,11.1183],[-16.1697,11.1323],[-16.1885,11.0396],[-16.0762,11.0361],[-16.0489,11.1183]]],[[[-16.0221,11.5122],[-16.0352,11.42],[-15.898,11.4535],[-15.9061,11.5784],[-16.0221,11.5122]]]]}}]}