{"type":"FeatureCollection","features":[{"type":"Feature","properties":{"sourceId":"1159315627","regionId":"region.4b40b6fe-cb89-4a2f-bc22-5bc140b25f64","countryId":"country.f3a9acdf-e608-4c67-9f5c-aab01b6ac91f"},"geometry":{"type":"Polygon","coordinates":[[[43.7887,-12.308],[43.6299,-12.2517],[43.6814,-12.3581],[43.7887,-12.308]]]}},{"type":"Feature","properties":{"sourceId":"1159316101","regionId":"region.b7293c6b-32fb-4f50-b50f-70d262c6a5ef","countryId":"country.f3a9acdf-e608-4c67-9f5c-aab01b6ac91f"},"geometry":{"type":"Polygon","coordinates":[[[44.5291,-12.2328],[44.4841,-12.0855],[44.3306,-12.2363],[44.5285,-12.3547],[44.5291,-12.2328]]]}},{"type":"Feature","properties":{"sourceId":"1159316099","regionId":"region.3a01cd85-3fbf-4e23-b00f-ea4f3d1858bc","countryId":"country.f3a9acdf-e608-4c67-9f5c-aab01b6ac91f"},"geometry":{"type":"Polygon","coordinates":[[[43.4666,-11.8217],[43.3771,-11.6051],[43.3994,-11.4184],[43.2765,-11.3796],[43.2442,-11.6729],[43.2629,-11.818],[43.37,-11.8606],[43.4666,-11.8217]]]}}]}