{"type":"FeatureCollection","features":[{"type":"Feature","properties":{"sourceId":"1159315435","regionId":"region.ac46586c-2e17-40c6-804b-4c2cc592a857","countryId":"country.9j09vn"},"geometry":{"type":"Polygon","coordinates":[[[116.6843,49.8233],[116.5754,49.9218],[116.2176,50.0138],[116.0536,49.9984],[115.7509,49.885],[115.3687,49.8954],[115.2102,49.9717],[114.9974,50.1443],[114.7538,50.2362],[114.473,50.234],[114.2863,50.2769],[113.9731,50.1605],[113.8498,50.0807],[113.5797,50.0199],[113.2124,49.822],[113.0437,49.5886],[112.7337,49.4928],[112.4322,49.5292],[112.1264,49.4399],[112.2477,49.0201],[112.2135,48.9494],[112.4631,48.6141],[112.5542,48.4165],[112.5144,48.2476],[112.5386,48.0768],[112.6883,47.8102],[112.6868,47.5986],[112.8584,47.6624],[113.0031,47.6638],[113.1962,47.6018],[113.8035,47.5112],[114.4787,47.1464],[114.4406,46.8833],[114.4683,46.823],[114.6734,46.7485],[114.912,46.492],[115.1705,46.5694],[115.631,46.5803],[115.8198,46.6079],[116.2444,46.6211],[116.2945,46.5963],[116.582,46.298],[116.8046,46.3829],[117.3017,46.3501],[117.3531,46.3795],[117.3938,46.5714],[117.582,46.592],[117.6962,46.5123],[117.8783,46.5964],[118.2383,46.7154],[118.7201,46.6767],[118.8162,46.7582],[118.9672,46.7405],[119.0624,46.661],[119.3169,46.6117],[119.4529,46.6275],[119.6801,46.5916],[119.9042,46.7089],[119.9029,46.8424],[119.7701,46.993],[119.7,47.1595],[119.3207,47.407],[119.3101,47.4761],[119.1576,47.5177],[119.0835,47.6616],[118.7674,47.7562],[118.5423,47.9662],[118.1825,48.0282],[117.7417,47.9776],[117.5272,47.7865],[117.3171,47.6541],[117.0697,47.8102],[116.8533,47.8721],[116.4997,47.8364],[116.2439,47.8629],[116.0843,47.8069],[115.9729,47.7091],[115.8527,47.7056],[115.5619,47.9332],[115.5145,48.1221],[115.7708,48.2241],[115.8093,48.274],[115.8004,48.5304],[116.0282,48.7675],[116.0378,48.8701],[116.6843,49.8233]]]}},{"type":"Feature","properties":{"sourceId":"1159314673","regionId":"region.0fbdc191-969f-4fca-ae0f-78f2fa1cf92e","countryId":"country.9j09vn"},"geometry":{"type":"Polygon","coordinates":[[[87.8163,49.1658],[87.8219,49.0287],[87.7569,48.9204],[87.8059,48.8006],[88.0338,48.7291],[87.9428,48.5995],[88.2356,48.4932],[88.5651,48.343],[88.5808,48.212],[88.8054,48.106],[88.9323,48.097],[89.0456,47.993],[89.244,47.9802],[89.3343,48.0324],[89.5418,48.031],[89.7513,47.8243],[90.0446,47.8798],[90.0829,47.7561],[90.3274,47.623],[90.4412,47.493],[90.4687,47.3089],[90.7121,47.0147],[90.8282,46.9823],[90.9328,46.8748],[91.0143,46.6898],[91.2687,46.6597],[91.417,46.5601],[91.4913,46.6333],[91.8399,46.623],[91.8091,46.724],[91.6358,46.8592],[91.4401,46.9478],[91.4066,47.0186],[91.4688,47.1779],[91.2677,47.3595],[91.2522,47.5173],[91.0979,47.754],[90.9641,48.032],[90.8415,48.1124],[90.7906,48.3112],[90.8449,48.3982],[90.7965,48.6087],[91.0975,48.7018],[91.347,48.7009],[91.3102,48.8509],[91.085,48.9872],[90.9097,49.2146],[90.8924,49.3018],[90.6832,49.3239],[90.6357,49.4273],[90.3004,49.5757],[90.1744,49.7621],[90.0978,49.9565],[89.9971,50.0037],[89.8664,49.9427],[89.6332,49.9079],[89.6823,49.7083],[89.4416,49.6436],[89.2522,49.6294],[89.1607,49.5027],[88.8706,49.436],[88.3788,49.4758],[88.2,49.4543],[88.1155,49.3566],[88.144,49.2707],[87.9568,49.1689],[87.8163,49.1658]]]}},{"type":"Feature","properties":{"sourceId":"1159315409","regionId":"region.8c7d59ae-e19c-4057-b963-a00aab619583","countryId":"country.9j09vn"},"geometry":{"type":"Polygon","coordinates":[[[91.0143,46.6898],[91.0475,46.5664],[90.8962,46.302],[90.9959,46.1137],[91.0024,46.0218],[90.7108,45.7522],[90.6511,45.4931],[90.738,45.4417],[90.7966,45.2928],[90.9055,45.186],[91.135,45.1979],[91.2491,45.1297],[91.4561,45.1375],[91.663,45.0595],[92.0094,45.0762],[92.1937,45.0145],[92.4751,44.9975],[92.7527,45.038],[93.0759,45.0052],[93.1293,45.3279],[93.1101,45.6678],[93.4093,45.9238],[93.4044,46.0112],[93.6341,46.3819],[93.5478,46.5803],[93.7832,46.5856],[93.8931,46.6582],[94.1868,46.7604],[94.266,46.8649],[94.0835,47.0779],[94.0337,47.2427],[93.826,47.3261],[93.5401,47.5051],[93.488,47.631],[93.2791,47.8485],[93.1908,48.0885],[93.4819,48.288],[93.4564,48.3976],[93.2556,48.4998],[93.1912,48.6167],[92.9539,48.6575],[92.7676,48.5601],[92.2939,48.6356],[92.1879,48.6165],[92.0836,48.7597],[91.979,48.7616],[91.9106,48.9351],[91.7401,48.9626],[91.6091,48.9017],[91.4493,48.7454],[91.347,48.7009],[91.0975,48.7018],[90.7965,48.6087],[90.8449,48.3982],[90.7906,48.3112],[90.8415,48.1124],[90.9641,48.032],[91.0979,47.754],[91.2522,47.5173],[91.2677,47.3595],[91.4688,47.1779],[91.4066,47.0186],[91.4401,46.9478],[91.6358,46.8592],[91.8091,46.724],[91.8399,46.623],[91.4913,46.6333],[91.417,46.5601],[91.2687,46.6597],[91.0143,46.6898]]]}},{"type":"Feature","properties":{"sourceId":"1159315437","regionId":"region.8be0c7f9-18ee-4d3c-bed3-032b3a5ef2a5","countryId":"country.9j09vn"},"geometry":{"type":"Polygon","coordinates":[[[116.582,46.298],[116.2945,46.5963],[116.2444,46.6211],[115.8198,46.6079],[115.631,46.5803],[115.1705,46.5694],[114.912,46.492],[114.6734,46.7485],[114.4683,46.823],[114.4406,46.8833],[114.4787,47.1464],[113.8035,47.5112],[113.1962,47.6018],[113.0031,47.6638],[112.8584,47.6624],[112.6868,47.5986],[112.6883,47.8102],[112.2105,47.7023],[112.1145,47.6479],[112.0657,47.5187],[112.0905,47.3821],[111.8441,47.4042],[111.6915,47.3507],[111.529,47.1762],[111.4696,46.921],[111.307,46.7141],[111.2632,46.5612],[111.3164,46.3902],[111.231,46.23],[111.6009,46.112],[111.771,45.8045],[111.7543,45.5082],[111.971,45.2849],[111.9846,45.0872],[112.4413,45.0524],[112.6142,44.9088],[113.1049,44.7944],[113.6351,44.7463],[113.8893,44.9083],[114.0553,44.9406],[114.1636,45.0401],[114.4189,45.2015],[114.5337,45.3855],[114.7373,45.425],[114.9389,45.3738],[115.3373,45.3947],[115.6378,45.4444],[116.012,45.6786],[116.1699,45.7091],[116.2516,45.8033],[116.2132,45.9082],[116.3572,46.1056],[116.582,46.298]]]}},{"type":"Feature","properties":{"sourceId":"1159315393","regionId":"region.e20b6c57-f9d7-451c-a98f-dcd6e0c9b1e0","countryId":"country.9j09vn"},"geometry":{"type":"Polygon","coordinates":[[[111.9846,45.0872],[111.971,45.2849],[111.7543,45.5082],[111.771,45.8045],[111.6009,46.112],[111.231,46.23],[110.9721,46.0741],[110.8487,46.0927],[110.5524,46.2405],[110.4545,46.3886],[110.1545,46.6333],[110.055,46.6323],[110.0704,46.4981],[109.9897,46.3106],[109.7414,46.1888],[109.3919,46.1786],[109.2443,46.25],[109.0016,46.5152],[109.1191,46.7731],[108.9996,46.8187],[108.9495,46.9742],[108.8281,47.0118],[108.7106,46.8605],[108.4799,46.7803],[108.1153,46.8107],[107.9567,46.7744],[108.0207,46.6932],[108.2021,46.6637],[108.0758,46.5594],[108.2908,46.3823],[108.3276,46.2838],[108.2924,46.0373],[108.4189,45.9004],[108.5924,45.9326],[108.5077,45.6373],[108.5269,45.4335],[108.6137,45.0222],[108.4827,44.9927],[108.3076,44.8513],[107.8776,44.814],[107.8192,44.7497],[107.7905,44.5869],[107.7081,44.5113],[107.6787,44.2976],[107.7678,44.1687],[107.9767,43.7074],[107.9983,43.3454],[108.0529,43.0763],[108.0183,42.9175],[108.0497,42.4391],[108.5365,42.4351],[108.7969,42.3984],[108.9945,42.4495],[109.2534,42.4259],[109.4851,42.4493],[109.6673,42.549],[109.9127,42.6288],[110.0749,42.6435],[110.4067,42.7686],[110.6082,42.9447],[110.6801,43.0577],[110.9337,43.2878],[111.0961,43.3667],[111.5973,43.5234],[111.7538,43.6632],[111.9334,43.6966],[111.9443,43.7864],[111.8388,43.9388],[111.6345,44.0659],[111.5194,44.1886],[111.4064,44.4165],[111.5438,44.6013],[111.5514,44.6932],[111.7385,44.9663],[111.9846,45.0872]]]}},{"type":"Feature","properties":{"sourceId":"1159315405","regionId":"region.10d8d45b-c9f7-4ff9-9aae-1644b55c8e13","countryId":"country.9j09vn"},"geometry":{"type":"Polygon","coordinates":[[[93.0759,45.0052],[93.5253,44.9513],[93.714,44.8746],[93.8745,44.7142],[93.9751,44.66],[94.195,44.6543],[94.3385,44.5121],[94.5881,44.4361],[94.6982,44.3435],[95.0368,44.255],[95.3794,44.2871],[95.3214,44.1484],[95.3275,44.0067],[95.5103,43.9791],[95.5892,43.8695],[95.6925,43.6305],[95.8328,43.4089],[95.9085,43.2145],[96.2943,42.9333],[96.3663,42.7229],[97.1907,42.7871],[97.85,42.723],[97.7977,43.2476],[97.932,43.5687],[97.9316,43.7212],[97.9784,43.9962],[97.9423,44.2823],[97.9642,44.407],[98.178,44.5106],[98.2393,44.6443],[98.2227,44.8788],[98.2488,44.9882],[98.3478,45.0791],[98.4792,45.4513],[98.3774,45.8359],[98.1501,46.0534],[98.0027,46.0883],[97.707,46.3146],[97.6415,46.4547],[97.6387,46.605],[97.4378,46.673],[97.2552,46.5907],[96.9866,46.6098],[96.8713,46.7714],[96.8347,46.8931],[96.6795,46.9405],[96.4199,46.8855],[96.3195,47.0798],[96.1945,47.2432],[95.4704,47.5735],[95.1101,47.5624],[94.9981,47.6656],[94.8825,47.694],[94.6414,47.6782],[94.082,47.7742],[93.7319,47.6503],[93.488,47.631],[93.5401,47.5051],[93.826,47.3261],[94.0337,47.2427],[94.0835,47.0779],[94.266,46.8649],[94.1868,46.7604],[93.8931,46.6582],[93.7832,46.5856],[93.5478,46.5803],[93.6341,46.3819],[93.4044,46.0112],[93.4093,45.9238],[93.1101,45.6678],[93.1293,45.3279],[93.0759,45.0052]]]}},{"type":"Feature","properties":{"sourceId":"1159315401","regionId":"region.7dc64920-8cdc-43f8-89c2-6372d01db6d8","countryId":"country.9j09vn"},"geometry":{"type":"Polygon","coordinates":[[[97.85,42.723],[98.6622,42.6436],[99.4745,42.5642],[99.6219,42.5974],[99.5184,43.2011],[99.4708,44.0311],[99.4872,44.1139],[99.788,44.1713],[99.9997,44.0506],[100.2581,43.8343],[101.1862,43.821],[101.2587,43.8363],[101.7548,44.0566],[101.5911,44.5271],[101.5041,44.7262],[101.568,44.852],[101.3553,44.9714],[101.1851,45.0274],[101.1414,45.1521],[101.1102,45.4121],[101.2298,45.5251],[101.3088,45.7729],[101.2909,45.983],[101.3642,46.0814],[101.4744,46.1217],[101.4984,46.2621],[101.4503,46.3294],[101.5555,46.4354],[101.5192,46.596],[101.2636,46.8182],[101.1786,46.868],[100.7127,46.841],[100.5924,46.9699],[100.5085,46.9877],[100.3494,47.183],[99.9093,47.0957],[99.8292,47.251],[99.8191,47.4296],[99.6726,47.5295],[99.6528,47.6636],[99.2472,47.4889],[99.0118,47.4786],[98.8112,47.5628],[98.7546,47.704],[98.4953,47.7078],[98.391,47.6504],[98.2657,47.453],[98.2783,47.3905],[98.1539,47.2388],[97.8593,47.1746],[97.6387,46.605],[97.6415,46.4547],[97.707,46.3146],[98.0027,46.0883],[98.1501,46.0534],[98.3774,45.8359],[98.4792,45.4513],[98.3478,45.0791],[98.2488,44.9882],[98.2227,44.8788],[98.2393,44.6443],[98.178,44.5106],[97.9642,44.407],[97.9423,44.2823],[97.9784,43.9962],[97.9316,43.7212],[97.932,43.5687],[97.7977,43.2476],[97.85,42.723]]]}},{"type":"Feature","properties":{"sourceId":"1159315395","regionId":"region.f14241e2-f42b-41f9-bfc5-241540ef6d1d","countryId":"country.9j09vn"},"geometry":{"type":"Polygon","coordinates":[[[99.6219,42.5974],[100.017,42.6765],[101.2187,42.5298],[101.4107,42.5449],[101.6376,42.5154],[101.7354,42.4612],[101.8865,42.278],[102.0342,42.1846],[103.0735,42.0045],[103.721,41.7556],[104.5008,41.8706],[104.498,41.6658],[104.8923,41.6448],[105.0148,41.5961],[105.2009,41.7435],[105.2745,41.7555],[105.8686,41.9935],[106.7678,42.2866],[108.0497,42.4391],[108.0183,42.9175],[108.0529,43.0763],[107.9983,43.3454],[107.9767,43.7074],[107.7678,44.1687],[107.6787,44.2976],[107.7081,44.5113],[107.4271,44.4658],[107.2798,44.4956],[106.7069,44.3542],[106.4287,44.2432],[106.0272,44.1972],[105.763,44.3062],[105.6898,44.4585],[105.4971,44.6908],[105.4175,44.7114],[104.7207,44.7629],[104.2026,44.8303],[104.1121,44.9267],[104.1008,45.1839],[103.7717,45.1884],[103.6358,45.0142],[103.2593,44.8417],[102.9312,44.3197],[102.9998,44.1541],[102.6275,44.1761],[102.1239,44.1481],[101.7548,44.0566],[101.2587,43.8363],[101.1862,43.821],[100.2581,43.8343],[99.9997,44.0506],[99.788,44.1713],[99.4872,44.1139],[99.4708,44.0311],[99.5184,43.2011],[99.6219,42.5974]]]}},{"type":"Feature","properties":{"sourceId":"1159315411","regionId":"region.db93633b-c945-4fe9-bb62-715a2913a245","countryId":"country.9j09vn"},"geometry":{"type":"Polygon","coordinates":[[[98.9377,52.1247],[98.7111,51.8451],[98.6187,51.7807],[98.3322,51.7183],[98.2282,51.5834],[98.2204,51.4752],[98.0509,51.4664],[97.9157,51.3006],[97.929,51.215],[97.8064,51.0011],[97.9902,50.8356],[97.944,50.7745],[98.0233,50.642],[98.2935,50.5186],[98.2625,50.2838],[98.1056,50.0639],[97.8474,49.9301],[97.7336,49.9583],[97.5666,49.9168],[97.5427,49.8227],[97.3017,49.7255],[97.0853,49.8058],[97.1499,49.7143],[96.9499,49.6003],[96.8565,49.477],[96.8988,49.3759],[97.1077,49.2484],[97.2403,49.2124],[97.5324,49.2024],[97.8945,49.0379],[98.3248,49.0484],[98.5203,48.9841],[98.6413,49.0156],[98.7424,49.1344],[99.0536,49.1558],[99.1547,48.8552],[99.0179,48.6352],[99.0966,48.338],[99.2653,48.2649],[99.661,48.3122],[99.7208,48.4309],[99.8781,48.4786],[100.0652,48.4088],[100.1884,48.4121],[100.2308,48.5054],[100.4126,48.5358],[100.3297,48.6825],[100.4143,48.8697],[100.5565,48.9235],[100.432,49.0114],[100.5903,49.078],[100.7388,49.2181],[101.0745,49.0998],[101.3406,48.9761],[101.654,48.9997],[101.6772,49.1928],[101.9779,49.373],[102.2808,49.4316],[102.4284,49.5081],[102.5396,49.6405],[102.7848,49.6915],[102.5581,49.7896],[102.1377,49.9047],[102.1043,49.9622],[102.3595,50.1854],[102.4178,50.3004],[102.6195,50.399],[102.4719,50.5249],[102.3276,50.5455],[102.2759,50.6502],[102.3294,50.7188],[102.2168,50.7989],[102.2297,50.9793],[102.1465,51.0976],[102.1839,51.3239],[102.0512,51.3836],[101.4821,51.4729],[101.3878,51.4506],[100.5109,51.7269],[100.006,51.7317],[99.6793,51.8887],[99.3239,51.9342],[98.9947,52.0583],[98.9377,52.1247]]]}},{"type":"Feature","properties":{"sourceId":"1159315415","regionId":"region.56f57b0e-4c57-4a4b-8bf4-b3218efa4f52","countryId":"country.9j09vn"},"geometry":{"type":"Polygon","coordinates":[[[102.6195,50.399],[102.4178,50.3004],[102.3595,50.1854],[102.1043,49.9622],[102.1377,49.9047],[102.5581,49.7896],[102.7848,49.6915],[102.5396,49.6405],[102.4284,49.5081],[102.2808,49.4316],[101.9779,49.373],[101.6772,49.1928],[101.654,48.9997],[101.7577,48.8882],[101.9604,48.7847],[102.1312,48.8105],[102.1987,48.6766],[102.2382,48.4813],[102.3691,48.3321],[102.4801,48.266],[102.6322,48.2514],[102.8075,48.0781],[102.8423,47.9295],[103.014,47.8431],[103.0901,47.7227],[103.2074,47.6989],[103.4005,47.4949],[103.6605,47.3382],[103.6777,47.2506],[104.1475,47.298],[104.0686,47.4683],[104.3297,47.5947],[104.5275,47.6534],[104.7605,47.6617],[104.6993,47.8173],[104.7038,47.9449],[104.3933,47.9884],[104.2883,48.1438],[104.5339,48.4192],[104.5282,48.6258],[104.5423,48.79],[104.3781,48.8991],[104.0007,48.9868],[104.103,49.1212],[104.2835,49.0807],[104.5195,49.1055],[104.5949,49.364],[104.7335,49.686],[104.5353,49.8553],[104.5225,50.1499],[104.3495,50.2719],[104.1981,50.17],[103.974,50.1487],[103.7853,50.1861],[103.6014,50.1335],[103.2531,50.215],[103.2017,50.297],[102.9741,50.2956],[102.6195,50.399]]]}},{"type":"Feature","properties":{"sourceId":"1159315413","regionId":"region.088bf1c8-00a4-49ae-965d-b6d6c1019150","countryId":"country.9j09vn"},"geometry":{"type":"Polygon","coordinates":[[[95.4772,49.8941],[95.3547,49.9477],[95.0764,49.9455],[94.9216,50.0459],[94.6245,50.0152],[94.3443,50.2492],[94.3275,50.4044],[94.2376,50.5652],[93.5363,50.5847],[93.4215,50.6094],[93.1049,50.5988],[93.0114,50.6233],[92.9617,50.7779],[92.7603,50.7708],[92.6498,50.6741],[92.3017,50.8434],[92.1589,50.6891],[91.9,50.7072],[91.7498,50.6841],[91.4157,50.4614],[91.012,50.4253],[90.6839,50.2162],[90.4752,50.2146],[90.2229,50.1144],[90.0512,50.0842],[89.9971,50.0037],[90.0978,49.9565],[90.1744,49.7621],[90.3004,49.5757],[90.6357,49.4273],[90.6832,49.3239],[90.8924,49.3018],[90.9097,49.2146],[91.085,48.9872],[91.3102,48.8509],[91.347,48.7009],[91.4493,48.7454],[91.6091,48.9017],[91.7401,48.9626],[91.9106,48.9351],[91.979,48.7616],[92.0836,48.7597],[92.1879,48.6165],[92.2939,48.6356],[92.7676,48.5601],[92.9539,48.6575],[93.1912,48.6167],[93.2556,48.4998],[93.4564,48.3976],[93.5159,48.5044],[93.7154,48.6576],[94.1303,48.803],[94.4567,48.726],[94.7935,48.6867],[95.0952,48.7239],[95.3648,48.8411],[95.5217,48.8585],[95.573,48.9433],[95.5988,49.1943],[95.686,49.3078],[95.6516,49.4276],[95.5353,49.4775],[95.4502,49.6627],[95.4772,49.8941]]]}},{"type":"Feature","properties":{"sourceId":"1159315421","regionId":"region.90a4bd92-7be2-4498-8ba1-2913db480070","countryId":"country.9j09vn"},"geometry":{"type":"Polygon","coordinates":[[[107.7446,49.9674],[107.2249,49.9971],[107.0484,50.0846],[106.9737,50.1964],[106.6565,50.327],[106.4398,50.3279],[106.2449,50.2903],[106.0559,50.3336],[105.9849,50.3998],[105.6394,50.4219],[105.3286,50.4765],[105.1313,50.3981],[104.9342,50.3933],[104.3495,50.2719],[104.5225,50.1499],[104.5353,49.8553],[104.7335,49.686],[104.5949,49.364],[104.5195,49.1055],[104.5631,48.9969],[104.3781,48.8991],[104.5423,48.79],[104.5282,48.6258],[105.014,48.5052],[105.4948,48.6444],[105.4449,48.7566],[105.5602,48.8125],[105.8345,48.8651],[105.9651,48.844],[106.1714,48.6871],[106.5724,48.5305],[106.6966,48.5169],[106.8744,48.5999],[107.0764,48.6153],[107.2532,48.5581],[107.6571,48.6534],[107.7321,48.7951],[107.5317,48.9758],[107.6751,49.0554],[107.9085,49.0742],[108.0885,49.0087],[108.3356,49.1143],[108.5215,49.1238],[108.57,49.3257],[108.3349,49.4364],[108.2505,49.5224],[108.0327,49.5893],[107.9558,49.7455],[107.9465,49.9335],[107.7446,49.9674]],[[106.3657,49.5242],[106.5067,49.6059],[106.7229,49.5454],[106.7997,49.4705],[106.7989,49.1317],[106.6014,49.0873],[106.3568,49.186],[106.0649,49.0965],[105.8084,49.1312],[105.8959,49.4915],[105.8331,49.6356],[106.0528,49.8063],[106.1406,49.7451],[106.0403,49.6172],[106.3657,49.5242]]]}},{"type":"Feature","properties":{"sourceId":"1159315403","regionId":"region.66872300-cad8-4c82-9539-0cf54c26b5b5","countryId":"country.9j09vn"},"geometry":{"type":"Polygon","coordinates":[[[97.0853,49.8058],[96.9692,49.8867],[96.7019,49.9138],[96.5681,49.8618],[96.3729,49.8861],[96.041,49.9979],[95.867,50.015],[95.4772,49.8941],[95.4502,49.6627],[95.5353,49.4775],[95.6516,49.4276],[95.686,49.3078],[95.5988,49.1943],[95.573,48.9433],[95.5217,48.8585],[95.3648,48.8411],[95.0952,48.7239],[94.7935,48.6867],[94.4567,48.726],[94.1303,48.803],[93.7154,48.6576],[93.5159,48.5044],[93.4564,48.3976],[93.4819,48.288],[93.1908,48.0885],[93.2791,47.8485],[93.488,47.631],[93.7319,47.6503],[94.082,47.7742],[94.6414,47.6782],[94.8825,47.694],[94.9981,47.6656],[95.1101,47.5624],[95.4704,47.5735],[96.1945,47.2432],[96.3195,47.0798],[96.4199,46.8855],[96.6795,46.9405],[96.8347,46.8931],[96.8713,46.7714],[96.9866,46.6098],[97.2552,46.5907],[97.4378,46.673],[97.6387,46.605],[97.8593,47.1746],[98.1539,47.2388],[98.2783,47.3905],[98.2657,47.453],[98.391,47.6504],[98.1848,47.6807],[98.2186,47.8833],[98.1613,48.0034],[98.2196,48.0828],[98.4835,48.101],[98.6679,48.2064],[99.0966,48.338],[99.0179,48.6352],[99.1547,48.8552],[99.0536,49.1558],[98.7424,49.1344],[98.6413,49.0156],[98.5203,48.9841],[98.3248,49.0484],[97.8945,49.0379],[97.5324,49.2024],[97.2403,49.2124],[97.1077,49.2484],[96.8988,49.3759],[96.8565,49.477],[96.9499,49.6003],[97.1499,49.7143],[97.0853,49.8058]]]}},{"type":"Feature","properties":{"sourceId":"1159315397","regionId":"region.fabed758-4612-485d-8730-06b854daa770","countryId":"country.9j09vn"},"geometry":{"type":"Polygon","coordinates":[[[108.57,49.3257],[108.5215,49.1238],[108.7381,48.9738],[108.8549,48.8165],[109.0361,48.3466],[108.8746,48.0713],[108.6237,47.9405],[108.4849,47.9136],[108.4928,47.7593],[108.4288,47.5563],[108.6941,47.098],[108.8281,47.0118],[108.9495,46.9742],[108.9996,46.8187],[109.1191,46.7731],[109.0016,46.5152],[109.2443,46.25],[109.3919,46.1786],[109.7414,46.1888],[109.9897,46.3106],[110.0704,46.4981],[110.055,46.6323],[110.1545,46.6333],[110.4545,46.3886],[110.5524,46.2405],[110.8487,46.0927],[110.9721,46.0741],[111.231,46.23],[111.3164,46.3902],[111.2632,46.5612],[111.307,46.7141],[111.4696,46.921],[111.529,47.1762],[111.6915,47.3507],[111.8441,47.4042],[112.0905,47.3821],[112.0657,47.5187],[112.1145,47.6479],[112.2105,47.7023],[112.6883,47.8102],[112.5386,48.0768],[112.5144,48.2476],[112.5542,48.4165],[112.4631,48.6141],[112.2135,48.9494],[112.2477,49.0201],[112.1264,49.4399],[112.0302,49.4119],[111.661,49.3964],[111.5035,49.3471],[111.3385,49.3647],[110.9656,49.2074],[110.7314,49.1377],[110.6036,49.1453],[110.3712,49.2418],[110.1814,49.162],[109.8177,49.2277],[109.7285,49.2665],[109.5162,49.2559],[109.2867,49.3385],[108.9305,49.3488],[108.57,49.3257]]]}},{"type":"Feature","properties":{"sourceId":"1159315427","regionId":"region.c3eece36-c4ae-44e9-8848-d14e279fbccb","countryId":"country.9j09vn"},"geometry":{"type":"Polygon","coordinates":[[[106.3657,49.5242],[106.0403,49.6172],[106.1406,49.7451],[106.0528,49.8063],[105.8331,49.6356],[105.8959,49.4915],[105.8084,49.1312],[106.0649,49.0965],[106.3568,49.186],[106.6014,49.0873],[106.7989,49.1317],[106.7997,49.4705],[106.7229,49.5454],[106.5067,49.6059],[106.3657,49.5242]]]}},{"type":"Feature","properties":{"sourceId":"1159315429","regionId":"region.386e4bb7-fcbe-4dc3-b51e-7dbce8b05bba","countryId":"country.9j09vn"},"geometry":{"type":"Polygon","coordinates":[[[108.4288,47.5563],[108.2287,47.6222],[108.2019,47.7505],[108.353,47.9182],[108.4849,47.9136],[108.6237,47.9405],[108.8746,48.0713],[109.0361,48.3466],[108.8549,48.8165],[108.7381,48.9738],[108.5215,49.1238],[108.3356,49.1143],[108.0885,49.0087],[107.9085,49.0742],[107.6751,49.0554],[107.5317,48.9758],[107.7321,48.7951],[107.6571,48.6534],[107.2532,48.5581],[107.0764,48.6153],[106.8744,48.5999],[106.6966,48.5169],[106.5724,48.5305],[106.1714,48.6871],[105.9651,48.844],[105.8345,48.8651],[105.5602,48.8125],[105.4449,48.7566],[105.4948,48.6444],[105.014,48.5052],[104.5282,48.6258],[104.5339,48.4192],[104.2883,48.1438],[104.3933,47.9884],[104.7038,47.9449],[104.6993,47.8173],[104.7605,47.6617],[104.5275,47.6534],[104.3297,47.5947],[104.0686,47.4683],[104.1475,47.298],[104.19,47.1363],[104.3285,47.0407],[104.3465,46.906],[104.2344,46.8524],[104.3923,46.6566],[104.4312,46.5102],[104.6039,46.4205],[104.6533,46.3804],[104.9668,46.5904],[105.226,46.5261],[105.3967,46.4389],[105.66,46.7097],[105.7655,46.7322],[106.1052,46.6233],[106.1639,46.5746],[106.6995,46.5724],[106.8968,46.5268],[107.1015,46.4035],[107.341,46.4137],[107.5176,46.4547],[107.6021,46.5264],[107.8316,46.6061],[107.856,46.7611],[107.9567,46.7744],[108.1153,46.8107],[108.4799,46.7803],[108.7106,46.8605],[108.8281,47.0118],[108.6941,47.098],[108.4288,47.5563]],[[106.8818,48.1719],[107.0993,48.2188],[107.3517,47.9776],[107.5722,47.9136],[107.5108,47.6518],[107.2766,47.6394],[107.1109,47.7181],[106.9306,47.7349],[106.6641,47.7109],[106.5221,47.7455],[106.4305,47.9669],[106.3567,48.2563],[106.8818,48.1719]]]}},{"type":"Feature","properties":{"sourceId":"1159315399","regionId":"region.f686bf22-e1fe-4b23-a348-875b8c39ffbe","countryId":"country.9j09vn"},"geometry":{"type":"Polygon","coordinates":[[[101.654,48.9997],[101.3406,48.9761],[101.0745,49.0998],[100.7388,49.2181],[100.5903,49.078],[100.432,49.0114],[100.5565,48.9235],[100.4143,48.8697],[100.3297,48.6825],[100.4126,48.5358],[100.2308,48.5054],[100.1884,48.4121],[100.0652,48.4088],[99.8781,48.4786],[99.7208,48.4309],[99.661,48.3122],[99.2653,48.2649],[99.0966,48.338],[98.6679,48.2064],[98.4835,48.101],[98.2196,48.0828],[98.1613,48.0034],[98.2186,47.8833],[98.1848,47.6807],[98.391,47.6504],[98.4953,47.7078],[98.7546,47.704],[98.8112,47.5628],[99.0118,47.4786],[99.2472,47.4889],[99.6528,47.6636],[99.6726,47.5295],[99.8191,47.4296],[99.8292,47.251],[99.9093,47.0957],[100.3494,47.183],[100.5085,46.9877],[100.5924,46.9699],[100.7127,46.841],[101.1786,46.868],[101.2636,46.8182],[101.8012,46.9013],[101.9437,46.98],[102.3221,47.0495],[102.5108,46.9731],[102.5536,47.1137],[102.7311,47.2867],[102.6564,47.4321],[103.0304,47.3508],[103.193,47.2061],[103.5251,47.196],[103.6777,47.2506],[103.6605,47.3382],[103.4005,47.4949],[103.2074,47.6989],[103.0901,47.7227],[103.014,47.8431],[102.8423,47.9295],[102.8075,48.0781],[102.6322,48.2514],[102.4801,48.266],[102.3691,48.3321],[102.2382,48.4813],[102.1987,48.6766],[102.1312,48.8105],[101.9604,48.7847],[101.7577,48.8882],[101.654,48.9997]]]}},{"type":"Feature","properties":{"sourceId":"1159315417","regionId":"region.80c4b5d7-8b60-4dd2-a800-ea91a132a158","countryId":"country.9j09vn"},"geometry":{"type":"Polygon","coordinates":[[[104.5195,49.1055],[104.2835,49.0807],[104.103,49.1212],[104.0007,48.9868],[104.3781,48.8991],[104.5631,48.9969],[104.5195,49.1055]]]}},{"type":"Feature","properties":{"sourceId":"1159315419","regionId":"region.bc6cd8c8-ba0f-4bf1-9417-83996fa7dfed","countryId":"country.9j09vn"},"geometry":{"type":"Polygon","coordinates":[[[107.9567,46.7744],[107.856,46.7611],[107.8316,46.6061],[107.6021,46.5264],[107.5176,46.4547],[107.341,46.4137],[107.1015,46.4035],[106.8968,46.5268],[106.6995,46.5724],[106.1639,46.5746],[106.1052,46.6233],[105.7655,46.7322],[105.66,46.7097],[105.3967,46.4389],[105.226,46.5261],[104.9668,46.5904],[104.6533,46.3804],[104.6039,46.4205],[104.5284,46.2716],[104.4197,46.1606],[104.1654,46.1012],[104.1082,45.8009],[104.0592,45.7438],[103.7687,45.7181],[103.6253,45.6218],[103.6202,45.5185],[103.7995,45.3613],[103.7717,45.1884],[104.1008,45.1839],[104.1121,44.9267],[104.2026,44.8303],[104.7207,44.7629],[105.4175,44.7114],[105.4971,44.6908],[105.6898,44.4585],[105.763,44.3062],[106.0272,44.1972],[106.4287,44.2432],[106.7069,44.3542],[107.2798,44.4956],[107.4271,44.4658],[107.7081,44.5113],[107.7905,44.5869],[107.8192,44.7497],[107.8776,44.814],[108.3076,44.8513],[108.4827,44.9927],[108.6137,45.0222],[108.5269,45.4335],[108.5077,45.6373],[108.5924,45.9326],[108.4189,45.9004],[108.2924,46.0373],[108.3276,46.2838],[108.2908,46.3823],[108.0758,46.5594],[108.2021,46.6637],[108.0207,46.6932],[107.9567,46.7744]]]}},{"type":"Feature","properties":{"sourceId":"1159315423","regionId":"region.7a4a9b05-b052-45dd-acec-b0e1143ec3aa","countryId":"country.9j09vn"},"geometry":{"type":"Polygon","coordinates":[[[104.1475,47.298],[103.6777,47.2506],[103.5251,47.196],[103.193,47.2061],[103.0304,47.3508],[102.6564,47.4321],[102.7311,47.2867],[102.5536,47.1137],[102.5108,46.9731],[102.3221,47.0495],[101.9437,46.98],[101.8012,46.9013],[101.2636,46.8182],[101.5192,46.596],[101.5555,46.4354],[101.4503,46.3294],[101.4984,46.2621],[101.4744,46.1217],[101.3642,46.0814],[101.2909,45.983],[101.3088,45.7729],[101.2298,45.5251],[101.1102,45.4121],[101.1414,45.1521],[101.1851,45.0274],[101.3553,44.9714],[101.568,44.852],[101.5041,44.7262],[101.5911,44.5271],[101.7548,44.0566],[102.1239,44.1481],[102.6275,44.1761],[102.9998,44.1541],[102.9312,44.3197],[103.2593,44.8417],[103.6358,45.0142],[103.7717,45.1884],[103.7995,45.3613],[103.6202,45.5185],[103.6253,45.6218],[103.7687,45.7181],[104.0592,45.7438],[104.1082,45.8009],[104.1654,46.1012],[104.4197,46.1606],[104.5284,46.2716],[104.6039,46.4205],[104.4312,46.5102],[104.3923,46.6566],[104.2344,46.8524],[104.3465,46.906],[104.3285,47.0407],[104.19,47.1363],[104.1475,47.298]]]}},{"type":"Feature","properties":{"sourceId":"1159315431","regionId":"region.0f52249e-c711-40f4-80ac-0774314480ce","countryId":"country.9j09vn"},"geometry":{"type":"Polygon","coordinates":[[[108.4849,47.9136],[108.353,47.9182],[108.2019,47.7505],[108.2287,47.6222],[108.4288,47.5563],[108.4928,47.7593],[108.4849,47.9136]]]}},{"type":"Feature","properties":{"sourceId":"1159315433","regionId":"region.5bf7855a-4a29-46c1-85d2-c94d4436777d","countryId":"country.9j09vn"},"geometry":{"type":"Polygon","coordinates":[[[106.8818,48.1719],[106.3567,48.2563],[106.4305,47.9669],[106.5221,47.7455],[106.6641,47.7109],[106.9306,47.7349],[107.1109,47.7181],[107.2766,47.6394],[107.5108,47.6518],[107.5722,47.9136],[107.3517,47.9776],[107.0993,48.2188],[106.8818,48.1719]]]}}]}