{"type":"FeatureCollection","features":[{"type":"Feature","properties":{"sourceId":"1159309255","regionId":"region.196e6ed9-5080-4af2-b38a-e88253792703","countryId":"country.xjfx2m"},"geometry":{"type":"MultiPolygon","coordinates":[[[[56.3491,25.294],[56.2067,25.2267],[56.164,25.0534],[56.2705,24.9392],[56.2823,24.9514],[56.3622,25.0683],[56.383,25.3213],[56.3491,25.294]]],[[[56.2606,25.3311],[56.365,25.4232],[56.34,25.6046],[56.2791,25.6274],[56.1525,25.658],[55.9657,25.5767],[55.9826,25.4956],[56.1279,25.4658],[56.0773,25.3431],[56.0013,25.3809],[55.9831,25.3318],[55.9773,25.282],[55.9862,25.2253],[56.1088,25.2182],[56.2336,25.3125],[56.2606,25.3311]]],[[[56.3143,24.912],[56.2756,24.914],[56.2529,24.8948],[56.2747,24.8719],[56.3143,24.912]]]]}},{"type":"Feature","properties":{"sourceId":"1159308403","regionId":"region.4938a274-bf2c-4ef5-b5ef-9cb155d8c226","countryId":"country.xjfx2m"},"geometry":{"type":"MultiPolygon","coordinates":[[[[56.3491,25.294],[56.383,25.3213],[56.365,25.4232],[56.2606,25.3311],[56.3491,25.294]]],[[[56.3833,24.9782],[56.3622,25.0683],[56.2823,24.9514],[56.3161,24.9299],[56.3833,24.9782]]],[[[55.9759,24.9721],[55.9501,25.0436],[55.9862,25.2253],[55.9773,25.282],[55.9831,25.3318],[56.0013,25.3809],[55.9281,25.3476],[55.8067,25.2861],[55.7615,25.3689],[55.5152,25.5133],[55.4921,25.4602],[55.6322,25.4132],[55.5975,25.3596],[55.4245,25.3945],[55.3248,25.3071],[55.4488,25.3068],[55.6008,25.2003],[55.6577,25.0548],[55.6709,24.709],[55.7999,24.6932],[55.7887,24.8552],[55.897,24.9686],[55.9759,24.9721]]],[[[56.164,25.0534],[56.2529,24.8948],[56.2756,24.914],[56.2705,24.9392],[56.164,25.0534]]]]}},{"type":"Feature","properties":{"sourceId":"1159309249","regionId":"region.f05e2635-f811-4f33-800e-f924d5ff9af8","countryId":"country.xjfx2m"},"geometry":{"type":"MultiPolygon","coordinates":[[[[56.2336,25.3125],[56.1088,25.2182],[55.9862,25.2253],[55.9501,25.0436],[55.9759,24.9721],[56.0253,24.8826],[56.1057,24.8204],[56.1714,24.8241],[56.2747,24.8719],[56.2529,24.8948],[56.164,25.0534],[56.2067,25.2267],[56.2336,25.3125]]],[[[56.1525,25.658],[56.1835,26.0145],[56.0774,26.061],[56.0144,25.8789],[55.8425,25.7138],[55.746,25.6623],[55.802,25.6262],[55.8445,25.4735],[55.9281,25.3476],[56.0013,25.3809],[56.0773,25.3431],[56.1279,25.4658],[55.9826,25.4956],[55.9657,25.5767],[56.1525,25.658]]]]}},{"type":"Feature","properties":{"sourceId":"1159308407","regionId":"region.6814e0ff-7024-4fc9-b59b-b2edb7160d4a","countryId":"country.xjfx2m"},"geometry":{"type":"MultiPolygon","coordinates":[[[[56.1714,24.8241],[56.1057,24.8204],[56.0763,24.73],[56.1714,24.8241]]],[[[55.3248,25.3071],[55.0823,25.0168],[55.0059,24.9699],[55.1379,24.6369],[55.2005,24.5951],[55.4124,24.6028],[55.6709,24.709],[55.6577,25.0548],[55.6008,25.2003],[55.4488,25.3068],[55.3248,25.3071]]]]}},{"type":"Feature","properties":{"sourceId":"1159309257","regionId":"region.95cef304-e67a-4678-bba0-79b00ee0043f","countryId":"country.xjfx2m"},"geometry":{"type":"Polygon","coordinates":[[[56.3161,24.9299],[56.2823,24.9514],[56.2705,24.9392],[56.2756,24.914],[56.3143,24.912],[56.3161,24.9299]]]}},{"type":"Feature","properties":{"sourceId":"1159309261","regionId":"region.95cef304-e67a-4678-bba0-79b00ee0043f","countryId":"country.xjfx2m"},"geometry":{"type":"Polygon","coordinates":[[[56.0253,24.8826],[56.0763,24.73],[56.1057,24.8204],[56.0253,24.8826]]]}},{"type":"Feature","properties":{"sourceId":"1159307647","regionId":"region.f54a2090-1395-409d-b6ce-f3f72fbefccc","countryId":"country.xjfx2m"},"geometry":{"type":"MultiPolygon","coordinates":[[[[55.7999,24.6932],[55.6709,24.709],[55.4124,24.6028],[55.2005,24.5951],[55.1379,24.6369],[55.0059,24.9699],[54.707,24.8039],[54.5586,24.4577],[54.4832,24.4251],[54.446,24.3161],[54.323,24.2707],[54.1226,24.1447],[53.8538,24.062],[53.5813,24.0485],[53.437,24.1198],[53.2538,24.0988],[53.1653,24.1703],[53.0672,24.1219],[52.6701,24.1447],[52.6341,24.1899],[52.3411,24.0075],[52.2244,23.974],[51.8094,24.0007],[51.772,24.1763],[51.5693,24.2562],[51.5935,24.0783],[52.2241,23.3284],[52.5385,22.9548],[52.5831,22.9311],[53.4389,22.8259],[54.1343,22.7403],[55.1053,22.6209],[55.1868,22.7036],[55.1913,22.9954],[55.2259,23.1213],[55.3211,23.2751],[55.3753,23.4693],[55.4453,23.5523],[55.5383,23.77],[55.4998,23.9706],[55.6469,24.025],[55.8071,24.0075],[55.9979,24.0813],[55.9332,24.2207],[55.7541,24.2455],[55.8074,24.3408],[55.7598,24.5585],[55.7999,24.6932]]],[[[53.657,24.1584],[53.9204,24.1398],[53.9546,24.201],[53.8396,24.2644],[53.7228,24.2299],[53.657,24.1584]]]]}},{"type":"Feature","properties":{"sourceId":"1159309253","regionId":"region.447e8fcc-68a0-4dd7-ab39-69c1254d6b54","countryId":"country.xjfx2m"},"geometry":{"type":"Polygon","coordinates":[[[55.5152,25.5133],[55.7615,25.3689],[55.8067,25.2861],[55.9281,25.3476],[55.8445,25.4735],[55.802,25.6262],[55.746,25.6623],[55.6263,25.5363],[55.5152,25.5133]]]}},{"type":"Feature","properties":{"sourceId":"1159309259","regionId":"region.a216c13a-b8da-49c8-8a76-aacdf0ee6da7","countryId":"country.xjfx2m"},"geometry":{"type":"Polygon","coordinates":[[[55.4245,25.3945],[55.5975,25.3596],[55.6322,25.4132],[55.4921,25.4602],[55.4245,25.3945]]]}}]}