{"type":"FeatureCollection","features":[{"type":"Feature","properties":{"sourceId":"1159314333","regionId":"region.31a87b76-a002-42a4-81f6-0dbd3fa2e5af","countryId":"country.1ge48fm"},"geometry":{"type":"Polygon","coordinates":[[[20.9653,40.8494],[20.9635,40.7361],[21.0367,40.6397],[20.9119,40.4595],[20.769,40.4126],[20.7396,40.3092],[20.8439,40.3266],[20.9608,40.1384],[20.9323,40.087],[21.0403,39.9817],[21.0949,39.8277],[21.2912,39.8048],[21.4655,39.8635],[21.7489,39.8266],[21.9541,39.9903],[22.0948,40.1674],[22.1711,40.2812],[21.9237,40.4571],[21.8576,40.6515],[21.7458,40.6733],[21.6992,40.8268],[21.7571,40.9225],[21.5816,40.8663],[21.5057,40.9009],[21.2458,40.8632],[20.9653,40.8494]]]}},{"type":"Feature","properties":{"sourceId":"1159314335","regionId":"region.e11901eb-62d5-4b18-87d4-b89a454500a4","countryId":"country.1ge48fm"},"geometry":{"type":"Polygon","coordinates":[[[20.6154,40.081],[20.4328,40.0638],[20.318,39.9184],[20.2996,39.8051],[20.2995,39.7282],[20.1999,39.6401],[19.9998,39.6935],[20.1818,39.6245],[20.1413,39.5378],[20.2928,39.3334],[20.4483,39.2895],[20.4883,39.2166],[20.6865,39.0725],[20.8939,39.0772],[21.0603,39.039],[21.3623,39.1539],[21.3851,39.2797],[21.1787,39.4189],[21.1661,39.5652],[21.1984,39.7556],[21.2912,39.8048],[21.0949,39.8277],[21.0403,39.9817],[20.9323,40.087],[20.9608,40.1384],[20.8439,40.3266],[20.7396,40.3092],[20.6154,40.081]]]}},{"type":"Feature","properties":{"sourceId":"1159314337","regionId":"region.288b9fb0-2d44-4d5c-98d3-6726ee4ac7c3","countryId":"country.1ge48fm"},"geometry":{"type":"Polygon","coordinates":[[[22.917,41.3358],[22.7968,41.337],[22.7623,41.3225],[22.742,41.287],[22.6572,41.177],[22.5866,41.1241],[22.4218,41.1146],[22.2136,41.1607],[21.9255,41.1068],[21.8963,41.0647],[21.7571,40.9225],[21.6992,40.8268],[21.7458,40.6733],[21.8576,40.6515],[21.9237,40.4571],[22.1711,40.2812],[22.0948,40.1674],[22.2973,40.1501],[22.3765,40.0222],[22.4968,39.9327],[22.7098,39.935],[22.5713,40.0543],[22.5525,40.1666],[22.6611,40.369],[22.6029,40.4813],[22.7109,40.5116],[22.9105,40.6446],[22.9832,40.5527],[22.8309,40.4858],[23.0291,40.3258],[23.2991,40.2354],[23.3059,40.1045],[23.3784,40.011],[23.6165,39.9233],[23.6703,39.9861],[23.4989,40.0423],[23.3377,40.2084],[23.3983,40.2777],[23.6755,40.2179],[23.8241,40.0219],[23.9728,39.9619],[23.9912,40.1187],[23.7786,40.2027],[23.6997,40.3264],[23.8335,40.372],[24.0017,40.3198],[24.0039,40.3874],[23.8267,40.4614],[23.8776,40.5602],[23.6917,40.6954],[23.8543,40.7812],[23.9429,40.8031],[24.1217,40.9539],[24.0064,41.0778],[23.816,41.1265],[23.6341,41.3113],[23.6248,41.3771],[23.2877,41.3982],[23.1152,41.3127],[22.917,41.3358]]]}},{"type":"Feature","properties":{"sourceId":"1159314329","regionId":"region.87baa15e-7e5b-4678-97de-3c6ed09f3bb9","countryId":"country.1ge48fm"},"geometry":{"type":"MultiPolygon","coordinates":[[[[26.3334,41.713],[26.1084,41.7279],[26.0595,41.6438],[26.1743,41.446],[26.1209,41.3578],[25.882,41.304],[25.5515,41.3157],[25.2857,41.2394],[25.1538,41.3075],[24.8864,41.4006],[24.5958,41.4298],[24.5309,41.5475],[24.2868,41.5176],[24.1977,41.5477],[24.0473,41.5257],[23.6248,41.3771],[23.6341,41.3113],[23.816,41.1265],[24.0064,41.0778],[24.1217,40.9539],[23.9429,40.8031],[23.8543,40.7812],[24.1101,40.7279],[24.3407,40.8313],[24.4155,40.9455],[24.5667,40.9517],[24.6287,40.8586],[24.802,40.8535],[24.9898,40.9421],[25.2997,40.9519],[25.5378,40.8704],[25.9186,40.853],[26.044,40.7385],[26.1345,40.7671],[26.2604,40.9204],[26.3591,40.9647],[26.3224,41.0886],[26.3317,41.2541],[26.6366,41.3785],[26.5963,41.5975],[26.3334,41.713]]],[[[24.7864,40.7351],[24.6423,40.8039],[24.512,40.6668],[24.6423,40.5706],[24.7824,40.6202],[24.7864,40.7351]]]]}},{"type":"Feature","properties":{"sourceId":"1159314339","regionId":"region.36f2f8b0-b64b-468d-a26e-be728e460038","countryId":"country.1ge48fm"},"geometry":{"type":"Polygon","coordinates":[[[24.0039,40.3874],[24.0017,40.3198],[24.169,40.2753],[24.3,40.1281],[24.3833,40.1791],[24.1869,40.3466],[24.0039,40.3874]]]}},{"type":"Feature","properties":{"sourceId":"1159314263","regionId":"region.1d5b454c-349c-4d6d-b592-294b4a040eae","countryId":"country.1ge48fm"},"geometry":{"type":"Polygon","coordinates":[[[22.7098,39.935],[22.4968,39.9327],[22.3765,40.0222],[22.2973,40.1501],[22.0948,40.1674],[21.9541,39.9903],[21.7489,39.8266],[21.4655,39.8635],[21.2912,39.8048],[21.1984,39.7556],[21.1661,39.5652],[21.1787,39.4189],[21.3851,39.2797],[21.3623,39.1539],[21.6377,39.2437],[21.697,39.1216],[21.8309,39.1324],[21.97,39.0358],[22.1167,39.1048],[22.2359,39.2402],[22.4939,39.1192],[22.516,39.0287],[22.6308,39.0327],[22.8694,38.957],[22.9967,38.9634],[22.9611,39.119],[22.8262,39.2213],[22.8425,39.2885],[23.0205,39.3175],[23.1514,39.2849],[23.2136,39.1681],[23.3423,39.1926],[23.2713,39.3229],[23.1018,39.4974],[22.9251,39.5995],[22.8587,39.7733],[22.7098,39.935]]]}},{"type":"Feature","properties":{"sourceId":"1159314261","regionId":"region.09411fd0-9b26-42ba-ad7d-545a675ebc82","countryId":"country.1ge48fm"},"geometry":{"type":"MultiPolygon","coordinates":[[[[22.9967,38.9634],[22.8694,38.957],[22.6308,39.0327],[22.516,39.0287],[22.4939,39.1192],[22.2359,39.2402],[22.1167,39.1048],[21.97,39.0358],[21.8309,39.1324],[21.697,39.1216],[21.6377,39.2437],[21.3623,39.1539],[21.3693,39.0001],[21.5779,38.8628],[21.5607,38.731],[21.8036,38.6929],[21.9984,38.7427],[21.9827,38.5091],[21.8512,38.388],[21.9876,38.4106],[22.3675,38.3419],[22.4631,38.4261],[22.5457,38.3026],[22.6914,38.3222],[23.0667,38.1832],[23.2134,38.1603],[23.2828,38.2317],[23.5523,38.1223],[23.6242,38.26],[23.7668,38.3416],[23.2933,38.5791],[23.2049,38.6827],[22.7695,38.7848],[22.792,38.878],[22.9967,38.9634]]],[[[24.5877,38.1592],[24.4778,38.1387],[24.327,38.1859],[24.1851,38.4076],[24.2161,38.5395],[24.0731,38.6794],[23.8576,38.6825],[23.62,38.7655],[23.4507,38.8746],[23.4256,38.9543],[23.2991,39.0425],[23.138,39.009],[22.9694,38.8891],[23.2023,38.8299],[23.446,38.6767],[23.6355,38.5286],[23.6385,38.4155],[24.0491,38.3945],[24.3718,37.9719],[24.5521,37.9782],[24.5877,38.1592]]]]}},{"type":"Feature","properties":{"sourceId":"1159314215","regionId":"region.3a1aab70-7ad4-4dc8-887e-d331072d32b6","countryId":"country.1ge48fm"},"geometry":{"type":"MultiPolygon","coordinates":[[[[23.7668,38.3416],[23.6242,38.26],[23.5523,38.1223],[23.2828,38.2317],[23.2134,38.1603],[23.0763,38.0597],[23.1594,37.9405],[23.4089,37.9743],[23.45,38.0214],[23.6802,37.9459],[23.7645,37.816],[23.9025,37.7819],[23.9497,37.6774],[24.0721,37.6895],[24.0669,37.8644],[23.989,38.1226],[24.069,38.2047],[23.951,38.2909],[23.7668,38.3416]]],[[[23.187,37.6083],[23.179,37.5071],[23.4418,37.4144],[23.5256,37.4597],[23.3743,37.5559],[23.187,37.6083]]],[[[23.0117,36.3083],[22.8997,36.3282],[22.9087,36.206],[23.052,36.1448],[23.0769,36.2707],[23.0117,36.3083]]]]}},{"type":"Feature","properties":{"sourceId":"1159314217","regionId":"region.55ef6059-24b5-4a64-8829-0e0f5ff8362f","countryId":"country.1ge48fm"},"geometry":{"type":"Polygon","coordinates":[[[23.1594,37.9405],[23.0763,38.0597],[22.9429,38.0835],[22.8672,37.9395],[22.6804,38.0666],[22.3573,38.163],[22.3278,38],[22.2323,37.9633],[22.2286,37.8354],[22.0106,37.7789],[21.8314,37.8536],[21.7736,37.779],[21.7907,37.5803],[21.9502,37.5137],[21.8528,37.3815],[21.682,37.379],[21.6823,37.2839],[21.5676,37.1563],[21.5993,37.0457],[21.7026,36.9573],[21.7074,36.818],[21.9451,36.7899],[21.9373,36.98],[22.0481,37.0351],[22.1532,37.0212],[22.3706,36.6736],[22.3545,36.5119],[22.4699,36.4523],[22.5335,36.7072],[22.6226,36.8035],[22.7651,36.8042],[22.9724,36.5202],[23.0806,36.5793],[23.0256,36.7156],[23.0956,36.807],[22.9998,37.0333],[22.758,37.3983],[22.7232,37.5417],[22.9639,37.5218],[23.132,37.4486],[23.0731,37.3552],[23.4418,37.4144],[23.179,37.5071],[23.187,37.6083],[23.1824,37.8091],[23.0125,37.8476],[23.0151,37.9252],[23.1594,37.9405]]]}},{"type":"Feature","properties":{"sourceId":"1159314331","regionId":"region.5b3f0009-f60c-4f82-97dc-cc910a7b3227","countryId":"country.1ge48fm"},"geometry":{"type":"MultiPolygon","coordinates":[[[[21.682,37.379],[21.8528,37.3815],[21.9502,37.5137],[21.7907,37.5803],[21.7736,37.779],[21.8314,37.8536],[22.0106,37.7789],[22.2286,37.8354],[22.2323,37.9633],[22.3278,38],[22.3573,38.163],[22.2266,38.1859],[21.9559,38.3367],[21.7642,38.2958],[21.603,38.1518],[21.3757,38.2043],[21.3259,38.0214],[21.1221,37.8374],[21.2953,37.7717],[21.2987,37.6726],[21.4022,37.6554],[21.55,37.5615],[21.682,37.379]]],[[[21.8512,38.388],[21.9827,38.5091],[21.9984,38.7427],[21.8036,38.6929],[21.5607,38.731],[21.5779,38.8628],[21.3693,39.0001],[21.3623,39.1539],[21.0603,39.039],[21.1599,38.9977],[21.0852,38.8643],[20.9754,38.9468],[20.7645,38.8918],[20.7293,38.8035],[20.8831,38.7794],[20.9074,38.6986],[21.0247,38.6085],[21.1404,38.3989],[21.1556,38.3039],[21.3699,38.4082],[21.5354,38.314],[21.5996,38.351],[21.8512,38.388]]]]}},{"type":"Feature","properties":{"sourceId":"1159314211","regionId":"region.366dcfff-dec4-4936-924a-5898ee5c8e70","countryId":"country.1ge48fm"},"geometry":{"type":"Polygon","coordinates":[[[26.3211,35.3153],[26.1551,35.1979],[26.0674,35.2333],[25.8967,35.1849],[25.8303,35.1224],[25.7127,35.1828],[25.7664,35.3357],[25.6388,35.3459],[25.4819,35.2974],[25.376,35.3432],[25.0553,35.3552],[24.9712,35.4245],[24.721,35.4272],[24.3401,35.3483],[24.1867,35.4518],[24.183,35.5856],[24.0447,35.5277],[23.8171,35.5348],[23.5735,35.4348],[23.5182,35.3078],[23.5872,35.2395],[23.8267,35.2526],[24.0846,35.2045],[24.4021,35.1911],[24.5646,35.1061],[24.7075,35.0961],[24.7385,34.9316],[25.0974,34.9379],[25.304,34.9848],[25.6012,35.0136],[25.8081,35.0058],[25.9849,35.0391],[26.1472,35.0023],[26.241,35.039],[26.3118,35.1824],[26.3211,35.3153]]]}},{"type":"Feature","properties":{"sourceId":"1159314213","regionId":"region.3df54e69-c3b5-492d-866b-ba61f608b724","countryId":"country.1ge48fm"},"geometry":{"type":"MultiPolygon","coordinates":[[[[28.2398,36.4325],[28.1184,36.4277],[27.8997,36.3402],[27.7007,36.1634],[27.7571,36.0844],[27.7123,35.9527],[27.7804,35.89],[28.1305,36.1855],[28.2398,36.4325]]],[[[24.4744,36.7471],[24.3543,36.754],[24.3229,36.6654],[24.4846,36.6652],[24.4744,36.7471]]],[[[27.2809,36.9079],[27.0612,36.8393],[27.1299,36.7608],[27.2809,36.9079]]],[[[25.5261,37.1962],[25.3418,37.0767],[25.4476,36.9248],[25.5525,36.9689],[25.5951,37.0997],[25.5261,37.1962]]],[[[24.9917,37.7682],[24.9539,37.906],[24.6955,37.9246],[24.9575,37.7067],[24.9917,37.7682]]]]}},{"type":"Feature","properties":{"sourceId":"1159314257","regionId":"region.2e722930-7a28-443a-821b-344b7ff25ebc","countryId":"country.1ge48fm"},"geometry":{"type":"MultiPolygon","coordinates":[[[[26.3622,37.6863],[26.1974,37.6323],[26.0742,37.6379],[26.0579,37.5192],[26.2306,37.5714],[26.3622,37.6863]]],[[[27.0475,37.7272],[27.021,37.7772],[26.7718,37.8141],[26.6581,37.7928],[26.7874,37.6472],[26.8609,37.6434],[27.0475,37.7272]]],[[[26.1636,38.5428],[25.9954,38.6042],[25.8489,38.5804],[25.8433,38.5153],[25.989,38.3793],[25.8675,38.2597],[25.9749,38.166],[26.1121,38.2226],[26.1636,38.3026],[26.1636,38.5428]]],[[[26.6123,39.0493],[26.4707,39.2252],[26.3796,39.2827],[26.343,39.383],[26.1628,39.3236],[25.8587,39.2592],[25.8889,39.1447],[26.1657,39.0224],[26.4242,38.9674],[26.6123,39.0493]]],[[[25.4499,40.0362],[25.2871,39.9611],[25.2251,40.0089],[25.0454,39.9847],[25.0674,39.8581],[25.2953,39.8077],[25.4499,40.0362]]]]}},{"type":"Feature","properties":{"sourceId":"1159314259","regionId":"region.411036f5-a07f-452e-8c4c-357267a25136","countryId":"country.1ge48fm"},"geometry":{"type":"MultiPolygon","coordinates":[[[[20.9014,37.7924],[20.742,37.8623],[20.7044,37.7383],[20.8151,37.6515],[20.9014,37.7924]]],[[[20.7336,38.0624],[20.7977,38.1313],[20.6258,38.3518],[20.3982,38.3327],[20.339,38.2002],[20.4729,38.1821],[20.7336,38.0624]]],[[[20.5855,38.6179],[20.7207,38.6384],[20.7178,38.8227],[20.6026,38.7817],[20.5855,38.6179]]],[[[20.0921,39.4335],[19.9325,39.4787],[19.8587,39.6588],[19.948,39.7904],[19.8518,39.8245],[19.6769,39.7952],[19.6897,39.6741],[19.8408,39.552],[19.8656,39.4686],[19.9993,39.3994],[20.0921,39.4335]]]]}}]}