{"type":"FeatureCollection","features":[{"type":"Feature","properties":{"sourceId":"1159314305","regionId":"region.3d9ada98-5ad1-4c74-80aa-c10b756ee62d","countryId":"country.yc1r8r"},"geometry":{"type":"Polygon","coordinates":[[[44.807,39.6399],[44.5657,39.7659],[44.4583,39.6425],[44.4048,39.4344],[44.2695,39.3829],[44.0614,39.4003],[44.0474,39.3375],[44.0777,39.2001],[44.1866,39.1451],[44.1392,38.994],[44.275,38.8436],[44.2486,38.7218],[44.297,38.6223],[44.2895,38.3823],[44.4247,38.377],[44.3338,38.1009],[44.205,37.9048],[44.3779,37.8541],[44.4505,37.7666],[44.5961,37.7164],[44.5659,37.4472],[44.8016,37.2927],[44.7661,37.1419],[44.8808,37.0249],[44.8834,36.8868],[44.8312,36.7919],[45.0353,36.6896],[45.0095,36.5162],[45.1108,36.4025],[45.2389,36.403],[45.3483,36.0875],[45.3596,35.9769],[45.5014,36.0054],[45.575,36.0544],[45.7245,36.2476],[45.8871,36.2899],[45.9588,36.4202],[46.0464,36.4481],[46.2979,36.4191],[46.8152,36.4578],[46.9238,36.3725],[47.141,36.3412],[47.2587,36.4076],[47.3323,36.5077],[47.1938,36.7568],[46.9564,36.7348],[46.8229,36.7875],[46.7928,36.9827],[46.6388,37.0589],[46.3896,36.9844],[46.2929,36.8777],[46.079,36.9816],[45.9235,37.1092],[45.6865,37.1292],[45.3947,37.2819],[45.3431,37.3811],[45.3545,37.5053],[45.2627,37.615],[45.1932,38.1313],[45.1026,38.2337],[45.1566,38.3854],[45.3282,38.5248],[45.366,38.6274],[45.3268,38.7374],[45.3778,38.8852],[45.4945,38.9819],[45.4271,39.0149],[45.2831,39.1931],[45.1527,39.2135],[45.1144,39.3094],[45.0512,39.3871],[44.957,39.4345],[44.8864,39.606],[44.824,39.6305],[44.807,39.6399]]]}},{"type":"Feature","properties":{"sourceId":"1159314307","regionId":"region.5c17e7ab-bae6-4d65-8ddb-2637d1e4476a","countryId":"country.yc1r8r"},"geometry":{"type":"Polygon","coordinates":[[[46.514,38.8822],[46.3919,38.9224],[46.1359,38.8637],[45.7681,38.9391],[45.5356,38.9685],[45.4945,38.9819],[45.3778,38.8852],[45.3268,38.7374],[45.366,38.6274],[45.3282,38.5248],[45.1566,38.3854],[45.1026,38.2337],[45.1932,38.1313],[45.2627,37.615],[45.3545,37.5053],[45.3431,37.3811],[45.3947,37.2819],[45.6865,37.1292],[45.9235,37.1092],[46.079,36.9816],[46.2929,36.8777],[46.3896,36.9844],[46.6388,37.0589],[46.7928,36.9827],[46.8229,36.7875],[46.9564,36.7348],[47.1938,36.7568],[47.2068,36.8691],[47.4003,37.0483],[47.6207,37.1666],[47.9352,37.1957],[48.3341,37.1729],[48.4553,37.2239],[48.204,37.3471],[48.1699,37.4685],[47.9437,37.566],[47.9137,37.6753],[47.9555,37.8322],[47.7992,37.9841],[47.7128,38.2357],[47.6429,38.263],[47.4181,38.237],[47.2244,38.3349],[47.302,38.4437],[47.4238,38.5252],[47.5635,38.532],[47.5409,38.6303],[47.5876,38.7639],[47.5297,38.8766],[47.486,39.0947],[47.2382,38.9814],[46.9975,38.6888],[46.8478,38.7219],[46.6452,38.6591],[46.5657,38.7359],[46.6589,38.866],[46.7493,38.8592],[46.9861,38.9434],[47.1039,39.0498],[47.0136,39.187],[46.8664,39.1654],[46.7448,39.0403],[46.514,38.8822]]]}},{"type":"Feature","properties":{"sourceId":"1159314293","regionId":"region.eb0ab0d2-a259-44a3-b290-00e33849a768","countryId":"country.yc1r8r"},"geometry":{"type":"Polygon","coordinates":[[[47.9577,39.7073],[47.7882,39.6577],[47.625,39.5714],[47.3742,39.4556],[47.2613,39.3664],[47.1022,39.3084],[47.0136,39.187],[47.1039,39.0498],[46.9861,38.9434],[46.7493,38.8592],[46.6589,38.866],[46.5657,38.7359],[46.6452,38.6591],[46.8478,38.7219],[46.9975,38.6888],[47.2382,38.9814],[47.486,39.0947],[47.5297,38.8766],[47.5876,38.7639],[47.5409,38.6303],[47.5635,38.532],[47.4238,38.5252],[47.302,38.4437],[47.2244,38.3349],[47.4181,38.237],[47.6429,38.263],[47.7128,38.2357],[47.7992,37.9841],[47.9555,37.8322],[47.9137,37.6753],[47.9437,37.566],[48.1699,37.4685],[48.204,37.3471],[48.4553,37.2239],[48.6003,37.1548],[48.6568,37.212],[48.8825,37.2028],[48.8666,37.3521],[48.7141,37.4715],[48.5481,37.6788],[48.4561,37.8803],[48.5197,38.0658],[48.7456,38.2774],[48.613,38.3956],[48.5356,38.4692],[48.4153,38.6181],[48.3103,38.6002],[48.2256,38.7132],[48.013,38.8216],[48.0585,38.9484],[48.3016,39.0179],[48.2713,39.1083],[48.1422,39.1812],[48.1246,39.2976],[48.3284,39.3763],[48.3167,39.4152],[48.052,39.6501],[47.9577,39.7073]]]}},{"type":"Feature","properties":{"sourceId":"1159314313","regionId":"region.47c35a76-bb84-464d-b83a-830f13955132","countryId":"country.yc1r8r"},"geometry":{"type":"Polygon","coordinates":[[[48.613,38.3956],[48.7456,38.2774],[48.5197,38.0658],[48.4561,37.8803],[48.5481,37.6788],[48.7141,37.4715],[48.8666,37.3521],[48.8825,37.2028],[49.0333,37.1261],[49.1867,36.9774],[49.2458,36.8131],[49.4723,36.6243],[49.8053,36.562],[50.0856,36.6663],[50.3046,36.6703],[50.4177,36.7854],[50.4396,36.8682],[50.5763,36.9892],[50.3223,37.1533],[50.1488,37.4039],[49.9353,37.4536],[49.4417,37.4949],[49.1325,37.6234],[49.0145,37.7392],[48.9077,38.0835],[48.8659,38.3169],[48.8743,38.4341],[48.613,38.3956]]]}},{"type":"Feature","properties":{"sourceId":"1159314315","regionId":"region.4c466c74-5fd4-40fe-bd9f-585864d0288d","countryId":"country.yc1r8r"},"geometry":{"type":"Polygon","coordinates":[[[45.5014,36.0054],[45.6469,35.9332],[45.7187,35.8283],[45.8142,35.8093],[46.0604,35.8572],[46.185,35.7982],[46.2379,35.7155],[46.0371,35.6916],[45.964,35.4942],[46.1253,35.285],[46.3429,35.1548],[46.5833,34.8854],[46.6796,34.7425],[46.9359,34.7639],[47.0269,34.8937],[47.2509,34.9695],[47.2673,35.0537],[47.4105,35.0615],[47.43,35.151],[47.6237,35.0978],[47.7774,34.9555],[47.8515,34.9512],[47.9795,34.9953],[48.0964,34.9768],[48.1515,35.0978],[48.124,35.1902],[47.9769,35.3064],[47.7995,35.5872],[47.8904,35.6621],[47.9687,35.5753],[48.2257,35.6902],[48.1788,35.7529],[47.9036,35.889],[47.9676,36.0583],[47.9411,36.2878],[47.8651,36.4034],[47.3613,36.4842],[47.3323,36.5077],[47.2587,36.4076],[47.141,36.3412],[46.9238,36.3725],[46.8152,36.4578],[46.2979,36.4191],[46.0464,36.4481],[45.9588,36.4202],[45.8871,36.2899],[45.7245,36.2476],[45.575,36.0544],[45.5014,36.0054]]]}},{"type":"Feature","properties":{"sourceId":"1159314311","regionId":"region.e5c381de-badc-43bf-a876-664f4015fb4b","countryId":"country.yc1r8r"},"geometry":{"type":"Polygon","coordinates":[[[46.1253,35.285],[46.1655,35.1899],[46.0092,35.0609],[45.9132,35.0873],[45.7962,34.9031],[45.6766,34.8183],[45.6274,34.7208],[45.7015,34.5513],[45.5007,34.5917],[45.5035,34.4942],[45.4171,34.4444],[45.448,34.3621],[45.5576,34.312],[45.5344,34.1282],[45.4199,33.9944],[45.4858,33.9387],[45.6588,33.6817],[45.7246,33.633],[45.822,34.0138],[46.0359,34.0286],[46.3471,33.9574],[46.4878,33.87],[46.7388,33.8026],[47.1825,33.8249],[47.2174,33.9237],[47.1751,34.0136],[47.3862,34.0378],[47.3997,34.1607],[47.5774,34.208],[47.577,34.3404],[47.694,34.3497],[47.7482,34.424],[47.9901,34.431],[47.9985,34.5435],[47.6412,34.6375],[47.8515,34.9512],[47.7774,34.9555],[47.6237,35.0978],[47.43,35.151],[47.4105,35.0615],[47.2673,35.0537],[47.2509,34.9695],[47.0269,34.8937],[46.9359,34.7639],[46.6796,34.7425],[46.5833,34.8854],[46.3429,35.1548],[46.1253,35.285]]]}},{"type":"Feature","properties":{"sourceId":"1159314289","regionId":"region.98086cb6-47a1-4b12-8938-6da8d89edcbc","countryId":"country.yc1r8r"},"geometry":{"type":"Polygon","coordinates":[[[45.7246,33.633],[45.886,33.6309],[45.9645,33.496],[46.0362,33.3679],[46.1553,33.2602],[46.1672,33.1683],[46.097,32.9543],[46.2734,32.9595],[46.6006,32.8225],[47.0584,32.4945],[47.3433,32.4587],[47.3958,32.337],[47.5802,32.1035],[47.7473,32.2202],[47.7338,32.335],[47.8988,32.6015],[47.7059,32.9208],[47.4654,33.1595],[47.2449,33.2513],[46.8266,33.5614],[46.9636,33.7175],[47.3137,33.7996],[47.4265,33.8975],[47.3862,34.0378],[47.1751,34.0136],[47.2174,33.9237],[47.1825,33.8249],[46.7388,33.8026],[46.4878,33.87],[46.3471,33.9574],[46.0359,34.0286],[45.822,34.0138],[45.7246,33.633]]]}},{"type":"Feature","properties":{"sourceId":"1159314285","regionId":"region.1d18d81b-3e28-4c89-9221-dbcb66fbda3e","countryId":"country.yc1r8r"},"geometry":{"type":"Polygon","coordinates":[[[47.6764,31.2365],[47.6729,30.9947],[48.0154,30.9763],[48.0136,30.4639],[48.1577,30.4263],[48.397,30.221],[48.3833,30.1565],[48.4531,30.0014],[48.531,29.9613],[48.6406,30.0381],[48.8767,30.0245],[48.9348,30.0797],[48.9212,30.2504],[48.8623,30.3456],[48.9815,30.5156],[49.1668,30.5088],[49.2572,30.4219],[49.1764,30.3727],[49.062,30.4081],[49.0037,30.3094],[49.2451,30.1565],[49.4798,30.1561],[49.5322,30.0229],[49.6008,30.0301],[49.9146,30.2039],[50.0506,30.2074],[50.2178,30.25],[50.4298,30.2188],[50.4127,30.376],[50.355,30.5255],[50.3956,30.6955],[50.2439,30.7746],[50.1253,30.8858],[49.9548,30.8664],[49.9646,31.0089],[49.9191,31.1502],[49.96,31.27],[50.0711,31.3199],[50.2575,31.4879],[50.3476,31.6049],[50.3212,31.7068],[50.1671,31.8524],[50.0493,32.0779],[49.9384,32.1472],[49.7563,32.4164],[49.7361,32.5063],[49.7428,32.6562],[49.5016,32.7078],[49.4532,32.8088],[49.2393,32.807],[49.0063,32.942],[48.7849,32.9608],[48.5674,33.0447],[48.1442,33.006],[48.0901,32.9713],[47.9535,32.669],[47.8988,32.6015],[47.7338,32.335],[47.7473,32.2202],[47.5802,32.1035],[47.6681,32.0124],[47.8313,31.7618],[47.6789,31.4079],[47.6764,31.2365]]]}},{"type":"Feature","properties":{"sourceId":"1159314321","regionId":"region.5ba6c168-acea-4f06-a293-2ae300375d3c","countryId":"country.yc1r8r"},"geometry":{"type":"Polygon","coordinates":[[[57.7348,37.8983],[57.4963,37.9223],[57.3524,37.9675],[57.3443,38.0811],[57.2183,38.2651],[57.1379,38.2624],[57.0384,38.1873],[56.739,38.2696],[56.5852,38.2346],[56.4365,38.2551],[56.2971,38.1658],[56.2997,38.0802],[56.1667,38.0808],[56.1625,37.7704],[56.2845,37.6952],[56.248,37.5735],[55.9709,37.4808],[55.8674,37.3544],[56.109,37.1061],[56.0673,36.8821],[56.3179,36.6654],[56.5193,36.6218],[56.6716,36.6426],[56.7327,36.8125],[56.9735,36.9691],[57.1332,36.9629],[57.7953,36.6681],[58.0722,36.634],[58.1855,36.6773],[58.1618,36.8196],[58.2276,36.8986],[58.0134,37.0264],[58.1654,37.35],[58.18,37.4929],[58.0349,37.6547],[57.5864,37.6717],[57.5757,37.8087],[57.7348,37.8983]]]}},{"type":"Feature","properties":{"sourceId":"1159314271","regionId":"region.643292f5-36e1-4fb9-90a5-7acdefec2682","countryId":"country.yc1r8r"},"geometry":{"type":"Polygon","coordinates":[[[56.1667,38.0808],[55.9784,38.0659],[55.7087,38.1187],[55.4231,38.0759],[55.1303,37.9523],[54.8566,37.7611],[54.7873,37.6519],[54.7837,37.5175],[54.6169,37.433],[54.5333,37.4408],[54.3642,37.3627],[54.1866,37.3237],[53.9137,37.3428],[53.9232,37.258],[54.0335,36.9491],[54.0143,36.8211],[53.8892,36.7936],[53.7054,36.8163],[53.7528,36.73],[53.9736,36.6227],[54.1201,36.4848],[54.4638,36.4901],[54.605,36.5436],[54.8363,36.7044],[55.0962,36.7931],[55.4536,36.7539],[55.5043,36.7729],[55.5573,36.9515],[55.64,37.0985],[55.8674,37.3544],[55.9709,37.4808],[56.248,37.5735],[56.2845,37.6952],[56.1625,37.7704],[56.1667,38.0808]]]}},{"type":"Feature","properties":{"sourceId":"1159314319","regionId":"region.25dae6f5-f6fa-4632-b405-281f89d599e0","countryId":"country.yc1r8r"},"geometry":{"type":"Polygon","coordinates":[[[57.7348,37.8983],[57.5757,37.8087],[57.5864,37.6717],[58.0349,37.6547],[58.18,37.4929],[58.1654,37.35],[58.0134,37.0264],[58.2276,36.8986],[58.1618,36.8196],[58.1855,36.6773],[58.0722,36.634],[57.7953,36.6681],[57.1332,36.9629],[56.9735,36.9691],[56.7327,36.8125],[56.6716,36.6426],[56.7882,36.5479],[56.7209,36.3924],[56.7249,36.0959],[56.7846,35.919],[57.0872,35.7004],[57.072,35.6304],[56.8251,35.2863],[56.6138,35.2213],[56.3713,35.0692],[56.2105,34.9061],[56.6192,34.9937],[57.0166,35.1483],[57.2684,35.2013],[57.3796,35.1773],[57.6712,34.9939],[57.692,34.8669],[57.5952,34.7888],[57.1989,34.5577],[57.1308,34.4563],[57.0048,34.1426],[56.9967,33.9735],[57.0589,33.6853],[57.1058,33.6236],[57.3044,33.6037],[57.5599,33.6532],[57.6423,33.5441],[57.717,33.1217],[57.7822,32.9968],[58.0406,32.8711],[58.1477,32.7486],[58.2487,32.9542],[58.3876,33.1308],[58.7018,33.3055],[58.832,33.4851],[58.6803,33.5774],[58.6054,33.7093],[58.6462,33.8174],[58.6934,34.1651],[58.9552,34.1224],[59.011,34.1651],[59.3079,34.2016],[59.5049,34.278],[59.6568,34.1071],[59.7879,34.0685],[60.4101,34.07],[60.4885,34.0809],[60.5209,34.1861],[60.6437,34.3066],[60.8905,34.3189],[60.7144,34.5374],[60.9475,34.638],[60.9599,34.7232],[61.0655,34.8147],[61.1159,35.0599],[61.1083,35.278],[61.29,35.5481],[61.2697,35.6185],[61.2317,35.6719],[61.2474,35.8762],[61.174,36.0065],[61.2228,36.1175],[61.1525,36.4063],[61.186,36.5777],[61.0755,36.6478],[60.3423,36.6371],[60.0192,37.0258],[59.7972,37.1122],[59.5095,37.1898],[59.3704,37.3194],[59.3517,37.4938],[59.2117,37.5163],[59.0456,37.6196],[58.861,37.6681],[58.7043,37.6446],[58.5143,37.6915],[58.3718,37.6304],[58.2068,37.6787],[58.1812,37.7749],[57.7348,37.8983]]]}},{"type":"Feature","properties":{"sourceId":"1159314317","regionId":"region.904141d1-b459-4abc-93ba-29eed3271ba8","countryId":"country.yc1r8r"},"geometry":{"type":"Polygon","coordinates":[[[60.4885,34.0809],[60.4101,34.07],[59.7879,34.0685],[59.6568,34.1071],[59.5049,34.278],[59.3079,34.2016],[59.011,34.1651],[58.9552,34.1224],[58.6934,34.1651],[58.6462,33.8174],[58.6054,33.7093],[58.6803,33.5774],[58.832,33.4851],[58.7018,33.3055],[58.3876,33.1308],[58.2487,32.9542],[58.1477,32.7486],[58.1004,32.5681],[58.2244,32.3525],[58.1739,32.146],[58.0407,31.9945],[57.8347,31.6373],[58.9729,31.1979],[59.1163,31.1062],[59.5154,30.6066],[60.2971,30.8028],[60.5023,30.7247],[60.6255,30.6466],[60.783,30.453],[60.8648,30.3924],[61.0009,30.3965],[61.0521,30.46],[61.0013,30.6542],[61.018,30.9917],[61.1294,31.2703],[61.1251,31.4489],[60.8217,31.4947],[60.7749,32.0272],[60.8303,32.2489],[60.5775,32.9943],[60.5676,33.1513],[60.757,33.3663],[60.8322,33.4845],[60.9198,33.5126],[60.8796,33.5487],[60.6556,33.5599],[60.5118,33.6384],[60.528,33.8415],[60.4885,34.0809]]]}},{"type":"Feature","properties":{"sourceId":"1159314323","regionId":"region.104ba4fe-bd9a-469d-ba86-1a557085265f","countryId":"country.yc1r8r"},"geometry":{"type":"Polygon","coordinates":[[[61.6063,31.3887],[61.1251,31.4489],[61.1294,31.2703],[61.018,30.9917],[61.0013,30.6542],[61.0521,30.46],[61.0009,30.3965],[60.8648,30.3924],[60.783,30.453],[60.6255,30.6466],[60.5023,30.7247],[60.2971,30.8028],[59.5154,30.6066],[59.3103,29.7815],[59.3013,29.6984],[59.41,29.563],[59.4446,29.3517],[59.4111,29.1655],[59.3273,29.0536],[59.3286,28.8406],[59.3667,28.7109],[59.0596,28.5326],[58.888,28.4714],[59.0429,28.3152],[59.0119,28.2247],[58.8966,28.0917],[58.8901,27.6308],[58.7749,27.2294],[58.8206,26.8766],[58.9494,26.7026],[58.893,26.5835],[58.9422,26.5002],[58.8852,26.42],[58.947,26.2866],[58.8631,26.0102],[58.8322,25.9295],[59.0709,25.7529],[59.2577,25.5043],[59.2511,25.4307],[59.4539,25.4616],[59.538,25.3998],[59.7749,25.3899],[59.9038,25.3299],[60.082,25.366],[60.2092,25.3197],[60.2713,25.3796],[60.3626,25.3306],[60.4285,25.4196],[60.5497,25.4469],[60.6335,25.275],[61.0306,25.2098],[61.1851,25.1232],[61.4117,25.0594],[61.5882,25.2021],[61.62,25.2855],[61.6604,25.7692],[61.7601,25.8376],[61.8099,26.1674],[61.8571,26.2424],[62.2434,26.3506],[62.292,26.5012],[62.428,26.5648],[62.5953,26.5807],[62.7536,26.6442],[63.1413,26.6254],[63.1823,26.8303],[63.2649,26.89],[63.2299,27.0541],[63.2515,27.219],[63.167,27.2587],[62.9196,27.2149],[62.8006,27.2252],[62.756,27.3481],[62.8147,27.495],[62.7803,27.8297],[62.7357,27.995],[62.7664,28.2115],[62.7393,28.2583],[62.5756,28.229],[62.3628,28.4189],[62.0491,28.4863],[61.8928,28.5426],[61.653,28.7563],[61.5665,28.871],[61.4878,29.0807],[61.3423,29.2545],[61.2792,29.4066],[60.8444,29.8582],[61.4617,30.4946],[61.7852,30.8314],[61.8263,31.0346],[61.7492,31.3024],[61.6063,31.3887]]]}},{"type":"Feature","properties":{"sourceId":"1159314055","regionId":"region.3b31509e-5c1f-4ff0-9641-54908183d78b","countryId":"country.yc1r8r"},"geometry":{"type":"Polygon","coordinates":[[[52.6788,27.3224],[52.7255,27.3638],[52.9709,27.382],[52.771,27.5099],[52.5109,27.7614],[52.3753,28.0301],[52.1974,28.1773],[52.0277,28.6324],[51.5788,29.3728],[51.4105,29.4695],[51.1548,29.798],[51.0176,29.8366],[50.7396,29.8699],[50.6283,30.0212],[50.6015,30.1448],[50.4298,30.2188],[50.2178,30.25],[50.0506,30.2074],[50.1277,30.1207],[50.1449,29.9381],[50.2438,29.8668],[50.397,29.6547],[50.6553,29.4491],[50.6438,29.1435],[50.8403,29.1406],[50.9202,29.069],[50.813,28.9147],[50.8762,28.832],[50.9787,28.8166],[51.0588,28.7359],[51.0725,28.5653],[51.1419,28.4008],[51.2648,28.2705],[51.2648,28.1605],[51.3803,27.9914],[51.5851,27.8493],[51.7228,27.8251],[52.0112,27.8327],[52.2449,27.6814],[52.4231,27.6466],[52.5676,27.5407],[52.6013,27.3529],[52.6788,27.3224]]]}},{"type":"Feature","properties":{"sourceId":"1159314009","regionId":"region.e6d324e4-b622-42e4-9b71-71e5b51b74e2","countryId":"country.yc1r8r"},"geometry":{"type":"MultiPolygon","coordinates":[[[[59.2511,25.4307],[59.2577,25.5043],[59.0709,25.7529],[58.8322,25.9295],[58.8631,26.0102],[58.7418,26.0899],[58.5906,26.0522],[58.5092,26.2003],[58.3733,26.2319],[58.0699,26.2175],[58.13,26.7263],[58.1952,26.7858],[57.9929,26.9395],[57.815,26.8469],[57.408,27.0461],[57.3877,27.104],[57.3564,27.4783],[57.2493,27.647],[57.2879,27.7486],[57.1339,27.9392],[57.0168,28.0038],[56.9814,28.2776],[56.8227,28.3244],[56.6379,28.1687],[56.4562,28.1072],[56.3373,28.1234],[56.1486,28.2479],[56.0592,28.3495],[56.0442,28.9022],[55.8684,28.887],[55.6683,28.754],[55.5284,28.7887],[55.3953,28.9003],[55.1297,28.9507],[55.1874,28.7984],[55.1601,28.7021],[55.4608,28.4458],[55.4755,28.2705],[55.425,28.0335],[55.5573,27.9032],[55.5341,27.8221],[55.3317,27.7778],[55.1952,27.7128],[55.1235,27.5692],[54.9408,27.4864],[54.6741,27.5199],[54.5332,27.4822],[54.4251,27.504],[54.1584,27.4822],[54.0107,27.4022],[53.9589,27.1887],[53.8548,27.1394],[53.5489,27.1877],[53.4503,27.1711],[53.2946,27.2554],[53.0715,27.2731],[52.9709,27.382],[52.7255,27.3638],[52.6788,27.3224],[53.072,27.0969],[53.4121,26.9936],[53.4915,26.8543],[53.7161,26.7086],[53.8208,26.7013],[53.9951,26.7456],[54.1504,26.7082],[54.3081,26.715],[54.3894,26.6051],[54.5613,26.5847],[54.62,26.5082],[54.8015,26.4982],[55.1033,26.7013],[55.2708,26.7925],[55.3973,26.7622],[55.5545,26.8105],[55.6086,26.9537],[55.6848,27.003],[55.9393,27.0267],[56.1237,27.1606],[56.353,27.2016],[56.5829,27.1531],[56.8088,27.1396],[56.8584,27.0474],[56.9733,26.9688],[57.09,26.6188],[57.0763,26.4475],[57.1331,26.2637],[57.2129,26.1662],[57.1646,26.0949],[57.2536,25.959],[57.3262,25.777],[57.5207,25.7436],[57.7713,25.7305],[57.7874,25.6354],[57.9632,25.6932],[58.0731,25.5636],[58.1704,25.5441],[58.3211,25.5808],[58.5464,25.5937],[58.8137,25.5636],[58.9235,25.5134],[58.9943,25.4196],[59.1172,25.3942],[59.2511,25.4307]]],[[[56.2124,27.003],[56.041,26.9757],[55.7857,26.845],[55.7368,26.7824],[55.3519,26.6474],[55.2984,26.5436],[55.5029,26.5949],[55.7058,26.6945],[55.8766,26.7429],[55.947,26.6963],[56.0808,26.7853],[56.1935,26.9245],[56.2124,27.003]]]]}},{"type":"Feature","properties":{"sourceId":"1159314275","regionId":"region.f3252d93-94a5-48f8-98c2-25435946f107","countryId":"country.yc1r8r"},"geometry":{"type":"Polygon","coordinates":[[[50.5763,36.9892],[50.4396,36.8682],[50.4177,36.7854],[50.3046,36.6703],[50.5711,36.4895],[50.7884,36.3658],[50.801,36.3187],[51.0299,36.2718],[51.086,36.2223],[51.292,36.1781],[51.3569,36.1163],[51.465,36.0647],[51.7544,36.011],[51.9502,35.7998],[52.177,35.79],[52.3985,35.9762],[52.8163,35.8683],[52.9014,35.8897],[53.0347,35.8311],[53.3136,35.9002],[53.4724,35.9113],[53.5866,35.9735],[53.7877,36.1638],[53.8257,36.3048],[53.9362,36.421],[54.1201,36.4848],[53.9736,36.6227],[53.7528,36.73],[53.7054,36.8163],[53.6604,36.8769],[53.4924,36.8879],[53.1157,36.8223],[52.7793,36.7404],[51.909,36.5827],[51.0886,36.737],[50.5763,36.9892]]]}},{"type":"Feature","properties":{"sourceId":"1159314277","regionId":"region.6361d5a8-9ced-45b0-a44e-9c2b3b958609","countryId":"country.yc1r8r"},"geometry":{"type":"Polygon","coordinates":[[[54.1201,36.4848],[53.9362,36.421],[53.8257,36.3048],[53.7877,36.1638],[53.5866,35.9735],[53.4724,35.9113],[53.3136,35.9002],[53.0347,35.8311],[53.0794,35.6181],[53.0472,35.5284],[52.8883,35.4102],[52.675,35.3362],[52.2197,35.4142],[51.9821,35.5443],[51.8534,35.5555],[51.8225,35.3153],[51.9806,35.1252],[51.8823,34.8755],[51.8932,34.754],[51.7889,34.542],[51.9823,34.4554],[52.4223,34.4477],[52.9001,34.325],[55.2867,34.3841],[55.3752,34.3419],[55.4847,34.3652],[55.7411,34.3603],[55.8509,34.4073],[56.2105,34.9061],[56.3713,35.0692],[56.6138,35.2213],[56.8251,35.2863],[57.072,35.6304],[57.0872,35.7004],[56.7846,35.919],[56.7249,36.0959],[56.7209,36.3924],[56.7882,36.5479],[56.6716,36.6426],[56.5193,36.6218],[56.3179,36.6654],[56.0673,36.8821],[56.109,37.1061],[55.8674,37.3544],[55.64,37.0985],[55.5573,36.9515],[55.5043,36.7729],[55.4536,36.7539],[55.0962,36.7931],[54.8363,36.7044],[54.605,36.5436],[54.4638,36.4901],[54.1201,36.4848]]]}},{"type":"Feature","properties":{"sourceId":"1159314301","regionId":"region.ca5f178d-c141-449f-943b-c3b614c7d56a","countryId":"country.yc1r8r"},"geometry":{"type":"Polygon","coordinates":[[[48.8825,37.2028],[48.6568,37.212],[48.6003,37.1548],[48.4553,37.2239],[48.3341,37.1729],[47.9352,37.1957],[47.6207,37.1666],[47.4003,37.0483],[47.2068,36.8691],[47.1938,36.7568],[47.3323,36.5077],[47.3613,36.4842],[47.8651,36.4034],[47.9411,36.2878],[47.9676,36.0583],[47.9036,35.889],[48.1788,35.7529],[48.2257,35.6902],[48.3044,35.6175],[48.5191,35.6115],[48.6909,35.5558],[48.8025,35.6358],[48.6012,35.8176],[48.7854,35.9063],[49.0367,35.9396],[49.1989,36.0421],[49.3812,36.082],[49.3884,36.2154],[49.299,36.3755],[49.1549,36.434],[49.0357,36.5934],[49.0555,36.7325],[49.2458,36.8131],[49.1867,36.9774],[49.0333,37.1261],[48.8825,37.2028]]]}},{"type":"Feature","properties":{"sourceId":"1159314303","regionId":"region.1f97f51f-8d08-4ae8-ac6e-8c9f6a741172","countryId":"country.yc1r8r"},"geometry":{"type":"Polygon","coordinates":[[[49.2458,36.8131],[49.0555,36.7325],[49.0357,36.5934],[49.1549,36.434],[49.299,36.3755],[49.3884,36.2154],[49.3812,36.082],[49.1989,36.0421],[49.0367,35.9396],[48.7854,35.9063],[48.6012,35.8176],[48.8025,35.6358],[48.9585,35.6508],[49.0798,35.573],[49.1178,35.4927],[49.4405,35.4376],[49.6159,35.4416],[49.6879,35.5232],[50.2855,35.666],[50.2386,35.741],[50.2977,35.854],[50.5345,35.9608],[50.6259,36.1648],[50.4208,36.2964],[50.5631,36.3392],[50.801,36.3187],[50.7884,36.3658],[50.5711,36.4895],[50.3046,36.6703],[50.0856,36.6663],[49.8053,36.562],[49.4723,36.6243],[49.2458,36.8131]]]}},{"type":"Feature","properties":{"sourceId":"1159314295","regionId":"region.b74e2854-0ac9-4422-8e7a-5807d072fef9","countryId":"country.yc1r8r"},"geometry":{"type":"Polygon","coordinates":[[[51.033,34.1058],[50.6993,34.2049],[50.4412,34.2248],[50.3287,34.3179],[50.2934,34.438],[50.06,34.5771],[50.1628,34.672],[50.154,34.7815],[50.6937,34.916],[50.723,35.1079],[50.7847,35.2184],[50.8712,35.4472],[50.7987,35.6048],[50.651,35.6765],[50.582,35.6501],[50.2855,35.666],[49.6879,35.5232],[49.6159,35.4416],[49.4405,35.4376],[49.4681,35.3143],[49.3211,35.3217],[49.3971,35.1479],[49.2685,35.0349],[49.4721,34.9716],[49.5669,34.7676],[49.4269,34.7936],[49.4088,34.905],[49.1404,34.9094],[49.0882,34.7488],[49.1016,34.6015],[48.9599,34.5682],[48.9851,34.3998],[49.0561,34.2843],[49.0958,34.1105],[48.971,33.9891],[48.9235,33.7416],[49.1809,33.68],[49.2798,33.7387],[49.3139,33.826],[49.4637,33.8867],[49.5897,33.7891],[49.564,33.7042],[49.7466,33.5754],[49.8312,33.6677],[50.0015,33.4987],[50.2432,33.6349],[50.6601,33.7262],[50.7787,33.7979],[50.8989,33.8149],[51.033,34.1058]]]}},{"type":"Feature","properties":{"sourceId":"1159314267","regionId":"region.cc34d135-536c-4f30-96b1-cdd37c7f12b8","countryId":"country.yc1r8r"},"geometry":{"type":"Polygon","coordinates":[[[50.0015,33.4987],[49.9774,33.3612],[49.8446,33.1369],[49.696,33.1019],[49.6206,32.9265],[49.4532,32.8088],[49.5016,32.7078],[49.7428,32.6562],[49.7361,32.5063],[49.9331,32.596],[50.113,32.6151],[50.2352,32.5439],[50.4257,32.546],[50.5372,32.6073],[50.8143,32.6551],[50.945,32.4784],[50.9493,32.3274],[51.2453,32.1243],[51.3159,31.9397],[51.24,31.8324],[51.2158,31.7021],[51.2323,31.5347],[51.3235,31.2762],[51.3108,31.164],[51.3732,30.9745],[51.6411,30.7722],[51.7453,30.7901],[51.7424,30.9687],[51.827,31.1497],[51.8716,31.3201],[51.8427,31.3874],[51.7017,31.4449],[51.8233,31.5377],[52.1422,31.7125],[52.2306,31.555],[52.5277,31.5132],[52.8707,31.5975],[52.8271,31.7444],[52.9049,32.1646],[52.8762,32.472],[53.1646,32.6403],[53.334,32.6741],[53.6507,32.6129],[54.709,32.9201],[54.8699,33.0273],[54.9863,33.33],[55.0401,33.3857],[55.2746,33.4706],[55.3864,33.6655],[55.3752,34.3419],[55.2867,34.3841],[52.9001,34.325],[52.4223,34.4477],[51.9823,34.4554],[51.7889,34.542],[51.4517,34.4697],[51.1584,34.4525],[51.0138,34.3579],[50.9837,34.1616],[51.033,34.1058],[50.8989,33.8149],[50.7787,33.7979],[50.6601,33.7262],[50.2432,33.6349],[50.0015,33.4987]]]}},{"type":"Feature","properties":{"sourceId":"1159314283","regionId":"region.6e081ab2-7dc9-4ae4-9082-7138b415791b","countryId":"country.yc1r8r"},"geometry":{"type":"Polygon","coordinates":[[[51.3108,31.164],[51.3235,31.2762],[51.2323,31.5347],[51.2158,31.7021],[51.24,31.8324],[51.3159,31.9397],[51.2453,32.1243],[50.9493,32.3274],[50.945,32.4784],[50.8143,32.6551],[50.5372,32.6073],[50.4257,32.546],[50.2352,32.5439],[50.113,32.6151],[49.9331,32.596],[49.7361,32.5063],[49.7563,32.4164],[49.9384,32.1472],[50.0493,32.0779],[50.1671,31.8524],[50.3212,31.7068],[50.3476,31.6049],[50.2575,31.4879],[50.5037,31.3905],[50.5871,31.3897],[50.9591,31.1064],[51.108,31.0938],[51.3108,31.164]]]}},{"type":"Feature","properties":{"sourceId":"1159314265","regionId":"region.be6122f6-1360-469c-ae7d-bef543fb6a15","countryId":"country.yc1r8r"},"geometry":{"type":"Polygon","coordinates":[[[51.3108,31.164],[51.108,31.0938],[50.9591,31.1064],[50.5871,31.3897],[50.5037,31.3905],[50.2575,31.4879],[50.0711,31.3199],[49.96,31.27],[49.9191,31.1502],[49.9646,31.0089],[49.9548,30.8664],[50.1253,30.8858],[50.2439,30.7746],[50.3956,30.6955],[50.355,30.5255],[50.4127,30.376],[50.4298,30.2188],[50.6015,30.1448],[50.9122,30.1657],[51.1791,30.3007],[51.2015,30.391],[51.1334,30.6527],[51.2298,30.6502],[51.5356,30.5295],[51.6402,30.5677],[51.6709,30.6473],[51.6411,30.7722],[51.3732,30.9745],[51.3108,31.164]]]}},{"type":"Feature","properties":{"sourceId":"1159314269","regionId":"region.66946b10-aeb9-444d-a889-2c829e43d535","countryId":"country.yc1r8r"},"geometry":{"type":"Polygon","coordinates":[[[52.8707,31.5975],[52.5277,31.5132],[52.2306,31.555],[52.1422,31.7125],[51.8233,31.5377],[51.7017,31.4449],[51.8427,31.3874],[51.8716,31.3201],[51.827,31.1497],[51.7424,30.9687],[51.7453,30.7901],[51.6411,30.7722],[51.6709,30.6473],[51.6402,30.5677],[51.5356,30.5295],[51.2298,30.6502],[51.1334,30.6527],[51.2015,30.391],[51.1791,30.3007],[50.9122,30.1657],[50.6015,30.1448],[50.6283,30.0212],[50.7396,29.8699],[51.0176,29.8366],[51.1548,29.798],[51.4105,29.4695],[51.5788,29.3728],[52.0277,28.6324],[52.1974,28.1773],[52.3753,28.0301],[52.5109,27.7614],[52.771,27.5099],[52.9709,27.382],[53.0715,27.2731],[53.2946,27.2554],[53.4503,27.1711],[53.5489,27.1877],[53.8548,27.1394],[53.9589,27.1887],[54.0107,27.4022],[54.1584,27.4822],[54.4251,27.504],[54.5332,27.4822],[54.6741,27.5199],[54.9408,27.4864],[55.1235,27.5692],[55.1952,27.7128],[55.3317,27.7778],[55.5341,27.8221],[55.5573,27.9032],[55.425,28.0335],[55.4755,28.2705],[55.4608,28.4458],[55.1601,28.7021],[55.1874,28.7984],[55.1297,28.9507],[54.9275,29.3897],[54.5955,29.4546],[54.4573,29.6944],[54.4302,29.7932],[54.2272,29.8829],[54.0718,29.9843],[54.0076,30.2632],[53.8046,30.4991],[53.6384,30.7552],[53.4049,31.2615],[53.1252,31.5139],[52.8707,31.5975]]]}},{"type":"Feature","properties":{"sourceId":"1159314325","regionId":"region.098febe1-2a46-4024-96fa-a95921abf4ab","countryId":"country.yc1r8r"},"geometry":{"type":"Polygon","coordinates":[[[55.1297,28.9507],[55.3953,28.9003],[55.5284,28.7887],[55.6683,28.754],[55.8684,28.887],[56.0442,28.9022],[56.0592,28.3495],[56.1486,28.2479],[56.3373,28.1234],[56.4562,28.1072],[56.6379,28.1687],[56.8227,28.3244],[56.9814,28.2776],[57.0168,28.0038],[57.1339,27.9392],[57.2879,27.7486],[57.2493,27.647],[57.3564,27.4783],[57.3877,27.104],[57.408,27.0461],[57.815,26.8469],[57.9929,26.9395],[58.1952,26.7858],[58.13,26.7263],[58.0699,26.2175],[58.3733,26.2319],[58.5092,26.2003],[58.5906,26.0522],[58.7418,26.0899],[58.8631,26.0102],[58.947,26.2866],[58.8852,26.42],[58.9422,26.5002],[58.893,26.5835],[58.9494,26.7026],[58.8206,26.8766],[58.7749,27.2294],[58.8901,27.6308],[58.8966,28.0917],[59.0119,28.2247],[59.0429,28.3152],[58.888,28.4714],[59.0596,28.5326],[59.3667,28.7109],[59.3286,28.8406],[59.3273,29.0536],[59.4111,29.1655],[59.4446,29.3517],[59.41,29.563],[59.3013,29.6984],[59.3103,29.7815],[59.5154,30.6066],[59.1163,31.1062],[58.9729,31.1979],[57.8347,31.6373],[56.7616,32.0301],[56.6341,32.0492],[56.5664,31.9789],[56.3585,31.879],[56.2878,31.8151],[55.7568,31.5763],[55.7123,31.4952],[55.6845,31.1109],[55.515,31.0468],[55.3264,31.0248],[55.1165,31.0432],[54.5544,30.9578],[54.4203,30.7979],[54.4006,30.6755],[54.6038,30.2974],[54.5912,29.9731],[54.6167,29.848],[54.4302,29.7932],[54.4573,29.6944],[54.5955,29.4546],[54.9275,29.3897],[55.1297,28.9507]]]}},{"type":"Feature","properties":{"sourceId":"1159314299","regionId":"region.2cb5d367-9247-48d8-bde8-f7da29330b79","countryId":"country.yc1r8r"},"geometry":{"type":"Polygon","coordinates":[[[49.4405,35.4376],[49.1178,35.4927],[49.0798,35.573],[48.9585,35.6508],[48.8025,35.6358],[48.6909,35.5558],[48.5191,35.6115],[48.3044,35.6175],[48.2257,35.6902],[47.9687,35.5753],[47.8904,35.6621],[47.7995,35.5872],[47.9769,35.3064],[48.124,35.1902],[48.1515,35.0978],[48.0964,34.9768],[47.9795,34.9953],[47.8515,34.9512],[47.6412,34.6375],[47.9985,34.5435],[47.9901,34.431],[47.7482,34.424],[47.694,34.3497],[48.212,34.0588],[48.5006,34.0316],[48.698,34.0859],[48.971,33.9891],[49.0958,34.1105],[49.0561,34.2843],[48.9851,34.3998],[48.9599,34.5682],[49.1016,34.6015],[49.0882,34.7488],[49.1404,34.9094],[49.4088,34.905],[49.4269,34.7936],[49.5669,34.7676],[49.4721,34.9716],[49.2685,35.0349],[49.3971,35.1479],[49.3211,35.3217],[49.4681,35.3143],[49.4405,35.4376]]]}},{"type":"Feature","properties":{"sourceId":"1159314287","regionId":"region.63459c07-d502-4486-94d5-72d5311e19a1","countryId":"country.yc1r8r"},"geometry":{"type":"Polygon","coordinates":[[[50.0015,33.4987],[49.8312,33.6677],[49.7466,33.5754],[49.564,33.7042],[49.5897,33.7891],[49.4637,33.8867],[49.3139,33.826],[49.2798,33.7387],[49.1809,33.68],[48.9235,33.7416],[48.971,33.9891],[48.698,34.0859],[48.5006,34.0316],[48.212,34.0588],[47.694,34.3497],[47.577,34.3404],[47.5774,34.208],[47.3997,34.1607],[47.3862,34.0378],[47.4265,33.8975],[47.3137,33.7996],[46.9636,33.7175],[46.8266,33.5614],[47.2449,33.2513],[47.4654,33.1595],[47.7059,32.9208],[47.8988,32.6015],[47.9535,32.669],[48.0901,32.9713],[48.1442,33.006],[48.5674,33.0447],[48.7849,32.9608],[49.0063,32.942],[49.2393,32.807],[49.4532,32.8088],[49.6206,32.9265],[49.696,33.1019],[49.8446,33.1369],[49.9774,33.3612],[50.0015,33.4987]]]}},{"type":"Feature","properties":{"sourceId":"1159314281","regionId":"region.e46bc095-c6bf-4a3a-941e-0a54e4eef105","countryId":"country.yc1r8r"},"geometry":{"type":"Polygon","coordinates":[[[55.3752,34.3419],[55.3864,33.6655],[55.2746,33.4706],[55.0401,33.3857],[54.9863,33.33],[54.8699,33.0273],[54.709,32.9201],[53.6507,32.6129],[53.334,32.6741],[53.1646,32.6403],[52.8762,32.472],[52.9049,32.1646],[52.8271,31.7444],[52.8707,31.5975],[53.1252,31.5139],[53.4049,31.2615],[53.6384,30.7552],[53.8046,30.4991],[54.0076,30.2632],[54.0718,29.9843],[54.2272,29.8829],[54.4302,29.7932],[54.6167,29.848],[54.5912,29.9731],[54.6038,30.2974],[54.4006,30.6755],[54.4203,30.7979],[54.5544,30.9578],[55.1165,31.0432],[55.3264,31.0248],[55.515,31.0468],[55.6845,31.1109],[55.7123,31.4952],[55.7568,31.5763],[56.2878,31.8151],[56.3585,31.879],[56.5664,31.9789],[56.6341,32.0492],[56.7616,32.0301],[57.8347,31.6373],[58.0407,31.9945],[58.1739,32.146],[58.2244,32.3525],[58.1004,32.5681],[58.1477,32.7486],[58.0406,32.8711],[57.7822,32.9968],[57.717,33.1217],[57.6423,33.5441],[57.5599,33.6532],[57.3044,33.6037],[57.1058,33.6236],[57.0589,33.6853],[56.9967,33.9735],[57.0048,34.1426],[57.1308,34.4563],[57.1989,34.5577],[57.5952,34.7888],[57.692,34.8669],[57.6712,34.9939],[57.3796,35.1773],[57.2684,35.2013],[57.0166,35.1483],[56.6192,34.9937],[56.2105,34.9061],[55.8509,34.4073],[55.7411,34.3603],[55.4847,34.3652],[55.3752,34.3419]]]}},{"type":"Feature","properties":{"sourceId":"1159314297","regionId":"region.ba9a1f32-4e28-4caa-b728-182b642410e0","countryId":"country.yc1r8r"},"geometry":{"type":"Polygon","coordinates":[[[51.7889,34.542],[51.8932,34.754],[51.8823,34.8755],[51.3124,35.154],[51.0722,35.2133],[50.7847,35.2184],[50.723,35.1079],[50.6937,34.916],[50.154,34.7815],[50.1628,34.672],[50.06,34.5771],[50.2934,34.438],[50.3287,34.3179],[50.4412,34.2248],[50.6993,34.2049],[51.033,34.1058],[50.9837,34.1616],[51.0138,34.3579],[51.1584,34.4525],[51.4517,34.4697],[51.7889,34.542]]]}},{"type":"Feature","properties":{"sourceId":"1159314279","regionId":"region.ddf39f58-09f9-4f4e-81f7-15c98ba6aef6","countryId":"country.yc1r8r"},"geometry":{"type":"Polygon","coordinates":[[[50.7847,35.2184],[51.0722,35.2133],[51.3124,35.154],[51.8823,34.8755],[51.9806,35.1252],[51.8225,35.3153],[51.8534,35.5555],[51.9821,35.5443],[52.2197,35.4142],[52.675,35.3362],[52.8883,35.4102],[53.0472,35.5284],[53.0794,35.6181],[53.0347,35.8311],[52.9014,35.8897],[52.8163,35.8683],[52.3985,35.9762],[52.177,35.79],[51.9502,35.7998],[51.7544,36.011],[51.465,36.0647],[51.3569,36.1163],[51.3536,36.0175],[51.1357,35.9731],[51.0591,35.8037],[50.9421,35.7392],[50.7987,35.6048],[50.8712,35.4472],[50.7847,35.2184]]]}},{"type":"Feature","properties":{"sourceId":"1159317125","regionId":"region.455c80e0-6cfe-4ec8-99e2-4eb991009535","countryId":"country.yc1r8r"},"geometry":{"type":"Polygon","coordinates":[[[50.2855,35.666],[50.582,35.6501],[50.651,35.6765],[50.7987,35.6048],[50.9421,35.7392],[51.0591,35.8037],[51.1357,35.9731],[51.3536,36.0175],[51.3569,36.1163],[51.292,36.1781],[51.086,36.2223],[51.0299,36.2718],[50.801,36.3187],[50.5631,36.3392],[50.4208,36.2964],[50.6259,36.1648],[50.5345,35.9608],[50.2977,35.854],[50.2386,35.741],[50.2855,35.666]]]}}]}