{"type":"FeatureCollection","features":[{"type":"Feature","properties":{"sourceId":"1159309031","regionId":"region.a208eb24-0986-4a88-a10d-be783b5b48f4","countryId":"country.1w9qxht"},"geometry":{"type":"Polygon","coordinates":[[[11.3221,2.1658],[11.3516,2.3006],[11.6712,2.321],[11.7528,2.2819],[12.2026,2.2796],[12.334,2.3096],[12.7499,2.2367],[12.8082,2.264],[13.0835,2.2495],[13.2429,2.2715],[13.2946,2.1611],[13.6623,2.1578],[13.6209,2.9063],[13.4316,2.7856],[13.3115,2.8402],[13.0753,2.8533],[12.8353,2.9028],[12.7641,2.9811],[12.7356,3.1875],[12.5515,3.4382],[12.5694,3.5584],[12.4664,3.6592],[12.2571,3.4573],[12.2228,3.3297],[12.1181,3.3561],[11.8993,3.462],[11.8594,3.3899],[11.7495,3.3292],[11.6946,3.2067],[11.5377,3.1454],[11.2173,3.1344],[11.1068,3.2693],[11.0371,3.4156],[10.8478,3.4163],[10.7151,3.4673],[10.3744,3.3671],[10.2886,3.3579],[10.2476,3.5544],[10.1907,3.6041],[10.0652,3.5017],[10.0249,3.3437],[9.9295,3.269],[9.958,3.0822],[9.8778,2.8814],[9.8743,2.7545],[9.8229,2.5629],[9.7996,2.3417],[9.8109,2.2649],[9.991,2.1656],[10.19,2.1656],[10.4097,2.1657],[11.3221,2.1658]]]}},{"type":"Feature","properties":{"sourceId":"1159310209","regionId":"region.c82b3f28-27e7-4fb5-8fbb-385346a251bc","countryId":"country.1w9qxht"},"geometry":{"type":"Polygon","coordinates":[[[14.481,13.0005],[14.4182,13.0811],[14.0649,13.078],[14.1774,12.5456],[14.1798,12.3856],[14.5144,12.3235],[14.5485,12.2416],[14.6699,12.1674],[14.6043,12.0304],[14.6234,11.9165],[14.5465,11.7186],[14.6214,11.6298],[14.5938,11.4964],[14.3682,11.383],[14.1655,11.2383],[13.9823,11.2763],[13.7549,11.0167],[13.7498,10.9424],[13.5663,10.679],[13.5013,10.4963],[13.4349,10.1534],[13.3927,10.117],[13.4499,10.0632],[13.6569,10.1115],[13.6805,10.2209],[13.928,10.202],[14.0556,10.0927],[14.1938,10.0586],[14.1963,9.9791],[14.4405,9.9953],[14.7325,9.9238],[14.8981,9.9605],[15.0612,9.9492],[15.2149,9.9841],[15.383,9.9302],[15.6812,9.9913],[15.5361,10.0805],[15.3014,10.3117],[15.2183,10.4872],[15.1382,10.5217],[15.1499,10.6231],[15.0659,10.7931],[15.079,10.8981],[15.0288,11.0802],[15.0283,11.2445],[15.0606,11.4161],[15.1356,11.5308],[15.0683,11.7001],[15.1109,11.7829],[15.042,11.9024],[15.0406,12.0556],[15.0118,12.1086],[14.9031,12.1459],[14.9049,12.2487],[14.9083,12.3269],[14.8308,12.6182],[14.604,12.7608],[14.4906,12.8863],[14.481,13.0005]]]}},{"type":"Feature","properties":{"sourceId":"1159311509","regionId":"region.04d36b5e-ba0c-4a98-b055-08b15c163c2b","countryId":"country.1w9qxht"},"geometry":{"type":"Polygon","coordinates":[[[14.1963,9.9791],[14.1938,10.0586],[14.0556,10.0927],[13.928,10.202],[13.6805,10.2209],[13.6569,10.1115],[13.4499,10.0632],[13.3927,10.117],[13.248,10.0794],[13.2127,9.8701],[13.2629,9.8017],[13.1955,9.5422],[12.9824,9.4746],[12.862,9.3829],[12.8884,9.2267],[12.8221,9.0968],[12.8057,8.8315],[12.6604,8.6593],[12.558,8.6057],[12.377,8.5951],[12.4039,8.4965],[12.227,8.3863],[12.2337,8.1885],[12.4785,7.9476],[12.6163,7.9176],[12.6539,7.7444],[12.8357,7.6727],[12.9959,7.6492],[13.096,7.6],[13.252,7.6076],[13.2949,7.708],[13.5112,7.5924],[13.6605,7.657],[13.8369,7.6735],[13.9297,7.5924],[14.1038,7.5738],[14.2238,7.4003],[14.3215,7.3106],[14.3451,7.173],[14.4652,7.1708],[14.5597,7.0772],[14.6807,7.024],[15.0106,7.1757],[15.2466,7.2667],[15.4328,7.3897],[15.481,7.5233],[15.549,7.6308],[15.5629,7.7924],[15.4407,7.8394],[15.3453,8.136],[15.2107,8.4218],[15.0313,8.6587],[14.846,8.811],[14.7939,8.8136],[14.3495,9.1684],[14.3213,9.2432],[14.0365,9.5688],[13.9476,9.6378],[14.0885,9.8096],[14.1963,9.9791]]]}},{"type":"Feature","properties":{"sourceId":"1159311507","regionId":"region.06af0f34-28e3-4b7f-a594-482c5e4944f9","countryId":"country.1w9qxht"},"geometry":{"type":"Polygon","coordinates":[[[11.9035,7.4536],[11.7827,7.3045],[11.7802,7.2411],[11.8813,7.102],[11.6232,6.9323],[11.5381,6.8239],[11.5715,6.7662],[11.5098,6.6123],[11.4168,6.572],[11.3894,6.4739],[11.2023,6.4367],[11.1877,6.2909],[11.2958,6.2539],[11.2917,5.9929],[11.6161,6.0696],[11.7886,6.1931],[11.9747,6.2586],[12.0647,6.1794],[12.3122,6.1957],[12.5227,6.0023],[12.8829,6],[13.7617,6.0032],[13.9582,6.0539],[14.0574,6.0348],[14.3511,6.085],[14.4327,6.0791],[14.535,6.1901],[14.719,6.2579],[14.9219,6.6864],[15.0422,6.7908],[15.1854,7.1569],[15.2466,7.2667],[15.0106,7.1757],[14.6807,7.024],[14.5597,7.0772],[14.4652,7.1708],[14.3451,7.173],[14.3215,7.3106],[14.2238,7.4003],[14.1038,7.5738],[13.9297,7.5924],[13.8369,7.6735],[13.6605,7.657],[13.5112,7.5924],[13.2949,7.708],[13.252,7.6076],[13.096,7.6],[12.9959,7.6492],[12.8357,7.6727],[12.6539,7.7444],[12.6163,7.9176],[12.4785,7.9476],[12.2337,8.1885],[12.1883,8.1178],[12.1978,7.9752],[12.055,7.7839],[12.025,7.5966],[11.9035,7.4536]]]}},{"type":"Feature","properties":{"sourceId":"1159310213","regionId":"region.8cc0eaed-cf71-4846-a046-e98dc886c728","countryId":"country.1w9qxht"},"geometry":{"type":"Polygon","coordinates":[[[9.694,6.5343],[9.8057,6.2658],[9.7826,6.1328],[9.6095,6.0393],[9.6052,5.9274],[9.6746,5.8492],[9.9197,5.7333],[10.0957,5.7284],[10.1756,5.7823],[10.6025,5.8452],[10.6934,6.0237],[10.8377,6.0075],[10.9962,6.1102],[11.0113,6.2445],[11.1877,6.2909],[11.2023,6.4367],[11.0971,6.4491],[11.0559,6.7004],[11.0026,6.7673],[10.8775,6.8161],[10.8319,6.9452],[10.6025,7.0581],[10.496,6.8747],[10.2384,6.871],[10.1195,6.9944],[9.8746,6.7877],[9.7698,6.7737],[9.694,6.5343]]]}},{"type":"Feature","properties":{"sourceId":"1159309029","regionId":"region.6505764f-2aab-4789-a958-17b053c8ac4e","countryId":"country.1w9qxht"},"geometry":{"type":"Polygon","coordinates":[[[9.6448,6.5212],[9.4886,6.4182],[9.3274,6.2985],[9.2733,6.2028],[8.9885,5.9373],[8.8559,5.8475],[8.8193,5.7035],[8.8937,5.6218],[8.7989,5.1596],[8.7583,5.1349],[8.6022,4.8813],[8.5942,4.8153],[8.5051,4.5509],[8.5767,4.4919],[8.7017,4.5013],[8.8719,4.6025],[8.919,4.3181],[8.991,4.2175],[8.9712,4.1008],[9.1234,4.0179],[9.2844,3.9923],[9.3316,3.9219],[9.4529,4.077],[9.5028,4.1023],[9.5621,4.1653],[9.4395,4.2434],[9.5165,4.4075],[9.5222,4.5561],[9.6454,4.6851],[9.7944,4.9125],[9.767,4.9606],[9.8501,5.0878],[9.7584,5.2971],[9.8704,5.3571],[9.9596,5.5508],[10.0957,5.7284],[9.9197,5.7333],[9.6746,5.8492],[9.6052,5.9274],[9.6095,6.0393],[9.7826,6.1328],[9.8057,6.2658],[9.694,6.5343],[9.6448,6.5212]]]}},{"type":"Feature","properties":{"sourceId":"1159311505","regionId":"region.2b254247-ddae-4a21-a337-45c4c03757f5","countryId":"country.1w9qxht"},"geometry":{"type":"Polygon","coordinates":[[[16.1967,2.2365],[16.0903,2.5105],[16.1115,2.5862],[16.0626,2.7032],[16.0924,2.8633],[15.982,2.9767],[15.914,3.098],[15.7856,3.108],[15.2623,3.6626],[15.0849,3.8858],[15.1026,4.1124],[15.0728,4.2659],[15.0006,4.4032],[14.7797,4.545],[14.7173,4.622],[14.6601,5.0114],[14.6632,5.1418],[14.6245,5.224],[14.5239,5.2797],[14.5973,5.4115],[14.5928,5.6239],[14.6311,5.738],[14.5848,5.9234],[14.4821,5.9096],[14.3977,6.0192],[14.4327,6.0791],[14.3511,6.085],[14.0574,6.0348],[13.9582,6.0539],[13.7617,6.0032],[12.8829,6],[12.8762,5.9068],[13.0677,5.5574],[12.9741,5.3279],[12.9028,5.229],[13.0471,5.0591],[13.046,4.9863],[13.1869,4.9226],[13.2379,4.8126],[13.2103,4.5879],[12.9707,4.5783],[12.8772,4.5096],[12.769,4.1373],[12.796,4.0667],[12.6571,3.9521],[12.5086,3.8795],[12.612,3.7512],[12.5694,3.5584],[12.5515,3.4382],[12.7356,3.1875],[12.7641,2.9811],[12.8353,2.9028],[13.0753,2.8533],[13.3115,2.8402],[13.4316,2.7856],[13.6209,2.9063],[13.6623,2.1578],[14.267,2.1524],[14.4187,2.1353],[14.5621,2.2088],[14.7057,2.1055],[14.8715,2.1017],[14.963,2.0104],[15.0916,1.9844],[15.2337,2.0313],[15.3492,1.9233],[15.4829,1.9759],[15.7647,1.9087],[15.8899,1.7933],[16.0263,1.7523],[16.0699,1.6546],[16.159,1.7348],[16.0649,1.979],[16.1044,2.1936],[16.1967,2.2365]]]}},{"type":"Feature","properties":{"sourceId":"1159310211","regionId":"region.ffeaf0d9-6ec5-4ef7-b4d2-001feac255b3","countryId":"country.1w9qxht"},"geometry":{"type":"MultiPolygon","coordinates":[[[[9.4529,4.077],[9.3316,3.9219],[9.4483,3.9057],[9.4529,4.077]]],[[[9.9295,3.269],[10.0249,3.3437],[10.0652,3.5017],[10.1907,3.6041],[10.2476,3.5544],[10.334,3.5895],[10.3859,3.7918],[10.4643,3.8406],[10.5947,3.7448],[10.6529,3.8058],[10.6534,3.9318],[10.7213,4.0599],[11.05,4.1687],[11.1212,4.219],[11.0039,4.3318],[10.9218,4.4991],[10.924,4.6206],[10.8219,4.6215],[10.7741,4.5142],[10.7069,4.5228],[10.5503,4.4397],[10.4044,4.5517],[10.487,4.6603],[10.4861,4.7518],[10.3713,4.7643],[10.5036,4.9084],[10.4333,4.9554],[10.3744,5.089],[10.2602,5.0797],[10.1196,4.9269],[9.995,5.1283],[9.9768,5.2512],[9.8634,5.2837],[9.8704,5.3571],[9.7584,5.2971],[9.8501,5.0878],[9.767,4.9606],[9.7944,4.9125],[9.6454,4.6851],[9.5222,4.5561],[9.5165,4.4075],[9.4395,4.2434],[9.5621,4.1653],[9.5028,4.1023],[9.5266,4.0358],[9.6399,4.0088],[9.6898,3.8606],[9.6243,3.7502],[9.6421,3.539],[9.7809,3.4368],[9.9295,3.269]]]]}},{"type":"Feature","properties":{"sourceId":"1159309027","regionId":"region.dde0600b-d579-47bb-a069-16a8614e0fcd","countryId":"country.1w9qxht"},"geometry":{"type":"Polygon","coordinates":[[[11.1877,6.2909],[11.0113,6.2445],[10.9962,6.1102],[10.8377,6.0075],[10.6934,6.0237],[10.6025,5.8452],[10.1756,5.7823],[10.0957,5.7284],[9.9596,5.5508],[9.8704,5.3571],[9.8634,5.2837],[9.9768,5.2512],[9.995,5.1283],[10.1196,4.9269],[10.2602,5.0797],[10.3744,5.089],[10.4333,4.9554],[10.5036,4.9084],[10.6076,4.8994],[10.7974,5.0158],[10.946,4.9694],[11.003,5.1438],[11.0747,5.2149],[11.0786,5.3043],[11.183,5.4026],[11.2108,5.6836],[11.3105,5.8043],[11.2592,5.9238],[11.2917,5.9929],[11.2958,6.2539],[11.1877,6.2909]]]}},{"type":"Feature","properties":{"sourceId":"1159310215","regionId":"region.13ebc7ef-1931-4deb-80f3-28a03e2872d5","countryId":"country.1w9qxht"},"geometry":{"type":"Polygon","coordinates":[[[12.8829,6],[12.5227,6.0023],[12.3122,6.1957],[12.0647,6.1794],[11.9747,6.2586],[11.7886,6.1931],[11.6161,6.0696],[11.2917,5.9929],[11.2592,5.9238],[11.3105,5.8043],[11.2108,5.6836],[11.183,5.4026],[11.0786,5.3043],[11.0747,5.2149],[11.003,5.1438],[10.946,4.9694],[10.7974,5.0158],[10.6076,4.8994],[10.5036,4.9084],[10.3713,4.7643],[10.4861,4.7518],[10.487,4.6603],[10.4044,4.5517],[10.5503,4.4397],[10.7069,4.5228],[10.7741,4.5142],[10.8219,4.6215],[10.924,4.6206],[10.9218,4.4991],[11.0039,4.3318],[11.1212,4.219],[11.05,4.1687],[10.7213,4.0599],[10.6534,3.9318],[10.6529,3.8058],[10.5947,3.7448],[10.4643,3.8406],[10.3859,3.7918],[10.334,3.5895],[10.2476,3.5544],[10.2886,3.3579],[10.3744,3.3671],[10.7151,3.4673],[10.8478,3.4163],[11.0371,3.4156],[11.1068,3.2693],[11.2173,3.1344],[11.5377,3.1454],[11.6946,3.2067],[11.7495,3.3292],[11.8594,3.3899],[11.8993,3.462],[12.1181,3.3561],[12.2228,3.3297],[12.2571,3.4573],[12.4664,3.6592],[12.5694,3.5584],[12.612,3.7512],[12.5086,3.8795],[12.6571,3.9521],[12.796,4.0667],[12.769,4.1373],[12.8772,4.5096],[12.9707,4.5783],[13.2103,4.5879],[13.2379,4.8126],[13.1869,4.9226],[13.046,4.9863],[13.0471,5.0591],[12.9028,5.229],[12.9741,5.3279],[13.0677,5.5574],[12.8762,5.9068],[12.8829,6]]]}}]}