{"type":"FeatureCollection","features":[{"type":"Feature","properties":{"sourceId":"1159308413","regionId":"region.b9ec6948-688c-4264-bedb-5da80337e0d3","countryId":"country.b4jfbk"},"geometry":{"type":"Polygon","coordinates":[[[34.2484,31.2114],[34.2003,31.3143],[34.047,31.2292],[33.648,31.1173],[33.4995,31.1281],[33.1877,31.0617],[33.0986,31.1895],[32.9688,31.0865],[32.7313,31.0388],[32.5997,31.0615],[32.6021,30.9737],[32.654,30.5],[32.7987,30.254],[32.8299,29.9576],[32.8548,29.9138],[33.1303,29.9252],[33.7683,29.827],[34.0244,29.7072],[34.4682,29.5465],[34.8855,29.4895],[34.8867,29.4901],[34.8244,29.7417],[34.5995,30.3445],[34.5338,30.4002],[34.4804,30.6512],[34.2484,31.2114]]]}},{"type":"Feature","properties":{"sourceId":"1159310485","regionId":"region.fb53c0ae-49bd-4b80-831b-a0caca56f2ec","countryId":"country.b4jfbk"},"geometry":{"type":"Polygon","coordinates":[[[31.4947,21.9954],[31.5914,22.1036],[31.9446,22.2786],[32.0442,22.3724],[32.1091,22.5421],[32.1587,22.5829],[32.3128,22.4691],[32.5373,22.4993],[32.7751,22.723],[32.8378,22.9275],[32.991,22.8409],[33.1448,22.8306],[33.2902,22.7093],[33.3315,22.7431],[33.2251,22.9524],[33.0618,23.0713],[33.1678,23.2088],[33.2119,23.3436],[33.14,23.5314],[33.1684,23.6309],[33.1464,23.7676],[33.0597,23.8536],[33.0004,23.9851],[32.9721,24.1559],[33.0114,24.3211],[33.1315,24.5238],[33.0236,24.7297],[32.9796,25.0312],[32.9076,25.129],[32.7048,25.2699],[32.6539,25.1457],[32.7912,25.0562],[32.9303,24.649],[32.8835,24.53],[32.8707,24.1991],[32.8311,24.0378],[32.672,24.0158],[32.6387,23.9267],[32.7634,23.8072],[32.5498,23.7335],[32.479,23.6511],[32.4264,23.4489],[32.501,23.4058],[32.7358,23.4209],[32.7471,23.3345],[32.6337,23.2155],[32.436,22.7727],[32.1522,22.8629],[31.834,22.7226],[31.6783,22.7403],[31.5936,22.6484],[31.6203,22.5027],[31.527,22.3494],[31.3025,22.2805],[31.2251,22.1969],[31.3144,22.1023],[31.4041,22.2238],[31.4906,22.1482],[31.4947,21.9954]]]}},{"type":"Feature","properties":{"sourceId":"1159310441","regionId":"region.30766ffd-bb98-4bdd-ad9b-f9a1e09d1185","countryId":"country.b4jfbk"},"geometry":{"type":"Polygon","coordinates":[[[32.5245,21.9954],[33.1598,21.9954],[34.3231,21.9955],[35.4864,21.9956],[36.8836,21.9957],[36.8954,22.0661],[36.7137,22.1691],[36.5628,22.2967],[36.4398,22.3564],[36.4281,22.426],[36.3134,22.4916],[36.1978,22.6517],[35.886,22.7357],[35.6953,22.9321],[35.6546,23.0738],[35.5747,23.2126],[35.5414,23.4096],[35.4894,23.497],[35.5101,23.7564],[35.4748,23.7979],[35.5139,23.9771],[35.6845,23.9109],[35.7175,23.9934],[35.6053,24.0188],[35.4938,24.1089],[35.3919,24.2828],[35.2355,24.4001],[34.9898,24.905],[34.6819,25.4287],[34.5466,25.725],[34.3387,26.0018],[34.014,26.6116],[33.9414,26.6535],[33.9458,26.8178],[34.0036,26.8489],[33.8368,27.1208],[33.8254,27.2597],[33.6917,27.3419],[33.633,27.4958],[33.5579,27.5368],[33.5227,27.7519],[33.5762,27.8505],[33.5125,27.9591],[33.3381,28.0854],[33.1265,28.2875],[33.0029,28.4895],[32.8689,28.5789],[32.8206,28.7479],[32.6255,28.9727],[32.6562,29.1206],[32.5599,29.1197],[32.1665,28.9739],[31.8691,28.9682],[31.5011,29.0659],[31.433,29.1031],[31.2553,29.2988],[31.1906,29.0818],[30.9929,28.846],[30.9442,28.7157],[30.9124,28.4718],[30.8154,28.2587],[30.8917,28.0427],[30.9592,27.7157],[30.9412,27.6201],[30.9842,27.4184],[31.2367,27.3172],[31.4749,27.0833],[31.619,26.8332],[31.831,26.69],[31.9885,26.4077],[32.1553,26.3468],[32.3075,26.1582],[32.5398,26.2517],[32.7625,26.2383],[32.8803,26.1368],[32.9311,25.9355],[32.864,25.7628],[32.6606,25.5719],[32.6211,25.4846],[32.6402,25.3566],[32.7048,25.2699],[32.9076,25.129],[32.9796,25.0312],[33.0236,24.7297],[33.1315,24.5238],[33.0114,24.3211],[32.9721,24.1559],[33.0004,23.9851],[33.0597,23.8536],[33.1464,23.7676],[33.1684,23.6309],[33.14,23.5314],[33.2119,23.3436],[33.1678,23.2088],[33.0618,23.0713],[33.2251,22.9524],[33.3315,22.7431],[33.2902,22.7093],[33.1448,22.8306],[32.991,22.8409],[32.8378,22.9275],[32.7751,22.723],[32.5373,22.4993],[32.3128,22.4691],[32.1587,22.5829],[32.1091,22.5421],[32.0442,22.3724],[31.9446,22.2786],[31.5914,22.1036],[31.4947,21.9954],[32.5245,21.9954]]]}},{"type":"Feature","properties":{"sourceId":"1159310467","regionId":"region.3a6c3cc3-5e0a-4fe3-8736-80d93a48a609","countryId":"country.b4jfbk"},"geometry":{"type":"Polygon","coordinates":[[[24.9812,28.0967],[24.9812,27.6665],[27.3248,27.6679],[27.7571,28.4836],[27.9062,28.5929],[28.6992,28.7751],[28.901,28.9089],[29.5506,29.4828],[30.3286,29.8982],[29.6718,30.252],[29.6249,30.3371],[29.5981,31.0095],[29.2189,30.838],[29.0281,30.8271],[28.818,30.9512],[28.405,31.0865],[28.3184,31.0598],[27.8971,31.1144],[27.8633,31.2335],[27.6603,31.1802],[27.478,31.2139],[27.3835,31.2685],[27.3206,31.381],[27.1174,31.3904],[26.9655,31.4497],[26.3622,31.5219],[25.9668,31.6166],[25.8241,31.6149],[25.4019,31.5032],[25.1909,31.5315],[25.1509,31.6565],[25.0237,31.4944],[24.8613,31.3804],[24.8595,31.146],[24.8896,31.0188],[24.9949,30.7851],[24.9077,30.4987],[24.7724,30.331],[24.6883,30.1442],[24.8116,29.8909],[24.8049,29.7548],[24.8707,29.6383],[24.8738,29.4683],[24.9812,29.1814],[24.9812,28.0967]]]}},{"type":"Feature","properties":{"sourceId":"1159310489","regionId":"region.bc7ec4ae-4708-424a-9920-88c6fc45e80e","countryId":"country.b4jfbk"},"geometry":{"type":"Polygon","coordinates":[[[24.9812,27.0492],[24.9812,26.0808],[24.9812,25.2054],[24.9812,24.6217],[24.9812,23.7463],[24.9812,22.8708],[24.9812,21.9954],[26.3438,21.9951],[27.317,21.9949],[28.2903,21.9948],[29.4582,21.9946],[30.4315,21.9945],[31.2484,21.9944],[31.3144,22.1023],[31.2251,22.1969],[31.3025,22.2805],[31.527,22.3494],[31.6203,22.5027],[31.5936,22.6484],[31.6783,22.7403],[31.834,22.7226],[32.1522,22.8629],[32.436,22.7727],[32.6337,23.2155],[32.7471,23.3345],[32.7358,23.4209],[32.501,23.4058],[32.4264,23.4489],[32.479,23.6511],[32.5498,23.7335],[32.7634,23.8072],[32.6387,23.9267],[32.672,24.0158],[32.8311,24.0378],[32.8707,24.1991],[32.8835,24.53],[32.9303,24.649],[32.7912,25.0562],[32.6539,25.1457],[32.5043,25.2964],[32.443,25.5971],[32.632,25.7632],[32.7481,26.0012],[32.7273,26.0865],[32.5916,26.0973],[32.3611,26.0001],[32.2241,25.9701],[32.1108,26.0054],[31.9523,26.1399],[31.534,26.6106],[31.3,26.8374],[31.1743,27.0642],[31.0804,27.1495],[30.9394,27.209],[30.7737,27.3601],[30.681,27.5366],[30.6712,27.634],[30.6878,27.6676],[28.6532,27.6679],[27.3248,27.6679],[24.9812,27.6665],[24.9812,27.0492]]]}},{"type":"Feature","properties":{"sourceId":"1159310459","regionId":"region.9273e950-45be-4b5b-9cf9-6ac43586ae1b","countryId":"country.b4jfbk"},"geometry":{"type":"Polygon","coordinates":[[[32.6518,29.79],[32.8548,29.9138],[32.8299,29.9576],[32.7987,30.254],[32.6087,30.2656],[32.4643,30.2048],[32.2476,30.243],[31.8873,30.2324],[31.9364,29.8725],[31.9289,29.7832],[31.9327,29.7368],[31.8691,28.9682],[32.1665,28.9739],[32.5599,29.1197],[32.6562,29.1206],[32.5915,29.3495],[32.3877,29.5256],[32.3377,29.5999],[32.3928,29.7344],[32.5635,29.9724],[32.6518,29.79]]]}},{"type":"Feature","properties":{"sourceId":"1159310497","regionId":"region.4a7f9a9f-9777-4438-adcc-e79588324ebb","countryId":"country.b4jfbk"},"geometry":{"type":"Polygon","coordinates":[[[34.8855,29.4895],[34.4682,29.5465],[34.0244,29.7072],[33.7683,29.827],[33.1303,29.9252],[32.8548,29.9138],[32.6518,29.79],[32.6808,29.5999],[32.7415,29.456],[32.8172,29.414],[32.8856,29.2431],[33.145,29.0317],[33.1948,28.6751],[33.2287,28.5694],[33.4339,28.3664],[33.5647,28.2971],[33.7634,28.024],[33.9876,27.8867],[34.0785,27.8007],[34.2395,27.7941],[34.4274,27.9831],[34.4553,28.1675],[34.4069,28.308],[34.6335,28.7707],[34.6746,29.1065],[34.7366,29.3051],[34.8855,29.4895]]]}},{"type":"Feature","properties":{"sourceId":"1159310463","regionId":"region.5abd05a5-ab13-40cf-a26d-717976e57dff","countryId":"country.b4jfbk"},"geometry":{"type":"Polygon","coordinates":[[[32.2566,31.2888],[32.2565,31.2762],[32.2874,31.1702],[32.29,31.1138],[32.6021,30.9737],[32.5997,31.0615],[32.3314,31.2714],[32.2566,31.2888]]]}},{"type":"Feature","properties":{"sourceId":"1159310461","regionId":"region.d496aadf-552c-4fea-a934-7c2837a67dd4","countryId":"country.b4jfbk"},"geometry":{"type":"Polygon","coordinates":[[[31.7949,31.2777],[31.6122,31.3109],[31.5017,31.3743],[31.5716,31.4438],[31.3499,31.5297],[31.2517,31.4785],[31.2961,31.1402],[31.2485,31.1099],[31.2963,31.0329],[31.2309,30.814],[31.2537,30.5884],[31.3529,30.5738],[31.3611,30.7604],[31.6164,30.8392],[31.7835,31.0659],[32.0523,31.1288],[31.7949,31.2777]]]}},{"type":"Feature","properties":{"sourceId":"1159315791","regionId":"region.39ed9770-d895-4da7-a6d0-8681355fb790","countryId":"country.b4jfbk"},"geometry":{"type":"MultiPolygon","coordinates":[[[[32.1418,31.0874],[32.29,31.1138],[32.2874,31.1702],[32.1418,31.0874]]],[[[32.0523,31.1288],[31.7835,31.0659],[31.6164,30.8392],[31.3611,30.7604],[31.3529,30.5738],[31.2725,30.437],[31.3857,30.2805],[31.5939,30.1904],[31.8431,30.339],[31.8004,30.5044],[31.974,30.5596],[32.0986,30.6773],[32.1179,30.8334],[32.1944,30.9656],[32.1426,31.0803],[32.0523,31.1288]]]]}},{"type":"Feature","properties":{"sourceId":"1159310449","regionId":"region.810e7e13-f540-4318-b9af-e8a099d66d4c","countryId":"country.b4jfbk"},"geometry":{"type":"Polygon","coordinates":[[[32.1426,31.0803],[32.1944,30.9656],[32.1179,30.8334],[32.0986,30.6773],[31.974,30.5596],[31.8004,30.5044],[31.8431,30.339],[31.8873,30.2324],[32.2476,30.243],[32.4643,30.2048],[32.6087,30.2656],[32.7987,30.254],[32.654,30.5],[32.6021,30.9737],[32.29,31.1138],[32.1418,31.0874],[32.1426,31.0803]]]}},{"type":"Feature","properties":{"sourceId":"1159310465","regionId":"region.869d6f80-d69a-4746-8219-bbde64458863","countryId":"country.b4jfbk"},"geometry":{"type":"Polygon","coordinates":[[[32.0829,31.359],[32.0938,31.3657],[31.9448,31.5209],[31.9129,31.5349],[31.8379,31.5253],[31.5716,31.4438],[31.5017,31.3743],[31.6122,31.3109],[31.7949,31.2777],[31.8447,31.498],[31.918,31.524],[31.9935,31.4378],[32.0066,31.3953],[32.0829,31.359]]]}},{"type":"Feature","properties":{"sourceId":"1159310483","regionId":"region.39cbf1ad-950e-463d-a4e6-d7fedfbca5c6","countryId":"country.b4jfbk"},"geometry":{"type":"Polygon","coordinates":[[[30.3982,31.4436],[30.508,31.3399],[30.4943,31.2443],[30.6993,31.0922],[30.7636,30.9836],[31.0489,31.0343],[31.0708,31.1212],[31.2485,31.1099],[31.2961,31.1402],[31.2517,31.4785],[31.3499,31.5297],[31.0974,31.6079],[30.9969,31.4511],[30.9094,31.4238],[30.6765,31.4962],[30.3982,31.4436]]]}},{"type":"Feature","properties":{"sourceId":"1159310469","regionId":"region.b65ecf35-4cc2-420a-9010-a36c48d446fd","countryId":"country.b4jfbk"},"geometry":{"type":"Polygon","coordinates":[[[30.0985,31.2847],[30.0114,31.1487],[29.8752,31.0842],[29.9098,31.0051],[29.8744,30.8991],[30.0127,30.6983],[29.8924,30.5694],[29.7287,30.5028],[29.6249,30.3371],[29.6718,30.252],[30.3286,29.8982],[30.369,29.9708],[30.8331,30.3338],[30.8512,30.4532],[30.7961,30.6802],[30.7532,30.7755],[30.7899,30.8778],[30.7636,30.9836],[30.6993,31.0922],[30.4943,31.2443],[30.508,31.3399],[30.3982,31.4436],[30.1652,31.2168],[30.0985,31.2847]]]}},{"type":"Feature","properties":{"sourceId":"1159310473","regionId":"region.69b33efb-5eac-4cd4-b0b6-7a810760beca","countryId":"country.b4jfbk"},"geometry":{"type":"Polygon","coordinates":[[[29.5981,31.0095],[29.6249,30.3371],[29.7287,30.5028],[29.8924,30.5694],[30.0127,30.6983],[29.8744,30.8991],[29.9098,31.0051],[29.8752,31.0842],[30.0114,31.1487],[30.0985,31.2847],[30.0422,31.3205],[29.8384,31.1541],[29.5981,31.0095]]]}},{"type":"Feature","properties":{"sourceId":"1159310453","regionId":"region.16e87e07-c4ab-42bc-948f-759f5607a59d","countryId":"country.b4jfbk"},"geometry":{"type":"Polygon","coordinates":[[[31.8873,30.2324],[31.8431,30.339],[31.5939,30.1904],[31.4403,30.1844],[31.2376,30.1148],[31.2212,30.0079],[31.2888,29.8851],[31.2916,29.7599],[31.9289,29.7832],[31.9364,29.8725],[31.8873,30.2324]]]}},{"type":"Feature","properties":{"sourceId":"1159310477","regionId":"region.b50ad49e-bd34-4ab8-80d4-33c51a38c650","countryId":"country.b4jfbk"},"geometry":{"type":"Polygon","coordinates":[[[29.7492,28.7593],[29.8149,29.0884],[30.2816,29.485],[30.5363,29.6304],[30.746,29.7143],[30.9558,29.7371],[31.0305,29.6805],[31.1019,29.4001],[31.2348,29.3715],[31.2553,29.2988],[31.433,29.1031],[31.5011,29.0659],[31.8691,28.9682],[31.9327,29.7368],[31.9289,29.7832],[31.2916,29.7599],[31.2888,29.8851],[31.2212,30.0079],[31.2376,30.1148],[31.1454,30.1754],[30.9788,30.2258],[30.917,30.3362],[30.8331,30.3338],[30.369,29.9708],[30.3286,29.8982],[29.5506,29.4828],[28.901,28.9089],[28.6992,28.7751],[27.9062,28.5929],[27.7571,28.4836],[27.3248,27.6679],[28.6532,27.6679],[28.7749,27.8732],[28.8461,27.9208],[29.3085,28.1364],[29.4599,28.2361],[29.5871,28.3844],[29.7492,28.7593]]]}},{"type":"Feature","properties":{"sourceId":"1159310479","regionId":"region.c81ebce3-8a85-4fc2-8940-3a5a41b93236","countryId":"country.b4jfbk"},"geometry":{"type":"Polygon","coordinates":[[[28.6532,27.6679],[30.6878,27.6676],[30.6712,27.634],[30.9412,27.6201],[30.9592,27.7157],[30.8917,28.0427],[30.8154,28.2587],[30.9124,28.4718],[30.9442,28.7157],[30.7687,28.781],[29.7492,28.7593],[29.5871,28.3844],[29.4599,28.2361],[29.3085,28.1364],[28.8461,27.9208],[28.7749,27.8732],[28.6532,27.6679]]]}},{"type":"Feature","properties":{"sourceId":"1159310471","regionId":"region.0fda3025-da7a-40de-9d17-0f416d272e6b","countryId":"country.b4jfbk"},"geometry":{"type":"Polygon","coordinates":[[[31.1019,29.4001],[31.0305,29.6805],[30.9558,29.7371],[30.746,29.7143],[30.5363,29.6304],[30.2816,29.485],[29.8149,29.0884],[30.2498,29.0181],[30.3637,28.9798],[30.7802,29.0824],[30.9323,29.186],[31.1019,29.4001]]]}},{"type":"Feature","properties":{"sourceId":"1159310481","regionId":"region.901f43bc-bb9c-49b2-b947-cae8b9d190c1","countryId":"country.b4jfbk"},"geometry":{"type":"Polygon","coordinates":[[[31.1019,29.4001],[30.9323,29.186],[30.7802,29.0824],[30.3637,28.9798],[30.2498,29.0181],[29.8149,29.0884],[29.7492,28.7593],[30.7687,28.781],[30.9442,28.7157],[30.9929,28.846],[31.1906,29.0818],[31.2553,29.2988],[31.2348,29.3715],[31.1019,29.4001]]]}},{"type":"Feature","properties":{"sourceId":"1159310451","regionId":"region.6fae3885-71c5-4724-ad75-a31f00e0be46","countryId":"country.b4jfbk"},"geometry":{"type":"Polygon","coordinates":[[[30.8331,30.3338],[30.917,30.3362],[30.9788,30.2258],[31.1454,30.1754],[31.1039,30.3325],[31.1361,30.4464],[31.2512,30.5651],[31.0643,30.6852],[30.9276,30.7167],[30.7961,30.6802],[30.8512,30.4532],[30.8331,30.3338]]]}},{"type":"Feature","properties":{"sourceId":"1159310455","regionId":"region.dc0f8f2f-4441-4bb6-b609-ab0c794210f7","countryId":"country.b4jfbk"},"geometry":{"type":"Polygon","coordinates":[[[31.5939,30.1904],[31.3857,30.2805],[31.2725,30.437],[31.3529,30.5738],[31.2537,30.5884],[31.2512,30.5651],[31.1361,30.4464],[31.1039,30.3325],[31.1454,30.1754],[31.2376,30.1148],[31.4403,30.1844],[31.5939,30.1904]]]}},{"type":"Feature","properties":{"sourceId":"1159310447","regionId":"region.3bf4c5d5-71ca-45fc-97c6-62a6eb113096","countryId":"country.b4jfbk"},"geometry":{"type":"Polygon","coordinates":[[[30.7961,30.6802],[30.9276,30.7167],[31.0643,30.6852],[31.2512,30.5651],[31.2537,30.5884],[31.2309,30.814],[31.2963,31.0329],[31.2485,31.1099],[31.0708,31.1212],[31.0489,31.0343],[30.7636,30.9836],[30.7899,30.8778],[30.7532,30.7755],[30.7961,30.6802]]]}},{"type":"Feature","properties":{"sourceId":"1159310495","regionId":"region.e7ec3033-0639-496d-baa2-b4f8b2f1a0e2","countryId":"country.b4jfbk"},"geometry":{"type":"Polygon","coordinates":[[[31.9523,26.1399],[32.1371,26.2368],[32.2565,26.1317],[32.3075,26.1582],[32.1553,26.3468],[31.9885,26.4077],[31.831,26.69],[31.619,26.8332],[31.4747,26.9353],[31.3,26.8374],[31.534,26.6106],[31.9523,26.1399]]]}},{"type":"Feature","properties":{"sourceId":"1159310491","regionId":"region.a1e33dc8-dfd4-4a8a-9e35-a57f80eece4a","countryId":"country.b4jfbk"},"geometry":{"type":"Polygon","coordinates":[[[32.3075,26.1582],[32.2565,26.1317],[32.1371,26.2368],[31.9523,26.1399],[32.1108,26.0054],[32.2241,25.9701],[32.3611,26.0001],[32.5916,26.0973],[32.7273,26.0865],[32.7481,26.0012],[32.632,25.7632],[32.443,25.5971],[32.5043,25.2964],[32.6539,25.1457],[32.7048,25.2699],[32.6402,25.3566],[32.6211,25.4846],[32.6606,25.5719],[32.864,25.7628],[32.9311,25.9355],[32.8803,26.1368],[32.7625,26.2383],[32.5398,26.2517],[32.3075,26.1582]],[[32.6514,25.6831],[32.6249,25.6872],[32.6497,25.7299],[32.6694,25.7211],[32.6514,25.6831]]]}},{"type":"Feature","properties":{"sourceId":"1159310487","regionId":"region.2d8b9515-65a0-45f1-bf37-099a67a6961d","countryId":"country.b4jfbk"},"geometry":{"type":"Polygon","coordinates":[[[30.6712,27.634],[30.681,27.5366],[30.7737,27.3601],[30.9394,27.209],[31.0804,27.1495],[31.1743,27.0642],[31.3,26.8374],[31.4747,26.9353],[31.619,26.8332],[31.4749,27.0833],[31.2367,27.3172],[30.9842,27.4184],[30.9412,27.6201],[30.6712,27.634]]]}},{"type":"Feature","properties":{"sourceId":"1159317133","regionId":"region.f240b9d8-58b9-4b51-a9a6-44dbc24b7333","countryId":"country.b4jfbk"},"geometry":{"type":"Polygon","coordinates":[[[32.6514,25.6831],[32.6694,25.7211],[32.6497,25.7299],[32.6249,25.6872],[32.6514,25.6831]]]}}]}