{"type":"FeatureCollection","features":[{"type":"Feature","properties":{"sourceId":"1159315455","regionId":"region.af625c2b-aaf5-4b4b-bbac-9437d1bbbb08","countryId":"country.pqqumd"},"geometry":{"type":"MultiPolygon","coordinates":[[[[8.6608,54.8963],[8.8242,54.9059],[9.4375,54.8104],[9.5459,54.8793],[9.7445,54.8663],[9.7386,54.9809],[9.5685,55.0488],[9.4944,55.1605],[9.7103,55.2487],[9.5868,55.4274],[9.7383,55.6297],[9.6755,55.7086],[9.3999,55.9017],[9.2117,55.9383],[9.071,55.8357],[8.9291,55.88],[8.8231,55.8103],[8.5787,55.8352],[8.4902,55.7715],[8.1756,55.8015],[8.094,55.5639],[8.2902,55.5838],[8.4419,55.4639],[8.6177,55.4379],[8.6895,55.1416],[8.6608,54.8963]]],[[[10.0114,54.9755],[9.7991,55.0165],[9.7809,54.9168],[9.968,54.8595],[10.0114,54.9755]]],[[[10.855,55.0439],[10.6409,54.8432],[10.7411,54.7524],[10.855,55.0439]]],[[[10.6663,55.0643],[10.7337,55.0718],[10.8284,55.3066],[10.6979,55.4403],[10.5025,55.4636],[10.4885,55.5455],[10.3076,55.6182],[9.8882,55.5087],[9.8122,55.4411],[9.884,55.2535],[10.113,55.1838],[10.3128,55.0637],[10.5383,55.0297],[10.6663,55.0643]]]]}},{"type":"Feature","properties":{"sourceId":"1159315813","regionId":"region.6d3d6ee7-7505-4cd2-8e91-ec3978fdfbbe","countryId":"country.pqqumd"},"geometry":{"type":"Polygon","coordinates":[[[8.1756,55.8015],[8.4902,55.7715],[8.5787,55.8352],[8.8231,55.8103],[8.9291,55.88],[9.071,55.8357],[9.2117,55.9383],[9.3999,55.9017],[9.6755,55.7086],[9.7922,55.6745],[9.9817,55.7094],[10.0357,55.8184],[10.2454,55.9146],[10.259,56.099],[10.377,56.2033],[10.5492,56.1782],[10.75,56.2161],[10.9116,56.3341],[10.9641,56.4484],[10.7891,56.5364],[10.5515,56.5156],[10.3608,56.5617],[10.3342,56.7038],[10.1932,56.6936],[10.0801,56.6251],[9.7254,56.5591],[9.6377,56.633],[9.326,56.6694],[9.1494,56.6389],[9.106,56.8001],[8.8766,56.7643],[8.6011,56.5011],[8.4365,56.5802],[8.1224,56.5517],[8.1338,56.2055],[8.1065,56.1195],[8.2824,56.0759],[8.3869,55.9265],[8.1756,55.8015]]]}},{"type":"Feature","properties":{"sourceId":"1159315459","regionId":"region.f856963a-0bc4-4122-bf2c-1a1d3168f29a","countryId":"country.pqqumd"},"geometry":{"type":"MultiPolygon","coordinates":[[[[9.326,56.6694],[9.6377,56.633],[9.7254,56.5591],[10.0801,56.6251],[10.1932,56.6936],[10.3187,56.7082],[10.2659,56.9077],[10.4468,57.1849],[10.5391,57.2367],[10.5466,57.4353],[10.4304,57.5705],[10.4725,57.717],[10.1976,57.6012],[9.967,57.5914],[9.7884,57.4593],[9.5733,57.2429],[9.4121,57.1654],[9.2306,57.1411],[8.9805,57.161],[8.7839,57.1048],[8.5863,57.1064],[8.2704,56.8432],[8.3734,56.6802],[8.4915,56.7314],[8.6795,56.9525],[9.1128,57.0386],[9.2887,56.9971],[9.1629,56.8941],[9.1844,56.784],[9.326,56.6694]]],[[[8.8259,56.7438],[8.8364,56.8693],[8.6484,56.8907],[8.5532,56.7681],[8.6484,56.6811],[8.8259,56.7438]]],[[[11.1423,57.3323],[10.855,57.2646],[11.0288,57.2019],[11.1423,57.3323]]]]}},{"type":"Feature","properties":{"sourceId":"1159315453","regionId":"region.3c761f26-47d9-4001-950e-3e16ed7f52b5","countryId":"country.pqqumd"},"geometry":{"type":"MultiPolygon","coordinates":[[[[11.8452,54.7319],[11.7258,54.8734],[11.5728,54.848],[11.3689,54.8811],[11.2317,54.9612],[11.0188,54.9034],[11.0305,54.7606],[11.4518,54.6284],[11.6105,54.6664],[11.8107,54.6551],[11.8452,54.7319]]],[[[12.4172,55.0302],[12.1292,54.9544],[12.2268,54.8926],[12.4172,55.0302]]],[[[12.3592,55.6046],[12.1702,55.6222],[12.2267,55.7338],[12.0761,55.7789],[11.9727,55.7214],[11.8544,55.7322],[11.7627,55.7495],[11.6409,55.9434],[11.2522,55.7291],[11.0711,55.6769],[11.2131,55.4158],[11.1621,55.3192],[11.2454,55.2148],[11.6494,55.181],[11.8828,54.9755],[11.7497,54.8731],[11.9607,54.6941],[12.1702,54.8383],[11.9579,54.9482],[12.1489,54.9941],[12.0466,55.1401],[12.1828,55.2272],[12.3924,55.2553],[12.4446,55.3489],[12.1981,55.4875],[12.3592,55.6046]]]]}},{"type":"Feature","properties":{"sourceId":"1159315811","regionId":"region.0855713d-2b0b-492f-9201-6ff200f71b15","countryId":"country.pqqumd"},"geometry":{"type":"MultiPolygon","coordinates":[[[[15.1514,55.1332],[14.7521,55.2988],[14.6996,55.0892],[15.0727,54.9916],[15.1514,55.1332]]],[[[12.0761,55.7789],[12.2267,55.7338],[12.1702,55.6222],[12.3592,55.6046],[12.465,55.6055],[12.6022,55.7086],[12.5127,55.9208],[12.6219,56.0438],[12.2451,56.1287],[11.8656,55.9727],[12.0261,55.9414],[12.0761,55.7789]]]]}}]}