{"type":"FeatureCollection","features":[{"type":"Feature","properties":{"sourceId":"1159315079","regionId":"region.5eb64dd9-e885-43e1-aa3d-fcaab844d48c","countryId":"country.5q931z"},"geometry":{"type":"Polygon","coordinates":[[[30.4608,-1.0634],[30.59,-0.8057],[30.4562,-0.8234],[30.2727,-0.7549],[30.1873,-0.7248],[30.0582,-0.76],[30.0379,-0.9009],[30.0684,-1.0867],[30.2096,-1.1849],[30.291,-1.1526],[30.3528,-1.0608],[30.4608,-1.0634]]]}},{"type":"Feature","properties":{"sourceId":"1159315075","regionId":"region.2ff90da5-843b-4879-84af-56b4bcabd5bf","countryId":"country.5q931z"},"geometry":{"type":"Polygon","coordinates":[[[30.4718,-1.0668],[30.6386,-1.0734],[30.7771,-0.9858],[30.8284,-1.0026],[31.2805,-1.0026],[31.1811,-0.7424],[31.0749,-0.6527],[30.8653,-0.6951],[30.7652,-0.605],[30.6475,-0.6121],[30.6402,-0.8138],[30.59,-0.8057],[30.4608,-1.0634],[30.4718,-1.0668]]]}},{"type":"Feature","properties":{"sourceId":"1159315087","regionId":"region.4806f1da-6fa8-4c53-93d1-a36c12e86ce2","countryId":"country.5q931z"},"geometry":{"type":"Polygon","coordinates":[[[30.066,-1.3869],[30.2567,-1.2172],[30.291,-1.1526],[30.2096,-1.1849],[30.0684,-1.0867],[29.9001,-1.0441],[29.7546,-1.0756],[29.7274,-1.1078],[29.825,-1.3239],[29.8979,-1.4696],[30.066,-1.3869]]]}},{"type":"Feature","properties":{"sourceId":"1159315089","regionId":"region.91b1770e-6302-4d53-a435-db7932c1329e","countryId":"country.5q931z"},"geometry":{"type":"Polygon","coordinates":[[[29.825,-1.3239],[29.7274,-1.1078],[29.7546,-1.0756],[29.5515,-0.9903],[29.5814,-1.2348],[29.5779,-1.3884],[29.825,-1.3239]]]}},{"type":"Feature","properties":{"sourceId":"1159315061","regionId":"region.ec852d70-a766-4670-a478-726e51499195","countryId":"country.5q931z"},"geometry":{"type":"Polygon","coordinates":[[[31.9862,-1.0026],[31.9862,-0.7739],[31.7519,-0.7319],[31.6764,-0.6121],[31.6897,-0.5203],[31.6215,-0.47],[31.4592,-0.6037],[31.3454,-0.561],[31.237,-0.4641],[31.1348,-0.5284],[31.0749,-0.6527],[31.1811,-0.7424],[31.2805,-1.0026],[31.9862,-1.0026]]]}},{"type":"Feature","properties":{"sourceId":"1159313349","regionId":"region.0c4258b9-af0b-4295-aac0-292086c7b146","countryId":"country.5q931z"},"geometry":{"type":"Polygon","coordinates":[[[32.7223,-1.0026],[32.8472,-1.0026],[32.8472,-0.4621],[32.8472,-0.1631],[32.605,-0.1631],[32.4931,-0.1631],[32.2482,-0.1584],[31.9976,-0.1581],[31.9357,-0.1268],[31.9745,-0.2304],[32.052,-0.3711],[31.9862,-0.4132],[31.9862,-0.7739],[31.9862,-1.0026],[32.7223,-1.0026]]]}},{"type":"Feature","properties":{"sourceId":"1159317391","regionId":"region.f14956ae-d8ed-4a25-a8e6-bf1cb1ef98a0","countryId":"country.5q931z"},"geometry":{"type":"Polygon","coordinates":[[[33.4264,-1.0026],[33.4262,0.2137],[33.387,0.3026],[33.2729,0.3502],[33.0783,0.091],[33.0138,-0.147],[32.8472,-0.4621],[32.8472,-1.0026],[33.4264,-1.0026]]]}},{"type":"Feature","properties":{"sourceId":"1159313743","regionId":"region.f8c8e244-0a9f-46b7-ae76-7a705d5ad720","countryId":"country.5q931z"},"geometry":{"type":"Polygon","coordinates":[[[33.6318,-1.0026],[33.6318,-0.1035],[33.7376,-0.068],[33.6543,0.0731],[33.6847,0.3217],[33.6088,0.4422],[33.5657,0.4507],[33.5043,0.3469],[33.387,0.3026],[33.4262,0.2137],[33.4264,-1.0026],[33.6318,-1.0026]]]}},{"type":"Feature","properties":{"sourceId":"1159317393","regionId":"region.6368b935-6745-4ce6-a881-564f8e913775","countryId":"country.5q931z"},"geometry":{"type":"Polygon","coordinates":[[[33.9042,-1.0026],[33.8948,-0.6627],[33.9525,-0.1157],[33.8905,0.0901],[33.9603,0.1987],[33.877,0.3442],[33.8925,0.4739],[33.829,0.3832],[33.6847,0.3217],[33.6543,0.0731],[33.7376,-0.068],[33.6318,-0.1035],[33.6318,-1.0026],[33.9042,-1.0026]]]}},{"type":"Feature","properties":{"sourceId":"1159313755","regionId":"region.23de1387-d01b-4587-a975-498e620fd813","countryId":"country.5q931z"},"geometry":{"type":"Polygon","coordinates":[[[33.5277,3.7714],[33.5647,3.6554],[33.7434,3.3531],[33.9062,3.2437],[34.1576,3.1971],[34.3285,3.0829],[34.3863,3.0817],[34.5456,3.0975],[34.434,3.182],[34.3821,3.466],[34.4345,3.5262],[34.4397,3.6677],[34.3371,3.7346],[34.2789,3.7097],[34.0611,4.0078],[34.0693,4.088],[33.9771,4.2197],[33.5277,3.7714]]]}},{"type":"Feature","properties":{"sourceId":"1159317341","regionId":"region.a5552d84-310d-4f62-849e-99708371396a","countryId":"country.5q931z"},"geometry":{"type":"Polygon","coordinates":[[[33.5277,3.7714],[33.4473,3.7444],[33.2637,3.7537],[33.2431,3.6813],[33.284,3.5614],[33.1086,3.4679],[32.9391,3.4679],[32.866,3.3977],[32.7695,3.3918],[32.7828,3.1799],[32.9315,3.1796],[33.0645,3.1325],[33.1554,3.0177],[33.2143,3.188],[33.36,3.196],[33.3893,3.2995],[33.55,3.2687],[33.6814,3.2514],[33.7434,3.3531],[33.5647,3.6554],[33.5277,3.7714]]]}},{"type":"Feature","properties":{"sourceId":"1159313695","regionId":"region.6d25dac4-5dce-4228-bd69-92eadf36f3f3","countryId":"country.5q931z"},"geometry":{"type":"Polygon","coordinates":[[[33.2637,3.7537],[33.1435,3.7741],[33.0172,3.8772],[32.7564,3.769],[32.3718,3.7311],[32.1878,3.6192],[32.1759,3.5272],[32.3574,3.2867],[32.5152,3.1358],[32.6801,3.1367],[32.7828,3.1799],[32.7695,3.3918],[32.866,3.3977],[32.9391,3.4679],[33.1086,3.4679],[33.284,3.5614],[33.2431,3.6813],[33.2637,3.7537]]]}},{"type":"Feature","properties":{"sourceId":"1159317339","regionId":"region.4995d385-ec8d-44d8-a7ae-9980c8e5497f","countryId":"country.5q931z"},"geometry":{"type":"Polygon","coordinates":[[[32.1759,3.5272],[32.0542,3.5596],[32.0416,3.3211],[31.9309,3.0362],[31.6251,2.9574],[31.5364,2.8686],[31.4022,2.9555],[31.3928,2.7855],[31.4372,2.7525],[31.4235,2.6173],[31.5879,2.733],[31.7049,2.733],[31.7474,2.7968],[31.9849,2.8003],[32.2011,2.7295],[32.2161,2.7866],[32.1787,3.0532],[32.2185,3.1468],[32.3574,3.2867],[32.1759,3.5272]]]}},{"type":"Feature","properties":{"sourceId":"1159313657","regionId":"region.3d7aadbb-1e38-43e7-96d4-1d173549333e","countryId":"country.5q931z"},"geometry":{"type":"Polygon","coordinates":[[[32.0222,3.5864],[31.8858,3.4975],[31.7827,3.5254],[31.6933,3.4864],[31.597,3.3345],[31.5245,3.1447],[31.5124,3.1186],[31.4022,2.9555],[31.5364,2.8686],[31.6251,2.9574],[31.9309,3.0362],[32.0416,3.3211],[32.0542,3.5596],[32.0222,3.5864]]]}},{"type":"Feature","properties":{"sourceId":"1159313671","regionId":"region.77f52afc-1fe8-4a3d-acb5-93811abc17f4","countryId":"country.5q931z"},"geometry":{"type":"Polygon","coordinates":[[[31.8011,3.8065],[31.6139,3.697],[31.4637,3.458],[31.4607,3.2193],[31.5245,3.1447],[31.597,3.3345],[31.6933,3.4864],[31.7827,3.5254],[31.8858,3.4975],[32.0222,3.5864],[31.9437,3.5913],[31.9163,3.6803],[31.8011,3.8065]]]}},{"type":"Feature","properties":{"sourceId":"1159313673","regionId":"region.95e3ca94-63df-4233-8160-a309f097bb14","countryId":"country.5q931z"},"geometry":{"type":"Polygon","coordinates":[[[31.6139,3.697],[31.5054,3.6599],[31.295,3.7742],[31.1415,3.7851],[31.0687,3.7317],[31.0371,3.5328],[31.0537,3.313],[31.2055,3.3349],[31.3478,3.23],[31.4242,3.1307],[31.5124,3.1186],[31.5245,3.1447],[31.4607,3.2193],[31.4637,3.458],[31.6139,3.697]]]}},{"type":"Feature","properties":{"sourceId":"1159313663","regionId":"region.e16fc2d2-e322-498e-b5bf-94c3b02dd13f","countryId":"country.5q931z"},"geometry":{"type":"Polygon","coordinates":[[[31.0687,3.7317],[30.9444,3.6793],[30.8395,3.4902],[30.9049,3.386],[31.0537,3.313],[31.0371,3.5328],[31.0687,3.7317]]]}},{"type":"Feature","properties":{"sourceId":"1159313759","regionId":"region.8cd29698-a707-4382-bc3c-cf0f82d069cc","countryId":"country.5q931z"},"geometry":{"type":"Polygon","coordinates":[[[34.5456,3.0975],[34.3863,3.0817],[34.2745,2.9178],[34.2517,2.8328],[34.4385,2.7753],[34.5632,2.6649],[34.6448,2.6409],[34.7546,2.4841],[34.8176,2.3098],[34.8416,2.113],[34.9223,2.2107],[34.8656,2.3475],[34.9236,2.4773],[34.8187,2.598],[34.7301,2.8529],[34.6405,2.8601],[34.5747,2.9461],[34.5456,3.0975]]]}},{"type":"Feature","properties":{"sourceId":"1159313725","regionId":"region.06ec2fe6-97b4-45e5-bdc2-3c80da9970bb","countryId":"country.5q931z"},"geometry":{"type":"Polygon","coordinates":[[[34.5601,1.0931],[34.5484,1.2004],[34.5666,1.3734],[34.4332,1.4456],[34.3139,1.3513],[34.3285,1.3],[34.5244,1.1965],[34.5242,1.1623],[34.5075,1.1025],[34.5601,1.0931]]]}},{"type":"Feature","properties":{"sourceId":"1159313727","regionId":"region.593ca701-5de3-4c58-93ed-1639fa58e311","countryId":"country.5q931z"},"geometry":{"type":"Polygon","coordinates":[[[34.5669,1.103],[34.6838,1.2091],[34.7979,1.2319],[34.7807,1.3718],[34.7422,1.4194],[34.5484,1.2004],[34.5601,1.0931],[34.5669,1.103]]]}},{"type":"Feature","properties":{"sourceId":"1159317357","regionId":"region.727b7a92-5b64-44aa-8c7d-f10cfda03de1","countryId":"country.5q931z"},"geometry":{"type":"Polygon","coordinates":[[[34.9223,2.2107],[34.8416,2.113],[34.808,1.993],[34.7888,1.6811],[34.6373,1.5409],[34.7422,1.4194],[34.7807,1.3718],[34.9787,1.6759],[34.9675,2.1019],[34.9223,2.2107]]]}},{"type":"Feature","properties":{"sourceId":"1159313739","regionId":"region.84a84ace-b874-4407-9d1d-634afd01bcbd","countryId":"country.5q931z"},"geometry":{"type":"Polygon","coordinates":[[[34.1316,0.5694],[33.9571,0.5642],[33.8925,0.4739],[33.877,0.3442],[33.9603,0.1987],[34.088,0.3674],[34.1316,0.5694]]]}},{"type":"Feature","properties":{"sourceId":"1159313745","regionId":"region.476d0796-eb90-4577-99b0-2671f82d2440","countryId":"country.5q931z"},"geometry":{"type":"Polygon","coordinates":[[[34.2963,0.7467],[34.1637,0.8281],[34.085,0.9023],[33.9234,0.8168],[33.8651,0.6846],[33.9571,0.5642],[34.1316,0.5694],[34.2521,0.655],[34.2963,0.7467]]]}},{"type":"Feature","properties":{"sourceId":"1159313735","regionId":"region.f95796d6-d51b-477a-b682-7b598c01541a","countryId":"country.5q931z"},"geometry":{"type":"Polygon","coordinates":[[[34.4633,1],[34.2636,0.9992],[34.1637,0.8281],[34.2963,0.7467],[34.388,0.8158],[34.4633,1]]]}},{"type":"Feature","properties":{"sourceId":"1159317413","regionId":"region.27907754-21ee-46a8-ba79-35e5342e7bbb","countryId":"country.5q931z"},"geometry":{"type":"Polygon","coordinates":[[[34.5075,1.1025],[34.3571,1.0864],[34.2636,0.9992],[34.4633,1],[34.5075,1.1025]]]}},{"type":"Feature","properties":{"sourceId":"1159313675","regionId":"region.33b7ab0c-b54b-4282-9523-67459c2ada73","countryId":"country.5q931z"},"geometry":{"type":"Polygon","coordinates":[[[30.7634,3.1234],[30.9158,3.1172],[31.0209,3.2146],[31.0537,3.313],[30.9049,3.386],[30.8042,3.246],[30.7634,3.1234]]]}},{"type":"Feature","properties":{"sourceId":"1159313659","regionId":"region.eb175ac3-a642-425c-a286-445fd2446711","countryId":"country.5q931z"},"geometry":{"type":"Polygon","coordinates":[[[30.7708,2.6758],[30.966,2.7373],[30.9888,2.6148],[31.0483,2.5889],[31.252,2.6356],[31.3928,2.7855],[31.4022,2.9555],[31.5124,3.1186],[31.4242,3.1307],[31.3478,3.23],[31.2055,3.3349],[31.0537,3.313],[31.0209,3.2146],[30.9158,3.1172],[30.7634,3.1234],[30.7451,3.0363],[30.8548,2.8932],[30.7708,2.6758]]]}},{"type":"Feature","properties":{"sourceId":"1159317337","regionId":"region.f2040255-0f1b-4691-a6cc-15cb3521af14","countryId":"country.5q931z"},"geometry":{"type":"Polygon","coordinates":[[[30.7708,2.6758],[30.7249,2.4408],[30.795,2.4401],[30.8718,2.3321],[30.968,2.4054],[31.0693,2.5247],[31.0483,2.5889],[30.9888,2.6148],[30.966,2.7373],[30.7708,2.6758]]]}},{"type":"Feature","properties":{"sourceId":"1159313669","regionId":"region.5a97c7ad-968e-4085-b444-3740f7b75b9e","countryId":"country.5q931z"},"geometry":{"type":"Polygon","coordinates":[[[30.968,2.4054],[31.0552,2.2902],[31.1776,2.3029],[31.1901,2.2215],[31.2801,2.1514],[31.3457,2.1796],[31.3764,2.3023],[31.4669,2.3555],[31.4778,2.5192],[31.4235,2.6173],[31.4372,2.7525],[31.3928,2.7855],[31.252,2.6356],[31.0483,2.5889],[31.0693,2.5247],[30.968,2.4054]]]}},{"type":"Feature","properties":{"sourceId":"1159313665","regionId":"region.9bbfb4ed-f783-4306-856c-ab99b61dfd13","countryId":"country.5q931z"},"geometry":{"type":"Polygon","coordinates":[[[31.0755,1.8406],[31.327,1.821],[31.3614,1.7382],[31.5492,1.7579],[31.578,1.8682],[31.6452,1.921],[31.5396,2.065],[31.5459,2.2778],[31.3457,2.1796],[31.2801,2.1514],[31.2428,2.0512],[31.0755,1.8406]]]}},{"type":"Feature","properties":{"sourceId":"1159313717","regionId":"region.f1b60292-5e3a-40ba-99e0-3ca7f18662ed","countryId":"country.5q931z"},"geometry":{"type":"Polygon","coordinates":[[[30.5537,1.3356],[30.5481,1.0742],[30.6755,1.0543],[30.8051,1.1241],[30.8717,1.1053],[31.2099,1.2195],[31.2905,1.2135],[31.4378,1.2855],[31.5138,1.3613],[31.4464,1.4081],[31.4292,1.598],[31.3614,1.7382],[31.327,1.821],[31.0755,1.8406],[31.0258,1.7782],[30.6817,1.5003],[30.5537,1.3356]]]}},{"type":"Feature","properties":{"sourceId":"1159317359","regionId":"region.87df003c-0487-4220-9015-13dae35a9f71","countryId":"country.5q931z"},"geometry":{"type":"Polygon","coordinates":[[[30.5537,1.3356],[30.4456,1.2128],[30.2389,1.136],[30.1835,0.9546],[30.252,0.853],[30.1704,0.7147],[30.3576,0.8188],[30.5272,0.9859],[30.5481,1.0742],[30.5537,1.3356]]]}},{"type":"Feature","properties":{"sourceId":"1159313713","regionId":"region.aaf6aec3-5529-4b08-a25c-8f7f20897d92","countryId":"country.5q931z"},"geometry":{"type":"Polygon","coordinates":[[[29.9822,0.849],[29.9283,0.785],[29.9405,0.4983],[29.9039,0.4382],[29.9981,0.4336],[30.0679,0.5179],[30.1704,0.7147],[30.252,0.853],[30.1835,0.9546],[30.1451,0.9032],[29.9822,0.849]]]}},{"type":"Feature","properties":{"sourceId":"1159313719","regionId":"region.5fc5f1e1-199c-4f0b-b54e-7fe329e08ca1","countryId":"country.5q931z"},"geometry":{"type":"Polygon","coordinates":[[[29.8326,0.337],[30.0593,0.3675],[30.2687,0.2635],[30.3618,0.2276],[30.3763,0.4853],[30.4281,0.5412],[30.3982,0.615],[30.4407,0.762],[30.5454,0.9295],[30.5272,0.9859],[30.3576,0.8188],[30.1704,0.7147],[30.0679,0.5179],[29.9981,0.4336],[29.9039,0.4382],[29.8326,0.337]]]}},{"type":"Feature","properties":{"sourceId":"1159315069","regionId":"region.73a6c1f8-d3b4-49f5-8e60-d53f0c9dde01","countryId":"country.5q931z"},"geometry":{"type":"Polygon","coordinates":[[[29.8326,0.337],[29.8006,0.1724],[29.7118,0.0996],[29.6813,-0.1379],[30.0044,-0.1741],[30.1328,-0.0755],[30.2066,-0.0793],[30.2687,0.2635],[30.0593,0.3675],[29.8326,0.337]]]}},{"type":"Feature","properties":{"sourceId":"1159317363","regionId":"region.5534a7a1-7485-43b2-b3a8-33a30d03b33f","countryId":"country.5q931z"},"geometry":{"type":"Polygon","coordinates":[[[29.6439,-0.358],[29.846,-0.3702],[29.9141,-0.4017],[30.024,-0.3507],[30.1378,-0.4174],[30.1457,-0.3075],[30.3234,-0.2116],[30.2497,-0.1199],[30.2066,-0.0793],[30.1328,-0.0755],[30.0044,-0.1741],[29.6813,-0.1379],[29.6439,-0.358]]]}},{"type":"Feature","properties":{"sourceId":"1159315081","regionId":"region.82a53fc6-8922-4d00-a57b-61939a3e0f30","countryId":"country.5q931z"},"geometry":{"type":"Polygon","coordinates":[[[29.6294,-0.4424],[29.7101,-0.4323],[29.7272,-0.6097],[29.8395,-0.7589],[29.8303,-0.924],[29.9001,-1.0441],[30.0684,-1.0867],[30.0379,-0.9009],[30.0582,-0.76],[29.9133,-0.6216],[29.9426,-0.505],[29.9141,-0.4017],[29.846,-0.3702],[29.6439,-0.358],[29.6294,-0.4424]]]}},{"type":"Feature","properties":{"sourceId":"1159315091","regionId":"region.1f5aa64f-1d81-4694-b28c-7a423eebf6c7","countryId":"country.5q931z"},"geometry":{"type":"Polygon","coordinates":[[[29.5515,-0.9903],[29.7546,-1.0756],[29.9001,-1.0441],[29.8303,-0.924],[29.8395,-0.7589],[29.7272,-0.6097],[29.7101,-0.4323],[29.6294,-0.4424],[29.6022,-0.7438],[29.6108,-0.864],[29.5515,-0.9903]]]}},{"type":"Feature","properties":{"sourceId":"1159311311","regionId":"region.183d9ff0-f179-41f0-8b87-66b1e25dd2b1","countryId":"country.5q931z"},"geometry":{"type":"Polygon","coordinates":[[[33.2972,0.9437],[33.1339,1.055],[33.1136,1.1389],[32.9613,1.1817],[32.9361,1.0827],[32.9665,0.9114],[33.0462,0.7558],[33.049,0.6632],[33.2213,0.6718],[33.2766,0.7994],[33.2972,0.9437]]]}},{"type":"Feature","properties":{"sourceId":"1159317395","regionId":"region.fc08ff7b-baac-42d8-9ded-6fa9729d1c55","countryId":"country.5q931z"},"geometry":{"type":"Polygon","coordinates":[[[33.2213,0.6718],[33.2728,0.6788],[33.5171,0.5475],[33.513,0.6672],[33.4204,0.728],[33.4273,0.8714],[33.4092,0.9852],[33.3388,1.0793],[33.2972,0.9437],[33.2766,0.7994],[33.2213,0.6718]]]}},{"type":"Feature","properties":{"sourceId":"1159317397","regionId":"region.4cf5b5dd-36ec-4f36-a401-3086afbf2cde","countryId":"country.5q931z"},"geometry":{"type":"Polygon","coordinates":[[[33.3388,1.0793],[33.4425,1.2876],[33.405,1.3355],[33.3783,1.3706],[33.208,1.3689],[33.1333,1.3785],[32.9642,1.4736],[32.8114,1.4752],[32.8512,1.3582],[32.9613,1.1817],[33.1136,1.1389],[33.1339,1.055],[33.2972,0.9437],[33.3388,1.0793]]]}},{"type":"Feature","properties":{"sourceId":"1159313655","regionId":"region.0672c7ca-34e2-4c2e-a3d4-654af7317587","countryId":"country.5q931z"},"geometry":{"type":"Polygon","coordinates":[[[33.2213,0.6718],[33.049,0.6632],[33.0986,0.5442],[33.2729,0.3502],[33.387,0.3026],[33.5043,0.3469],[33.5657,0.4507],[33.5171,0.5475],[33.2728,0.6788],[33.2213,0.6718]]]}},{"type":"Feature","properties":{"sourceId":"1159313699","regionId":"region.0b06ec1d-0fa3-4cb2-a02c-85891d149e0f","countryId":"country.5q931z"},"geometry":{"type":"Polygon","coordinates":[[[32.3029,1.6486],[32.5947,1.6519],[32.7733,1.8015],[32.8883,1.8082],[32.9893,1.7155],[33.0247,1.8174],[32.8682,1.9499],[32.8881,2.0747],[32.8128,2.1067],[32.6731,2.1786],[32.5497,2.1803],[32.4707,2.0506],[32.3468,2.0727],[32.3415,1.8679],[32.1628,1.7782],[32.1015,1.6656],[32.1042,1.6478],[32.1776,1.6775],[32.3029,1.6486]]]}},{"type":"Feature","properties":{"sourceId":"1159313683","regionId":"region.f0df8b6a-198e-4342-8591-590247362f4c","countryId":"country.5q931z"},"geometry":{"type":"Polygon","coordinates":[[[32.3029,1.6486],[32.1776,1.6775],[32.1042,1.6478],[31.9595,1.4759],[32.0816,1.413],[32.2474,1.2466],[32.3478,1.2002],[32.406,1.0904],[32.4687,1.0168],[32.6239,0.9681],[32.6399,1.1358],[32.7803,1.0812],[32.7762,1.3309],[32.6907,1.3879],[32.688,1.4705],[32.3029,1.6486]]]}},{"type":"Feature","properties":{"sourceId":"1159313709","regionId":"region.144559b7-f286-42bf-a183-b195eb0701dd","countryId":"country.5q931z"},"geometry":{"type":"Polygon","coordinates":[[[32.1042,1.6478],[32.1015,1.6656],[32.0244,1.6427],[31.9044,1.6907],[31.866,1.8106],[31.8756,1.9642],[31.7508,2.0602],[31.7554,2.2983],[31.5459,2.2778],[31.5396,2.065],[31.6452,1.921],[31.578,1.8682],[31.5492,1.7579],[31.3614,1.7382],[31.4292,1.598],[31.4464,1.4081],[31.5138,1.3613],[31.7609,1.3236],[31.8223,1.3571],[31.9595,1.4759],[32.1042,1.6478]]]}},{"type":"Feature","properties":{"sourceId":"1159311307","regionId":"region.2845342d-28a3-44f4-89bc-d50e5537e672","countryId":"country.5q931z"},"geometry":{"type":"Polygon","coordinates":[[[32.7803,1.0812],[32.7927,0.8453],[32.8586,0.7234],[33.0316,0.587],[33.0986,0.5442],[33.049,0.6632],[33.0462,0.7558],[32.9665,0.9114],[32.9361,1.0827],[32.9613,1.1817],[32.8512,1.3582],[32.8114,1.4752],[32.688,1.4705],[32.6907,1.3879],[32.7762,1.3309],[32.7803,1.0812]]]}},{"type":"Feature","properties":{"sourceId":"1159313687","regionId":"region.07ac7f1a-12e0-4b91-8d4c-516f6551d4dc","countryId":"country.5q931z"},"geometry":{"type":"Polygon","coordinates":[[[32.7803,1.0812],[32.6399,1.1358],[32.6239,0.9681],[32.4687,1.0168],[32.406,1.0904],[32.4121,0.9445],[32.4631,0.8661],[32.4548,0.6533],[32.3538,0.6212],[32.3304,0.5461],[32.6702,0.5565],[32.7534,0.5876],[32.7927,0.8453],[32.7803,1.0812]]]}},{"type":"Feature","properties":{"sourceId":"1159311313","regionId":"region.07ff77d0-663f-4c9b-80e7-8f1eee2e7348","countryId":"country.5q931z"},"geometry":{"type":"Polygon","coordinates":[[[32.9893,1.7155],[32.8883,1.8082],[32.7733,1.8015],[32.5947,1.6519],[32.3029,1.6486],[32.688,1.4705],[32.8114,1.4752],[32.9642,1.4736],[32.9433,1.6456],[32.9893,1.7155]]]}},{"type":"Feature","properties":{"sourceId":"1159313691","regionId":"region.9aa68ada-4741-4512-b60a-9e0700e969da","countryId":"country.5q931z"},"geometry":{"type":"Polygon","coordinates":[[[32.1837,0.7024],[32.0719,0.6358],[31.9534,0.6485],[31.9023,0.5961],[31.969,0.4256],[31.9488,0.2957],[31.8214,0.283],[31.9115,0.221],[32.1413,0.2558],[32.2647,0.2672],[32.2631,0.4346],[32.2227,0.5741],[32.1837,0.7024]]]}},{"type":"Feature","properties":{"sourceId":"1159313681","regionId":"region.7b6e4c5b-ac4f-4e6b-9931-836044347b01","countryId":"country.5q931z"},"geometry":{"type":"Polygon","coordinates":[[[32.1837,0.7024],[32.2192,0.8081],[32.0432,0.9096],[31.953,1.1039],[31.6747,0.8661],[31.8355,0.8033],[31.9534,0.6485],[32.0719,0.6358],[32.1837,0.7024]]]}},{"type":"Feature","properties":{"sourceId":"1159311331","regionId":"region.31176ae5-6dae-4463-8199-9e6a1e4f6842","countryId":"country.5q931z"},"geometry":{"type":"Polygon","coordinates":[[[32.2647,0.2672],[32.1281,0.1278],[32.0257,0.1164],[31.8558,-0.0074],[31.9357,-0.1268],[31.9976,-0.1581],[32.2482,-0.1584],[32.2269,0.0496],[32.3373,0.141],[32.4237,0.2648],[32.4396,0.36],[32.369,0.4346],[32.2631,0.4346],[32.2647,0.2672]]]}},{"type":"Feature","properties":{"sourceId":"1159317381","regionId":"region.1c7aa673-1e1e-4ba5-adef-59a7fa1e208c","countryId":"country.5q931z"},"geometry":{"type":"Polygon","coordinates":[[[32.2647,0.2672],[32.1413,0.2558],[31.9659,0.1335],[31.7935,0.0501],[31.8558,-0.0074],[32.0257,0.1164],[32.1281,0.1278],[32.2647,0.2672]]]}},{"type":"Feature","properties":{"sourceId":"1159317383","regionId":"region.0e4f3adf-5b69-477f-ab04-27412f5fd660","countryId":"country.5q931z"},"geometry":{"type":"Polygon","coordinates":[[[31.8214,0.283],[31.575,0.3376],[31.3368,0.253],[31.3348,0.2006],[31.5918,0.0494],[31.6488,0.0471],[31.7935,0.0501],[31.9659,0.1335],[32.1413,0.2558],[31.9115,0.221],[31.8214,0.283]]]}},{"type":"Feature","properties":{"sourceId":"1159313685","regionId":"region.d46881fb-0cef-466a-8d73-46cd28739d01","countryId":"country.5q931z"},"geometry":{"type":"Polygon","coordinates":[[[32.2631,0.4346],[32.369,0.4346],[32.4396,0.36],[32.4237,0.2648],[32.3373,0.141],[32.2269,0.0496],[32.2482,-0.1584],[32.4931,-0.1631],[32.6217,0.0024],[32.62,0.1337],[32.6642,0.2876],[32.5473,0.2737],[32.5358,0.4426],[32.6595,0.5037],[32.6702,0.5565],[32.3304,0.5461],[32.2227,0.5741],[32.2631,0.4346]]]}},{"type":"Feature","properties":{"sourceId":"1159313693","regionId":"region.2d55a6c7-d311-4a20-bb2d-8ecefc1b2911","countryId":"country.5q931z"},"geometry":{"type":"Polygon","coordinates":[[[32.1837,0.7024],[32.2227,0.5741],[32.3304,0.5461],[32.3538,0.6212],[32.4548,0.6533],[32.4631,0.8661],[32.4121,0.9445],[32.406,1.0904],[32.3478,1.2002],[32.2474,1.2466],[32.0816,1.413],[31.9595,1.4759],[31.8223,1.3571],[31.9329,1.2214],[31.953,1.1039],[32.0432,0.9096],[32.2192,0.8081],[32.1837,0.7024]]]}},{"type":"Feature","properties":{"sourceId":"1159317385","regionId":"region.f1b23b95-968f-4cfd-8c74-0d60c23d1d14","countryId":"country.5q931z"},"geometry":{"type":"Polygon","coordinates":[[[31.8223,1.3571],[31.7609,1.3236],[31.5138,1.3613],[31.4378,1.2855],[31.2905,1.2135],[31.4074,1.1555],[31.5213,1.0274],[31.4273,0.9262],[31.4381,0.8615],[31.6747,0.8661],[31.953,1.1039],[31.9329,1.2214],[31.8223,1.3571]]]}},{"type":"Feature","properties":{"sourceId":"1159311305","regionId":"region.09b02653-76b8-424e-b4a6-2cdf9afa0ce3","countryId":"country.5q931z"},"geometry":{"type":"Polygon","coordinates":[[[32.9642,1.4736],[33.1333,1.3785],[33.208,1.3689],[33.2147,1.572],[33.2548,1.6992],[33.3542,1.7168],[33.4379,1.7739],[33.4438,1.8874],[33.3712,2.0193],[33.2912,2.0395],[33.2404,1.9039],[33.1291,1.8332],[33.0945,1.7171],[32.9893,1.7155],[32.9433,1.6456],[32.9642,1.4736]]]}},{"type":"Feature","properties":{"sourceId":"1159313705","regionId":"region.393ea1e6-49fb-48c7-b092-afadf7f43997","countryId":"country.5q931z"},"geometry":{"type":"Polygon","coordinates":[[[32.8881,2.0747],[32.8682,1.9499],[33.0247,1.8174],[32.9893,1.7155],[33.0945,1.7171],[33.1291,1.8332],[33.2404,1.9039],[33.2912,2.0395],[33.1734,2.1115],[33.0859,2.0663],[33.0335,2.0252],[32.8881,2.0747]]]}},{"type":"Feature","properties":{"sourceId":"1159313721","regionId":"region.462760e2-52b5-47b0-999f-c6860c0ffea5","countryId":"country.5q931z"},"geometry":{"type":"Polygon","coordinates":[[[30.5454,0.9295],[30.4407,0.762],[30.3982,0.615],[30.4281,0.5412],[30.5238,0.4308],[30.5504,0.2975],[30.7806,0.4194],[30.8837,0.4143],[30.9524,0.5724],[30.9373,0.6978],[30.8189,0.8357],[30.5454,0.9295]]]}},{"type":"Feature","properties":{"sourceId":"1159315071","regionId":"region.cfe6f28d-c8cf-4fee-9570-77f7fec9e226","countryId":"country.5q931z"},"geometry":{"type":"Polygon","coordinates":[[[30.4281,0.5412],[30.3763,0.4853],[30.3618,0.2276],[30.2687,0.2635],[30.2066,-0.0793],[30.2497,-0.1199],[30.4165,-0.1728],[30.4007,-0.0283],[30.4749,0.1004],[30.6441,0.1634],[30.8528,0.1858],[30.9198,0.2837],[30.8837,0.4143],[30.7806,0.4194],[30.5504,0.2975],[30.5238,0.4308],[30.4281,0.5412]]]}},{"type":"Feature","properties":{"sourceId":"1159317361","regionId":"region.4fada80c-9262-4edb-9558-cda606768763","countryId":"country.5q931z"},"geometry":{"type":"Polygon","coordinates":[[[31.0088,0.2067],[31.1264,0.3448],[31.2144,0.6224],[30.9373,0.6978],[30.9524,0.5724],[30.8837,0.4143],[30.9198,0.2837],[30.8528,0.1858],[31.0007,0.2023],[31.0088,0.2067]]]}},{"type":"Feature","properties":{"sourceId":"1159311329","regionId":"region.6b9c42dd-aa56-4c3c-a424-ff29a7501ee6","countryId":"country.5q931z"},"geometry":{"type":"Polygon","coordinates":[[[31.0007,0.2023],[31.0776,-0.0444],[31.309,-0.1004],[31.2782,-0.2609],[31.4605,-0.3149],[31.6072,-0.2622],[31.5504,0.0183],[31.5918,0.0494],[31.3348,0.2006],[31.2178,0.1703],[31.1574,0.2277],[31.0088,0.2067],[31.0007,0.2023]]]}},{"type":"Feature","properties":{"sourceId":"1159313723","regionId":"region.83df62d9-db59-4459-87ea-052692116f06","countryId":"country.5q931z"},"geometry":{"type":"Polygon","coordinates":[[[31.4381,0.8615],[31.4273,0.9262],[31.5213,1.0274],[31.4074,1.1555],[31.2905,1.2135],[31.2099,1.2195],[30.8717,1.1053],[30.8051,1.1241],[30.6755,1.0543],[30.5481,1.0742],[30.5272,0.9859],[30.5454,0.9295],[30.8189,0.8357],[30.9373,0.6978],[31.2144,0.6224],[31.2748,0.7077],[31.3643,0.6988],[31.4381,0.8615]]]}},{"type":"Feature","properties":{"sourceId":"1159313689","regionId":"region.043a080d-b59c-4d4c-8c9e-6d6a8e2de1ff","countryId":"country.5q931z"},"geometry":{"type":"Polygon","coordinates":[[[31.4381,0.8615],[31.3643,0.6988],[31.2748,0.7077],[31.2144,0.6224],[31.1264,0.3448],[31.0088,0.2067],[31.1574,0.2277],[31.2178,0.1703],[31.3348,0.2006],[31.3368,0.253],[31.575,0.3376],[31.8214,0.283],[31.9488,0.2957],[31.969,0.4256],[31.9023,0.5961],[31.9534,0.6485],[31.8355,0.8033],[31.6747,0.8661],[31.4381,0.8615]]]}},{"type":"Feature","properties":{"sourceId":"1159313711","regionId":"region.c571bc60-e962-4c11-9e85-b5add9fef200","countryId":"country.5q931z"},"geometry":{"type":"Polygon","coordinates":[[[32.8111,2.4749],[32.7753,2.5786],[32.6637,2.6038],[32.486,2.608],[32.44,2.4784],[32.3624,2.4696],[32.242,2.4605],[32.2601,2.2568],[32.3468,2.0727],[32.4707,2.0506],[32.5497,2.1803],[32.603,2.2458],[32.5817,2.3637],[32.6904,2.4634],[32.8111,2.4749]]]}},{"type":"Feature","properties":{"sourceId":"1159313703","regionId":"region.353fb509-ad62-4ff1-921f-e3d0d6626a85","countryId":"country.5q931z"},"geometry":{"type":"Polygon","coordinates":[[[32.8111,2.4749],[32.7608,2.3424],[32.8277,2.227],[32.8128,2.1067],[32.8881,2.0747],[33.0335,2.0252],[33.0859,2.0663],[33.0794,2.2225],[32.9829,2.3073],[32.9654,2.4534],[33.0147,2.5332],[32.8222,2.6377],[32.7753,2.5786],[32.8111,2.4749]]]}},{"type":"Feature","properties":{"sourceId":"1159317345","regionId":"region.67b8cebf-0116-4ac2-a8f1-7dddbbf503f2","countryId":"country.5q931z"},"geometry":{"type":"Polygon","coordinates":[[[32.8111,2.4749],[32.6904,2.4634],[32.5817,2.3637],[32.603,2.2458],[32.5497,2.1803],[32.6731,2.1786],[32.8128,2.1067],[32.8277,2.227],[32.7608,2.3424],[32.8111,2.4749]]]}},{"type":"Feature","properties":{"sourceId":"1159313707","regionId":"region.0803e028-f56e-4cd0-8eb2-844f546ba873","countryId":"country.5q931z"},"geometry":{"type":"Polygon","coordinates":[[[32.7753,2.5786],[32.8222,2.6377],[33.0147,2.5332],[33.1287,2.6118],[33.056,2.7107],[33.211,2.7458],[33.2285,2.8832],[33.1116,2.8949],[33.1554,3.0177],[33.0645,3.1325],[32.9315,3.1796],[32.7828,3.1799],[32.6801,3.1367],[32.5152,3.1358],[32.5383,3.0303],[32.6388,2.8423],[32.7324,2.7321],[32.6637,2.6038],[32.7753,2.5786]]]}},{"type":"Feature","properties":{"sourceId":"1159315073","regionId":"region.f8850e5c-9c31-43f0-a7f3-6fe75b13e9ae","countryId":"country.5q931z"},"geometry":{"type":"Polygon","coordinates":[[[30.6215,-0.2272],[30.5852,-0.1388],[30.7344,0.1202],[30.6441,0.1634],[30.4749,0.1004],[30.4007,-0.0283],[30.4165,-0.1728],[30.2497,-0.1199],[30.3234,-0.2116],[30.408,-0.2678],[30.5036,-0.2559],[30.6215,-0.2272]]]}},{"type":"Feature","properties":{"sourceId":"1159315085","regionId":"region.036db25e-1bd1-4bcb-a147-a045534faa5e","countryId":"country.5q931z"},"geometry":{"type":"Polygon","coordinates":[[[30.5036,-0.2559],[30.47,-0.446],[30.4252,-0.6303],[30.2727,-0.7549],[30.4562,-0.8234],[30.59,-0.8057],[30.6402,-0.8138],[30.6475,-0.6121],[30.7652,-0.605],[30.8097,-0.4977],[30.6753,-0.3868],[30.6215,-0.2272],[30.5036,-0.2559]]]}},{"type":"Feature","properties":{"sourceId":"1159313701","regionId":"region.a40c4260-a2ca-41de-bd46-8de2dd14573e","countryId":"country.5q931z"},"geometry":{"type":"Polygon","coordinates":[[[32.5152,3.1358],[32.3574,3.2867],[32.2185,3.1468],[32.1787,3.0532],[32.2161,2.7866],[32.2011,2.7295],[32.1623,2.6439],[32.2675,2.5927],[32.3624,2.4696],[32.44,2.4784],[32.486,2.608],[32.6637,2.6038],[32.7324,2.7321],[32.6388,2.8423],[32.5383,3.0303],[32.5152,3.1358]]]}},{"type":"Feature","properties":{"sourceId":"1159317343","regionId":"region.f4cf4197-390f-4e4f-9ca7-dd9387d3c57c","countryId":"country.5q931z"},"geometry":{"type":"Polygon","coordinates":[[[32.3468,2.0727],[32.2601,2.2568],[32.1799,2.2306],[32.0161,2.2915],[31.9198,2.3597],[31.7554,2.2983],[31.7508,2.0602],[31.8756,1.9642],[31.866,1.8106],[31.9044,1.6907],[32.0244,1.6427],[32.1015,1.6656],[32.1628,1.7782],[32.3415,1.8679],[32.3468,2.0727]]]}},{"type":"Feature","properties":{"sourceId":"1159311309","regionId":"region.7c36932a-3c23-4f69-9169-aa8fd469b836","countryId":"country.5q931z"},"geometry":{"type":"Polygon","coordinates":[[[33.5657,0.4507],[33.6088,0.4422],[33.6615,0.6001],[33.6305,0.7329],[33.5318,0.8809],[33.4273,0.8714],[33.4204,0.728],[33.513,0.6672],[33.5171,0.5475],[33.5657,0.4507]]]}},{"type":"Feature","properties":{"sourceId":"1159317373","regionId":"region.ba895912-7b25-405d-b452-d67e8a0a1b59","countryId":"country.5q931z"},"geometry":{"type":"Polygon","coordinates":[[[31.2782,-0.2609],[31.237,-0.4641],[31.3454,-0.561],[31.4592,-0.6037],[31.6215,-0.47],[31.6186,-0.3789],[31.7211,-0.2622],[31.6072,-0.2622],[31.4605,-0.3149],[31.2782,-0.2609]]]}},{"type":"Feature","properties":{"sourceId":"1159317377","regionId":"region.65f602aa-1aef-4032-981e-d9aea05a8fc0","countryId":"country.5q931z"},"geometry":{"type":"Polygon","coordinates":[[[31.6072,-0.2622],[31.7211,-0.2622],[31.7552,-0.2053],[31.6488,0.0471],[31.5918,0.0494],[31.5504,0.0183],[31.6072,-0.2622]]]}},{"type":"Feature","properties":{"sourceId":"1159317379","regionId":"region.35475a52-6953-4089-b115-a66d09437bec","countryId":"country.5q931z"},"geometry":{"type":"Polygon","coordinates":[[[31.8558,-0.0074],[31.7935,0.0501],[31.6488,0.0471],[31.7552,-0.2053],[31.7211,-0.2622],[31.8919,-0.265],[31.9745,-0.2304],[31.9357,-0.1268],[31.8558,-0.0074]]]}},{"type":"Feature","properties":{"sourceId":"1159313677","regionId":"region.78bf3ef8-bac0-431f-89c2-7195e1548a70","countryId":"country.5q931z"},"geometry":{"type":"Polygon","coordinates":[[[32.6595,0.5037],[32.5358,0.4426],[32.5473,0.2737],[32.6642,0.2876],[32.6595,0.5037]]]}},{"type":"Feature","properties":{"sourceId":"1159311315","regionId":"region.41d7860c-d572-40ea-8756-1b3951eff350","countryId":"country.5q931z"},"geometry":{"type":"Polygon","coordinates":[[[33.5318,0.8809],[33.6329,1.0876],[33.4425,1.2876],[33.3388,1.0793],[33.4092,0.9852],[33.4273,0.8714],[33.5318,0.8809]]]}},{"type":"Feature","properties":{"sourceId":"1159317353","regionId":"region.4e37a261-1582-4a7e-b8b1-266885b3ffd3","countryId":"country.5q931z"},"geometry":{"type":"Polygon","coordinates":[[[33.55,3.2687],[33.3893,3.2995],[33.36,3.196],[33.2143,3.188],[33.1554,3.0177],[33.1116,2.8949],[33.2285,2.8832],[33.211,2.7458],[33.056,2.7107],[33.1287,2.6118],[33.2772,2.602],[33.4321,2.6293],[33.5342,2.5964],[33.5247,2.6687],[33.6038,2.7833],[33.555,3.1957],[33.55,3.2687]]]}},{"type":"Feature","properties":{"sourceId":"1159313749","regionId":"region.def13a02-829b-4015-9d1d-680ff1d22ba3","countryId":"country.5q931z"},"geometry":{"type":"Polygon","coordinates":[[[33.555,3.1957],[33.6787,3.1784],[33.6705,3.0539],[33.8424,2.9329],[33.8474,2.6685],[33.9506,2.6169],[34.0113,2.7561],[34.2261,2.7245],[34.2517,2.8328],[34.2745,2.9178],[34.3863,3.0817],[34.3285,3.0829],[34.1576,3.1971],[33.9062,3.2437],[33.7434,3.3531],[33.6814,3.2514],[33.55,3.2687],[33.555,3.1957]]]}},{"type":"Feature","properties":{"sourceId":"1159313757","regionId":"region.c8dc5884-4f75-4586-98a1-e27527dc6d98","countryId":"country.5q931z"},"geometry":{"type":"Polygon","coordinates":[[[33.555,3.1957],[33.6038,2.7833],[33.5247,2.6687],[33.5342,2.5964],[33.6512,2.4564],[33.7717,2.5011],[34.0061,2.5024],[33.9506,2.6169],[33.8474,2.6685],[33.8424,2.9329],[33.6705,3.0539],[33.6787,3.1784],[33.555,3.1957]]]}},{"type":"Feature","properties":{"sourceId":"1159317349","regionId":"region.89558a11-e7b1-4bf5-acc8-6af700523072","countryId":"country.5q931z"},"geometry":{"type":"Polygon","coordinates":[[[33.0147,2.5332],[32.9654,2.4534],[33.17,2.4418],[33.2051,2.3833],[33.3922,2.3394],[33.5461,2.3559],[33.6378,2.3604],[33.6512,2.4564],[33.5342,2.5964],[33.4321,2.6293],[33.2772,2.602],[33.1287,2.6118],[33.0147,2.5332]]]}},{"type":"Feature","properties":{"sourceId":"1159317347","regionId":"region.259767a3-c71b-49f3-9cc6-5fb78fa4a722","countryId":"country.5q931z"},"geometry":{"type":"Polygon","coordinates":[[[33.3712,2.0193],[33.3698,2.0919],[33.4708,2.1283],[33.5461,2.3559],[33.3922,2.3394],[33.2051,2.3833],[33.17,2.4418],[32.9654,2.4534],[32.9829,2.3073],[33.0794,2.2225],[33.0859,2.0663],[33.1734,2.1115],[33.2912,2.0395],[33.3712,2.0193]]]}},{"type":"Feature","properties":{"sourceId":"1159313753","regionId":"region.6fc2b78d-0844-42f4-a635-f14c60176880","countryId":"country.5q931z"},"geometry":{"type":"Polygon","coordinates":[[[33.4438,1.8874],[33.4684,2.0038],[33.5309,2.0129],[33.7816,1.774],[33.809,1.7083],[33.8699,1.7713],[33.9071,2.1127],[33.9057,2.3043],[33.7237,2.4129],[33.6378,2.3604],[33.5461,2.3559],[33.4708,2.1283],[33.3698,2.0919],[33.3712,2.0193],[33.4438,1.8874]]]}},{"type":"Feature","properties":{"sourceId":"1159313747","regionId":"region.228249ad-697d-4949-ac76-78d1017f4764","countryId":"country.5q931z"},"geometry":{"type":"Polygon","coordinates":[[[33.809,1.7083],[33.8106,1.6683],[33.8958,1.6385],[34.2117,1.6313],[34.2118,1.9546],[34.2029,2.1114],[33.9057,2.3043],[33.9071,2.1127],[33.8699,1.7713],[33.809,1.7083]]]}},{"type":"Feature","properties":{"sourceId":"1159317399","regionId":"region.3c9b3389-ba8c-40c8-a780-387b509f0618","countryId":"country.5q931z"},"geometry":{"type":"Polygon","coordinates":[[[33.405,1.3355],[33.5593,1.3301],[33.6669,1.4131],[33.7154,1.5917],[33.5793,1.5677],[33.4653,1.6144],[33.3542,1.7168],[33.2548,1.6992],[33.2147,1.572],[33.208,1.3689],[33.3783,1.3706],[33.405,1.3355]]]}},{"type":"Feature","properties":{"sourceId":"1159311323","regionId":"region.d0d68bde-7426-4237-85c3-6976fd5661b8","countryId":"country.5q931z"},"geometry":{"type":"Polygon","coordinates":[[[33.3542,1.7168],[33.4653,1.6144],[33.5793,1.5677],[33.7154,1.5917],[33.8106,1.6683],[33.809,1.7083],[33.7816,1.774],[33.5309,2.0129],[33.4684,2.0038],[33.4438,1.8874],[33.4379,1.7739],[33.3542,1.7168]]]}},{"type":"Feature","properties":{"sourceId":"1159311327","regionId":"region.acc5a944-86e9-47da-a428-0aff227fdf5f","countryId":"country.5q931z"},"geometry":{"type":"Polygon","coordinates":[[[33.4425,1.2876],[33.6329,1.0876],[33.7099,1.0869],[33.9038,1.1679],[34.1298,1.1145],[34.1165,1.1779],[33.9266,1.2462],[33.7892,1.3136],[33.5593,1.3301],[33.405,1.3355],[33.4425,1.2876]]]}},{"type":"Feature","properties":{"sourceId":"1159315077","regionId":"region.036db25e-1bd1-4bcb-a147-a045534faa5e","countryId":"country.5q931z"},"geometry":{"type":"Polygon","coordinates":[[[30.6441,0.1634],[30.7344,0.1202],[30.5852,-0.1388],[30.6215,-0.2272],[30.6753,-0.3868],[30.8097,-0.4977],[30.7652,-0.605],[30.8653,-0.6951],[31.0749,-0.6527],[31.1348,-0.5284],[31.1479,-0.4927],[31.0655,-0.2763],[31.0776,-0.0444],[31.0007,0.2023],[30.8528,0.1858],[30.6441,0.1634]]]}},{"type":"Feature","properties":{"sourceId":"1159317375","regionId":"region.e43cf12d-314d-425c-82f6-03a9d8511c3b","countryId":"country.5q931z"},"geometry":{"type":"Polygon","coordinates":[[[31.2782,-0.2609],[31.309,-0.1004],[31.0776,-0.0444],[31.0655,-0.2763],[31.1479,-0.4927],[31.1348,-0.5284],[31.237,-0.4641],[31.2782,-0.2609]]]}},{"type":"Feature","properties":{"sourceId":"1159315063","regionId":"region.b80e3ddd-e0cd-4057-a5d5-8edb5b406508","countryId":"country.5q931z"},"geometry":{"type":"Polygon","coordinates":[[[31.6215,-0.47],[31.6897,-0.5203],[31.6764,-0.6121],[31.7519,-0.7319],[31.9862,-0.7739],[31.9862,-0.4132],[32.052,-0.3711],[31.9745,-0.2304],[31.8919,-0.265],[31.7211,-0.2622],[31.6186,-0.3789],[31.6215,-0.47]]]}},{"type":"Feature","properties":{"sourceId":"1159311325","regionId":"region.3fd12fa4-ccce-4a42-818f-1b9997b1a301","countryId":"country.5q931z"},"geometry":{"type":"Polygon","coordinates":[[[32.7927,0.8453],[32.7534,0.5876],[32.6702,0.5565],[32.6595,0.5037],[32.6642,0.2876],[32.62,0.1337],[32.6217,0.0024],[32.4931,-0.1631],[32.605,-0.1631],[32.8607,0.1404],[32.9188,0.2566],[33.0205,0.36],[32.985,0.5102],[33.0316,0.587],[32.8586,0.7234],[32.7927,0.8453]]]}},{"type":"Feature","properties":{"sourceId":"1159317389","regionId":"region.8a9e05e8-1246-45ea-9ca3-7dae3044bbc3","countryId":"country.5q931z"},"geometry":{"type":"Polygon","coordinates":[[[33.0316,0.587],[32.985,0.5102],[33.0205,0.36],[32.9188,0.2566],[32.8607,0.1404],[32.605,-0.1631],[32.8472,-0.1631],[32.8472,-0.4621],[33.0138,-0.147],[33.0783,0.091],[33.2729,0.3502],[33.0986,0.5442],[33.0316,0.587]]]}},{"type":"Feature","properties":{"sourceId":"1159313761","regionId":"region.f08a2190-2b7a-46e5-b1a9-95f377478644","countryId":"country.5q931z"},"geometry":{"type":"Polygon","coordinates":[[[34.3777,1.5572],[34.5028,1.5918],[34.6373,1.5409],[34.7888,1.6811],[34.808,1.993],[34.8416,2.113],[34.8176,2.3098],[34.7546,2.4841],[34.6352,2.4778],[34.6304,2.1226],[34.6016,2.0794],[34.4481,2.0698],[34.3089,1.9642],[34.2118,1.9546],[34.2117,1.6313],[34.2297,1.5557],[34.3777,1.5572]]]}},{"type":"Feature","properties":{"sourceId":"1159317411","regionId":"region.c497ee6d-e4d2-47c0-bfe3-507e65982cc2","countryId":"country.5q931z"},"geometry":{"type":"Polygon","coordinates":[[[34.6373,1.5409],[34.5028,1.5918],[34.3777,1.5572],[34.4332,1.4456],[34.5666,1.3734],[34.5484,1.2004],[34.7422,1.4194],[34.6373,1.5409]]]}},{"type":"Feature","properties":{"sourceId":"1159317371","regionId":"region.bf2a0055-65db-4de4-b10a-b4d861905a4f","countryId":"country.5q931z"},"geometry":{"type":"Polygon","coordinates":[[[30.3234,-0.2116],[30.1457,-0.3075],[30.1378,-0.4174],[30.3262,-0.492],[30.47,-0.446],[30.5036,-0.2559],[30.408,-0.2678],[30.3234,-0.2116]]]}},{"type":"Feature","properties":{"sourceId":"1159317367","regionId":"region.90fbe5ae-1d6c-49fb-bf4b-54cd1d4985b1","countryId":"country.5q931z"},"geometry":{"type":"Polygon","coordinates":[[[30.47,-0.446],[30.3262,-0.492],[30.3144,-0.6176],[30.1653,-0.6333],[30.1873,-0.7248],[30.2727,-0.7549],[30.4252,-0.6303],[30.47,-0.446]]]}},{"type":"Feature","properties":{"sourceId":"1159317365","regionId":"region.6cd832eb-e3f2-4707-9ac8-aeca424130b7","countryId":"country.5q931z"},"geometry":{"type":"Polygon","coordinates":[[[30.1873,-0.7248],[30.1653,-0.6333],[30.0829,-0.5391],[29.9426,-0.505],[29.9133,-0.6216],[30.0582,-0.76],[30.1873,-0.7248]]]}},{"type":"Feature","properties":{"sourceId":"1159315067","regionId":"region.70a9fa09-de6e-4f49-a44f-c3663020419f","countryId":"country.5q931z"},"geometry":{"type":"Polygon","coordinates":[[[29.9426,-0.505],[30.0829,-0.5391],[30.1653,-0.6333],[30.3144,-0.6176],[30.3262,-0.492],[30.1378,-0.4174],[30.024,-0.3507],[29.9141,-0.4017],[29.9426,-0.505]]]}},{"type":"Feature","properties":{"sourceId":"1159317409","regionId":"region.47a0baab-41da-496e-96bc-bc7733ecf504","countryId":"country.5q931z"},"geometry":{"type":"Polygon","coordinates":[[[34.3777,1.5572],[34.2297,1.5557],[34.2681,1.3997],[34.2142,1.2416],[34.5242,1.1623],[34.5244,1.1965],[34.3285,1.3],[34.3139,1.3513],[34.4332,1.4456],[34.3777,1.5572]]]}},{"type":"Feature","properties":{"sourceId":"1159313729","regionId":"region.d9f20264-a80f-4c8d-a42c-f62ae765b000","countryId":"country.5q931z"},"geometry":{"type":"Polygon","coordinates":[[[34.3571,1.0864],[34.5075,1.1025],[34.5242,1.1623],[34.2142,1.2416],[34.1569,1.1632],[34.3571,1.0864]]]}},{"type":"Feature","properties":{"sourceId":"1159313737","regionId":"region.8dd70586-0d63-4382-a788-4e64788ca350","countryId":"country.5q931z"},"geometry":{"type":"Polygon","coordinates":[[[33.6305,0.7329],[33.6615,0.6001],[33.6088,0.4422],[33.6847,0.3217],[33.829,0.3832],[33.8925,0.4739],[33.9571,0.5642],[33.8651,0.6846],[33.8374,0.6896],[33.6305,0.7329]]]}},{"type":"Feature","properties":{"sourceId":"1159313667","regionId":"region.5fbd9a62-47b8-4de6-b245-826d93b394b8","countryId":"country.5q931z"},"geometry":{"type":"Polygon","coordinates":[[[32.3624,2.4696],[32.2675,2.5927],[32.1623,2.6439],[32.2011,2.7295],[31.9849,2.8003],[31.7474,2.7968],[31.7049,2.733],[31.5879,2.733],[31.4235,2.6173],[31.4778,2.5192],[31.4669,2.3555],[31.3764,2.3023],[31.3457,2.1796],[31.5459,2.2778],[31.7554,2.2983],[31.9198,2.3597],[32.0161,2.2915],[32.1799,2.2306],[32.2601,2.2568],[32.242,2.4605],[32.3624,2.4696]]]}},{"type":"Feature","properties":{"sourceId":"1159313731","regionId":"region.ee877d7a-ea4b-4e41-afd6-3399466d43a2","countryId":"country.5q931z"},"geometry":{"type":"Polygon","coordinates":[[[34.1298,1.1145],[34.0692,1.034],[34.085,0.9023],[34.1637,0.8281],[34.2636,0.9992],[34.3571,1.0864],[34.1569,1.1632],[34.1165,1.1779],[34.1298,1.1145]]]}},{"type":"Feature","properties":{"sourceId":"1159311317","regionId":"region.7ad072f3-7c62-46fb-9671-98920944ffab","countryId":"country.5q931z"},"geometry":{"type":"Polygon","coordinates":[[[34.1298,1.1145],[33.9038,1.1679],[33.8436,0.939],[33.9547,0.9482],[34.0692,1.034],[34.1298,1.1145]]]}},{"type":"Feature","properties":{"sourceId":"1159313741","regionId":"region.b80b3d5d-d3a5-43da-bf9b-687925f71b4e","countryId":"country.5q931z"},"geometry":{"type":"Polygon","coordinates":[[[34.0692,1.034],[33.9547,0.9482],[33.8436,0.939],[33.7429,0.9361],[33.8374,0.6896],[33.8651,0.6846],[33.9234,0.8168],[34.085,0.9023],[34.0692,1.034]]]}},{"type":"Feature","properties":{"sourceId":"1159317407","regionId":"region.9e449c55-afe9-49db-ab36-c7aa238049c8","countryId":"country.5q931z"},"geometry":{"type":"Polygon","coordinates":[[[33.8436,0.939],[33.9038,1.1679],[33.7099,1.0869],[33.6329,1.0876],[33.7429,0.9361],[33.8436,0.939]]]}},{"type":"Feature","properties":{"sourceId":"1159317355","regionId":"region.18c79b19-1bfb-481b-9599-d97719a28a40","countryId":"country.5q931z"},"geometry":{"type":"Polygon","coordinates":[[[34.2517,2.8328],[34.2261,2.7245],[34.0113,2.7561],[33.9506,2.6169],[34.0061,2.5024],[33.7717,2.5011],[33.6512,2.4564],[33.6378,2.3604],[33.7237,2.4129],[33.9057,2.3043],[34.2029,2.1114],[34.2118,1.9546],[34.3089,1.9642],[34.4481,2.0698],[34.6016,2.0794],[34.6304,2.1226],[34.6352,2.4778],[34.7546,2.4841],[34.6448,2.6409],[34.5632,2.6649],[34.4385,2.7753],[34.2517,2.8328]]]}},{"type":"Feature","properties":{"sourceId":"1159311301","regionId":"region.e7e5a236-accf-4607-ba4c-31c705231dbd","countryId":"country.5q931z"},"geometry":{"type":"Polygon","coordinates":[[[34.2297,1.5557],[34.2117,1.6313],[33.8958,1.6385],[33.8401,1.5905],[33.843,1.4313],[33.7892,1.3136],[33.9266,1.2462],[34.0022,1.2952],[34.0427,1.495],[34.2297,1.5557]]]}},{"type":"Feature","properties":{"sourceId":"1159317401","regionId":"region.79c5c613-a357-4d9e-9752-7d13311ba1d1","countryId":"country.5q931z"},"geometry":{"type":"Polygon","coordinates":[[[33.8106,1.6683],[33.7154,1.5917],[33.6669,1.4131],[33.5593,1.3301],[33.7892,1.3136],[33.843,1.4313],[33.8401,1.5905],[33.8958,1.6385],[33.8106,1.6683]]]}},{"type":"Feature","properties":{"sourceId":"1159317403","regionId":"region.1a0613ce-05d2-4634-a742-bf89c1220fac","countryId":"country.5q931z"},"geometry":{"type":"Polygon","coordinates":[[[34.1165,1.1779],[34.1569,1.1632],[34.2142,1.2416],[34.2681,1.3997],[34.2297,1.5557],[34.0427,1.495],[34.0022,1.2952],[33.9266,1.2462],[34.1165,1.1779]]]}},{"type":"Feature","properties":{"sourceId":"1159311319","regionId":"region.a80d3e86-8e61-4ece-aba4-545c55be8856","countryId":"country.5q931z"},"geometry":{"type":"Polygon","coordinates":[[[33.6305,0.7329],[33.8374,0.6896],[33.7429,0.9361],[33.6329,1.0876],[33.5318,0.8809],[33.6305,0.7329]]]}}]}