{"type":"FeatureCollection","features":[{"type":"Feature","properties":{"sourceId":"1159315279","regionId":"region.edc5b581-380e-4f9a-b977-e4960890bc01","countryId":"country.jm8gea"},"geometry":{"type":"Polygon","coordinates":[[[128.3649,38.6243],[128.2828,38.7551],[128.2102,38.7277],[128.0912,38.8437],[128.0147,38.8581],[127.7696,39.1092],[127.4522,39.166],[127.372,39.2404],[127.4381,39.4052],[127.1307,39.4036],[127.0252,39.2044],[126.9817,39.0691],[127.0002,38.9352],[126.8741,38.8792],[126.8669,38.7773],[126.7911,38.6758],[126.6779,38.6176],[126.7014,38.4983],[126.9401,38.1742],[126.9661,38.213],[127.1575,38.3072],[127.4719,38.2959],[127.7537,38.3254],[127.8008,38.2939],[128.0399,38.3043],[128.1724,38.356],[128.2681,38.4535],[128.2748,38.5715],[128.3649,38.6243]]]}},{"type":"Feature","properties":{"sourceId":"1159315273","regionId":"region.89453281-5dc0-422a-83b5-2da069503274","countryId":"country.jm8gea"},"geometry":{"type":"Polygon","coordinates":[[[126.9401,38.1742],[126.7014,38.4983],[126.6779,38.6176],[126.7911,38.6758],[126.8669,38.7773],[126.8741,38.8792],[127.0002,38.9352],[126.9817,39.0691],[126.7299,39.1458],[126.5637,39.1148],[126.5217,39.0004],[126.3873,38.9305],[126.1867,38.9894],[126.1251,38.9038],[126.2192,38.7834],[126.1149,38.7159],[125.7358,38.8412],[125.5751,38.7805],[125.6301,38.659],[125.6472,38.6286],[125.7495,38.3321],[125.833,38.3166],[125.9703,38.1701],[126.2721,38.2408],[126.3882,38.2011],[126.4016,37.889],[126.5762,37.7775],[126.6675,37.8278],[126.6658,37.9376],[126.7619,37.979],[126.9401,38.1742]]]}},{"type":"Feature","properties":{"sourceId":"1159315277","regionId":"region.597414a4-2e84-4b8e-b8ac-847c161f674f","countryId":"country.jm8gea"},"geometry":{"type":"Polygon","coordinates":[[[130.4522,42.5496],[130.243,42.7434],[130.239,42.9022],[130.1215,42.9818],[129.8798,42.996],[129.7613,42.746],[129.7033,42.4424],[129.5171,42.391],[129.3631,42.445],[129.2431,42.3787],[129.2112,42.22],[128.8832,42.0304],[128.7685,41.921],[128.7757,41.633],[128.8978,41.5738],[128.8394,41.4527],[128.933,41.2692],[128.9233,41.0883],[128.9551,41.0152],[128.9245,40.8154],[129.0622,40.5922],[129.1606,40.5646],[129.2335,40.7057],[129.7166,40.8346],[129.753,40.9099],[129.7119,41.1226],[129.7999,41.3686],[129.6594,41.4646],[129.6908,41.6497],[129.7748,41.7594],[129.9647,41.8987],[130.073,42.0785],[130.2023,42.1736],[130.2735,42.3321],[130.2618,42.4177],[130.433,42.4527],[130.4522,42.5496]]]}},{"type":"Feature","properties":{"sourceId":"1159317137","regionId":"region.7b832a38-b8b0-42a2-b6e3-13e8d7e399c9","countryId":"country.jm8gea"},"geometry":{"type":"Polygon","coordinates":[[[130.5308,42.5305],[130.4522,42.5496],[130.433,42.4527],[130.2618,42.4177],[130.2735,42.3321],[130.2023,42.1736],[130.4807,42.3398],[130.6166,42.2723],[130.7,42.2951],[130.5308,42.5305]]]}},{"type":"Feature","properties":{"sourceId":"1159315289","regionId":"region.44b5c575-a8e7-4a96-b8b7-2d46a67fadc7","countryId":"country.jm8gea"},"geometry":{"type":"Polygon","coordinates":[[[128.8832,42.0304],[128.721,42.0476],[128.5024,41.9961],[128.262,42.0329],[128.0346,41.9937],[128.04,41.8796],[128.1591,41.7118],[128.303,41.5834],[128.1857,41.4045],[128.0642,41.3884],[127.9442,41.4709],[127.8489,41.4313],[127.6383,41.4299],[127.4741,41.4988],[127.2691,41.505],[127.114,41.6104],[126.9996,41.752],[126.9291,41.4477],[126.9664,41.2975],[127.0645,41.145],[127.2049,41.102],[127.3267,41.1757],[127.3917,41.0713],[127.5579,41.1536],[127.6615,41.1292],[127.6548,41.0089],[127.5393,40.8622],[127.7044,40.5902],[127.7586,40.4055],[128.0505,40.5882],[128.1757,40.5521],[128.3034,40.6626],[128.3837,40.9077],[128.4789,41.0072],[128.7384,41.1703],[128.9233,41.0883],[128.933,41.2692],[128.8394,41.4527],[128.8978,41.5738],[128.7757,41.633],[128.7685,41.921],[128.8832,42.0304]]]}},{"type":"Feature","properties":{"sourceId":"1159315283","regionId":"region.7360bbe9-a1f8-4e96-8d9f-cc550aa23976","countryId":"country.jm8gea"},"geometry":{"type":"Polygon","coordinates":[[[126.9996,41.752],[126.8871,41.7849],[126.7886,41.6959],[126.6179,41.6659],[126.5013,41.4344],[126.2607,41.1431],[126.1474,41.0923],[126.0078,40.8993],[125.7041,40.8592],[125.4152,40.6527],[125.6122,40.5196],[125.5758,40.4238],[125.6572,40.3017],[125.807,40.2236],[125.9689,40.2196],[126.1443,40.0736],[126.3601,40.0175],[126.4385,39.9953],[126.8075,40.2073],[126.912,40.3347],[126.9798,40.5311],[127.1659,40.6137],[127.2204,40.7181],[127.3772,40.8024],[127.3039,40.8708],[127.3917,41.0713],[127.3267,41.1757],[127.2049,41.102],[127.0645,41.145],[126.9664,41.2975],[126.9291,41.4477],[126.9996,41.752]]]}},{"type":"Feature","properties":{"sourceId":"1159315269","regionId":"region.3a5bbbbe-a33d-4b4f-ba47-b120612b699f","countryId":"country.jm8gea"},"geometry":{"type":"Polygon","coordinates":[[[125.4152,40.6527],[124.8955,40.4836],[124.7125,40.3103],[124.6426,40.2943],[124.37,40.0983],[124.37,39.94],[124.4344,39.8308],[124.5549,39.8171],[124.6749,39.6221],[124.8663,39.7139],[125.0477,39.6042],[125.2252,39.5912],[125.286,39.5212],[125.4518,39.5713],[125.8139,39.6866],[126.0271,39.857],[126.1007,39.8204],[126.3688,39.8992],[126.3601,40.0175],[126.1443,40.0736],[125.9689,40.2196],[125.807,40.2236],[125.6572,40.3017],[125.5758,40.4238],[125.6122,40.5196],[125.4152,40.6527]]]}},{"type":"Feature","properties":{"sourceId":"1159315287","regionId":"region.0d8f7668-7600-4567-8326-62e471a34d13","countryId":"country.jm8gea"},"geometry":{"type":"Polygon","coordinates":[[[125.6301,38.659],[125.5751,38.7805],[125.6039,38.9385],[125.5825,39.0696],[125.6308,39.2472],[125.7219,39.2832],[125.845,39.2028],[126.0591,39.2312],[126.2875,39.0605],[126.3873,38.9305],[126.5217,39.0004],[126.5637,39.1148],[126.7299,39.1458],[126.9817,39.0691],[127.0252,39.2044],[126.9151,39.2821],[126.7091,39.3091],[126.7367,39.4508],[126.6728,39.5293],[126.7193,39.7287],[126.7883,39.8441],[127.1129,39.8859],[127.0585,40.0196],[127.1622,40.1155],[127.1047,40.2848],[126.912,40.3347],[126.8075,40.2073],[126.4385,39.9953],[126.3601,40.0175],[126.3688,39.8992],[126.1007,39.8204],[126.0271,39.857],[125.8139,39.6866],[125.4518,39.5713],[125.346,39.4596],[125.4319,39.3007],[125.2874,39.1523],[125.1372,38.8035],[125.2625,38.7079],[125.5276,38.7209],[125.6301,38.659]]]}},{"type":"Feature","properties":{"sourceId":"1159315261","regionId":"region.bc096c73-3f32-41cc-a7e9-6172d860374b","countryId":"country.jm8gea"},"geometry":{"type":"Polygon","coordinates":[[[126.4016,37.889],[126.3882,38.2011],[126.2721,38.2408],[125.9703,38.1701],[125.833,38.3166],[125.7495,38.3321],[125.6472,38.6286],[125.4627,38.7073],[125.2596,38.6697],[125.0582,38.5685],[124.8839,38.3553],[124.9049,38.1248],[125.0135,38.0624],[125.0132,37.906],[125.1582,37.8676],[125.3006,37.8952],[125.3486,37.738],[125.4746,37.7312],[125.6092,37.8063],[125.7193,37.9525],[125.804,37.989],[125.8955,37.8648],[126.0628,37.8022],[126.4016,37.889]]]}},{"type":"Feature","properties":{"sourceId":"1159315285","regionId":"region.458bb2ce-ddec-4f27-9bc7-00d93a15021e","countryId":"country.jm8gea"},"geometry":{"type":"Polygon","coordinates":[[[129.1606,40.5646],[129.0622,40.5922],[128.9245,40.8154],[128.9551,41.0152],[128.9233,41.0883],[128.7384,41.1703],[128.4789,41.0072],[128.3837,40.9077],[128.3034,40.6626],[128.1757,40.5521],[128.0505,40.5882],[127.7586,40.4055],[127.7044,40.5902],[127.5393,40.8622],[127.6548,41.0089],[127.6615,41.1292],[127.5579,41.1536],[127.3917,41.0713],[127.3039,40.8708],[127.3772,40.8024],[127.2204,40.7181],[127.1659,40.6137],[126.9798,40.5311],[126.912,40.3347],[127.1047,40.2848],[127.1622,40.1155],[127.0585,40.0196],[127.1129,39.8859],[126.7883,39.8441],[126.7193,39.7287],[126.6728,39.5293],[126.7367,39.4508],[126.7091,39.3091],[126.9151,39.2821],[127.0252,39.2044],[127.1307,39.4036],[127.4381,39.4052],[127.5746,39.595],[127.5208,39.747],[127.6237,39.8309],[127.8746,39.8928],[128.0068,40.0452],[128.3021,40.0334],[128.3648,40.0969],[128.6646,40.2012],[128.6553,40.3202],[128.8605,40.3718],[128.9758,40.4599],[129.0776,40.4726],[129.1606,40.5646]]]}},{"type":"Feature","properties":{"sourceId":"1159315275","regionId":"region.dad5ed8c-2557-40fe-962c-f05606f533a4","countryId":"country.jm8gea"},"geometry":{"type":"Polygon","coordinates":[[[126.3873,38.9305],[126.2875,39.0605],[126.0591,39.2312],[125.845,39.2028],[125.7219,39.2832],[125.6308,39.2472],[125.5825,39.0696],[125.6039,38.9385],[125.5751,38.7805],[125.7358,38.8412],[126.1149,38.7159],[126.2192,38.7834],[126.1251,38.9038],[126.1867,38.9894],[126.3873,38.9305]]]}}]}