{"type":"FeatureCollection","features":[{"type":"Feature","properties":{"sourceId":"1159315979","regionId":"region.9b249fe8-b4b0-4e3d-84ad-27a70cac3072","countryId":"country.04160546-1bae-40f4-8a5f-465239c6d833"},"geometry":{"type":"Polygon","coordinates":[[[1.5973,42.6219],[1.4514,42.6021],[1.5556,42.5627],[1.5973,42.6219]]]}},{"type":"Feature","properties":{"sourceId":"1159315981","regionId":"region.1cad758d-d1ac-4204-946a-237566fb1007","countryId":"country.04160546-1bae-40f4-8a5f-465239c6d833"},"geometry":{"type":"Polygon","coordinates":[[[1.5973,42.6219],[1.5556,42.5627],[1.7171,42.5399],[1.7611,42.5676],[1.5973,42.6219]]]}},{"type":"Feature","properties":{"sourceId":"1159315985","regionId":"region.1bf70c3c-f9a7-47be-b501-cb2c478f2a7e","countryId":"country.04160546-1bae-40f4-8a5f-465239c6d833"},"geometry":{"type":"Polygon","coordinates":[[[1.7171,42.5399],[1.5556,42.5627],[1.5564,42.5381],[1.657,42.4976],[1.707,42.5028],[1.7171,42.5399]]]}},{"type":"Feature","properties":{"sourceId":"1159315977","regionId":"region.67913a65-00b1-45aa-933d-e396b87f7d17","countryId":"country.04160546-1bae-40f4-8a5f-465239c6d833"},"geometry":{"type":"Polygon","coordinates":[[[1.4293,42.5954],[1.45,42.5041],[1.4872,42.518],[1.5564,42.5381],[1.5556,42.5627],[1.4514,42.6021],[1.4293,42.5954]]]}},{"type":"Feature","properties":{"sourceId":"1159315989","regionId":"region.d67aba6b-7983-42c3-a6f5-cf4a1799aa92","countryId":"country.04160546-1bae-40f4-8a5f-465239c6d833"},"geometry":{"type":"Polygon","coordinates":[[[1.45,42.5041],[1.5727,42.4531],[1.4991,42.489],[1.4872,42.518],[1.45,42.5041]]]}},{"type":"Feature","properties":{"sourceId":"1159315987","regionId":"region.d430bc9a-f754-458e-be1e-a665fcf8bdea","countryId":"country.04160546-1bae-40f4-8a5f-465239c6d833"},"geometry":{"type":"Polygon","coordinates":[[[1.657,42.4976],[1.5564,42.5381],[1.4991,42.489],[1.5727,42.4531],[1.657,42.4976]]]}},{"type":"Feature","properties":{"sourceId":"1159315671","regionId":"region.c022a43f-78f2-411a-887f-f72fcbe1f92f","countryId":"country.04160546-1bae-40f4-8a5f-465239c6d833"},"geometry":{"type":"Polygon","coordinates":[[[1.5564,42.5381],[1.4872,42.518],[1.4991,42.489],[1.5564,42.5381]]]}}]}