{"type":"FeatureCollection","features":[{"type":"Feature","properties":{"sourceId":"1159310015","regionId":"region.7188eaf4-1a18-4bef-b27c-cabf2094314c","countryId":"country.72e2lh"},"geometry":{"type":"Polygon","coordinates":[[[9.7996,2.3417],[9.7655,2.0854],[9.7991,1.9011],[9.6175,1.6715],[9.5642,1.5034],[9.4076,1.2838],[9.3602,1.147],[9.5065,1.1376],[9.5843,1.043],[9.7551,1.1059],[9.8044,0.9984],[9.9086,0.9351],[10.0004,0.9997],[10.0968,1.0902],[10.2198,1.0908],[10.1494,1.2749],[10.1157,1.4817],[9.9298,1.558],[10.1061,1.8174],[10.1115,1.9254],[10.1966,2.0625],[10.19,2.1656],[9.991,2.1656],[9.8109,2.2649],[9.7996,2.3417]]]}},{"type":"Feature","properties":{"sourceId":"1159310013","regionId":"region.123e0bc6-2632-455e-b4a1-98c5316d218b","countryId":"country.72e2lh"},"geometry":{"type":"Polygon","coordinates":[[[10.4097,2.1657],[10.4211,1.9562],[10.5174,1.9149],[10.7024,1.9892],[10.8171,1.9404],[10.9591,1.9495],[10.9884,1.7624],[11.0353,1.732],[11.332,1.7326],[11.3221,2.1658],[10.4097,2.1657]]]}},{"type":"Feature","properties":{"sourceId":"1159310011","regionId":"region.ccfeb496-85dd-4230-8673-cbc09fa9a752","countryId":"country.72e2lh"},"geometry":{"type":"Polygon","coordinates":[[[10.19,2.1656],[10.1966,2.0625],[10.1115,1.9254],[10.1061,1.8174],[9.9298,1.558],[10.1157,1.4817],[10.1494,1.2749],[10.2198,1.0908],[10.0968,1.0902],[10.0004,0.9997],[10.415,1.0022],[10.9638,1.0004],[10.904,1.1824],[10.7772,1.3222],[10.8728,1.4805],[10.9627,1.5655],[10.5749,1.5872],[10.6104,1.8302],[10.5174,1.9149],[10.4211,1.9562],[10.4097,2.1657],[10.19,2.1656]]]}},{"type":"Feature","properties":{"sourceId":"1159310017","regionId":"region.aee12cbe-1d8d-41cd-bc15-4fedc8bae1c4","countryId":"country.72e2lh"},"geometry":{"type":"Polygon","coordinates":[[[11.332,1.7326],[11.0353,1.732],[10.9884,1.7624],[10.9591,1.9495],[10.8171,1.9404],[10.7024,1.9892],[10.5174,1.9149],[10.6104,1.8302],[10.5749,1.5872],[10.9627,1.5655],[10.8728,1.4805],[10.7772,1.3222],[10.904,1.1824],[10.9638,1.0004],[11.3363,0.9992],[11.332,1.7326]]]}},{"type":"Feature","properties":{"sourceId":"1159309931","regionId":"region.b6d9e204-b610-4a49-9228-7dbc287af8ce","countryId":"country.72e2lh"},"geometry":{"type":"Polygon","coordinates":[[[5.6262,-1.4562],[5.6463,-1.4384],[5.6331,-1.4158],[5.6187,-1.433],[5.6262,-1.4562]]]}},{"type":"Feature","properties":{"sourceId":"1159310029","regionId":"region.da2d758c-d9e4-4196-855d-45b4e6c88b5b","countryId":"country.72e2lh"},"geometry":{"type":"Polygon","coordinates":[[[8.6268,3.6331],[8.8421,3.5623],[8.8635,3.5151],[8.9575,3.643],[8.9227,3.7507],[8.7024,3.7609],[8.6268,3.6331]]]}},{"type":"Feature","properties":{"sourceId":"1159310031","regionId":"region.90ce30ae-4a9c-4cf7-a536-b020ed559b53","countryId":"country.72e2lh"},"geometry":{"type":"Polygon","coordinates":[[[8.8635,3.5151],[8.8421,3.5623],[8.6268,3.6331],[8.5628,3.4565],[8.4739,3.4631],[8.422,3.3393],[8.4502,3.2729],[8.6955,3.2086],[8.7747,3.3166],[8.8635,3.5151]]]}}]}