{"type":"FeatureCollection","features":[{"type":"Feature","properties":{"sourceId":"1159313357","regionId":"region.592fcc01-d989-48c1-856f-423f3d129ac5","countryId":"country.1ckv6i4"},"geometry":{"type":"Polygon","coordinates":[[[121.3816,6.0057],[121.0422,6.0971],[120.9055,6.015],[120.9341,5.8857],[121.0811,5.8882],[121.2278,5.9421],[121.2814,5.859],[121.4194,5.948],[121.3816,6.0057]]]}},{"type":"Feature","properties":{"sourceId":"1159313363","regionId":"region.91e77933-a246-45e2-95b1-8d7441d468ea","countryId":"country.1ckv6i4"},"geometry":{"type":"MultiPolygon","coordinates":[[[[125.7913,6.9482],[125.7819,7.1352],[125.6741,7.0702],[125.7913,6.9482]]],[[[125.8307,7.3543],[125.8339,7.4556],[125.9169,7.542],[125.9048,7.6875],[125.8178,7.6823],[125.7027,7.7937],[125.6754,7.9967],[125.3743,7.9978],[125.4441,7.7786],[125.4003,7.6666],[125.2889,7.5958],[125.5016,7.5916],[125.497,7.2579],[125.6768,7.2646],[125.8307,7.3543]]]]}},{"type":"Feature","properties":{"sourceId":"1159313365","regionId":"region.401df024-a183-433e-85cf-e8f3c3663c0a","countryId":"country.1ckv6i4"},"geometry":{"type":"MultiPolygon","coordinates":[[[[122.9717,7.3836],[122.905,7.4377],[122.7942,7.3839],[122.8167,7.2949],[122.9717,7.3836]]],[[[123.0964,7.7143],[123.0856,7.8076],[122.9226,7.8314],[122.9158,7.9184],[122.792,7.9454],[122.5728,7.8811],[122.3641,7.7008],[122.2607,7.471],[122.3599,7.4728],[122.4439,7.6086],[122.5967,7.7614],[122.7043,7.7883],[122.8147,7.7434],[122.8307,7.5498],[122.9956,7.4673],[123.0503,7.6551],[123.0964,7.7143]]]]}},{"type":"Feature","properties":{"sourceId":"1159313367","regionId":"region.17eef939-1fa3-4426-9015-39ca33eafb02","countryId":"country.1ckv6i4"},"geometry":{"type":"MultiPolygon","coordinates":[[[[117.085,8.0578],[116.9617,8.062],[116.9549,7.926],[117.0671,7.8487],[117.085,8.0578]]],[[[119.9502,10.6037],[119.8499,10.6448],[119.7783,10.5355],[119.8065,10.4461],[119.9932,10.54],[119.9502,10.6037]]],[[[118.6388,9.5211],[118.3823,9.6578],[118.2163,9.478],[118.127,9.3378],[118.0032,9.2333],[117.9045,9.2612],[117.7966,9.1633],[117.7681,9.0864],[117.6555,9.0579],[117.4504,8.7912],[117.2915,8.6408],[117.2223,8.5002],[117.3186,8.4519],[117.5129,8.5068],[117.5656,8.6611],[117.7737,8.7031],[117.9104,8.8297],[118.0137,8.8876],[118.1321,9.1267],[118.3358,9.1793],[118.4979,9.3137],[118.6388,9.5211]]],[[[118.9934,10.3003],[119.0834,10.1644],[119.1963,10.0563],[119.2372,10.1793],[119.356,10.3288],[119.5632,10.3735],[119.71,10.4945],[119.5908,10.6724],[119.5934,10.8371],[119.5193,10.8377],[119.5046,10.9709],[119.5618,11.059],[119.5205,11.1384],[119.569,11.2617],[119.513,11.3978],[119.4206,11.2976],[119.4061,11.0495],[119.32,11.0009],[119.2234,10.8508],[119.345,10.7236],[119.2781,10.5082],[119.1528,10.3985],[119.072,10.3915],[118.9934,10.3003]]],[[[120.0248,11.893],[119.9292,11.9612],[119.868,11.9066],[120.0142,11.6821],[120.0671,11.7418],[120.0248,11.893]]],[[[120.3475,12.0295],[120.2864,12.1354],[120.1961,12.112],[120.0215,12.2531],[119.8672,12.2318],[119.9841,12.0257],[120.1346,11.9748],[120.3475,12.0295]]]]}},{"type":"Feature","properties":{"sourceId":"1159313377","regionId":"region.99f64f81-344e-43da-85c2-3ce0e14eac8f","countryId":"country.1ckv6i4"},"geometry":{"type":"MultiPolygon","coordinates":[[[[125.4653,9.4447],[125.6778,9.4371],[125.7292,9.3133],[125.9341,9.4923],[125.6201,9.6298],[125.569,9.7567],[125.4557,9.8128],[125.3987,9.6811],[125.4653,9.4447]]],[[[126.1659,9.8292],[126.0807,10.0557],[125.9834,9.9018],[126.0192,9.7817],[126.1201,9.7589],[126.1659,9.8292]]],[[[125.7196,9.9117],[125.7066,10.0693],[125.6581,10.2617],[125.6848,10.3999],[125.5562,10.3708],[125.4971,10.1035],[125.6104,9.9669],[125.7196,9.9117]]]]}},{"type":"Feature","properties":{"sourceId":"1159313405","regionId":"region.ef0257c1-448d-4538-b3f0-976ce3eb912b","countryId":"country.1ckv6i4"},"geometry":{"type":"Polygon","coordinates":[[[125.9341,9.4923],[125.7292,9.3133],[125.767,9.2124],[125.8021,8.9667],[126.024,8.6884],[125.9982,8.5318],[126.1004,8.3729],[126.2247,8.3179],[126.2175,8.154],[126.2912,7.9958],[126.3835,7.8996],[126.4631,8.2299],[126.3884,8.2929],[126.3569,8.5344],[126.2205,8.5555],[126.1384,8.654],[126.3001,8.7683],[126.3455,8.8533],[126.3128,8.9562],[126.179,9.093],[126.2199,9.3057],[126.0759,9.2395],[126.0117,9.2939],[125.9341,9.4923]]]}},{"type":"Feature","properties":{"sourceId":"1159313397","regionId":"region.7ee2425b-b9e5-42ea-8c4f-21049b156d93","countryId":"country.1ckv6i4"},"geometry":{"type":"MultiPolygon","coordinates":[[[[125.5166,9.0159],[125.7096,9.0148],[125.767,9.2124],[125.7292,9.3133],[125.6778,9.4371],[125.4653,9.4447],[125.542,9.1892],[125.5166,9.0159]]],[[[125.2036,9.0819],[125.2336,8.9878],[125.3233,8.8856],[125.291,8.7825],[125.3207,8.5898],[125.4051,8.5881],[125.5347,8.6997],[125.6623,8.6873],[125.6737,8.8009],[125.5133,8.797],[125.4412,8.9804],[125.3118,8.9943],[125.2036,9.0819]]]]}},{"type":"Feature","properties":{"sourceId":"1159317219","regionId":"region.186c4a3d-6af7-4a53-95b4-91ceaf3f7fab","countryId":"country.1ckv6i4"},"geometry":{"type":"Polygon","coordinates":[[[125.4412,8.9804],[125.5133,8.797],[125.6737,8.8009],[125.7096,9.0148],[125.5166,9.0159],[125.4412,8.9804]]]}},{"type":"Feature","properties":{"sourceId":"1159313407","regionId":"region.0c78b092-984d-4f04-8c64-e487db53836c","countryId":"country.1ckv6i4"},"geometry":{"type":"MultiPolygon","coordinates":[[[[124.7532,8.5617],[124.8256,8.5156],[124.9296,8.5964],[125.3207,8.5898],[125.291,8.7825],[125.3233,8.8856],[125.2336,8.9878],[125.2036,9.0819],[125.1873,8.8759],[125.1157,8.8306],[124.9153,8.9941],[124.7808,8.9491],[124.7879,8.7336],[124.7532,8.5617]]],[[[124.2617,8.3242],[124.3771,8.3756],[124.4366,8.3495],[124.5378,8.4386],[124.5715,8.5281],[124.4058,8.6079],[124.3218,8.5146],[124.2617,8.3242]]]]}},{"type":"Feature","properties":{"sourceId":"1159317217","regionId":"region.9640f1b8-0d26-422a-b75e-09448093b616","countryId":"country.1ckv6i4"},"geometry":{"type":"Polygon","coordinates":[[[124.5715,8.5281],[124.5378,8.4386],[124.4366,8.3495],[124.5725,8.2372],[124.6198,8.4136],[124.7852,8.403],[124.8256,8.5156],[124.7532,8.5617],[124.7122,8.473],[124.5715,8.5281]]]}},{"type":"Feature","properties":{"sourceId":"1159317215","regionId":"region.8afc356b-4947-4f12-98e6-31e07f3034f8","countryId":"country.1ckv6i4"},"geometry":{"type":"Polygon","coordinates":[[[124.2323,8.2129],[124.2991,8.2156],[124.3581,8.2251],[124.6297,8.0075],[124.5598,8.1189],[124.5725,8.2372],[124.4366,8.3495],[124.3771,8.3756],[124.2617,8.3242],[124.2323,8.2129]]]}},{"type":"Feature","properties":{"sourceId":"1159313385","regionId":"region.848d1ae0-b17a-4097-b355-deb578a7c898","countryId":"country.1ckv6i4"},"geometry":{"type":"Polygon","coordinates":[[[123.689,7.9683],[123.6937,7.8908],[123.6147,7.8335],[123.7039,7.8094],[123.7942,7.7105],[123.8618,7.7035],[123.9934,7.7019],[124.0588,7.904],[124.1626,8.0168],[124.2978,8.1112],[124.2991,8.2156],[124.2323,8.2129],[123.9689,8.1678],[123.689,7.9683]]]}},{"type":"Feature","properties":{"sourceId":"1159313381","regionId":"region.1144b1d5-cc0c-47a7-a3a2-251fff22e1f3","countryId":"country.1ckv6i4"},"geometry":{"type":"Polygon","coordinates":[[[123.6776,8.0106],[123.555,8.0706],[123.5561,8.232],[123.1889,8.2306],[123.1717,8.042],[122.9158,7.9184],[122.9226,7.8314],[123.0856,7.8076],[123.0964,7.7143],[123.1868,7.6262],[123.2258,7.5156],[123.4194,7.3723],[123.4517,7.4525],[123.3535,7.5721],[123.4857,7.6636],[123.4447,7.8013],[123.6147,7.8335],[123.6937,7.8908],[123.689,7.9683],[123.6776,8.0106]]]}},{"type":"Feature","properties":{"sourceId":"1159313383","regionId":"region.60bc0c9f-49e2-4e78-bb9c-dfa396e46a88","countryId":"country.1ckv6i4"},"geometry":{"type":"Polygon","coordinates":[[[123.549,8.6188],[123.5561,8.232],[123.555,8.0706],[123.6776,8.0106],[123.8733,8.1533],[123.8447,8.4522],[123.7588,8.6075],[123.6155,8.6511],[123.549,8.6188]]]}},{"type":"Feature","properties":{"sourceId":"1159313379","regionId":"region.a7c1be5e-118e-4696-a24c-c2377d2c3ffb","countryId":"country.1ckv6i4"},"geometry":{"type":"Polygon","coordinates":[[[121.9043,7.1544],[122.1024,7.1398],[122.1664,7.2174],[122.1864,7.3454],[122.2607,7.471],[122.3641,7.7008],[122.5728,7.8811],[122.792,7.9454],[122.9158,7.9184],[123.1717,8.042],[123.1889,8.2306],[123.5561,8.232],[123.549,8.6188],[123.513,8.6989],[123.3635,8.6233],[123.3311,8.5466],[123.0554,8.5049],[122.9922,8.3972],[122.9246,8.1501],[122.6497,8.116],[122.2922,8.0099],[122.1289,7.815],[122.1135,7.6033],[122.0456,7.4425],[122.0469,7.3011],[121.9043,7.1544]]]}},{"type":"Feature","properties":{"sourceId":"1159316095","regionId":"region.eac42504-1926-4e1f-a7ed-5112b916c7e3","countryId":"country.1ckv6i4"},"geometry":{"type":"Polygon","coordinates":[[[122.3599,7.4728],[122.2607,7.471],[122.1864,7.3454],[122.1664,7.2174],[122.1024,7.1398],[121.9043,7.1544],[121.937,6.9789],[122.0379,6.9174],[122.1545,6.9281],[122.2435,7.0993],[122.2659,7.2491],[122.3791,7.3916],[122.3599,7.4728]]]}},{"type":"Feature","properties":{"sourceId":"1159313387","regionId":"region.bfe8e1f4-9c5c-4ce7-8fcb-24aee56f04c1","countryId":"country.1ckv6i4"},"geometry":{"type":"Polygon","coordinates":[[[124.1673,7.4318],[124.4646,7.6696],[124.5918,7.6248],[124.8086,7.6111],[124.6045,7.9102],[124.6297,8.0075],[124.3581,8.2251],[124.2991,8.2156],[124.2978,8.1112],[124.1626,8.0168],[124.0588,7.904],[123.9934,7.7019],[123.8618,7.7035],[124.0652,7.6027],[124.1673,7.4318]]]}},{"type":"Feature","properties":{"sourceId":"1159313389","regionId":"region.639c2963-7cb8-4e3c-8a79-84d4874696e0","countryId":"country.1ckv6i4"},"geometry":{"type":"Polygon","coordinates":[[[124.2192,7.321],[124.3055,7.2223],[124.281,7.1653],[124.1838,7.2264],[124.0295,7.1151],[123.9749,6.9653],[123.9655,6.8213],[124.0372,6.7586],[124.2224,6.7618],[124.2668,6.7269],[124.4724,6.7259],[124.5582,6.7542],[124.5787,6.8404],[124.7111,6.8459],[124.7201,6.7719],[124.836,6.6418],[124.8965,6.7289],[124.8372,6.7676],[124.833,6.9753],[124.7979,7.0745],[124.667,6.9504],[124.4485,7.1059],[124.4902,7.2279],[124.3331,7.2009],[124.4927,7.4332],[124.4488,7.5395],[124.4646,7.6696],[124.1673,7.4318],[124.2192,7.321]]]}},{"type":"Feature","properties":{"sourceId":"1159317209","regionId":"region.8f5e108d-6c24-45e4-827f-bd4270d956dc","countryId":"country.1ckv6i4"},"geometry":{"type":"Polygon","coordinates":[[[124.1838,7.2264],[124.281,7.1653],[124.3055,7.2223],[124.2192,7.321],[124.1838,7.2264]]]}},{"type":"Feature","properties":{"sourceId":"1159313395","regionId":"region.098bb7cb-e749-47c5-a372-62e1e34165a0","countryId":"country.1ckv6i4"},"geometry":{"type":"Polygon","coordinates":[[[124.3703,6.1327],[124.3829,6.1622],[124.2493,6.2925],[124.6362,6.2901],[124.6265,6.5808],[124.7517,6.6367],[124.8302,6.5368],[125.0103,6.5699],[125.1765,6.5633],[125.1936,6.6625],[125.1497,6.7822],[124.8965,6.7289],[124.836,6.6418],[124.7201,6.7719],[124.7111,6.8459],[124.5787,6.8404],[124.5582,6.7542],[124.4724,6.7259],[124.2668,6.7269],[124.2224,6.7618],[124.0372,6.7586],[124.0549,6.4377],[124.2458,6.1865],[124.3703,6.1327]]]}},{"type":"Feature","properties":{"sourceId":"1159313413","regionId":"region.c2e8b4b2-54b3-445b-a398-6d1cf84977a8","countryId":"country.1ckv6i4"},"geometry":{"type":"MultiPolygon","coordinates":[[[[125.1122,5.9534],[125.0482,6.0049],[124.7894,6.0117],[124.4867,6.1769],[124.3829,6.1622],[124.3703,6.1327],[124.708,5.9466],[124.9387,5.864],[125.0691,5.8617],[125.1122,5.9534]]],[[[125.3065,5.5836],[125.3766,5.6337],[125.462,5.8301],[125.5252,6.0516],[125.5111,6.2169],[125.4261,6.3169],[125.2864,6.319],[125.1408,6.4349],[125.1374,6.3207],[125.2478,6.282],[125.2401,6.0942],[125.2808,6.0194],[125.1812,5.7983],[125.3001,5.6713],[125.3065,5.5836]]]]}},{"type":"Feature","properties":{"sourceId":"1159317213","regionId":"region.10391c3f-347d-4c28-b6a9-7139bccf4347","countryId":"country.1ckv6i4"},"geometry":{"type":"Polygon","coordinates":[[[125.2401,6.0942],[125.2478,6.282],[125.1374,6.3207],[125.036,6.1964],[125.0482,6.0049],[125.1122,5.9534],[125.169,6.112],[125.2401,6.0942]]]}},{"type":"Feature","properties":{"sourceId":"1159313353","regionId":"region.12b58d16-7e7f-4c39-a6ec-67050f7e3531","countryId":"country.1ckv6i4"},"geometry":{"type":"Polygon","coordinates":[[[125.5099,7.0156],[125.3028,7.0174],[125.1664,6.8446],[125.1497,6.7822],[125.1936,6.6625],[125.1765,6.5633],[125.1408,6.4349],[125.2864,6.319],[125.4261,6.3169],[125.5111,6.2169],[125.5252,6.0516],[125.462,5.8301],[125.3766,5.6337],[125.3065,5.5836],[125.3875,5.5738],[125.6673,5.9501],[125.7066,6.1497],[125.5736,6.5169],[125.3975,6.5985],[125.3889,6.7683],[125.4806,6.9132],[125.5099,7.0156]]]}},{"type":"Feature","properties":{"sourceId":"1159317211","regionId":"region.ee8eda40-3496-4193-9842-576a50a20949","countryId":"country.1ckv6i4"},"geometry":{"type":"Polygon","coordinates":[[[125.6768,7.2646],[125.497,7.2579],[125.5016,7.5916],[125.2889,7.5958],[125.266,7.5784],[125.2225,7.1833],[125.3031,7.1061],[125.3028,7.0174],[125.5099,7.0156],[125.6581,7.1291],[125.6768,7.2646]]]}},{"type":"Feature","properties":{"sourceId":"1159313403","regionId":"region.6bbc0c03-05b0-4201-90b1-d152552512bc","countryId":"country.1ckv6i4"},"geometry":{"type":"Polygon","coordinates":[[[125.9543,7.0474],[126.2418,7.2402],[126.2936,7.2989],[126.2234,7.4274],[126.2412,7.5949],[126.1767,7.8487],[126.183,7.995],[125.6754,7.9967],[125.7027,7.7937],[125.8178,7.6823],[125.9048,7.6875],[125.9169,7.542],[125.8339,7.4556],[125.8307,7.3543],[125.9026,7.1011],[125.9543,7.0474]]]}},{"type":"Feature","properties":{"sourceId":"1159313411","regionId":"region.58fbe4c5-fc90-42a6-b9a8-4107092f906a","countryId":"country.1ckv6i4"},"geometry":{"type":"Polygon","coordinates":[[[126.3835,7.8996],[126.2912,7.9958],[126.183,7.995],[126.1767,7.8487],[126.2412,7.5949],[126.2234,7.4274],[126.2936,7.2989],[126.2418,7.2402],[125.9543,7.0474],[125.9768,6.9396],[126.0791,6.8425],[126.0951,6.5141],[126.1755,6.3626],[126.2269,6.4689],[126.2546,6.7667],[126.168,6.8826],[126.3018,6.8933],[126.3495,7.0001],[126.4764,7.0662],[126.6123,7.2579],[126.5692,7.3011],[126.6087,7.4653],[126.5692,7.6264],[126.5829,7.7194],[126.4875,7.7467],[126.3835,7.8996]]]}},{"type":"Feature","properties":{"sourceId":"1159313417","regionId":"region.67099961-18a9-4bbb-a316-44cb07b801e8","countryId":"country.1ckv6i4"},"geometry":{"type":"Polygon","coordinates":[[[125.1678,10.6221],[125.0805,10.5435],[124.9235,10.5057],[124.8839,10.4349],[124.906,10.3016],[124.766,10.1854],[124.8828,10.135],[125.0153,10.0261],[125.0002,10.1997],[125.2666,10.3684],[125.1987,10.4331],[125.1678,10.6221]]]}},{"type":"Feature","properties":{"sourceId":"1159313419","regionId":"region.1c802533-8911-47e5-9246-be48716f4b05","countryId":"country.1ckv6i4"},"geometry":{"type":"Polygon","coordinates":[[[124.5496,10.9833],[124.4877,11.0659],[124.6042,11.1568],[124.6701,11.0645],[124.6223,11.002],[124.7788,10.8214],[124.7981,10.6591],[124.7389,10.3955],[124.7941,10.3027],[124.766,10.1854],[124.906,10.3016],[124.8839,10.4349],[124.9235,10.5057],[125.0805,10.5435],[125.1678,10.6221],[125.0061,10.7973],[125.0531,10.9682],[125.0387,11.1979],[124.9327,11.2365],[124.9756,11.3344],[124.9297,11.4213],[124.8457,11.433],[124.7444,11.3286],[124.6299,11.3044],[124.5033,11.4438],[124.3114,11.4668],[124.4043,11.3027],[124.4154,11.02],[124.3968,10.9538],[124.5073,10.8744],[124.5496,10.9833]]]}},{"type":"Feature","properties":{"sourceId":"1159313423","regionId":"region.04ecdd5f-901d-43d4-9d1d-a3d256afba2d","countryId":"country.1ckv6i4"},"geometry":{"type":"Polygon","coordinates":[[[125.316,12.3021],[125.2317,12.3641],[125.1618,12.3157],[125.1066,12.1296],[125.1226,11.9979],[125.2037,12.0154],[125.2535,11.9279],[125.28,11.5599],[125.3492,11.4145],[125.2414,11.0944],[125.3171,11.1496],[125.4402,11.0976],[125.7074,11.1774],[125.5662,11.2681],[125.6377,11.3685],[125.5586,11.4248],[125.4709,11.6026],[125.5005,11.7011],[125.452,11.9641],[125.5244,12.0462],[125.4574,12.1071],[125.5005,12.2486],[125.316,12.3021]]]}},{"type":"Feature","properties":{"sourceId":"1159313433","regionId":"region.8c40f419-cf70-4cb6-892e-13368db60747","countryId":"country.1ckv6i4"},"geometry":{"type":"Polygon","coordinates":[[[124.5996,11.5634],[124.4959,11.6948],[124.3687,11.6789],[124.4588,11.4945],[124.6091,11.4866],[124.5996,11.5634]]]}},{"type":"Feature","properties":{"sourceId":"1159313435","regionId":"region.8abfbd89-0c56-4481-a436-2f15167eb593","countryId":"country.1ckv6i4"},"geometry":{"type":"Polygon","coordinates":[[[125.2414,11.0944],[125.3492,11.4145],[125.28,11.5599],[125.2535,11.9279],[125.2037,12.0154],[125.1226,11.9979],[125.1066,12.1296],[125.1618,12.3157],[125.0021,12.2531],[124.6921,12.2296],[124.4871,12.3305],[124.3705,12.29],[124.4072,12.1938],[124.5693,12.0508],[124.6799,12.0297],[124.7941,11.8581],[124.9282,11.7414],[125.0344,11.7279],[125.0002,11.6248],[124.8283,11.5087],[125.0029,11.4197],[125.001,11.2898],[125.1328,11.2821],[125.1987,11.2275],[125.2414,11.0944]]]}},{"type":"Feature","properties":{"sourceId":"1159313477","regionId":"region.5cd73560-2320-4f6f-adb8-8eef2fe04e9b","countryId":"country.1ckv6i4"},"geometry":{"type":"Polygon","coordinates":[[[122.2446,16.5106],[122.0375,16.5076],[121.8724,16.2819],[121.4477,15.9243],[121.2673,15.7776],[121.3611,15.5079],[121.3658,15.4354],[121.3026,15.1815],[121.3301,15.0324],[121.4462,15.2079],[121.3792,15.3082],[121.6366,15.7225],[121.5549,15.8289],[121.5778,15.9321],[121.7523,16.0769],[121.9548,16.1391],[122.2039,16.2638],[122.2053,16.4239],[122.2446,16.5106]]]}},{"type":"Feature","properties":{"sourceId":"1159313459","regionId":"region.19301217-26ba-45a3-a0af-570e3c3b23ca","countryId":"country.1ckv6i4"},"geometry":{"type":"MultiPolygon","coordinates":[[[[121.4462,15.2079],[121.3301,15.0324],[121.3421,14.8893],[121.374,14.7034],[121.4605,14.5715],[121.5903,14.3133],[121.5945,14.2195],[121.5037,14.0745],[121.2645,13.9615],[121.4546,13.8192],[121.5493,13.8782],[121.4984,13.9572],[121.5819,13.9964],[121.6369,13.9096],[121.7249,13.9691],[121.9859,13.8121],[122.1184,13.7521],[122.2075,13.6143],[122.319,13.5922],[122.5012,13.3681],[122.5051,13.2392],[122.5881,13.174],[122.6907,13.2287],[122.6218,13.5527],[122.4976,13.652],[122.5096,13.82],[122.558,13.9333],[122.8159,13.9937],[122.4798,14.1508],[122.31,14.0963],[122.2593,14.1882],[122.1702,14.1396],[122.2908,14.0231],[122.2319,13.9064],[121.9363,13.9952],[121.7316,14.1882],[121.759,14.2466],[121.6624,14.4174],[121.6107,14.6126],[121.6292,14.7028],[121.7261,14.7202],[121.5945,14.8592],[121.5601,14.9897],[121.4462,15.2079]]],[[[122.0054,15.0107],[121.8442,15.0454],[121.8184,14.946],[121.978,14.8388],[122.0054,15.0107]]]]}},{"type":"Feature","properties":{"sourceId":"1159313461","regionId":"region.9eb2dc52-a0f2-4d54-bdfa-ab00e05c88cd","countryId":"country.1ckv6i4"},"geometry":{"type":"Polygon","coordinates":[[[122.31,14.0963],[122.4798,14.1508],[122.8159,13.9937],[122.9237,13.9649],[123.0488,13.822],[123.0781,13.9881],[123.0122,14.1057],[122.8533,14.2786],[122.7527,14.3322],[122.6047,14.3013],[122.471,14.3459],[122.3662,14.2615],[122.31,14.0963]]]}},{"type":"Feature","properties":{"sourceId":"1159315537","regionId":"region.3c4019e4-d488-4002-ac19-9f73bc7b581a","countryId":"country.1ckv6i4"},"geometry":{"type":"Polygon","coordinates":[[[123.0488,13.822],[122.9237,13.9649],[122.8159,13.9937],[122.558,13.9333],[122.739,13.8183],[122.8626,13.6948],[122.8147,13.6538],[122.972,13.5275],[123.1688,13.4492],[123.1909,13.359],[123.2925,13.2447],[123.447,13.3783],[123.5529,13.3654],[123.5936,13.5295],[123.5285,13.6268],[123.5881,13.7289],[123.7974,13.688],[123.9378,13.784],[123.4778,13.9505],[123.3296,14.0703],[123.2181,13.9927],[123.315,13.8205],[123.2666,13.7494],[123.1082,13.7221],[123.0488,13.822]],[[123.2342,13.5686],[123.1396,13.6199],[123.2934,13.6633],[123.2342,13.5686]]]}},{"type":"Feature","properties":{"sourceId":"1159313453","regionId":"region.993f650e-c864-4bef-846c-cbac2c0809df","countryId":"country.1ckv6i4"},"geometry":{"type":"Polygon","coordinates":[[[123.5936,13.5295],[123.5529,13.3654],[123.447,13.3783],[123.2925,13.2447],[123.279,13.1202],[123.3101,13.0124],[123.4413,13.0369],[123.4962,12.9744],[123.6569,13.0447],[123.908,13.0541],[123.9354,13.1185],[123.8181,13.071],[123.7495,13.1547],[123.7946,13.3084],[123.6672,13.4856],[123.5936,13.5295]]]}},{"type":"Feature","properties":{"sourceId":"1159313465","regionId":"region.e8a66de3-8f6f-49f2-8477-8ce3c5b0baf2","countryId":"country.1ckv6i4"},"geometry":{"type":"Polygon","coordinates":[[[123.9354,13.1185],[123.908,13.0541],[123.6569,13.0447],[123.4962,12.9744],[123.7254,12.8451],[123.823,12.877],[123.8934,12.9748],[124.0252,12.9553],[124.0025,12.8797],[123.8191,12.8319],[123.8786,12.6452],[123.9832,12.5468],[124.0952,12.5571],[124.1431,12.7973],[124.0816,13.0095],[123.9354,13.1185]]]}},{"type":"Feature","properties":{"sourceId":"1159317271","regionId":"region.8d4ad204-2a77-4f10-b46f-a8023d7bbfd2","countryId":"country.1ckv6i4"},"geometry":{"type":"Polygon","coordinates":[[[121.6369,13.9096],[121.5819,13.9964],[121.4984,13.9572],[121.5493,13.8782],[121.6369,13.9096]]]}},{"type":"Feature","properties":{"sourceId":"1159311539","regionId":"region.65613a11-a6b8-4778-bd6f-60080472cde3","countryId":"country.1ckv6i4"},"geometry":{"type":"Polygon","coordinates":[[[121.4546,13.8192],[121.2645,13.9615],[121.2055,14.1116],[121.033,14.144],[120.8689,14.0761],[120.5967,14.2188],[120.6195,14.1042],[120.6201,13.8466],[120.7229,13.8554],[120.7459,13.9338],[120.895,13.9064],[120.9092,13.8046],[121.1587,13.6395],[121.2788,13.595],[121.4641,13.6948],[121.4546,13.8192]]]}},{"type":"Feature","properties":{"sourceId":"1159311687","regionId":"region.d2f047c9-ba92-42c4-a075-2a3e0901e799","countryId":"country.1ckv6i4"},"geometry":{"type":"Polygon","coordinates":[[[120.5967,14.2188],[120.8689,14.0761],[121.033,14.144],[121.0747,14.3159],[121.0148,14.3591],[121.0142,14.3971],[120.9608,14.4952],[120.8779,14.4589],[120.7131,14.2985],[120.5967,14.2188]]]}},{"type":"Feature","properties":{"sourceId":"1159317257","regionId":"region.bc9ee06a-2234-4735-8096-41cd1670e8f6","countryId":"country.1ckv6i4"},"geometry":{"type":"Polygon","coordinates":[[[120.9608,14.4952],[121.0142,14.3971],[121.033,14.4386],[120.9734,14.506],[120.9608,14.4952]]]}},{"type":"Feature","properties":{"sourceId":"1159317255","regionId":"region.781e17b2-0757-45d7-af32-1eeeb38afd75","countryId":"country.1ckv6i4"},"geometry":{"type":"Polygon","coordinates":[[[120.9734,14.506],[121.033,14.4386],[121.0559,14.4649],[121.0446,14.5072],[120.9844,14.534],[120.9734,14.506]]]}},{"type":"Feature","properties":{"sourceId":"1159317253","regionId":"region.d0e1a47b-00e5-445b-a0e8-ec45fdbebfba","countryId":"country.1ckv6i4"},"geometry":{"type":"Polygon","coordinates":[[[120.9844,14.534],[121.0446,14.5072],[121.0321,14.5275],[121.0062,14.5577],[120.9802,14.5574],[120.9844,14.534]]]}},{"type":"Feature","properties":{"sourceId":"1159317231","regionId":"region.21fcd238-4298-4b8b-a12e-a619c06716a6","countryId":"country.1ckv6i4"},"geometry":{"type":"Polygon","coordinates":[[[120.9802,14.5574],[121.0062,14.5577],[121.0265,14.575],[121.0373,14.5888],[121.03,14.5974],[121.001,14.6274],[120.9769,14.6283],[120.9476,14.6279],[120.9802,14.5574]]]}},{"type":"Feature","properties":{"sourceId":"1159317233","regionId":"region.ba4100c5-5ebc-439c-9246-93936651f510","countryId":"country.1ckv6i4"},"geometry":{"type":"Polygon","coordinates":[[[120.9476,14.6279],[120.9769,14.6283],[120.9687,14.6365],[120.934,14.6934],[120.9162,14.6944],[120.9476,14.6279]]]}},{"type":"Feature","properties":{"sourceId":"1159311689","regionId":"region.300ea093-64ec-4feb-a628-5937cbbf25f7","countryId":"country.1ckv6i4"},"geometry":{"type":"Polygon","coordinates":[[[120.9162,14.6944],[120.934,14.6934],[120.9533,14.6889],[121.009,14.7395],[121.1158,14.7528],[121.1543,14.7584],[121.2058,14.8264],[121.3421,14.8893],[121.3301,15.0324],[121.3026,15.1815],[121.0765,15.2567],[120.9377,15.2207],[120.9133,15.0286],[120.8299,14.9367],[120.7176,14.8806],[120.6638,14.779],[120.8301,14.7636],[120.9162,14.6944]]]}},{"type":"Feature","properties":{"sourceId":"1159313497","regionId":"region.0d84de49-f44b-40c1-aa65-0773c9698732","countryId":"country.1ckv6i4"},"geometry":{"type":"Polygon","coordinates":[[[120.6638,14.779],[120.7176,14.8806],[120.8299,14.9367],[120.9133,15.0286],[120.9377,15.2207],[120.8454,15.1665],[120.7763,15.2595],[120.5562,15.2542],[120.3806,15.169],[120.3714,15.0955],[120.4601,14.9415],[120.5454,14.8271],[120.6638,14.779]],[[120.5926,15.1032],[120.5691,15.1763],[120.637,15.1789],[120.637,15.1163],[120.5926,15.1032]]]}},{"type":"Feature","properties":{"sourceId":"1159313491","regionId":"region.284aee39-7cc5-4a4d-9ff5-5b020e41aa9e","countryId":"country.1ckv6i4"},"geometry":{"type":"Polygon","coordinates":[[[120.5454,14.8271],[120.4601,14.9415],[120.4549,14.9141],[120.2825,14.8061],[120.2854,14.6538],[120.3674,14.6208],[120.4021,14.4558],[120.5646,14.4412],[120.5979,14.5056],[120.5454,14.8271]]]}},{"type":"Feature","properties":{"sourceId":"1159317269","regionId":"region.6679f246-b136-4a8e-b072-14af20b2c8c8","countryId":"country.1ckv6i4"},"geometry":{"type":"Polygon","coordinates":[[[120.2825,14.8061],[120.4549,14.9141],[120.2793,14.9335],[120.2093,14.88],[120.2825,14.8061]]]}},{"type":"Feature","properties":{"sourceId":"1159313503","regionId":"region.cbcb174b-431b-4006-a20d-1b886804faac","countryId":"country.1ckv6i4"},"geometry":{"type":"Polygon","coordinates":[[[120.2093,14.88],[120.2793,14.9335],[120.4549,14.9141],[120.4601,14.9415],[120.3714,15.0955],[120.3806,15.169],[120.3081,15.2737],[120.1637,15.3432],[120.1438,15.4065],[120.247,15.614],[120.1384,15.8209],[120.0083,15.8525],[119.8888,15.8014],[119.9043,15.5971],[119.9639,15.5144],[119.8882,15.429],[120.0051,15.2694],[120.053,15.0624],[120.0498,14.9312],[120.0901,14.7943],[120.1873,14.775],[120.2093,14.88]]]}},{"type":"Feature","properties":{"sourceId":"1159311685","regionId":"region.4ae8767c-c66c-4123-bed6-bdc92e04339b","countryId":"country.1ckv6i4"},"geometry":{"type":"Polygon","coordinates":[[[119.8888,15.8014],[120.0083,15.8525],[120.1384,15.8209],[120.247,15.614],[120.3952,15.7529],[120.4907,15.7157],[120.6273,15.8187],[120.7372,15.8451],[120.8388,15.8047],[120.926,15.9776],[120.8865,16.1007],[120.7566,16.2007],[120.6705,16.1869],[120.526,16.2321],[120.4014,16.2095],[120.3652,16.1087],[120.4023,16.0422],[120.2963,15.9827],[120.2577,16.0522],[120.1056,16.0696],[120.0912,16.1535],[119.9019,16.2508],[119.9258,16.3451],[119.8125,16.3675],[119.7557,16.2034],[119.7783,16.1378],[119.7559,15.9446],[119.8789,15.9147],[119.8888,15.8014]]]}},{"type":"Feature","properties":{"sourceId":"1159317277","regionId":"region.c776b84d-8fec-424b-92fb-6745df9efdff","countryId":"country.1ckv6i4"},"geometry":{"type":"Polygon","coordinates":[[[120.2577,16.0522],[120.2963,15.9827],[120.4023,16.0422],[120.3652,16.1087],[120.2577,16.0522]]]}},{"type":"Feature","properties":{"sourceId":"1159313505","regionId":"region.e113bfad-9631-4cc4-a36e-74b313a1db3e","countryId":"country.1ckv6i4"},"geometry":{"type":"Polygon","coordinates":[[[120.4014,16.2095],[120.526,16.2321],[120.472,16.4638],[120.595,16.6526],[120.5471,16.7152],[120.5156,16.9174],[120.3979,16.9192],[120.3264,16.831],[120.3259,16.7126],[120.2761,16.6119],[120.3067,16.545],[120.3363,16.2922],[120.4014,16.2095]]]}},{"type":"Feature","properties":{"sourceId":"1159313475","regionId":"region.5dbbe556-07d3-4455-bcae-6da8473a9ca9","countryId":"country.1ckv6i4"},"geometry":{"type":"Polygon","coordinates":[[[120.3979,16.9192],[120.5156,16.9174],[120.5471,16.7152],[120.595,16.6526],[120.6378,16.8601],[120.7735,16.921],[120.781,17.0706],[120.8738,17.1821],[120.754,17.1585],[120.6661,17.2677],[120.5338,17.3673],[120.5726,17.4919],[120.4672,17.4992],[120.539,17.7037],[120.5399,17.8665],[120.4261,17.894],[120.3338,17.5564],[120.4021,17.5189],[120.4417,17.368],[120.4031,17.2216],[120.4363,17.008],[120.3979,16.9192]]]}},{"type":"Feature","properties":{"sourceId":"1159313473","regionId":"region.30d8e32e-6e6f-470f-9b02-f154961012cb","countryId":"country.1ckv6i4"},"geometry":{"type":"Polygon","coordinates":[[[120.4261,17.894],[120.5399,17.8665],[120.539,17.7037],[120.6182,17.819],[120.8278,17.9435],[120.9385,17.9671],[120.9708,18.1935],[120.9571,18.4468],[120.9951,18.6061],[120.9269,18.5662],[120.8508,18.6389],[120.7708,18.5615],[120.6111,18.5386],[120.5618,18.4697],[120.5862,18.3645],[120.4701,18.091],[120.4261,17.894]]]}},{"type":"Feature","properties":{"sourceId":"1159313469","regionId":"region.ea0fa7d1-9ecf-48de-8454-d3731a1c8517","countryId":"country.1ckv6i4"},"geometry":{"type":"Polygon","coordinates":[[[120.9951,18.6061],[120.9571,18.4468],[121.0868,18.5303],[121.1255,18.4668],[121.2785,18.4113],[121.457,18.3019],[121.4616,18.0983],[121.3184,17.8426],[121.4288,17.7176],[121.5664,17.5634],[121.6529,17.5182],[121.8876,17.5426],[122.1846,17.5413],[122.1401,17.7983],[122.1834,17.9844],[122.18,18.1208],[122.307,18.2513],[122.3171,18.3774],[122.2202,18.5224],[122.1528,18.5188],[122.1116,18.3928],[121.9746,18.286],[121.8528,18.288],[121.6133,18.3593],[121.4241,18.4772],[121.1068,18.6427],[120.9951,18.6061]]]}},{"type":"Feature","properties":{"sourceId":"1159313479","regionId":"region.5ec4bd89-f052-4ae7-a1ee-2880d5877d1a","countryId":"country.1ckv6i4"},"geometry":{"type":"MultiPolygon","coordinates":[[[[122.1846,17.5413],[121.8876,17.5426],[121.6529,17.5182],[121.5706,17.2501],[121.5635,17.0866],[121.571,16.911],[121.479,16.8307],[121.6081,16.7139],[121.5699,16.6106],[121.7658,16.397],[122.0375,16.5076],[122.2446,16.5106],[122.3455,16.6425],[122.4647,16.8951],[122.5291,17.0905],[122.4104,17.1755],[122.4354,17.2924],[122.3654,17.3537],[122.2512,17.3602],[122.1846,17.5413]]],[[[121.3997,16.6512],[121.488,16.6295],[121.3901,16.6943],[121.3997,16.6512]]]]}},{"type":"Feature","properties":{"sourceId":"1159313351","regionId":"region.79901942-718f-4c4e-abaa-919a905f2220","countryId":"country.1ckv6i4"},"geometry":{"type":"Polygon","coordinates":[[[120.252,5.2665],[120.1986,5.3496],[120.0869,5.259],[119.9649,5.2226],[119.8294,5.135],[119.9541,5.0755],[120.0254,5.1605],[120.1896,5.1965],[120.252,5.2665]]]}},{"type":"Feature","properties":{"sourceId":"1159313361","regionId":"region.9e5b665f-e6bf-4a17-8f94-a6be45fe0027","countryId":"country.1ckv6i4"},"geometry":{"type":"Polygon","coordinates":[[[122.0492,6.7398],[122.099,6.5867],[121.9652,6.5792],[121.9202,6.6757],[121.8392,6.6689],[121.8801,6.5032],[121.9623,6.4049],[122.1887,6.4511],[122.2354,6.5712],[122.3293,6.6138],[122.0492,6.7398]]]}},{"type":"Feature","properties":{"sourceId":"1159313369","regionId":"region.7d64ce2b-ee6c-4af1-93f1-839d1def422d","countryId":"country.1ckv6i4"},"geometry":{"type":"Polygon","coordinates":[[[124.7842,9.1998],[124.6467,9.2189],[124.6721,9.1254],[124.7879,9.0831],[124.7842,9.1998]]]}},{"type":"Feature","properties":{"sourceId":"1159313371","regionId":"region.c0acc91f-c88b-4fc3-8d56-46f1676ba7ce","countryId":"country.1ckv6i4"},"geometry":{"type":"Polygon","coordinates":[[[123.698,9.165],[123.6554,9.2891],[123.4795,9.1718],[123.64,9.0986],[123.698,9.165]]]}},{"type":"Feature","properties":{"sourceId":"1159313375","regionId":"region.b11500aa-8055-42a7-9a73-bf5a3ecbbf48","countryId":"country.1ckv6i4"},"geometry":{"type":"Polygon","coordinates":[[[124.5653,9.8708],[124.5886,10.0239],[124.3313,10.1615],[124.1846,10.1445],[124.0508,9.9793],[123.8861,9.9149],[123.8079,9.74],[123.9375,9.6175],[124.0652,9.5954],[124.2942,9.6068],[124.4105,9.6584],[124.5653,9.8708]]]}},{"type":"Feature","properties":{"sourceId":"1159313421","regionId":"region.bb784092-0d2e-4861-939c-9e309a1fb15e","countryId":"country.1ckv6i4"},"geometry":{"type":"Polygon","coordinates":[[[122.7111,10.7347],[122.5746,10.6658],[122.5286,10.5912],[122.5305,10.4232],[122.6345,10.4442],[122.7371,10.64],[122.7111,10.7347]]]}},{"type":"Feature","properties":{"sourceId":"1159317205","regionId":"region.12abe6df-b93a-45ec-b898-47688538833c","countryId":"country.1ckv6i4"},"geometry":{"type":"Polygon","coordinates":[[[122.9199,10.6183],[123.0249,10.5926],[123.0678,10.6809],[122.9758,10.7424],[122.9199,10.6183]]]}},{"type":"Feature","properties":{"sourceId":"1159313429","regionId":"region.396c53c2-646b-48e3-8984-a63b445e83bf","countryId":"country.1ckv6i4"},"geometry":{"type":"Polygon","coordinates":[[[122.5971,9.4376],[123.0126,9.9644],[123.1633,10.24],[123.1439,10.4218],[123.219,10.4451],[123.3657,10.3925],[123.4857,10.5491],[123.5755,10.8256],[123.5218,10.9199],[123.2136,10.9964],[122.9663,10.8764],[122.9758,10.7424],[123.0678,10.6809],[123.0249,10.5926],[122.9199,10.6183],[122.8218,10.4725],[122.8694,10.3505],[122.8789,10.1181],[122.7078,9.9864],[122.4746,9.9744],[122.3952,9.8366],[122.4966,9.5617],[122.5971,9.4376]]]}},{"type":"Feature","properties":{"sourceId":"1159313425","regionId":"region.6f75ed17-4a45-434e-8c58-40c134cd1fbe","countryId":"country.1ckv6i4"},"geometry":{"type":"Polygon","coordinates":[[[123.3657,10.3925],[123.219,10.4451],[123.1439,10.4218],[123.1633,10.24],[123.0126,9.9644],[122.5971,9.4376],[122.8694,9.3227],[122.9336,9.1215],[123.0332,9.0353],[123.2302,9.1076],[123.2986,9.215],[123.3211,9.3432],[123.1976,9.4871],[123.1567,9.8676],[123.2904,10.0936],[123.3657,10.3925]]]}},{"type":"Feature","properties":{"sourceId":"1159317197","regionId":"region.04300754-4125-4d62-ae5a-87a1edcbf560","countryId":"country.1ckv6i4"},"geometry":{"type":"Polygon","coordinates":[[[123.9344,10.3093],[123.9352,10.4011],[123.8372,10.3535],[123.8687,10.2482],[123.9344,10.3093]]]}},{"type":"Feature","properties":{"sourceId":"1159317199","regionId":"region.10792e71-af53-4363-95e5-aea14cfff36b","countryId":"country.1ckv6i4"},"geometry":{"type":"Polygon","coordinates":[[[123.9797,10.3772],[123.9352,10.4011],[123.9344,10.3093],[123.9797,10.3772]]]}},{"type":"Feature","properties":{"sourceId":"1159313431","regionId":"region.04300754-4125-4d62-ae5a-87a1edcbf560","countryId":"country.1ckv6i4"},"geometry":{"type":"Polygon","coordinates":[[[123.8687,10.2482],[123.8372,10.3535],[123.9352,10.4011],[123.9797,10.3772],[124.0401,10.4844],[124.0508,10.6274],[124.0208,10.7477],[124.0669,10.8891],[124.0183,11.2585],[123.9519,11.1567],[123.9158,10.9398],[123.8493,10.7526],[123.765,10.64],[123.7068,10.462],[123.5969,10.3178],[123.508,10.1222],[123.3833,9.9427],[123.3143,9.5076],[123.3696,9.4257],[123.4883,9.5665],[123.5095,9.6535],[123.6433,9.9601],[123.6433,10.039],[123.7195,10.1568],[123.8687,10.2482]]]}},{"type":"Feature","properties":{"sourceId":"1159317221","regionId":"region.16f744d7-e539-4cc2-954f-5ade447538da","countryId":"country.1ckv6i4"},"geometry":{"type":"Polygon","coordinates":[[[118.3823,9.6578],[118.6388,9.5211],[118.6953,9.5781],[118.7847,9.7882],[118.7505,9.8875],[118.8748,9.9719],[119.1963,10.0563],[119.0834,10.1644],[118.9934,10.3003],[118.9497,10.2202],[118.8223,10.1945],[118.5305,9.7742],[118.3823,9.6578]]]}},{"type":"Feature","properties":{"sourceId":"1159317227","regionId":"region.a7d5c2cd-5c36-4e1d-b9e5-1e316472d2c4","countryId":"country.1ckv6i4"},"geometry":{"type":"Polygon","coordinates":[[[124.9756,11.3344],[124.9327,11.2365],[125.0387,11.1979],[124.9756,11.3344]]]}},{"type":"Feature","properties":{"sourceId":"1159317223","regionId":"region.e71114a5-f1dc-4f20-aa1c-706e7c41d1cf","countryId":"country.1ckv6i4"},"geometry":{"type":"Polygon","coordinates":[[[124.6223,11.002],[124.6701,11.0645],[124.6042,11.1568],[124.4877,11.0659],[124.5496,10.9833],[124.6223,11.002]]]}},{"type":"Feature","properties":{"sourceId":"1159313439","regionId":"region.bac95a06-eea0-49f1-816d-7490bc382784","countryId":"country.1ckv6i4"},"geometry":{"type":"Polygon","coordinates":[[[121.8539,11.7694],[122.0355,11.8224],[122.1637,11.7108],[122.1243,11.4826],[122.1799,11.3212],[122.3322,11.344],[122.3844,11.4607],[122.5142,11.4624],[122.5922,11.5543],[122.388,11.7274],[122.1179,11.8236],[121.9637,11.9339],[121.8968,11.8938],[121.8539,11.7694]]]}},{"type":"Feature","properties":{"sourceId":"1159313437","regionId":"region.f404fc2d-08d3-4fa3-8e6d-4ee5b66613ad","countryId":"country.1ckv6i4"},"geometry":{"type":"Polygon","coordinates":[[[122.0332,10.4609],[122.0348,10.6371],[122.1911,10.7898],[122.3309,11.0527],[122.2403,11.1568],[122.1799,11.3212],[122.1243,11.4826],[122.1637,11.7108],[122.0355,11.8224],[121.8539,11.7694],[122.0845,11.7247],[122.1072,11.6579],[122.0531,11.2338],[122.0451,11.0174],[121.937,10.7757],[121.9849,10.6249],[121.9297,10.4666],[122.0332,10.4609]]]}},{"type":"Feature","properties":{"sourceId":"1159313443","regionId":"region.40115630-a5b5-4a5f-8e14-106266cffe0f","countryId":"country.1ckv6i4"},"geometry":{"type":"Polygon","coordinates":[[[122.4721,10.6871],[122.5328,10.7995],[122.6148,10.7615],[122.7615,10.8107],[122.78,10.9569],[122.8391,11.0181],[123.0149,11.0916],[123.1135,11.2667],[123.1748,11.4675],[123.0896,11.5297],[123.0319,11.394],[122.9512,11.3506],[122.8624,11.1931],[122.5867,11.2361],[122.505,11.1839],[122.3426,11.216],[122.2403,11.1568],[122.3309,11.0527],[122.1911,10.7898],[122.0348,10.6371],[122.0332,10.4609],[122.1018,10.5693],[122.2266,10.6422],[122.4721,10.6871]]]}},{"type":"Feature","properties":{"sourceId":"1159317203","regionId":"region.40115630-a5b5-4a5f-8e14-106266cffe0f","countryId":"country.1ckv6i4"},"geometry":{"type":"Polygon","coordinates":[[[122.6148,10.7615],[122.5328,10.7995],[122.4721,10.6871],[122.5899,10.6987],[122.6148,10.7615]]]}},{"type":"Feature","properties":{"sourceId":"1159313441","regionId":"region.817ded59-6cab-4b00-9d07-269bc11ffa1f","countryId":"country.1ckv6i4"},"geometry":{"type":"Polygon","coordinates":[[[122.5922,11.5543],[122.5142,11.4624],[122.3844,11.4607],[122.3322,11.344],[122.1799,11.3212],[122.2403,11.1568],[122.3426,11.216],[122.505,11.1839],[122.5867,11.2361],[122.8624,11.1931],[122.9512,11.3506],[123.0319,11.394],[123.0896,11.5297],[122.9007,11.4379],[122.855,11.5913],[122.5922,11.5543]]]}},{"type":"Feature","properties":{"sourceId":"1159313447","regionId":"region.4d4083ff-5963-49d7-9e83-fd195c64e6cc","countryId":"country.1ckv6i4"},"geometry":{"type":"MultiPolygon","coordinates":[[[[122.6875,12.4028],[122.6492,12.4732],[122.4811,12.4934],[122.512,12.3776],[122.6118,12.2765],[122.6875,12.4028]]],[[[122.1152,12.6663],[121.9909,12.5712],[121.9932,12.4418],[121.9207,12.3029],[121.9998,12.2106],[122.0808,12.3155],[122.1358,12.5608],[122.1152,12.6663]]]]}},{"type":"Feature","properties":{"sourceId":"1159313449","regionId":"region.cd065d66-80fb-4547-8961-2fb2715dd32e","countryId":"country.1ckv6i4"},"geometry":{"type":"Polygon","coordinates":[[[124.3705,12.29],[124.4871,12.3305],[124.6921,12.2296],[125.0021,12.2531],[125.1618,12.3157],[125.2317,12.3641],[125.316,12.3021],[125.3496,12.3994],[125.1663,12.5781],[125.0617,12.5297],[124.9797,12.5608],[124.6792,12.5159],[124.3584,12.5449],[124.2762,12.5333],[124.3705,12.29]]]}},{"type":"Feature","properties":{"sourceId":"1159313451","regionId":"region.29430723-da08-4ea1-ae36-ec0470812cca","countryId":"country.1ckv6i4"},"geometry":{"type":"MultiPolygon","coordinates":[[[[124.0549,11.7998],[124.0403,11.9881],[123.8823,12.2128],[123.7673,12.2141],[123.7044,12.3207],[123.5471,12.4609],[123.4481,12.5124],[123.2734,12.4237],[123.2178,12.2654],[123.2772,12.1643],[123.2102,12.115],[123.1814,11.9309],[123.3547,12.0954],[123.4242,12.2008],[123.5397,12.194],[123.7117,11.9544],[124.0549,11.7998]]],[[[123.7874,12.3756],[123.7258,12.6015],[123.5832,12.6239],[123.7327,12.4062],[123.7874,12.3756]]]]}},{"type":"Feature","properties":{"sourceId":"1159313455","regionId":"region.91cd35f1-ce36-4b09-98e6-5c46f176e0ed","countryId":"country.1ckv6i4"},"geometry":{"type":"Polygon","coordinates":[[[120.8934,13.5047],[120.8918,13.4029],[120.7792,13.2551],[121.195,13.0775],[121.2475,13.0312],[121.2478,12.2199],[121.4253,12.3842],[121.4378,12.5216],[121.5464,12.6441],[121.4856,12.7685],[121.4895,13.0368],[121.4305,13.2243],[121.2178,13.4041],[121.0427,13.413],[120.9502,13.5303],[120.8934,13.5047]]]}},{"type":"Feature","properties":{"sourceId":"1159311475","regionId":"region.b8d08ec0-4a97-4ea3-9082-4603029a3205","countryId":"country.1ckv6i4"},"geometry":{"type":"Polygon","coordinates":[[[121.2478,12.2199],[121.2475,13.0312],[121.195,13.0775],[120.7792,13.2551],[120.8918,13.4029],[120.8934,13.5047],[120.7546,13.4667],[120.5654,13.5131],[120.3566,13.5184],[120.44,13.4272],[120.48,13.3015],[120.6423,13.1833],[120.7583,13.0024],[120.7979,12.7294],[120.9124,12.6347],[120.9164,12.5124],[121.1317,12.2418],[121.2478,12.2199]]]}},{"type":"Feature","properties":{"sourceId":"1159311535","regionId":"region.a88d88e3-70ef-4d71-8037-46d858cb56aa","countryId":"country.1ckv6i4"},"geometry":{"type":"Polygon","coordinates":[[[122.1016,13.4167],[121.989,13.5305],[121.8143,13.4505],[121.8172,13.3419],[121.9932,13.2016],[122.1203,13.3566],[122.1016,13.4167]]]}},{"type":"Feature","properties":{"sourceId":"1159313457","regionId":"region.10e865b2-47f5-4c8e-9013-1cd89a2189f8","countryId":"country.1ckv6i4"},"geometry":{"type":"Polygon","coordinates":[[[124.418,13.873],[124.2774,13.9555],[124.2009,14.0922],[124.1245,14.0494],[124.1218,13.7798],[124.0261,13.6696],[124.1702,13.5298],[124.2935,13.6041],[124.39,13.7116],[124.418,13.873]]]}},{"type":"Feature","properties":{"sourceId":"1159313507","regionId":"region.ec3255cc-ebb5-43a6-8949-b3597856a09a","countryId":"country.1ckv6i4"},"geometry":{"type":"Polygon","coordinates":[[[122.0098,20.4885],[121.9802,20.473],[121.9637,20.4066],[122.0265,20.4558],[122.0098,20.4885]]]}},{"type":"Feature","properties":{"sourceId":"1159317201","regionId":"region.af764ce6-9b91-4296-bd55-489b405d7942","countryId":"country.1ckv6i4"},"geometry":{"type":"Polygon","coordinates":[[[123.9916,10.3243],[123.9478,10.3065],[123.9332,10.2543],[123.976,10.2554],[123.9916,10.3243]]]}},{"type":"Feature","properties":{"sourceId":"1159313399","regionId":"region.19d99d19-9e3d-44e6-ba4a-16149ff6e88f","countryId":"country.1ckv6i4"},"geometry":{"type":"Polygon","coordinates":[[[126.2912,7.9958],[126.2175,8.154],[126.2247,8.3179],[126.1004,8.3729],[125.9982,8.5318],[126.024,8.6884],[125.8021,8.9667],[125.767,9.2124],[125.7096,9.0148],[125.6737,8.8009],[125.6623,8.6873],[125.5347,8.6997],[125.4051,8.5881],[125.3207,8.5898],[125.3041,8.4415],[125.3239,8.2133],[125.3743,7.9978],[125.6754,7.9967],[126.183,7.995],[126.2912,7.9958]]]}},{"type":"Feature","properties":{"sourceId":"1159313401","regionId":"region.020505b7-9a12-456e-aded-63f30b0451c2","countryId":"country.1ckv6i4"},"geometry":{"type":"Polygon","coordinates":[[[125.3207,8.5898],[124.9296,8.5964],[124.8256,8.5156],[124.7852,8.403],[124.6198,8.4136],[124.5725,8.2372],[124.5598,8.1189],[124.6297,8.0075],[124.6045,7.9102],[124.8086,7.6111],[124.8776,7.4375],[124.9825,7.3916],[125.06,7.4248],[125.2301,7.5853],[125.266,7.5784],[125.2889,7.5958],[125.4003,7.6666],[125.4441,7.7786],[125.3743,7.9978],[125.3239,8.2133],[125.3041,8.4415],[125.3207,8.5898]]]}},{"type":"Feature","properties":{"sourceId":"1159313393","regionId":"region.8f5e108d-6c24-45e4-827f-bd4270d956dc","countryId":"country.1ckv6i4"},"geometry":{"type":"Polygon","coordinates":[[[124.8086,7.6111],[124.5918,7.6248],[124.4646,7.6696],[124.4488,7.5395],[124.4927,7.4332],[124.3331,7.2009],[124.4902,7.2279],[124.4485,7.1059],[124.667,6.9504],[124.7979,7.0745],[124.833,6.9753],[124.8372,6.7676],[124.8965,6.7289],[125.1497,6.7822],[125.1664,6.8446],[125.3028,7.0174],[125.3031,7.1061],[125.2225,7.1833],[125.266,7.5784],[125.2301,7.5853],[125.06,7.4248],[124.9825,7.3916],[124.8776,7.4375],[124.8086,7.6111]]]}},{"type":"Feature","properties":{"sourceId":"1159313415","regionId":"region.11e2c94e-1160-461c-ae11-9c19ea3cf08e","countryId":"country.1ckv6i4"},"geometry":{"type":"Polygon","coordinates":[[[125.1765,6.5633],[125.0103,6.5699],[124.8302,6.5368],[124.7517,6.6367],[124.6265,6.5808],[124.6362,6.2901],[124.2493,6.2925],[124.3829,6.1622],[124.4867,6.1769],[124.7894,6.0117],[125.0482,6.0049],[125.036,6.1964],[125.1374,6.3207],[125.1408,6.4349],[125.1765,6.5633]]]}},{"type":"Feature","properties":{"sourceId":"1159317259","regionId":"region.f02bdbf2-9758-46d0-8e96-a7c3a024ce56","countryId":"country.1ckv6i4"},"geometry":{"type":"Polygon","coordinates":[[[121.0148,14.3591],[121.1434,14.3882],[121.1347,14.4541],[121.0559,14.4649],[121.033,14.4386],[121.0142,14.3971],[121.0148,14.3591]]]}},{"type":"Feature","properties":{"sourceId":"1159317235","regionId":"region.c8977645-4698-4377-918d-364fc7775cc3","countryId":"country.1ckv6i4"},"geometry":{"type":"MultiPolygon","coordinates":[[[[121.1158,14.7528],[121.009,14.7395],[121.0256,14.6948],[121.1158,14.7528]]],[[[120.9687,14.6365],[120.9769,14.6283],[121.001,14.6274],[121.0356,14.6792],[121.0045,14.6645],[120.9687,14.6365]]]]}},{"type":"Feature","properties":{"sourceId":"1159317237","regionId":"region.4e32eeb4-df00-4566-a1cb-001cfcaba1f2","countryId":"country.1ckv6i4"},"geometry":{"type":"Polygon","coordinates":[[[120.934,14.6934],[120.9687,14.6365],[121.0045,14.6645],[120.9533,14.6889],[120.934,14.6934]]]}},{"type":"Feature","properties":{"sourceId":"1159317239","regionId":"region.ccbf1d10-1839-4d15-8999-e825f3a46f5c","countryId":"country.1ckv6i4"},"geometry":{"type":"Polygon","coordinates":[[[121.009,14.7395],[120.9533,14.6889],[121.0045,14.6645],[121.0356,14.6792],[121.0256,14.6948],[121.009,14.7395]]]}},{"type":"Feature","properties":{"sourceId":"1159317241","regionId":"region.3838bb45-d489-4feb-b5ec-ca83319cbd3d","countryId":"country.1ckv6i4"},"geometry":{"type":"Polygon","coordinates":[[[121.1543,14.7584],[121.1158,14.7528],[121.0256,14.6948],[121.0356,14.6792],[121.001,14.6274],[121.03,14.5974],[121.0714,14.594],[121.0714,14.5836],[121.0921,14.6086],[121.1262,14.6635],[121.1543,14.7584]]]}},{"type":"Feature","properties":{"sourceId":"1159313495","regionId":"region.81035361-d188-4f98-982d-565b638d5559","countryId":"country.1ckv6i4"},"geometry":{"type":"Polygon","coordinates":[[[120.7763,15.2595],[120.8454,15.1665],[120.9377,15.2207],[121.0765,15.2567],[121.3026,15.1815],[121.3658,15.4354],[121.3611,15.5079],[121.2673,15.7776],[121.2074,15.8982],[121.1848,16.0498],[121.095,16.1178],[120.9444,16.1329],[120.8865,16.1007],[120.926,15.9776],[120.8388,15.8047],[120.7372,15.8451],[120.6273,15.8187],[120.6425,15.7108],[120.7332,15.538],[120.7763,15.2595]]]}},{"type":"Feature","properties":{"sourceId":"1159311691","regionId":"region.71eb708a-4dc8-4ed6-9d35-aa57eb69ccee","countryId":"country.1ckv6i4"},"geometry":{"type":"Polygon","coordinates":[[[121.2645,13.9615],[121.5037,14.0745],[121.5945,14.2195],[121.5903,14.3133],[121.4605,14.5715],[121.3232,14.4659],[121.1253,14.5249],[121.1347,14.4541],[121.1434,14.3882],[121.0148,14.3591],[121.0747,14.3159],[121.033,14.144],[121.2055,14.1116],[121.2645,13.9615]]]}},{"type":"Feature","properties":{"sourceId":"1159311693","regionId":"region.9bb97f43-fef0-43b2-b1f7-8c428ebfeac6","countryId":"country.1ckv6i4"},"geometry":{"type":"Polygon","coordinates":[[[121.3421,14.8893],[121.2058,14.8264],[121.1543,14.7584],[121.1262,14.6635],[121.1184,14.6091],[121.1253,14.5249],[121.3232,14.4659],[121.4605,14.5715],[121.374,14.7034],[121.3421,14.8893]]]}},{"type":"Feature","properties":{"sourceId":"1159317263","regionId":"region.2afd2fe5-31b4-4051-8e0b-6c30a410e9b8","countryId":"country.1ckv6i4"},"geometry":{"type":"Polygon","coordinates":[[[121.1253,14.5249],[121.0917,14.543],[121.0774,14.5348],[121.0321,14.5275],[121.0446,14.5072],[121.0559,14.4649],[121.1347,14.4541],[121.1253,14.5249]]]}},{"type":"Feature","properties":{"sourceId":"1159317245","regionId":"region.d7a5be11-bce1-4f70-b53e-cdbac4c2f5bc","countryId":"country.1ckv6i4"},"geometry":{"type":"Polygon","coordinates":[[[121.1262,14.6635],[121.0921,14.6086],[121.1184,14.6091],[121.1262,14.6635]]]}},{"type":"Feature","properties":{"sourceId":"1159317249","regionId":"region.61124f57-e8a0-4dba-aa42-9c395e41e123","countryId":"country.1ckv6i4"},"geometry":{"type":"Polygon","coordinates":[[[121.1184,14.6091],[121.0921,14.6086],[121.0714,14.5836],[121.0645,14.5646],[121.0805,14.5478],[121.0917,14.543],[121.1253,14.5249],[121.1184,14.6091]]]}},{"type":"Feature","properties":{"sourceId":"1159313489","regionId":"region.446f8261-480a-44b7-b03a-336694a9f423","countryId":"country.1ckv6i4"},"geometry":{"type":"Polygon","coordinates":[[[122.0375,16.5076],[121.7658,16.397],[121.5699,16.6106],[121.488,16.6295],[121.3997,16.6512],[121.3577,16.447],[121.4113,16.334],[121.2876,16.2596],[121.3361,16.0763],[121.4477,15.9243],[121.8724,16.2819],[122.0375,16.5076]]]}},{"type":"Feature","properties":{"sourceId":"1159317273","regionId":"region.41e30ead-f45b-4e50-8758-9dd34db3171b","countryId":"country.1ckv6i4"},"geometry":{"type":"Polygon","coordinates":[[[121.5699,16.6106],[121.6081,16.7139],[121.479,16.8307],[121.3354,16.7643],[121.3901,16.6943],[121.488,16.6295],[121.5699,16.6106]]]}},{"type":"Feature","properties":{"sourceId":"1159313487","regionId":"region.47e11a4b-3144-478f-9d33-8cced83d4f63","countryId":"country.1ckv6i4"},"geometry":{"type":"Polygon","coordinates":[[[121.4477,15.9243],[121.3361,16.0763],[121.2876,16.2596],[121.4113,16.334],[121.3577,16.447],[121.3997,16.6512],[121.3901,16.6943],[121.3354,16.7643],[121.2369,16.6529],[120.9026,16.5974],[120.9038,16.4315],[120.8565,16.3254],[120.7769,16.2906],[120.7566,16.2007],[120.8865,16.1007],[120.9444,16.1329],[121.095,16.1178],[121.1848,16.0498],[121.2074,15.8982],[121.2673,15.7776],[121.4477,15.9243]]]}},{"type":"Feature","properties":{"sourceId":"1159313501","regionId":"region.505c4dab-e49b-4583-bc9d-18a55388033e","countryId":"country.1ckv6i4"},"geometry":{"type":"Polygon","coordinates":[[[120.526,16.2321],[120.6705,16.1869],[120.7566,16.2007],[120.7769,16.2906],[120.8565,16.3254],[120.9038,16.4315],[120.9026,16.5974],[120.8509,16.8463],[120.7735,16.921],[120.6378,16.8601],[120.595,16.6526],[120.472,16.4638],[120.526,16.2321]],[[120.6526,16.3536],[120.5847,16.3589],[120.5639,16.4346],[120.6448,16.432],[120.6526,16.3536]]]}},{"type":"Feature","properties":{"sourceId":"1159313483","regionId":"region.b6f7ac5b-2872-45b4-9ef3-6a53c7f64d69","countryId":"country.1ckv6i4"},"geometry":{"type":"Polygon","coordinates":[[[121.5635,17.0866],[121.435,17.086],[121.248,17.0164],[121.0988,17.0142],[120.9745,16.951],[120.9194,16.8447],[120.8509,16.8463],[120.9026,16.5974],[121.2369,16.6529],[121.3354,16.7643],[121.479,16.8307],[121.571,16.911],[121.5635,17.0866]]]}},{"type":"Feature","properties":{"sourceId":"1159313485","regionId":"region.77c06708-392b-46ce-9d8e-8da8b5861af0","countryId":"country.1ckv6i4"},"geometry":{"type":"Polygon","coordinates":[[[121.5706,17.2501],[121.4242,17.2983],[121.1945,17.1681],[120.9148,17.2493],[120.8738,17.1821],[120.781,17.0706],[120.7735,16.921],[120.8509,16.8463],[120.9194,16.8447],[120.9745,16.951],[121.0988,17.0142],[121.248,17.0164],[121.435,17.086],[121.5635,17.0866],[121.5706,17.2501]]]}},{"type":"Feature","properties":{"sourceId":"1159313493","regionId":"region.eb54348c-eb02-4761-b31b-277852948034","countryId":"country.1ckv6i4"},"geometry":{"type":"Polygon","coordinates":[[[120.3806,15.169],[120.5562,15.2542],[120.7763,15.2595],[120.7332,15.538],[120.6425,15.7108],[120.6273,15.8187],[120.4907,15.7157],[120.3952,15.7529],[120.247,15.614],[120.1438,15.4065],[120.1637,15.3432],[120.3081,15.2737],[120.3806,15.169]]]}},{"type":"Feature","properties":{"sourceId":"1159313471","regionId":"region.d8acfea2-7c88-43ea-88ed-2c2d6a84f6a4","countryId":"country.1ckv6i4"},"geometry":{"type":"Polygon","coordinates":[[[120.9385,17.9671],[121.0256,17.8388],[121.0847,17.8347],[121.1268,17.6835],[121.4288,17.7176],[121.3184,17.8426],[121.4616,18.0983],[121.457,18.3019],[121.2785,18.4113],[121.1255,18.4668],[121.0868,18.5303],[120.9571,18.4468],[120.9708,18.1935],[120.9385,17.9671]]]}},{"type":"Feature","properties":{"sourceId":"1159316093","regionId":"region.83be43a2-5818-4368-8736-4b20fc6e581d","countryId":"country.1ckv6i4"},"geometry":{"type":"Polygon","coordinates":[[[121.4288,17.7176],[121.1268,17.6835],[121.1176,17.5756],[120.9969,17.4615],[120.9148,17.2493],[121.1945,17.1681],[121.4242,17.2983],[121.5706,17.2501],[121.6529,17.5182],[121.5664,17.5634],[121.4288,17.7176]]]}},{"type":"Feature","properties":{"sourceId":"1159313467","regionId":"region.6d367314-29e0-4f4b-b8ca-bbfeda585ed4","countryId":"country.1ckv6i4"},"geometry":{"type":"Polygon","coordinates":[[[120.9385,17.9671],[120.8278,17.9435],[120.6182,17.819],[120.539,17.7037],[120.4672,17.4992],[120.5726,17.4919],[120.5338,17.3673],[120.6661,17.2677],[120.754,17.1585],[120.8738,17.1821],[120.9148,17.2493],[120.9969,17.4615],[121.1176,17.5756],[121.1268,17.6835],[121.0847,17.8347],[121.0256,17.8388],[120.9385,17.9671]]]}},{"type":"Feature","properties":{"sourceId":"1159317229","regionId":"region.3da6264d-9b1e-4abf-83a4-b2b391e44945","countryId":"country.1ckv6i4"},"geometry":{"type":"Polygon","coordinates":[[[123.2342,13.5686],[123.2934,13.6633],[123.1396,13.6199],[123.2342,13.5686]]]}},{"type":"Feature","properties":{"sourceId":"1159317267","regionId":"region.74e79024-ed33-48d9-8ec2-187c3061e35c","countryId":"country.1ckv6i4"},"geometry":{"type":"Polygon","coordinates":[[[120.5926,15.1032],[120.637,15.1163],[120.637,15.1789],[120.5691,15.1763],[120.5926,15.1032]]]}},{"type":"Feature","properties":{"sourceId":"1159317275","regionId":"region.b3164c42-f493-41ee-8a2a-18628e4eb18d","countryId":"country.1ckv6i4"},"geometry":{"type":"Polygon","coordinates":[[[120.6526,16.3536],[120.6448,16.432],[120.5639,16.4346],[120.5847,16.3589],[120.6526,16.3536]]]}},{"type":"Feature","properties":{"sourceId":"1159317251","regionId":"region.600ba396-fe35-4e81-8f93-bba1fd1a0344","countryId":"country.1ckv6i4"},"geometry":{"type":"Polygon","coordinates":[[[121.0321,14.5275],[121.0774,14.5348],[121.0805,14.5478],[121.0645,14.5646],[121.0265,14.575],[121.0062,14.5577],[121.0321,14.5275]]]}},{"type":"Feature","properties":{"sourceId":"1159317265","regionId":"region.150ee801-47f0-4e0a-8fe9-11208d423fd1","countryId":"country.1ckv6i4"},"geometry":{"type":"Polygon","coordinates":[[[121.0774,14.5348],[121.0917,14.543],[121.0805,14.5478],[121.0774,14.5348]]]}},{"type":"Feature","properties":{"sourceId":"1159311695","regionId":"region.712def30-670c-4b38-980b-424079e21f79","countryId":"country.1ckv6i4"},"geometry":{"type":"Polygon","coordinates":[[[121.0265,14.575],[121.0645,14.5646],[121.0714,14.5836],[121.0714,14.594],[121.0373,14.5888],[121.0265,14.575]]]}},{"type":"Feature","properties":{"sourceId":"1159317247","regionId":"region.aa3a6582-5770-4b6a-8e78-29a6a0676f43","countryId":"country.1ckv6i4"},"geometry":{"type":"Polygon","coordinates":[[[121.0714,14.594],[121.03,14.5974],[121.0373,14.5888],[121.0714,14.594]]]}}]}