{"type":"FeatureCollection","features":[{"type":"Feature","properties":{"sourceId":"1159310019","regionId":"region.75497dc9-5f1d-4742-9382-838a91e7c51c","countryId":"country.ckoh6f"},"geometry":{"type":"Polygon","coordinates":[[[-78.8287,1.4343],[-78.5701,1.1958],[-78.4781,1.1871],[-78.3728,1.0738],[-78.12,0.9212],[-77.9085,0.8642],[-77.848,0.8093],[-77.7279,0.8433],[-77.5798,0.6709],[-77.5141,0.6605],[-77.4681,0.6509],[-77.4244,0.4083],[-77.2069,0.3342],[-77.1039,0.3541],[-77.1091,0.5845],[-77.2386,0.6972],[-77.09,0.8842],[-77.0321,1.0413],[-77.0887,1.1861],[-76.9117,1.3132],[-76.9245,1.503],[-76.8448,1.6071],[-76.9244,1.7198],[-77.233,1.6635],[-77.3251,1.6894],[-77.2834,1.8557],[-77.214,1.9864],[-77.3301,2.0704],[-77.313,2.1714],[-77.4314,2.221],[-77.7438,2.1445],[-77.8401,2.1772],[-77.9488,2.382],[-77.9527,2.5557],[-78.0739,2.6468],[-78.0867,2.5106],[-78.2775,2.5425],[-78.334,2.647],[-78.4322,2.587],[-78.5857,2.4031],[-78.7032,2.1898],[-78.6707,2.031],[-78.5863,2.0004],[-78.5463,1.8599],[-78.5712,1.7822],[-78.7594,1.8305],[-78.8461,1.8216],[-78.998,1.6079],[-78.8533,1.5434],[-78.8287,1.4343]]]}},{"type":"Feature","properties":{"sourceId":"1159310145","regionId":"region.0da9372e-14d2-49f5-b5b9-16f98d5ccacb","countryId":"country.ckoh6f"},"geometry":{"type":"Polygon","coordinates":[[[-77.1039,0.3541],[-76.8968,0.2453],[-76.7369,0.2729],[-76.5843,0.2226],[-76.408,0.2545],[-76.4159,0.3954],[-76.3116,0.4585],[-76.0535,0.3635],[-75.9271,0.181],[-75.7897,0.0844],[-75.6467,0.0854],[-75.4214,-0.0622],[-75.2835,-0.107],[-75.2221,-0.0324],[-75.1417,-0.0435],[-74.9335,-0.2094],[-74.8247,-0.1705],[-74.6866,-0.3534],[-74.6423,-0.3398],[-74.4147,-0.5638],[-73.8641,-0.3929],[-74.0114,-0.3351],[-74.1167,-0.2463],[-74.2404,-0.2279],[-74.2915,-0.1415],[-74.4132,-0.0903],[-74.4698,-0.1258],[-74.6638,-0.0542],[-74.6829,0.1509],[-74.7429,0.2003],[-74.9624,0.2708],[-74.9962,0.4699],[-75.202,0.5178],[-75.2541,0.719],[-75.4591,0.7495],[-75.5599,0.8286],[-75.8455,0.8895],[-75.9178,1.0192],[-76.0605,1.0437],[-76.2098,0.9721],[-76.351,0.9769],[-76.5366,1.0756],[-76.5161,1.2747],[-76.5884,1.4075],[-76.6705,1.4337],[-76.7457,1.3295],[-76.9117,1.3132],[-77.0887,1.1861],[-77.0321,1.0413],[-77.09,0.8842],[-77.2386,0.6972],[-77.1091,0.5845],[-77.1039,0.3541]]]}},{"type":"Feature","properties":{"sourceId":"1159310035","regionId":"region.6ae403a1-5c51-4e90-9ef4-e69ab8476e2a","countryId":"country.ckoh6f"},"geometry":{"type":"Polygon","coordinates":[[[-77.4694,8.5378],[-77.3632,8.2721],[-77.2694,8.1677],[-77.2012,7.982],[-77.3216,7.881],[-77.3799,7.7744],[-77.3397,7.7072],[-77.58,7.5284],[-77.6799,7.671],[-77.7705,7.669],[-77.7312,7.5303],[-77.8202,7.4765],[-77.8958,7.2351],[-77.7869,7.1489],[-77.6527,6.9766],[-77.7013,6.9184],[-77.5734,6.801],[-77.5318,6.7121],[-77.4112,6.6938],[-77.343,6.5438],[-77.3965,6.3958],[-77.4151,6.2391],[-77.4844,6.1888],[-77.353,6.0262],[-77.2464,5.7873],[-77.2611,5.7009],[-77.3556,5.6079],[-77.4908,5.5948],[-77.4083,5.4645],[-77.3592,5.2973],[-77.3667,4.9989],[-77.3188,4.7097],[-77.3196,4.5466],[-77.3872,4.3472],[-77.2544,4.2422],[-77.0658,4.1039],[-76.9568,4.1226],[-76.8927,4.0419],[-76.7304,3.9986],[-76.5941,4.0505],[-76.4462,4.182],[-76.496,4.32],[-76.4273,4.5817],[-76.3033,4.6999],[-76.2912,4.7732],[-76.1695,4.8894],[-76.0759,5.0357],[-76.0976,5.175],[-76.1799,5.3087],[-76.1656,5.4087],[-76.0933,5.4554],[-76.0425,5.5773],[-76.1331,5.8615],[-76.1113,5.9756],[-76.217,6.0348],[-76.2772,6.1873],[-76.5692,6.1617],[-76.7001,6.1687],[-76.7707,6.2869],[-76.7881,6.4835],[-76.8982,6.5946],[-76.9728,6.8102],[-76.8362,6.8406],[-76.8314,6.9997],[-76.6834,7.026],[-76.5461,6.991],[-76.5053,7.0744],[-76.5296,7.2487],[-76.6925,7.3544],[-76.8769,7.5654],[-77.1264,7.7809],[-77.0217,7.8985],[-76.9539,8.0865],[-76.9855,8.2562],[-77.0528,8.2763],[-77.1336,8.4084],[-77.2747,8.4958],[-77.3735,8.6647],[-77.4694,8.5378]]]}},{"type":"Feature","properties":{"sourceId":"1159310167","regionId":"region.ec8e8623-7dfb-43c9-a01f-eff2f3671093","countryId":"country.ckoh6f"},"geometry":{"type":"Polygon","coordinates":[[[-69.8412,1.7076],[-69.5803,1.7702],[-69.3524,1.7202],[-68.1633,1.7213],[-68.2608,1.8582],[-68.2008,2.0078],[-68.1012,1.9241],[-67.9982,1.75],[-67.8605,1.7615],[-67.7905,1.8126],[-67.5929,2.0548],[-67.4397,2.1396],[-67.3406,2.0901],[-67.2648,1.9325],[-67.1172,1.7098],[-67.0736,1.5412],[-67.0982,1.2534],[-67.0652,1.1727],[-66.8751,1.2225],[-66.8825,1.326],[-67.0668,1.8941],[-67.1351,2.0033],[-67.2177,2.2845],[-67.1976,2.402],[-67.3254,2.4746],[-67.4852,2.6619],[-67.5756,2.6911],[-67.6266,2.8134],[-67.8386,2.8861],[-67.4522,3.2437],[-67.3958,3.2666],[-67.3046,3.4257],[-67.4039,3.5045],[-67.4714,3.6801],[-67.6318,3.7619],[-67.7169,4.0399],[-67.7971,3.9538],[-67.9875,3.9348],[-68.0927,4.0054],[-68.1694,3.9197],[-68.2679,4.0027],[-68.3555,4.0199],[-68.5464,3.7959],[-68.6888,3.7978],[-68.9624,3.6409],[-69.1089,3.6279],[-69.2924,3.7266],[-69.4307,3.6861],[-69.6032,3.692],[-69.6114,3.6188],[-69.7058,3.5682],[-69.8941,3.5664],[-70.0109,3.5286],[-70.1511,3.3479],[-70.1293,3.2043],[-70.1989,3.196],[-70.305,3.078],[-70.2815,2.942],[-70.4997,2.7845],[-70.8957,2.6209],[-70.7471,2.529],[-70.6223,2.3276],[-70.3412,2.246],[-70.0373,2.2774],[-69.9999,2.1977],[-70.105,2.1012],[-70.1566,1.8693],[-70.0502,1.781],[-69.8412,1.7076]]]}},{"type":"Feature","properties":{"sourceId":"1159310173","regionId":"region.75f596eb-808d-4de8-b52d-cdf81f1db7fd","countryId":"country.ckoh6f"},"geometry":{"type":"Polygon","coordinates":[[[-69.8412,1.7076],[-70.0502,1.781],[-70.1566,1.8693],[-70.105,2.1012],[-70.2017,2.0312],[-70.4445,1.9884],[-70.702,1.9017],[-70.9118,1.915],[-70.9677,1.8533],[-71.1598,1.7562],[-71.2638,1.6734],[-71.3908,1.7322],[-71.433,1.5641],[-71.5421,1.2795],[-71.5073,1.1366],[-71.5858,1.1129],[-71.6731,0.982],[-71.7865,0.9169],[-72.0358,0.664],[-71.9364,0.4867],[-71.7871,0.3733],[-71.689,0.2583],[-71.5385,0.1777],[-71.4214,0.1916],[-71.3223,0.1332],[-71.1739,0.1158],[-71.14,0.0377],[-70.9966,0.0087],[-70.853,-0.3125],[-70.7605,-0.2806],[-70.5674,-0.3597],[-70.5009,-0.3596],[-70.4483,-0.4656],[-70.2841,-0.5056],[-70.2401,-0.5807],[-70.2127,-0.8524],[-70.2797,-0.9337],[-70.1384,-1.0714],[-70.1241,-0.9744],[-69.9254,-0.9167],[-69.9474,-1.0292],[-69.6618,-1.0398],[-69.6599,-1.1225],[-69.4653,-1.18],[-69.4211,-1.2393],[-69.45,-0.9968],[-69.5392,-0.9206],[-69.6284,-0.7334],[-69.5842,-0.6446],[-69.6321,-0.5069],[-69.7465,-0.453],[-69.8581,-0.3414],[-69.9444,-0.3055],[-70.0738,-0.1249],[-70.0542,0.5881],[-69.8053,0.6069],[-69.6947,0.6687],[-69.6192,0.6507],[-69.5037,0.7296],[-69.3626,0.6409],[-69.2262,0.6148],[-69.1375,0.6501],[-69.2043,0.9437],[-69.2888,1.0384],[-69.3709,1.063],[-69.7626,1.0911],[-69.8522,1.0594],[-69.8412,1.7076]]]}},{"type":"Feature","properties":{"sourceId":"1159310177","regionId":"region.01a2ffed-dedb-4f60-bebc-6ef6dddda61a","countryId":"country.ckoh6f"},"geometry":{"type":"Polygon","coordinates":[[[-69.4211,-1.2393],[-69.4653,-1.18],[-69.6599,-1.1225],[-69.6618,-1.0398],[-69.9474,-1.0292],[-69.9254,-0.9167],[-70.1241,-0.9744],[-70.1384,-1.0714],[-70.2797,-0.9337],[-70.2127,-0.8524],[-70.2401,-0.5807],[-70.2841,-0.5056],[-70.4483,-0.4656],[-70.5009,-0.3596],[-70.5674,-0.3597],[-70.7605,-0.2806],[-70.853,-0.3125],[-70.9966,0.0087],[-71.14,0.0377],[-71.1739,0.1158],[-71.3223,0.1332],[-71.3897,0.0675],[-71.6259,-0.043],[-71.7276,-0.1296],[-71.7742,-0.2247],[-72.0369,-0.2596],[-72.1286,-0.3263],[-72.2324,-0.4673],[-72.2424,-0.5869],[-72.3245,-0.6293],[-72.4219,-0.5566],[-72.5498,-0.6833],[-72.7207,-0.5715],[-72.8848,-0.6017],[-72.9974,-0.5266],[-73.0813,-0.5936],[-73.2055,-0.6047],[-73.3318,-0.5073],[-73.4791,-0.5327],[-73.7284,-0.3865],[-73.8641,-0.3929],[-74.4147,-0.5638],[-74.3106,-0.8014],[-74.2891,-0.943],[-73.9199,-1.1138],[-73.8808,-1.191],[-73.6366,-1.2552],[-73.4972,-1.478],[-73.4845,-1.5725],[-73.531,-1.6737],[-73.3403,-1.7922],[-73.1863,-1.7996],[-73.1687,-1.9593],[-73.1111,-2.0734],[-73.1953,-2.1872],[-73.1589,-2.293],[-73.0564,-2.2999],[-72.9433,-2.419],[-72.8047,-2.3778],[-72.7183,-2.4199],[-72.6443,-2.3341],[-72.3966,-2.4465],[-72.1615,-2.4057],[-72.0894,-2.331],[-71.9663,-2.3285],[-71.7679,-2.1422],[-71.4565,-2.2551],[-71.387,-2.3689],[-71.2199,-2.3415],[-71.1428,-2.2629],[-70.9927,-2.1974],[-70.8742,-2.2296],[-70.7066,-2.3283],[-70.6476,-2.4508],[-70.5786,-2.4055],[-70.457,-2.4927],[-70.3575,-2.4869],[-70.2361,-2.6251],[-70.0506,-2.7151],[-70.7341,-3.782],[-70.5443,-3.8652],[-70.3111,-3.8293],[-70.217,-3.925],[-70.1884,-4.029],[-70.0605,-4.1072],[-69.9649,-4.2365],[-69.9472,-4.2011],[-69.7712,-3.2342],[-69.5657,-2.106],[-69.4523,-1.4905],[-69.4211,-1.2393]]]}},{"type":"Feature","properties":{"sourceId":"1159310189","regionId":"region.7cced5fc-7f5c-4c25-aafb-0ce1cbd8309d","countryId":"country.ckoh6f"},"geometry":{"type":"Polygon","coordinates":[[[-71.3275,11.85],[-71.2988,11.9202],[-71.1381,12.0158],[-71.1139,12.0944],[-71.2423,12.3277],[-71.5316,12.4472],[-71.6562,12.4653],[-71.6916,12.3934],[-71.8028,12.3237],[-71.8779,12.3448],[-71.9053,12.2077],[-72.0049,12.2629],[-72.1705,12.2343],[-72.1387,12.1046],[-72.2631,11.886],[-72.4521,11.7913],[-72.7597,11.6971],[-72.934,11.5568],[-73.0548,11.494],[-73.2924,11.294],[-73.5656,11.2771],[-73.6378,11.1392],[-73.6497,10.9919],[-73.6058,10.8455],[-73.4522,10.8663],[-73.2716,10.8434],[-73.2499,10.7339],[-73.0752,10.63],[-73.1813,10.4566],[-73.1307,10.4002],[-72.9152,10.4282],[-72.7544,10.6749],[-72.7061,10.8113],[-72.5765,10.9574],[-72.4815,11.1325],[-72.2566,11.1678],[-72.0079,11.6246],[-71.9711,11.6619],[-71.4495,11.7955],[-71.3275,11.85]]]}},{"type":"Feature","properties":{"sourceId":"1159310153","regionId":"region.3b8becc2-d8c9-440e-895e-b031a566b6e4","countryId":"country.ckoh6f"},"geometry":{"type":"Polygon","coordinates":[[[-72.9152,10.4282],[-73.1307,10.4002],[-73.1813,10.4566],[-73.0752,10.63],[-73.2499,10.7339],[-73.2716,10.8434],[-73.4522,10.8663],[-73.6058,10.8455],[-73.6375,10.7672],[-73.5778,10.5032],[-73.7705,10.3912],[-73.8935,10.3733],[-74.0505,10.1699],[-74.0662,10.0538],[-74.008,9.9583],[-73.8418,9.7899],[-73.7842,9.5975],[-73.8761,9.5693],[-74.0044,9.5933],[-74.1371,9.4982],[-74.001,9.3991],[-73.9535,9.1964],[-73.8738,9.1783],[-73.7998,9.0556],[-73.8704,8.8877],[-73.8076,8.8166],[-73.8296,8.6436],[-73.7622,8.4594],[-73.7856,8.1615],[-73.677,7.8934],[-73.7519,7.7409],[-73.6254,7.7345],[-73.4961,7.6782],[-73.3574,7.8106],[-73.3627,8.0162],[-73.4086,8.1276],[-73.3671,8.3327],[-73.5278,8.3925],[-73.4918,8.4622],[-73.5622,8.5879],[-73.4268,8.7927],[-73.4478,8.8655],[-73.417,9.1507],[-73.3636,9.165],[-73.1784,9.523],[-73.1236,9.5613],[-72.9776,9.8381],[-72.9877,9.9994],[-72.9356,10.1752],[-72.9152,10.4282]]]}},{"type":"Feature","properties":{"sourceId":"1159310161","regionId":"region.53c87347-16f6-413c-9267-b7a5741a354d","countryId":"country.ckoh6f"},"geometry":{"type":"Polygon","coordinates":[[[-72.4156,8.3827],[-72.4563,8.4039],[-72.6754,8.6515],[-72.7831,9.0599],[-72.8267,9.1417],[-72.9364,9.0992],[-73.0097,9.2954],[-73.1762,9.1909],[-73.3636,9.165],[-73.417,9.1507],[-73.4478,8.8655],[-73.4268,8.7927],[-73.5622,8.5879],[-73.4918,8.4622],[-73.5278,8.3925],[-73.3671,8.3327],[-73.4086,8.1276],[-73.3627,8.0162],[-73.3574,7.8106],[-73.4961,7.6782],[-73.6254,7.7345],[-73.5043,7.6074],[-73.2607,7.5449],[-73.2164,7.63],[-72.9913,7.6132],[-72.9031,7.4763],[-72.8445,7.301],[-72.83,7.1621],[-72.8859,7.0738],[-72.7154,7.0033],[-72.5515,6.9804],[-72.5049,6.9151],[-72.4228,6.8792],[-72.3384,6.9132],[-72.1817,7.0401],[-71.9938,7.0129],[-72.081,7.0666],[-72.1533,7.1926],[-72.2062,7.3819],[-72.3958,7.4075],[-72.482,7.508],[-72.4518,7.8328],[-72.4878,7.9492],[-72.3358,8.1039],[-72.4156,8.3827]]]}},{"type":"Feature","properties":{"sourceId":"1159310159","regionId":"region.6b761442-0b61-40fb-b8e7-9e6dba174f93","countryId":"country.ckoh6f"},"geometry":{"type":"Polygon","coordinates":[[[-71.964,7.0059],[-72.053,6.7824],[-72.1017,6.7291],[-72.1573,6.4747],[-72.282,6.4222],[-72.3217,6.3513],[-72.3454,6.2628],[-72.2598,6.1384],[-72.1563,6.074],[-71.9259,6.1543],[-71.722,6.2],[-71.4623,6.1989],[-71.2071,6.2741],[-70.8642,6.2153],[-70.5049,6.2247],[-70.3734,6.2758],[-70.1181,6.25],[-70.0258,6.1503],[-69.8558,6.0263],[-69.7849,6.0621],[-69.5719,6.0542],[-69.432,6.1222],[-69.4436,6.1222],[-70.0966,6.9444],[-70.1578,6.9795],[-70.3191,6.9383],[-70.5209,7.0156],[-70.5786,7.0858],[-70.7033,7.0999],[-70.9034,7.0632],[-70.9613,7.0094],[-71.184,6.9626],[-71.2835,7.0188],[-71.6543,7.0534],[-71.8326,6.9864],[-71.964,7.0059]]]}},{"type":"Feature","properties":{"sourceId":"1159310181","regionId":"region.28b485b6-6f78-4298-9eec-d85792c6ab0b","countryId":"country.ckoh6f"},"geometry":{"type":"Polygon","coordinates":[[[-71.9938,7.0129],[-72.1817,7.0401],[-72.3384,6.9132],[-72.4228,6.8792],[-72.5049,6.9151],[-72.478,6.8441],[-72.4978,6.6458],[-72.5424,6.5025],[-72.6167,6.4381],[-72.7334,6.4566],[-72.7546,6.2295],[-72.8937,6.1232],[-73.0348,5.9407],[-73.2192,5.9825],[-73.2862,5.8559],[-73.4008,5.9223],[-73.3975,6.0319],[-73.4993,6.1071],[-73.6137,5.9222],[-73.6384,5.7227],[-73.7371,5.7611],[-73.9732,5.7326],[-74.1745,5.9008],[-74.2903,6.0707],[-74.3569,6.0391],[-74.4412,6.0955],[-74.5194,6.2823],[-74.5798,6.216],[-74.5908,5.9182],[-74.6625,5.7719],[-74.6461,5.7525],[-74.5339,5.7906],[-74.3122,5.7895],[-74.2998,5.586],[-74.2439,5.4839],[-74.0001,5.3743],[-73.8216,5.5585],[-73.7915,5.508],[-73.5901,5.3856],[-73.5216,5.2373],[-73.4784,5.0525],[-73.5453,4.9324],[-73.4027,4.8715],[-73.3044,4.7379],[-73.2181,4.6776],[-73.0925,4.6787],[-73.053,4.7348],[-73.0686,4.8108],[-73.0309,4.9851],[-72.9061,5.083],[-72.9383,5.2405],[-72.8085,5.384],[-72.7096,5.2795],[-72.5901,5.3542],[-72.4206,5.5577],[-72.3193,5.5061],[-72.2377,5.6831],[-72.3514,5.8031],[-72.3928,5.9009],[-72.341,6.0789],[-72.4157,6.2041],[-72.3217,6.3513],[-72.282,6.4222],[-72.1573,6.4747],[-72.1017,6.7291],[-72.053,6.7824],[-71.964,7.0059],[-71.9938,7.0129]]]}},{"type":"Feature","properties":{"sourceId":"1159310175","regionId":"region.53901564-1456-4dc0-9e79-5442cb794406","countryId":"country.ckoh6f"},"geometry":{"type":"Polygon","coordinates":[[[-67.4563,6.1932],[-67.451,6.198],[-67.574,6.2662],[-67.8391,6.3075],[-67.9241,6.2346],[-68.1465,6.2238],[-68.3042,6.177],[-68.449,6.195],[-68.6353,6.1359],[-68.8291,6.1878],[-69.0611,6.2178],[-69.2461,6.0807],[-69.3113,6.1462],[-69.432,6.1222],[-69.5719,6.0542],[-69.7849,6.0621],[-69.8558,6.0263],[-69.9694,5.8083],[-70.0685,5.6693],[-70.1852,5.5874],[-70.4488,5.5331],[-70.6787,5.3894],[-70.6873,5.3234],[-70.9603,5.1177],[-71.0603,4.9194],[-71.0637,3.3619],[-71.0637,2.8686],[-70.795,2.7956],[-70.5928,2.8419],[-70.4997,2.7845],[-70.2815,2.942],[-70.305,3.078],[-70.1989,3.196],[-70.1293,3.2043],[-70.1511,3.3479],[-70.0109,3.5286],[-69.8941,3.5664],[-69.7058,3.5682],[-69.6114,3.6188],[-69.6032,3.692],[-69.4307,3.6861],[-69.2924,3.7266],[-69.1089,3.6279],[-68.9624,3.6409],[-68.6888,3.7978],[-68.5464,3.7959],[-68.3555,4.0199],[-68.2679,4.0027],[-68.1694,3.9197],[-68.0927,4.0054],[-67.9875,3.9348],[-67.7971,3.9538],[-67.7169,4.0399],[-67.7862,4.173],[-67.782,4.3389],[-67.8651,4.5121],[-67.7931,5.0633],[-67.8437,5.2972],[-67.8098,5.3788],[-67.647,5.4834],[-67.6143,5.5537],[-67.6491,5.6561],[-67.6012,5.8206],[-67.4286,6.0385],[-67.4912,6.1145],[-67.4563,6.1932]]]}},{"type":"Feature","properties":{"sourceId":"1159309011","regionId":"region.c174d9bd-419d-448c-a725-fa4c4477aab9","countryId":"country.ckoh6f"},"geometry":{"type":"Polygon","coordinates":[[[-78.0739,2.6468],[-77.9527,2.5557],[-77.9488,2.382],[-77.8401,2.1772],[-77.7438,2.1445],[-77.4314,2.221],[-77.313,2.1714],[-77.3301,2.0704],[-77.214,1.9864],[-77.2834,1.8557],[-77.3251,1.6894],[-77.233,1.6635],[-76.9244,1.7198],[-76.8448,1.6071],[-76.9245,1.503],[-76.9117,1.3132],[-76.7457,1.3295],[-76.6705,1.4337],[-76.5884,1.4075],[-76.5161,1.2747],[-76.5366,1.0756],[-76.351,0.9769],[-76.2098,0.9721],[-76.0605,1.0437],[-76.1596,1.1326],[-76.297,1.1961],[-76.2856,1.3272],[-76.1453,1.5755],[-76.3469,1.6389],[-76.5769,1.8797],[-76.6001,1.9718],[-76.5366,2.1291],[-76.4554,2.1128],[-76.3565,2.2875],[-76.3926,2.3668],[-76.1544,2.3727],[-75.9662,2.491],[-75.8445,2.4281],[-75.781,2.6696],[-75.806,2.72],[-76.0312,2.9295],[-76.0446,3.0355],[-76.1128,3.0951],[-76.0758,3.2133],[-76.2559,3.2829],[-76.4367,3.3179],[-76.4668,3.1786],[-76.5533,3.1101],[-76.6912,3.1168],[-76.7786,3.1839],[-76.8874,3.095],[-77.1096,3.1919],[-77.2615,3.124],[-77.3643,3.1653],[-77.4649,3.3016],[-77.5087,3.1946],[-77.6477,3.0739],[-77.6434,2.8981],[-77.8118,2.7485],[-77.7515,2.6273],[-77.9043,2.58],[-77.9498,2.6745],[-78.0739,2.6468]]]}},{"type":"Feature","properties":{"sourceId":"1159310147","regionId":"region.9ced11d6-f68a-46bd-a7b3-10a06e2817a8","countryId":"country.ckoh6f"},"geometry":{"type":"Polygon","coordinates":[[[-77.4649,3.3016],[-77.3643,3.1653],[-77.2615,3.124],[-77.1096,3.1919],[-76.8874,3.095],[-76.7786,3.1839],[-76.6912,3.1168],[-76.5533,3.1101],[-76.4668,3.1786],[-76.4367,3.3179],[-76.2559,3.2829],[-76.0758,3.2133],[-76.0494,3.4424],[-75.9617,3.7122],[-75.8577,3.8699],[-75.7622,4.0785],[-75.8299,4.1094],[-75.7903,4.2884],[-75.8768,4.5526],[-75.8248,4.6644],[-75.714,4.7129],[-75.9086,4.7632],[-76.0759,5.0357],[-76.1695,4.8894],[-76.2912,4.7732],[-76.3033,4.6999],[-76.4273,4.5817],[-76.496,4.32],[-76.4462,4.182],[-76.5941,4.0505],[-76.7304,3.9986],[-76.8927,4.0419],[-76.9568,4.1226],[-77.0658,4.1039],[-77.2544,4.2422],[-77.2852,4.2113],[-77.4352,4.1528],[-77.425,4.0046],[-77.1892,4.0673],[-77.3118,3.9084],[-77.1515,3.8004],[-77.2049,3.6212],[-77.3105,3.5502],[-77.3671,3.4021],[-77.4649,3.3016]]]}},{"type":"Feature","properties":{"sourceId":"1159310179","regionId":"region.bd5e00c9-7b9b-4954-b99b-1e326ce932db","countryId":"country.ckoh6f"},"geometry":{"type":"Polygon","coordinates":[[[-76.9855,8.2562],[-76.9539,8.0865],[-77.0217,7.8985],[-77.1264,7.7809],[-76.8769,7.5654],[-76.6925,7.3544],[-76.5296,7.2487],[-76.5053,7.0744],[-76.5461,6.991],[-76.6834,7.026],[-76.8314,6.9997],[-76.8362,6.8406],[-76.9728,6.8102],[-76.8982,6.5946],[-76.7881,6.4835],[-76.7707,6.2869],[-76.7001,6.1687],[-76.5692,6.1617],[-76.2772,6.1873],[-76.217,6.0348],[-76.1113,5.9756],[-76.1331,5.8615],[-76.0425,5.5773],[-75.9605,5.507],[-75.8578,5.4894],[-75.7389,5.5572],[-75.5857,5.5188],[-75.6011,5.7351],[-75.4705,5.6704],[-75.3846,5.6742],[-75.3162,5.5171],[-75.2317,5.4893],[-75.143,5.5301],[-75.0912,5.6596],[-74.8668,5.7438],[-74.7773,5.6897],[-74.6625,5.7719],[-74.5908,5.9182],[-74.5798,6.216],[-74.5194,6.2823],[-74.4133,6.4042],[-74.3864,6.6263],[-74.2927,6.6544],[-74.1086,6.7903],[-74.007,6.9348],[-73.8878,7.0199],[-73.9224,7.1055],[-73.9302,7.3008],[-74.2529,6.9961],[-74.3439,7.0104],[-74.4687,7.3614],[-74.5626,7.4236],[-74.5606,7.6308],[-74.4859,7.7367],[-74.5995,7.9982],[-74.8349,8.1887],[-74.9426,8.0726],[-75.2288,8.046],[-75.5467,7.6895],[-75.59,7.5695],[-75.7694,7.4989],[-75.8681,7.3642],[-76.4078,7.3804],[-76.4976,7.6],[-76.5051,7.7407],[-76.4326,7.9313],[-76.4194,8.0987],[-76.3179,8.2809],[-76.2173,8.4102],[-76.2291,8.5776],[-76.3318,8.6603],[-76.4448,8.8699],[-76.6732,8.6804],[-76.8937,8.6203],[-76.9472,8.5455],[-76.8386,8.5004],[-76.7701,8.398],[-76.7702,8.2585],[-76.732,8.0793],[-76.7572,7.9236],[-76.8536,7.9127],[-76.9337,7.9646],[-76.8323,8.1365],[-76.9425,8.1289],[-76.9855,8.2562]]]}},{"type":"Feature","properties":{"sourceId":"1159310183","regionId":"region.47f29ce6-a091-4288-b0f7-ec546cc26fd6","countryId":"country.ckoh6f"},"geometry":{"type":"Polygon","coordinates":[[[-76.4448,8.8699],[-76.3318,8.6603],[-76.2291,8.5776],[-76.2173,8.4102],[-76.3179,8.2809],[-76.4194,8.0987],[-76.4326,7.9313],[-76.5051,7.7407],[-76.4976,7.6],[-76.4078,7.3804],[-75.8681,7.3642],[-75.7694,7.4989],[-75.59,7.5695],[-75.5467,7.6895],[-75.2288,8.046],[-74.9426,8.0726],[-74.8349,8.1887],[-74.805,8.2799],[-74.8094,8.3507],[-74.9433,8.4863],[-75.1835,8.4019],[-75.3191,8.5213],[-75.3599,8.8034],[-75.2968,8.8967],[-75.2092,8.9238],[-75.2128,9.0416],[-75.4302,9.1528],[-75.4653,9.238],[-75.6991,9.3541],[-75.6983,9.4169],[-75.91,9.4282],[-76.078,9.3438],[-76.1681,9.247],[-76.2563,9.0074],[-76.4448,8.8699]]]}},{"type":"Feature","properties":{"sourceId":"1159310157","regionId":"region.1d0c0a9c-dbe1-4565-9d30-dfe6eb1304e6","countryId":"country.ckoh6f"},"geometry":{"type":"Polygon","coordinates":[[[-75.6983,9.4169],[-75.6991,9.3541],[-75.4653,9.238],[-75.4302,9.1528],[-75.2128,9.0416],[-75.2092,8.9238],[-75.2968,8.8967],[-75.3599,8.8034],[-75.3191,8.5213],[-75.1835,8.4019],[-74.9433,8.4863],[-74.8094,8.3507],[-74.805,8.2799],[-74.6802,8.3098],[-74.5505,8.4628],[-74.603,8.7271],[-74.5421,8.8067],[-74.6592,8.9657],[-74.8253,9.0765],[-74.9004,9.1769],[-74.9408,9.3467],[-74.8992,9.4302],[-75.0295,9.4831],[-75.1828,9.6432],[-75.3653,9.6846],[-75.3272,9.8814],[-75.4782,9.9154],[-75.4757,10.0396],[-75.5816,10.092],[-75.5895,9.9642],[-75.6578,9.7052],[-75.5764,9.6211],[-75.6206,9.4529],[-75.6983,9.4169]]]}},{"type":"Feature","properties":{"sourceId":"1159308025","regionId":"region.2a0a2f98-fc0b-4292-8442-ac68e13ce1dd","countryId":"country.ckoh6f"},"geometry":{"type":"Polygon","coordinates":[[[-75.5816,10.092],[-75.4757,10.0396],[-75.4782,9.9154],[-75.3272,9.8814],[-75.3653,9.6846],[-75.1828,9.6432],[-75.0295,9.4831],[-74.8992,9.4302],[-74.9408,9.3467],[-74.9004,9.1769],[-74.8253,9.0765],[-74.6592,8.9657],[-74.5421,8.8067],[-74.603,8.7271],[-74.5505,8.4628],[-74.6802,8.3098],[-74.805,8.2799],[-74.8349,8.1887],[-74.5995,7.9982],[-74.4859,7.7367],[-74.5606,7.6308],[-74.5626,7.4236],[-74.4687,7.3614],[-74.3439,7.0104],[-74.2529,6.9961],[-73.9302,7.3008],[-73.9075,7.5099],[-73.8305,7.6101],[-73.8155,7.7795],[-73.8721,8.0069],[-73.8554,8.1054],[-73.7856,8.1615],[-73.7622,8.4594],[-73.8296,8.6436],[-73.8076,8.8166],[-73.8704,8.8877],[-73.9001,8.9855],[-74.0434,9.0552],[-74.1533,9.049],[-74.238,9.1543],[-74.4307,9.2675],[-74.5232,9.2395],[-74.6293,9.3759],[-74.8058,9.4868],[-74.7813,9.6313],[-74.8152,9.7687],[-74.878,9.8699],[-74.8123,9.9855],[-74.859,10.0973],[-74.9435,10.1375],[-74.9175,10.2674],[-75.0765,10.4144],[-75.2664,10.5307],[-75.2271,10.6283],[-75.2563,10.7093],[-75.3976,10.6819],[-75.5098,10.5858],[-75.4933,10.4346],[-75.5409,10.1885],[-75.5816,10.092]]]}},{"type":"Feature","properties":{"sourceId":"1159310149","regionId":"region.18035e18-2b11-4bd1-8426-1441086b83ab","countryId":"country.ckoh6f"},"geometry":{"type":"Polygon","coordinates":[[[-75.2563,10.7093],[-75.2271,10.6283],[-75.2664,10.5307],[-75.0765,10.4144],[-74.9175,10.2674],[-74.8067,10.5103],[-74.7286,10.584],[-74.7247,10.9003],[-74.8475,11.0877],[-75.0236,10.9743],[-75.036,10.9167],[-75.2287,10.8109],[-75.2297,10.7634],[-75.2563,10.7093]]]}},{"type":"Feature","properties":{"sourceId":"1159310155","regionId":"region.8a93c878-70d1-4aef-a9c4-eca66367d194","countryId":"country.ckoh6f"},"geometry":{"type":"Polygon","coordinates":[[[-74.8475,11.0877],[-74.7247,10.9003],[-74.7286,10.584],[-74.8067,10.5103],[-74.9175,10.2674],[-74.9435,10.1375],[-74.859,10.0973],[-74.8123,9.9855],[-74.878,9.8699],[-74.8152,9.7687],[-74.7813,9.6313],[-74.8058,9.4868],[-74.6293,9.3759],[-74.5232,9.2395],[-74.4307,9.2675],[-74.238,9.1543],[-74.1533,9.049],[-74.0434,9.0552],[-73.9001,8.9855],[-73.8704,8.8877],[-73.7998,9.0556],[-73.8738,9.1783],[-73.9535,9.1964],[-74.001,9.3991],[-74.1371,9.4982],[-74.0044,9.5933],[-73.8761,9.5693],[-73.7842,9.5975],[-73.8418,9.7899],[-74.008,9.9583],[-74.0662,10.0538],[-74.0505,10.1699],[-73.8935,10.3733],[-73.7705,10.3912],[-73.5778,10.5032],[-73.6375,10.7672],[-73.6058,10.8455],[-73.6497,10.9919],[-73.6378,11.1392],[-73.5656,11.2771],[-73.826,11.2768],[-74.0046,11.3553],[-74.1875,11.317],[-74.2422,11.2003],[-74.2181,11.0791],[-74.2804,10.9897],[-74.3622,10.7757],[-74.4566,10.748],[-74.5028,10.9743],[-74.8475,11.0877]]]}},{"type":"Feature","properties":{"sourceId":"1159310191","regionId":"region.8d81c609-9e00-43d9-ad5a-2153fae27fb3","countryId":"country.ckoh6f"},"geometry":{"type":"Polygon","coordinates":[[[-81.7115,12.5229],[-81.6864,12.5801],[-81.7064,12.5803],[-81.7198,12.5432],[-81.7115,12.5229]]]}},{"type":"Feature","properties":{"sourceId":"1159315631","regionId":"region.a428d19e-dcae-4f40-94ff-7852f725439d","countryId":"country.ckoh6f"},"geometry":{"type":"Polygon","coordinates":[[[-81.6117,3.959],[-81.5787,3.9782],[-81.5962,3.9912],[-81.6117,3.959]]]}},{"type":"Feature","properties":{"sourceId":"1159310141","regionId":"region.606bbeaa-c1bd-47f7-aed4-b1e2d6e1763a","countryId":"country.ckoh6f"},"geometry":{"type":"Polygon","coordinates":[[[-74.8975,2.9507],[-74.9768,2.8922],[-75.0576,2.7489],[-74.9955,2.6553],[-75.1224,2.5341],[-75.2187,2.5437],[-75.2781,2.3961],[-75.4215,2.2474],[-75.5512,2.0329],[-75.6264,1.9646],[-75.841,1.6806],[-75.9602,1.573],[-76.1453,1.5755],[-76.2856,1.3272],[-76.297,1.1961],[-76.1596,1.1326],[-76.0605,1.0437],[-75.9178,1.0192],[-75.8455,0.8895],[-75.5599,0.8286],[-75.4591,0.7495],[-75.2541,0.719],[-75.202,0.5178],[-74.9962,0.4699],[-74.9624,0.2708],[-74.7429,0.2003],[-74.6829,0.1509],[-74.6638,-0.0542],[-74.4698,-0.1258],[-74.4132,-0.0903],[-74.2915,-0.1415],[-74.2404,-0.2279],[-74.1167,-0.2463],[-74.0114,-0.3351],[-73.8641,-0.3929],[-73.7284,-0.3865],[-73.4791,-0.5327],[-73.3318,-0.5073],[-73.2055,-0.6047],[-73.0813,-0.5936],[-72.9974,-0.5266],[-72.8848,-0.6017],[-72.7207,-0.5715],[-72.5498,-0.6833],[-72.4219,-0.5566],[-72.3245,-0.6293],[-72.2424,-0.5869],[-72.2324,-0.4673],[-72.1286,-0.3263],[-72.0369,-0.2596],[-71.7742,-0.2247],[-71.7276,-0.1296],[-71.6259,-0.043],[-71.3897,0.0675],[-71.3223,0.1332],[-71.4214,0.1916],[-71.5385,0.1777],[-71.689,0.2583],[-71.7871,0.3733],[-71.9364,0.4867],[-72.0358,0.664],[-72.2381,0.7366],[-72.4029,0.9473],[-72.4176,1.026],[-72.6707,1.1911],[-72.8182,1.1978],[-72.8931,1.0466],[-73.0482,0.9267],[-73.1353,0.9415],[-73.4257,1.2094],[-73.4432,1.3023],[-73.5639,1.4368],[-73.6751,1.6245],[-73.9178,1.6347],[-74.5108,1.8439],[-74.6068,1.9624],[-74.6159,2.0431],[-74.5437,2.1819],[-74.6459,2.3182],[-74.6516,2.4646],[-74.5964,2.7212],[-74.7302,2.9073],[-74.8975,2.9507]]]}},{"type":"Feature","properties":{"sourceId":"1159310143","regionId":"region.43a3f440-0417-49d6-bde7-58e73744f52a","countryId":"country.ckoh6f"},"geometry":{"type":"Polygon","coordinates":[[[-74.8975,2.9507],[-74.8353,3.0933],[-74.6517,3.26],[-74.6159,3.4851],[-74.4936,3.704],[-74.5635,3.7721],[-74.6715,3.6749],[-74.7685,3.5261],[-74.7713,3.4535],[-74.9089,3.2899],[-75.072,3.311],[-75.0356,3.4342],[-75.1343,3.4335],[-75.2578,3.3736],[-75.3161,3.4118],[-75.4776,3.3605],[-75.646,3.0685],[-75.8547,2.8909],[-76.0312,2.9295],[-75.806,2.72],[-75.781,2.6696],[-75.8445,2.4281],[-75.9662,2.491],[-76.1544,2.3727],[-76.3926,2.3668],[-76.3565,2.2875],[-76.4554,2.1128],[-76.5366,2.1291],[-76.6001,1.9718],[-76.5769,1.8797],[-76.3469,1.6389],[-76.1453,1.5755],[-75.9602,1.573],[-75.841,1.6806],[-75.6264,1.9646],[-75.5512,2.0329],[-75.4215,2.2474],[-75.2781,2.3961],[-75.2187,2.5437],[-75.1224,2.5341],[-74.9955,2.6553],[-75.0576,2.7489],[-74.9768,2.8922],[-74.8975,2.9507]]]}},{"type":"Feature","properties":{"sourceId":"1159310165","regionId":"region.a1c698ad-e91d-4158-91d3-60a9b86b30cd","countryId":"country.ckoh6f"},"geometry":{"type":"Polygon","coordinates":[[[-73.6751,1.6245],[-73.5639,1.4368],[-73.4432,1.3023],[-73.4257,1.2094],[-73.1353,0.9415],[-73.0482,0.9267],[-72.8931,1.0466],[-72.8182,1.1978],[-72.6707,1.1911],[-72.4176,1.026],[-72.4029,0.9473],[-72.2381,0.7366],[-72.0358,0.664],[-71.7865,0.9169],[-71.6731,0.982],[-71.5858,1.1129],[-71.5073,1.1366],[-71.5421,1.2795],[-71.433,1.5641],[-71.3908,1.7322],[-71.2638,1.6734],[-71.1598,1.7562],[-70.9677,1.8533],[-70.9118,1.915],[-70.702,1.9017],[-70.4445,1.9884],[-70.2017,2.0312],[-70.105,2.1012],[-69.9999,2.1977],[-70.0373,2.2774],[-70.3412,2.246],[-70.6223,2.3276],[-70.7471,2.529],[-70.8957,2.6209],[-70.4997,2.7845],[-70.5928,2.8419],[-70.795,2.7956],[-71.0637,2.8686],[-71.5615,2.8557],[-71.6226,2.8157],[-71.7351,2.8808],[-71.9928,2.7999],[-72.121,2.8671],[-72.1935,2.773],[-72.3665,2.7381],[-72.6245,2.6075],[-72.7903,2.601],[-72.9062,2.5476],[-72.9305,2.4678],[-73.0958,2.3841],[-73.2153,2.3884],[-73.3364,2.3309],[-73.5103,2.3524],[-73.6546,2.2937],[-73.6611,1.642],[-73.6751,1.6245]]]}},{"type":"Feature","properties":{"sourceId":"1159310127","regionId":"region.68f57805-3ae0-4b91-a714-21fc660d244a","countryId":"country.ckoh6f"},"geometry":{"type":"Polygon","coordinates":[[[-74.6625,5.7719],[-74.7773,5.6897],[-74.8668,5.7438],[-75.0912,5.6596],[-75.143,5.5301],[-75.2317,5.4893],[-75.3162,5.5171],[-75.3846,5.6742],[-75.4705,5.6704],[-75.6011,5.7351],[-75.5857,5.5188],[-75.7389,5.5572],[-75.8578,5.4894],[-75.8564,5.3742],[-75.7188,5.3963],[-75.6675,5.2657],[-75.8173,5.2723],[-75.8083,5.1921],[-75.9268,5.0435],[-75.8585,4.9323],[-75.7092,4.9526],[-75.4924,4.9194],[-75.378,4.8001],[-75.2944,5.1318],[-75.1343,5.1608],[-75.0128,5.2939],[-74.8331,5.3144],[-74.7487,5.2908],[-74.6604,5.4583],[-74.6461,5.7525],[-74.6625,5.7719]]]}},{"type":"Feature","properties":{"sourceId":"1159310163","regionId":"region.5437bbfa-6de8-458f-aa27-235503abf4c6","countryId":"country.ckoh6f"},"geometry":{"type":"Polygon","coordinates":[[[-72.3217,6.3513],[-72.4157,6.2041],[-72.341,6.0789],[-72.3928,5.9009],[-72.3514,5.8031],[-72.2377,5.6831],[-72.3193,5.5061],[-72.4206,5.5577],[-72.5901,5.3542],[-72.7096,5.2795],[-72.8085,5.384],[-72.9383,5.2405],[-72.9061,5.083],[-73.0309,4.9851],[-73.0686,4.8108],[-73.053,4.7348],[-72.9266,4.5253],[-72.8126,4.4263],[-72.748,4.3131],[-72.5876,4.3097],[-72.3235,4.41],[-72.1499,4.4507],[-72.0122,4.3986],[-71.8195,4.5701],[-71.6857,4.6077],[-71.565,4.682],[-71.2745,4.8066],[-71.0603,4.9194],[-70.9603,5.1177],[-70.6873,5.3234],[-70.6787,5.3894],[-70.4488,5.5331],[-70.1852,5.5874],[-70.0685,5.6693],[-69.9694,5.8083],[-69.8558,6.0263],[-70.0258,6.1503],[-70.1181,6.25],[-70.3734,6.2758],[-70.5049,6.2247],[-70.8642,6.2153],[-71.2071,6.2741],[-71.4623,6.1989],[-71.722,6.2],[-71.9259,6.1543],[-72.1563,6.074],[-72.2598,6.1384],[-72.3454,6.2628],[-72.3217,6.3513]]]}},{"type":"Feature","properties":{"sourceId":"1159310171","regionId":"region.0305512c-4ebc-40fb-8542-01f7fe9fa487","countryId":"country.ckoh6f"},"geometry":{"type":"Polygon","coordinates":[[[-74.8975,2.9507],[-74.7302,2.9073],[-74.5964,2.7212],[-74.6516,2.4646],[-74.6459,2.3182],[-74.5437,2.1819],[-74.6159,2.0431],[-74.6068,1.9624],[-74.5108,1.8439],[-73.9178,1.6347],[-73.6751,1.6245],[-73.6611,1.642],[-73.6546,2.2937],[-73.5103,2.3524],[-73.3364,2.3309],[-73.2153,2.3884],[-73.0958,2.3841],[-72.9305,2.4678],[-72.9062,2.5476],[-72.7903,2.601],[-72.6245,2.6075],[-72.3665,2.7381],[-72.1935,2.773],[-72.121,2.8671],[-71.9928,2.7999],[-71.7351,2.8808],[-71.6226,2.8157],[-71.5615,2.8557],[-71.0637,2.8686],[-71.0637,3.3619],[-71.0603,4.9194],[-71.2745,4.8066],[-71.565,4.682],[-71.6857,4.6077],[-71.8195,4.5701],[-72.0122,4.3986],[-72.1499,4.4507],[-72.3235,4.41],[-72.5876,4.3097],[-72.748,4.3131],[-72.8126,4.4263],[-72.9266,4.5253],[-73.053,4.7348],[-73.1328,4.2396],[-73.3657,4.3223],[-73.539,4.3065],[-73.6224,4.4838],[-73.6973,4.5213],[-73.8107,4.421],[-73.7519,4.2022],[-73.8144,4.204],[-74.1544,4.0072],[-74.2085,4.0199],[-74.3096,3.8868],[-74.4278,3.6796],[-74.4936,3.704],[-74.6159,3.4851],[-74.6517,3.26],[-74.8353,3.0933],[-74.8975,2.9507]]]}},{"type":"Feature","properties":{"sourceId":"1159310131","regionId":"region.430b9f61-b309-44ec-9a18-834edec03e7a","countryId":"country.ckoh6f"},"geometry":{"type":"Polygon","coordinates":[[[-74.1544,4.0072],[-74.0939,4.142],[-74.1493,4.2771],[-74.1162,4.4047],[-73.995,4.6323],[-74.0107,4.8154],[-74.0673,4.8293],[-74.1721,4.6618],[-74.1918,4.3768],[-74.2625,4.1095],[-74.342,4.1125],[-74.3613,3.9452],[-74.4936,3.704],[-74.4278,3.6796],[-74.3096,3.8868],[-74.2085,4.0199],[-74.1544,4.0072]]]}},{"type":"Feature","properties":{"sourceId":"1159310185","regionId":"region.6a3083f8-b600-41e3-b552-eea250cd8249","countryId":"country.ckoh6f"},"geometry":{"type":"Polygon","coordinates":[[[-73.6254,7.7345],[-73.7519,7.7409],[-73.677,7.8934],[-73.7856,8.1615],[-73.8554,8.1054],[-73.8721,8.0069],[-73.8155,7.7795],[-73.8305,7.6101],[-73.9075,7.5099],[-73.9302,7.3008],[-73.9224,7.1055],[-73.8878,7.0199],[-74.007,6.9348],[-74.1086,6.7903],[-74.2927,6.6544],[-74.3864,6.6263],[-74.4133,6.4042],[-74.5194,6.2823],[-74.4412,6.0955],[-74.3569,6.0391],[-74.2903,6.0707],[-74.1745,5.9008],[-73.9732,5.7326],[-73.7371,5.7611],[-73.6384,5.7227],[-73.6137,5.9222],[-73.4993,6.1071],[-73.3975,6.0319],[-73.4008,5.9223],[-73.2862,5.8559],[-73.2192,5.9825],[-73.0348,5.9407],[-72.8937,6.1232],[-72.7546,6.2295],[-72.7334,6.4566],[-72.6167,6.4381],[-72.5424,6.5025],[-72.4978,6.6458],[-72.478,6.8441],[-72.5049,6.9151],[-72.5515,6.9804],[-72.7154,7.0033],[-72.8859,7.0738],[-72.83,7.1621],[-72.8445,7.301],[-72.9031,7.4763],[-72.9913,7.6132],[-73.2164,7.63],[-73.2607,7.5449],[-73.5043,7.6074],[-73.6254,7.7345]]]}},{"type":"Feature","properties":{"sourceId":"1159310139","regionId":"region.fb969702-5f46-4e73-99bc-eae87c0c5f79","countryId":"country.ckoh6f"},"geometry":{"type":"Polygon","coordinates":[[[-74.5635,3.7721],[-74.5121,3.9495],[-74.4881,4.17],[-74.5553,4.2693],[-74.6546,4.2092],[-74.8873,4.3096],[-74.8164,4.4663],[-74.7942,4.6407],[-74.8254,4.7113],[-74.7628,4.7998],[-74.7355,5.1082],[-74.7487,5.2908],[-74.8331,5.3144],[-75.0128,5.2939],[-75.1343,5.1608],[-75.2944,5.1318],[-75.378,4.8001],[-75.3904,4.7168],[-75.5821,4.4271],[-75.6014,4.2965],[-75.7622,4.0785],[-75.8577,3.8699],[-75.9617,3.7122],[-76.0494,3.4424],[-76.0758,3.2133],[-76.1128,3.0951],[-76.0446,3.0355],[-76.0312,2.9295],[-75.8547,2.8909],[-75.646,3.0685],[-75.4776,3.3605],[-75.3161,3.4118],[-75.2578,3.3736],[-75.1343,3.4335],[-75.0356,3.4342],[-75.072,3.311],[-74.9089,3.2899],[-74.7713,3.4535],[-74.7685,3.5261],[-74.6715,3.6749],[-74.5635,3.7721]]]}},{"type":"Feature","properties":{"sourceId":"1159310135","regionId":"region.ea4c4e3e-b178-413e-9eba-1bfe4027040d","countryId":"country.ckoh6f"},"geometry":{"type":"Polygon","coordinates":[[[-75.3904,4.7168],[-75.5327,4.6991],[-75.714,4.7129],[-75.8248,4.6644],[-75.8768,4.5526],[-75.7903,4.2884],[-75.8299,4.1094],[-75.7622,4.0785],[-75.6014,4.2965],[-75.5821,4.4271],[-75.3904,4.7168]]]}},{"type":"Feature","properties":{"sourceId":"1159310129","regionId":"region.0b5784e0-2554-4b0e-a9c8-0b994ddc004c","countryId":"country.ckoh6f"},"geometry":{"type":"Polygon","coordinates":[[[-74.4936,3.704],[-74.3613,3.9452],[-74.342,4.1125],[-74.2625,4.1095],[-74.1918,4.3768],[-74.1721,4.6618],[-74.0673,4.8293],[-74.0107,4.8154],[-73.995,4.6323],[-74.1162,4.4047],[-74.1493,4.2771],[-74.0939,4.142],[-74.1544,4.0072],[-73.8144,4.204],[-73.7519,4.2022],[-73.8107,4.421],[-73.6973,4.5213],[-73.6224,4.4838],[-73.539,4.3065],[-73.3657,4.3223],[-73.1328,4.2396],[-73.053,4.7348],[-73.0925,4.6787],[-73.2181,4.6776],[-73.3044,4.7379],[-73.4027,4.8715],[-73.5453,4.9324],[-73.4784,5.0525],[-73.5216,5.2373],[-73.5901,5.3856],[-73.7915,5.508],[-73.8216,5.5585],[-74.0001,5.3743],[-74.2439,5.4839],[-74.2998,5.586],[-74.3122,5.7895],[-74.5339,5.7906],[-74.6461,5.7525],[-74.6604,5.4583],[-74.7487,5.2908],[-74.7355,5.1082],[-74.7628,4.7998],[-74.8254,4.7113],[-74.7942,4.6407],[-74.8164,4.4663],[-74.8873,4.3096],[-74.6546,4.2092],[-74.5553,4.2693],[-74.4881,4.17],[-74.5121,3.9495],[-74.5635,3.7721],[-74.4936,3.704]]]}},{"type":"Feature","properties":{"sourceId":"1159310137","regionId":"region.c0a78454-c1d5-4194-a65e-c54b8fe072ce","countryId":"country.ckoh6f"},"geometry":{"type":"Polygon","coordinates":[[[-75.8578,5.4894],[-75.9605,5.507],[-76.0425,5.5773],[-76.0933,5.4554],[-76.1656,5.4087],[-76.1799,5.3087],[-76.0976,5.175],[-76.0759,5.0357],[-75.9086,4.7632],[-75.714,4.7129],[-75.5327,4.6991],[-75.3904,4.7168],[-75.378,4.8001],[-75.4924,4.9194],[-75.7092,4.9526],[-75.8585,4.9323],[-75.9268,5.0435],[-75.8083,5.1921],[-75.8173,5.2723],[-75.6675,5.2657],[-75.7188,5.3963],[-75.8564,5.3742],[-75.8578,5.4894]]]}}]}