{"type":"FeatureCollection","features":[{"type":"Feature","properties":{"sourceId":"1159308923","regionId":"region.04ca703d-91c7-4312-93fb-28e76d2c042c","countryId":"country.13si2qd"},"geometry":{"type":"Polygon","coordinates":[[[-11.4762,6.9194],[-11.3683,6.8113],[-11.3532,6.7012],[-11.0771,6.5925],[-10.9762,6.7217],[-10.9391,6.9931],[-10.7024,7.1934],[-10.5471,7.2739],[-10.5284,7.3964],[-10.5866,7.477],[-10.864,7.5437],[-10.9779,7.4849],[-11.1442,7.3452],[-11.2179,7.2541],[-11.3732,7.1388],[-11.4073,6.9964],[-11.4762,6.9194]]]}},{"type":"Feature","properties":{"sourceId":"1159310089","regionId":"region.0f65aadb-2db2-4b2e-9dc8-90fb6385a5cf","countryId":"country.13si2qd"},"geometry":{"type":"Polygon","coordinates":[[[-10.864,7.5437],[-10.5866,7.477],[-10.5284,7.3964],[-10.5471,7.2739],[-10.7024,7.1934],[-10.9391,6.9931],[-10.7597,6.9447],[-10.7295,6.8163],[-10.6083,6.8704],[-10.4688,6.8773],[-10.4562,6.9481],[-10.3442,6.9826],[-10.1872,7.1379],[-10.0955,7.0421],[-9.9206,7.1248],[-9.8132,7.2118],[-9.8333,7.3285],[-9.6848,7.6701],[-9.6959,7.737],[-9.9484,7.8409],[-10.1081,7.8038],[-10.2269,7.8967],[-10.4088,7.9523],[-10.4645,8.0043],[-10.6162,8.0225],[-10.6152,7.769],[-10.7306,7.7055],[-10.864,7.5437]]]}},{"type":"Feature","properties":{"sourceId":"1159308925","regionId":"region.7322b315-c832-4714-bb23-c6f9e1445f06","countryId":"country.13si2qd"},"geometry":{"type":"Polygon","coordinates":[[[-10.6162,8.0225],[-10.4645,8.0043],[-10.4088,7.9523],[-10.2269,7.8967],[-10.1081,7.8038],[-9.9484,7.8409],[-9.6959,7.737],[-9.6848,7.6701],[-9.8333,7.3285],[-9.8132,7.2118],[-9.6691,7.213],[-9.6316,7.2845],[-9.4871,7.3732],[-9.3535,7.6224],[-9.3678,7.7575],[-9.4387,7.8662],[-9.4223,8.0158],[-9.5108,8.261],[-9.5792,8.3873],[-9.6835,8.4871],[-9.8728,8.5004],[-10.0404,8.4257],[-10.0911,8.5101],[-10.2822,8.4846],[-10.3649,8.1482],[-10.5292,8.1243],[-10.6162,8.0225]]]}},{"type":"Feature","properties":{"sourceId":"1159308933","regionId":"region.1da1a6fd-7cde-4695-9b64-c9537b20f1f4","countryId":"country.13si2qd"},"geometry":{"type":"Polygon","coordinates":[[[-8.4854,7.558],[-8.5674,7.6882],[-8.6866,7.6944],[-8.7276,7.622],[-8.7296,7.5087],[-8.8654,7.3469],[-8.8578,7.273],[-9.1061,7.203],[-9.1689,7.0003],[-9.1105,6.8085],[-9.1844,6.6262],[-9.1357,6.5434],[-9.1441,6.3551],[-9.0691,6.2827],[-9.1011,5.9657],[-9.0864,5.8319],[-8.9028,5.8752],[-8.9272,6.0144],[-8.7578,6.206],[-8.6187,6.4928],[-8.4416,6.6553],[-8.3166,6.8363],[-8.2841,7.0179],[-8.3026,7.1376],[-8.3877,7.315],[-8.4436,7.5371],[-8.4854,7.558]]]}},{"type":"Feature","properties":{"sourceId":"1159308937","regionId":"region.04cb56b4-3118-44fe-9e87-33db9a905b27","countryId":"country.13si2qd"},"geometry":{"type":"Polygon","coordinates":[[[-8.6187,6.4928],[-8.7578,6.206],[-8.9272,6.0144],[-8.9028,5.8752],[-8.585,5.705],[-8.4522,5.782],[-8.3615,5.6849],[-8.4826,5.5319],[-8.4308,5.47],[-8.2857,5.4582],[-8.0899,5.4853],[-7.4099,5.5134],[-7.418,5.6278],[-7.4465,5.8459],[-7.5591,5.8399],[-7.6805,5.9409],[-7.7996,5.9745],[-7.8441,6.184],[-7.9349,6.2714],[-8.0601,6.3011],[-8.1706,6.274],[-8.3888,6.3551],[-8.4051,6.4363],[-8.5156,6.4376],[-8.6187,6.4928]]]}},{"type":"Feature","properties":{"sourceId":"1159310087","regionId":"region.c5c2fd42-e640-4158-ae4a-ebfac8a7cc9c","countryId":"country.13si2qd"},"geometry":{"type":"Polygon","coordinates":[[[-7.4099,5.5134],[-8.0899,5.4853],[-8.2857,5.4582],[-8.4308,5.47],[-8.4174,5.3602],[-8.3471,5.2882],[-8.3091,5.1701],[-8.025,5.1128],[-7.843,5.0651],[-7.843,4.8908],[-7.7168,4.8791],[-7.606,4.8174],[-7.5553,4.9484],[-7.5782,5.0547],[-7.4889,5.1407],[-7.4682,5.2735],[-7.3969,5.3664],[-7.45,5.4228],[-7.4099,5.5134]]]}},{"type":"Feature","properties":{"sourceId":"1159308913","regionId":"region.b28cb593-ab2b-4baa-ad70-70af816943f0","countryId":"country.13si2qd"},"geometry":{"type":"Polygon","coordinates":[[[-7.606,4.8174],[-7.7168,4.8791],[-7.843,4.8908],[-7.843,5.0651],[-8.025,5.1128],[-8.0167,5.0541],[-8.1004,4.8865],[-8.0774,4.8393],[-7.8968,4.7506],[-7.8151,4.6167],[-7.844,4.4556],[-7.7127,4.3615],[-7.5407,4.3528],[-7.5738,4.3754],[-7.5769,4.7753],[-7.606,4.8174]]]}},{"type":"Feature","properties":{"sourceId":"1159308919","regionId":"region.144b2002-6d12-4047-b5fa-4c74b0a89981","countryId":"country.13si2qd"},"geometry":{"type":"Polygon","coordinates":[[[-9.4871,7.3732],[-9.6316,7.2845],[-9.6691,7.213],[-9.8132,7.2118],[-9.9206,7.1248],[-10.0955,7.0421],[-10.1872,7.1379],[-10.3442,6.9826],[-10.4562,6.9481],[-10.4688,6.8773],[-10.5061,6.8361],[-10.3569,6.762],[-10.2867,6.7663],[-10.0811,6.6707],[-10.0047,6.6913],[-9.8597,6.6452],[-9.8249,6.7697],[-9.7264,6.7463],[-9.7454,6.652],[-9.6682,6.6469],[-9.5164,6.4749],[-9.33,6.6157],[-9.1844,6.6262],[-9.1105,6.8085],[-9.1689,7.0003],[-9.1061,7.203],[-9.2063,7.2984],[-9.2343,7.3813],[-9.4381,7.4216],[-9.4871,7.3732]]]}},{"type":"Feature","properties":{"sourceId":"1159308917","regionId":"region.96d8c9e3-a37b-4088-aefe-10d72efc68e8","countryId":"country.13si2qd"},"geometry":{"type":"Polygon","coordinates":[[[-10.8066,6.4024],[-10.8061,6.5101],[-10.699,6.5759],[-10.6082,6.5342],[-10.5599,6.8213],[-10.5061,6.8361],[-10.4688,6.8773],[-10.6083,6.8704],[-10.7295,6.8163],[-10.7597,6.9447],[-10.9391,6.9931],[-10.9762,6.7217],[-11.0771,6.5925],[-10.8959,6.499],[-10.8066,6.4024]]]}},{"type":"Feature","properties":{"sourceId":"1159308929","regionId":"region.fbeb0524-8b86-4685-894a-d74613c186ff","countryId":"country.13si2qd"},"geometry":{"type":"Polygon","coordinates":[[[-10.6368,6.2219],[-10.6161,6.2896],[-10.3836,6.4522],[-10.4115,6.6159],[-10.3569,6.762],[-10.5061,6.8361],[-10.5599,6.8213],[-10.6082,6.5342],[-10.699,6.5759],[-10.8061,6.5101],[-10.8066,6.4024],[-10.7883,6.293],[-10.6368,6.2219]]]}},{"type":"Feature","properties":{"sourceId":"1159308931","regionId":"region.7725aee4-0615-46a3-954b-83234b2d4757","countryId":"country.13si2qd"},"geometry":{"type":"Polygon","coordinates":[[[-10.367,6.1511],[-10.3114,6.3359],[-10.1782,6.5514],[-10.1117,6.4877],[-9.8416,6.5416],[-9.7454,6.652],[-9.7264,6.7463],[-9.8249,6.7697],[-9.8597,6.6452],[-10.0047,6.6913],[-10.0811,6.6707],[-10.2867,6.7663],[-10.3569,6.762],[-10.4115,6.6159],[-10.3836,6.4522],[-10.6161,6.2896],[-10.6368,6.2219],[-10.367,6.1511]]]}},{"type":"Feature","properties":{"sourceId":"1159308921","regionId":"region.512768dc-78ea-407c-902e-1b1ecaae0b18","countryId":"country.13si2qd"},"geometry":{"type":"Polygon","coordinates":[[[-9.7331,5.5812],[-9.68,5.6465],[-9.6911,5.8327],[-9.6519,6.0323],[-9.5291,6.0805],[-9.4545,6.1704],[-9.4436,6.3239],[-9.355,6.3541],[-9.1441,6.3551],[-9.1357,6.5434],[-9.1844,6.6262],[-9.33,6.6157],[-9.5164,6.4749],[-9.6682,6.6469],[-9.7454,6.652],[-9.8416,6.5416],[-10.1117,6.4877],[-10.1782,6.5514],[-10.3114,6.3359],[-10.367,6.1511],[-10.0462,5.8964],[-10.0399,5.8543],[-9.7331,5.5812]]]}},{"type":"Feature","properties":{"sourceId":"1159308935","regionId":"region.96c10e74-1a87-4685-87d9-b273c54774a4","countryId":"country.13si2qd"},"geometry":{"type":"Polygon","coordinates":[[[-9.4182,5.2712],[-9.3148,5.4367],[-9.3574,5.583],[-9.1535,5.7129],[-9.0864,5.8319],[-9.1011,5.9657],[-9.0691,6.2827],[-9.1441,6.3551],[-9.355,6.3541],[-9.4436,6.3239],[-9.4545,6.1704],[-9.5291,6.0805],[-9.6519,6.0323],[-9.6911,5.8327],[-9.68,5.6465],[-9.7331,5.5812],[-9.597,5.4883],[-9.4182,5.2712]]]}},{"type":"Feature","properties":{"sourceId":"1159308915","regionId":"region.144d804e-d48c-4535-9c4b-51a831b4aac4","countryId":"country.13si2qd"},"geometry":{"type":"Polygon","coordinates":[[[-8.7036,4.8219],[-8.6542,4.9123],[-8.4565,5.0867],[-8.3091,5.1701],[-8.3471,5.2882],[-8.4174,5.3602],[-8.4308,5.47],[-8.4826,5.5319],[-8.3615,5.6849],[-8.4522,5.782],[-8.585,5.705],[-8.9028,5.8752],[-9.0864,5.8319],[-9.1535,5.7129],[-9.3574,5.583],[-9.3148,5.4367],[-9.4182,5.2712],[-9.2787,5.1457],[-9.0148,4.9785],[-8.8483,4.9136],[-8.7036,4.8219]]]}},{"type":"Feature","properties":{"sourceId":"1159308911","regionId":"region.14117577-b9d3-4db1-b82d-784a754a16b3","countryId":"country.13si2qd"},"geometry":{"type":"Polygon","coordinates":[[[-7.844,4.4556],[-7.8151,4.6167],[-7.8968,4.7506],[-8.0774,4.8393],[-8.1004,4.8865],[-8.0167,5.0541],[-8.025,5.1128],[-8.3091,5.1701],[-8.4565,5.0867],[-8.6542,4.9123],[-8.7036,4.8219],[-8.6075,4.7869],[-8.2573,4.58],[-8.1003,4.5533],[-7.844,4.4556]]]}}]}