{"type":"FeatureCollection","features":[{"type":"Feature","properties":{"sourceId":"1159316173","regionId":"region.98760704-d00b-4491-9134-6588e314c961","countryId":"country.f8c2068a-5e07-4e6a-bc75-4cb20c9fd1e6"},"geometry":{"type":"Polygon","coordinates":[[[166.9312,-0.4933],[166.939,-0.5042],[166.9388,-0.4904],[166.9312,-0.4933]]]}},{"type":"Feature","properties":{"sourceId":"1159316171","regionId":"region.3bdea284-e482-4a2e-89c8-4d427b2d2a0b","countryId":"country.f8c2068a-5e07-4e6a-bc75-4cb20c9fd1e6"},"geometry":{"type":"Polygon","coordinates":[[[166.9251,-0.4957],[166.938,-0.5105],[166.939,-0.5042],[166.9312,-0.4933],[166.9251,-0.4957]]]}},{"type":"Feature","properties":{"sourceId":"1159316169","regionId":"region.40be62a5-a51b-4061-9bb3-d290df1d3a1e","countryId":"country.f8c2068a-5e07-4e6a-bc75-4cb20c9fd1e6"},"geometry":{"type":"Polygon","coordinates":[[[166.9181,-0.4984],[166.9372,-0.5165],[166.938,-0.5105],[166.9251,-0.4957],[166.9181,-0.4984]]]}},{"type":"Feature","properties":{"sourceId":"1159316167","regionId":"region.b8380bb7-6c31-4436-aed3-7deb66d9a3db","countryId":"country.f8c2068a-5e07-4e6a-bc75-4cb20c9fd1e6"},"geometry":{"type":"Polygon","coordinates":[[[166.9134,-0.5002],[166.9368,-0.5202],[166.9372,-0.5165],[166.9181,-0.4984],[166.9134,-0.5002]]]}},{"type":"Feature","properties":{"sourceId":"1159316165","regionId":"region.aa104726-5546-4422-bc54-92fa3f3d36ad","countryId":"country.f8c2068a-5e07-4e6a-bc75-4cb20c9fd1e6"},"geometry":{"type":"Polygon","coordinates":[[[166.9103,-0.5121],[166.9204,-0.5207],[166.9361,-0.5252],[166.9368,-0.5202],[166.9134,-0.5002],[166.9103,-0.5121]]]}},{"type":"Feature","properties":{"sourceId":"1159316161","regionId":"region.dcdced20-b044-4410-a687-877a7656c295","countryId":"country.f8c2068a-5e07-4e6a-bc75-4cb20c9fd1e6"},"geometry":{"type":"Polygon","coordinates":[[[166.907,-0.5248],[166.9169,-0.5242],[166.9204,-0.5207],[166.9103,-0.5121],[166.907,-0.5248]]]}},{"type":"Feature","properties":{"sourceId":"1159316159","regionId":"region.0449c840-d91e-4448-99fc-7a403aa90ff9","countryId":"country.f8c2068a-5e07-4e6a-bc75-4cb20c9fd1e6"},"geometry":{"type":"Polygon","coordinates":[[[166.912,-0.537],[166.9179,-0.5351],[166.9169,-0.5242],[166.907,-0.5248],[166.912,-0.537]]]}},{"type":"Feature","properties":{"sourceId":"1159316157","regionId":"region.4033c827-07d9-4db7-9626-ee5e648a0f44","countryId":"country.f8c2068a-5e07-4e6a-bc75-4cb20c9fd1e6"},"geometry":{"type":"Polygon","coordinates":[[[166.9164,-0.5475],[166.9201,-0.5388],[166.9179,-0.5351],[166.912,-0.537],[166.9164,-0.5475]]]}},{"type":"Feature","properties":{"sourceId":"1159316185","regionId":"region.490a5420-ca49-43a1-9e0b-3929b429b6d2","countryId":"country.f8c2068a-5e07-4e6a-bc75-4cb20c9fd1e6"},"geometry":{"type":"Polygon","coordinates":[[[166.9326,-0.5507],[166.9253,-0.5344],[166.9201,-0.5388],[166.9164,-0.5475],[166.9326,-0.5507]]]}},{"type":"Feature","properties":{"sourceId":"1159316183","regionId":"region.09ba7afc-3757-4651-a14e-056551736828","countryId":"country.f8c2068a-5e07-4e6a-bc75-4cb20c9fd1e6"},"geometry":{"type":"Polygon","coordinates":[[[166.9532,-0.5334],[166.9355,-0.5298],[166.9253,-0.5344],[166.9326,-0.5507],[166.9532,-0.5334]]]}},{"type":"Feature","properties":{"sourceId":"1159316179","regionId":"region.3e2dfd3b-de90-4182-8084-394ffd6ac195","countryId":"country.f8c2068a-5e07-4e6a-bc75-4cb20c9fd1e6"},"geometry":{"type":"Polygon","coordinates":[[[166.9574,-0.5113],[166.939,-0.5042],[166.938,-0.5105],[166.9372,-0.5165],[166.9368,-0.5202],[166.9361,-0.5252],[166.9355,-0.5298],[166.9532,-0.5334],[166.9574,-0.5113]]]}},{"type":"Feature","properties":{"sourceId":"1159316177","regionId":"region.918b6fb7-3bec-4ded-9824-f207c0ca1081","countryId":"country.f8c2068a-5e07-4e6a-bc75-4cb20c9fd1e6"},"geometry":{"type":"Polygon","coordinates":[[[166.9556,-0.498],[166.939,-0.5042],[166.9574,-0.5113],[166.9556,-0.498]]]}},{"type":"Feature","properties":{"sourceId":"1159316175","regionId":"region.ca095c48-e940-4e56-a7d3-daacb15e1c9f","countryId":"country.f8c2068a-5e07-4e6a-bc75-4cb20c9fd1e6"},"geometry":{"type":"Polygon","coordinates":[[[166.9388,-0.4904],[166.939,-0.5042],[166.9556,-0.498],[166.9388,-0.4904]]]}},{"type":"Feature","properties":{"sourceId":"1159315507","regionId":"region.716a2e7d-6064-4fce-abf6-cdaa9ab8a175","countryId":"country.f8c2068a-5e07-4e6a-bc75-4cb20c9fd1e6"},"geometry":{"type":"Polygon","coordinates":[[[166.9361,-0.5252],[166.9204,-0.5207],[166.9169,-0.5242],[166.9179,-0.5351],[166.9201,-0.5388],[166.9253,-0.5344],[166.9355,-0.5298],[166.9361,-0.5252]]]}}]}