{"type":"FeatureCollection","features":[{"type":"Feature","properties":{"sourceId":"1159316151","regionId":"region.fc65fdc6-3e75-4664-bdbe-78ef9c03da64","countryId":"country.2991edff-bec4-4423-825e-8196fca18992"},"geometry":{"type":"Polygon","coordinates":[[[-140.6788,-17.7804],[-140.7825,-17.7516],[-140.7852,-17.8586],[-140.6788,-17.7804]]]}},{"type":"Feature","properties":{"sourceId":"1159307839","regionId":"region.0f27e943-24c3-46fd-80f4-bcb7cc253acb","countryId":"country.2991edff-bec4-4423-825e-8196fca18992"},"geometry":{"type":"Polygon","coordinates":[[[-149.1835,-17.7312],[-149.3039,-17.7121],[-149.3541,-17.5401],[-149.4295,-17.5016],[-149.6043,-17.5258],[-149.6422,-17.6008],[-149.5875,-17.7312],[-149.4504,-17.7592],[-149.3435,-17.7249],[-149.2759,-17.8449],[-149.1903,-17.8691],[-149.1835,-17.7312]]]}},{"type":"Feature","properties":{"sourceId":"1159316149","regionId":"region.8ede0166-f35f-4bd9-889c-1afef26ff1b0","countryId":"country.2991edff-bec4-4423-825e-8196fca18992"},"geometry":{"type":"Polygon","coordinates":[[[-151.4787,-16.7382],[-151.4582,-16.9026],[-151.3525,-16.8586],[-151.4787,-16.7382]]]}},{"type":"Feature","properties":{"sourceId":"1159316153","regionId":"region.25b4d470-79ca-443a-bb65-0645fde95b7b","countryId":"country.2991edff-bec4-4423-825e-8196fca18992"},"geometry":{"type":"Polygon","coordinates":[[[-144.2838,-27.5792],[-144.3394,-27.5593],[-144.3466,-27.6153],[-144.3044,-27.6324],[-144.2838,-27.5792]]]}},{"type":"Feature","properties":{"sourceId":"1159316155","regionId":"region.531811b3-145b-4cd5-8409-46d077abf249","countryId":"country.2991edff-bec4-4423-825e-8196fca18992"},"geometry":{"type":"MultiPolygon","coordinates":[[[[-138.8366,-9.7411],[-139.0514,-9.7014],[-139.1569,-9.8152],[-138.8693,-9.7916],[-138.8366,-9.7411]]],[[[-140.0494,-8.8232],[-140.2167,-8.781],[-140.2277,-8.927],[-140.096,-8.919],[-140.0494,-8.8232]]]]}}]}