{"type":"FeatureCollection","features":[{"type":"Feature","properties":{"sourceId":"1159311117","regionId":"region.e0e1243b-31d9-4ca7-8b45-b47e3ec36f6b","countryId":"country.2r4kh5"},"geometry":{"type":"Polygon","coordinates":[[[-14.6146,65.9863],[-14.6941,65.9438],[-15.1014,65.922],[-15.4564,65.7716],[-15.6641,65.7479],[-15.7034,65.5495],[-16.0138,65.5758],[-16.1724,65.4373],[-16.0274,65.3331],[-16.2047,65.196],[-16.2094,65.043],[-16.6218,64.9182],[-16.6869,64.6387],[-16.8766,64.472],[-17.3418,64.0394],[-17.3857,63.773],[-17.2071,63.8154],[-16.8958,63.8078],[-16.6112,63.8694],[-16.3505,63.9656],[-15.9921,64.1445],[-15.464,64.2513],[-15.3636,64.3368],[-14.9955,64.2626],[-14.7125,64.4141],[-14.5105,64.4423],[-14.4935,64.6583],[-14.0485,64.7197],[-13.8678,64.7947],[-13.527,65.0555],[-13.5202,65.1722],[-13.6877,65.3064],[-13.6096,65.5142],[-13.8213,65.5415],[-14.3976,65.73],[-14.6944,65.7508],[-14.823,65.8159],[-14.662,65.8839],[-14.6146,65.9863]]]}},{"type":"Feature","properties":{"sourceId":"1159311111","regionId":"region.05844eb6-d421-4d35-a8e6-e96402f4eda7","countryId":"country.2r4kh5"},"geometry":{"type":"Polygon","coordinates":[[[-17.3857,63.773],[-17.3418,64.0394],[-16.8766,64.472],[-18.3331,64.8432],[-18.4265,64.8806],[-19.1548,64.7847],[-19.7201,64.7523],[-19.9774,64.8016],[-20.045,64.6982],[-20.7898,64.5314],[-21.1492,64.364],[-21.3879,64.2576],[-21.4174,64.1629],[-21.6524,64],[-21.932,63.8482],[-21.6599,63.8319],[-21.1683,63.8756],[-20.4421,63.6714],[-20.1857,63.5444],[-19.7699,63.5342],[-19.2873,63.4387],[-18.732,63.3967],[-18.1329,63.4793],[-17.965,63.5225],[-17.8239,63.6674],[-17.8603,63.737],[-17.3857,63.773]]]}},{"type":"Feature","properties":{"sourceId":"1159311125","regionId":"region.7f314c23-301c-440e-8d9d-8be311689cef","countryId":"country.2r4kh5"},"geometry":{"type":"Polygon","coordinates":[[[-21.932,63.8482],[-21.6524,64],[-21.9303,64.0041],[-22.1242,64.0439],[-22.6859,63.9457],[-22.7175,63.8284],[-22.3364,63.8632],[-21.932,63.8482]]]}},{"type":"Feature","properties":{"sourceId":"1159316485","regionId":"region.aea709d7-78f1-42d7-8fce-d176e95e2724","countryId":"country.2r4kh5"},"geometry":{"type":"Polygon","coordinates":[[[-22.1242,64.0439],[-21.9303,64.0041],[-21.6552,64.0816],[-21.6159,64.2572],[-21.8756,64.2737],[-21.7575,64.1711],[-22.1242,64.0439]]]}},{"type":"Feature","properties":{"sourceId":"1159311127","regionId":"region.b64b908c-40bb-4e36-8903-9e647a5f8a5e","countryId":"country.2r4kh5"},"geometry":{"type":"Polygon","coordinates":[[[-21.8756,64.2737],[-21.6159,64.2572],[-21.6552,64.0816],[-21.9303,64.0041],[-21.6524,64],[-21.4174,64.1629],[-21.3879,64.2576],[-21.1492,64.364],[-21.4251,64.3761],[-21.6031,64.3778],[-21.8756,64.2737]]]}},{"type":"Feature","properties":{"sourceId":"1159311129","regionId":"region.09ae9354-91f3-4b35-9c53-14c145389a0c","countryId":"country.2r4kh5"},"geometry":{"type":"Polygon","coordinates":[[[-21.4251,64.3761],[-21.1492,64.364],[-20.7898,64.5314],[-20.045,64.6982],[-19.9774,64.8016],[-19.81,64.9355],[-20.4056,64.955],[-20.7271,64.9137],[-20.9842,64.9724],[-21.1914,65.0148],[-21.2867,65.1027],[-21.2831,65.2324],[-21.6953,65.4534],[-21.8871,65.4207],[-22.4903,65.2336],[-22.5577,65.1689],[-22.0338,65.1149],[-22.1552,65.0276],[-22.38,65.0588],[-22.6744,65.0076],[-23.2102,65.0169],[-23.224,64.9494],[-23.8498,64.9306],[-24.06,64.8911],[-23.8336,64.7259],[-23.2462,64.8305],[-22.7839,64.7927],[-22.5319,64.8091],[-22.3197,64.7539],[-22.391,64.6378],[-22.199,64.4719],[-22.0931,64.4727],[-21.9626,64.2973],[-21.7165,64.3939],[-21.4251,64.3761]]]}},{"type":"Feature","properties":{"sourceId":"1159311115","regionId":"region.dcf3428f-c430-4ccb-9e72-c3f1f8d8fc84","countryId":"country.2r4kh5"},"geometry":{"type":"Polygon","coordinates":[[[-21.6953,65.4534],[-21.2831,65.2324],[-21.2867,65.1027],[-21.1914,65.0148],[-20.9842,64.9724],[-21.0836,65.1684],[-21.1952,65.4081],[-21.3699,65.4871],[-21.2987,65.5589],[-21.443,65.6434],[-21.4179,65.7635],[-21.2782,65.8569],[-21.3185,65.9878],[-21.723,66.0822],[-21.7499,66.1858],[-21.9793,66.275],[-22.2141,66.2897],[-22.3767,66.4326],[-22.8503,66.467],[-23.0981,66.3183],[-22.866,66.1595],[-22.4494,66.0759],[-22.8555,66.0285],[-23.0277,66.1087],[-23.4614,66.2042],[-23.7926,66.0704],[-23.8666,65.8756],[-24.0499,65.8035],[-24.0868,65.6514],[-24.2779,65.6364],[-24.4818,65.4885],[-24.1967,65.5012],[-23.8975,65.4046],[-23.373,65.4982],[-23.2474,65.4854],[-22.9258,65.5732],[-22.7852,65.508],[-22.5892,65.5356],[-22.1992,65.4323],[-22.0032,65.5039],[-21.6953,65.4534]]]}},{"type":"Feature","properties":{"sourceId":"1159311119","regionId":"region.6293b5a4-a175-47bb-bba4-cf84c27b3967","countryId":"country.2r4kh5"},"geometry":{"type":"Polygon","coordinates":[[[-21.0836,65.1684],[-20.9842,64.9724],[-20.7271,64.9137],[-20.4056,64.955],[-19.81,64.9355],[-19.9774,64.8016],[-19.7201,64.7523],[-19.1548,64.7847],[-18.4265,64.8806],[-18.3516,65.0686],[-18.3825,65.2184],[-18.774,65.4288],[-18.7301,65.5208],[-18.9136,65.5861],[-18.7997,65.7092],[-18.9781,65.8278],[-18.8531,66.0114],[-19.0788,66.158],[-19.3627,66.0884],[-19.4979,65.9775],[-19.418,65.7539],[-19.6504,65.765],[-19.7084,65.8711],[-19.8798,65.9052],[-20.0306,66.0834],[-20.1848,66.1312],[-20.4489,66.0294],[-20.2633,65.7445],[-20.3285,65.6278],[-20.5752,65.5357],[-20.6658,65.6909],[-20.9181,65.6014],[-21.0989,65.4455],[-21.0836,65.1684]]]}},{"type":"Feature","properties":{"sourceId":"1159311121","regionId":"region.2b44a61c-439f-4ae2-907e-551cd969e6e5","countryId":"country.2r4kh5"},"geometry":{"type":"Polygon","coordinates":[[[-19.0788,66.158],[-18.8531,66.0114],[-18.9781,65.8278],[-18.7997,65.7092],[-18.9136,65.5861],[-18.7301,65.5208],[-18.774,65.4288],[-18.3825,65.2184],[-18.3516,65.0686],[-18.4265,64.8806],[-18.3331,64.8432],[-16.8766,64.472],[-16.6869,64.6387],[-16.6218,64.9182],[-16.2094,65.043],[-16.2047,65.196],[-16.0274,65.3331],[-16.1724,65.4373],[-16.0138,65.5758],[-15.7034,65.5495],[-15.6641,65.7479],[-15.4564,65.7716],[-15.1014,65.922],[-14.6941,65.9438],[-14.6146,65.9863],[-14.6773,66.0562],[-15.076,66.0496],[-15.1794,66.1113],[-14.9604,66.1858],[-14.9591,66.2965],[-15.3022,66.2684],[-15.4197,66.1723],[-15.7751,66.2895],[-15.7067,66.3959],[-15.9241,66.4223],[-16.0229,66.5366],[-16.5433,66.507],[-16.4219,66.2871],[-16.487,66.1895],[-16.9197,66.1243],[-17.2174,66.1942],[-17.4193,65.994],[-17.673,66.0071],[-17.9127,66.1523],[-18.297,66.1796],[-18.3292,66.1039],[-18.2281,65.9394],[-18.54,65.9742],[-18.5445,66.0828],[-18.6922,66.17],[-19.0788,66.158]]]}}]}