{"type":"FeatureCollection","features":[{"type":"Feature","properties":{"sourceId":"1159311791","regionId":"region.6faeb533-4677-4792-8b4c-fbd03945f4a9","countryId":"country.sq8sl2"},"geometry":{"type":"MultiPolygon","coordinates":[[[[56.3491,25.294],[56.2606,25.3311],[56.2336,25.3125],[56.2067,25.2267],[56.3491,25.294]]],[[[56.1525,25.658],[56.2791,25.6274],[56.2879,25.7416],[56.3638,25.8069],[56.4004,25.9905],[56.3833,26.0975],[56.4688,26.2055],[56.3223,26.3096],[56.3019,26.2053],[56.1818,26.246],[56.0774,26.061],[56.1835,26.0145],[56.1525,25.658]]]]}},{"type":"Feature","properties":{"sourceId":"1159311785","regionId":"region.dd10f61c-10b4-48a3-8fbc-64727c42a6c0","countryId":"country.sq8sl2"},"geometry":{"type":"Polygon","coordinates":[[[56.1714,24.8241],[56.0763,24.73],[56.2081,24.5323],[56.3063,24.227],[56.3127,24.1403],[56.4681,24.0772],[56.7647,23.8365],[56.8747,23.4907],[57.1637,23.504],[57.2868,23.541],[57.4165,23.6426],[57.5327,23.8296],[57.1515,23.9536],[56.9395,24.1159],[56.8014,24.303],[56.6112,24.4963],[56.4935,24.7002],[56.3833,24.9782],[56.3161,24.9299],[56.3143,24.912],[56.2747,24.8719],[56.1714,24.8241]]]}},{"type":"Feature","properties":{"sourceId":"1159315899","regionId":"region.284a27b8-21c5-45a0-93bb-7234a054e16c","countryId":"country.sq8sl2"},"geometry":{"type":"Polygon","coordinates":[[[55.9759,24.9721],[55.897,24.9686],[55.7887,24.8552],[55.7999,24.6932],[55.7598,24.5585],[55.8074,24.3408],[55.7541,24.2455],[55.9332,24.2207],[55.9979,24.0813],[55.8071,24.0075],[55.6469,24.025],[55.4998,23.9706],[55.5383,23.77],[55.4453,23.5523],[55.5826,23.5396],[55.8889,23.6718],[55.8541,23.818],[55.9585,23.8946],[56.0142,24.0129],[56.2787,24.0408],[56.3127,24.1403],[56.3063,24.227],[56.2081,24.5323],[56.0763,24.73],[56.0253,24.8826],[55.9759,24.9721]]]}},{"type":"Feature","properties":{"sourceId":"1159311783","regionId":"region.8ac8d189-b75e-4c62-85f1-3ab47b62bd39","countryId":"country.sq8sl2"},"geometry":{"type":"Polygon","coordinates":[[[55.1868,22.7036],[55.6267,22.0238],[55.6002,21.8661],[56.3256,22.0153],[56.5237,22.2538],[56.6828,22.6975],[56.8747,23.4907],[56.7647,23.8365],[56.4681,24.0772],[56.3127,24.1403],[56.2787,24.0408],[56.0142,24.0129],[55.9585,23.8946],[55.8541,23.818],[55.8889,23.6718],[55.5826,23.5396],[55.4453,23.5523],[55.3753,23.4693],[55.3211,23.2751],[55.2259,23.1213],[55.1913,22.9954],[55.1868,22.7036]]]}},{"type":"Feature","properties":{"sourceId":"1159311631","regionId":"region.c18e156b-35eb-4e82-be69-e266cbb6c021","countryId":"country.sq8sl2"},"geometry":{"type":"Polygon","coordinates":[[[51.9857,18.9797],[52.4845,17.8542],[52.7301,17.2999],[52.8016,17.2674],[53.0903,16.6424],[53.3386,16.7348],[53.5827,16.7499],[53.7532,16.8677],[53.9811,16.9088],[54.0234,16.9853],[54.39,17.0395],[54.5921,17.0385],[54.8084,16.9515],[55.0269,17.0111],[55.2547,17.2287],[55.3008,17.4168],[55.2254,17.5154],[55.2632,17.6077],[55.3557,17.6816],[55.4452,17.841],[55.6535,17.8953],[55.9094,17.9066],[56.1885,17.9571],[56.3449,17.9378],[56.4626,18.0844],[56.5613,18.1492],[56.6597,18.5954],[56.7847,18.7286],[56.9151,18.8103],[57.2075,18.91],[57.4453,18.9453],[56.5773,19.1656],[55.3446,21.0969],[54.9784,19.9954],[54.3146,19.7742],[53.63,19.546],[52.7744,19.2608],[51.9786,18.9956],[51.9857,18.9797]]]}},{"type":"Feature","properties":{"sourceId":"1159311779","regionId":"region.fb044471-71b9-4fba-a0c1-29bebefe760a","countryId":"country.sq8sl2"},"geometry":{"type":"Polygon","coordinates":[[[55.3446,21.0969],[56.5773,19.1656],[57.4453,18.9453],[57.7097,18.944],[57.8401,19.0153],[57.8119,19.1569],[57.7507,19.2681],[57.7739,19.4097],[57.7044,19.5487],[57.6989,19.7544],[57.7621,19.843],[57.848,20.1118],[57.8561,20.2606],[57.9666,20.3302],[57.9558,20.3996],[58.0759,20.48],[58.1035,20.5751],[58.2551,20.6093],[58.3968,21.0442],[58.2899,21.0956],[57.9721,21.2481],[56.3256,22.0153],[55.6002,21.8661],[55.3446,21.0969]]]}},{"type":"Feature","properties":{"sourceId":"1159311781","regionId":"region.f51832c3-9c46-4696-8f0c-8db5504119d2","countryId":"country.sq8sl2"},"geometry":{"type":"MultiPolygon","coordinates":[[[[59.4839,22.6188],[59.4294,22.5653],[59.4402,22.3298],[59.3915,22.2098],[59.0514,22.0386],[58.0823,21.7106],[58.178,21.3974],[58.2899,21.0956],[58.3968,21.0442],[58.2551,20.6093],[58.2243,20.3964],[58.4675,20.3695],[58.5186,20.4168],[58.6803,20.8284],[58.793,20.9274],[58.9192,21.1437],[59.1663,21.3628],[59.3362,21.4377],[59.4486,21.6249],[59.4979,21.7563],[59.6453,21.9258],[59.6882,22.0827],[59.7918,22.1981],[59.8446,22.4453],[59.7764,22.5414],[59.4839,22.6188]]],[[[58.9063,20.626],[58.8529,20.6133],[58.7512,20.4401],[58.6429,20.3561],[58.6375,20.2185],[58.7243,20.2152],[58.7894,20.2865],[58.8441,20.4373],[58.9539,20.5199],[58.9063,20.626]]]]}},{"type":"Feature","properties":{"sourceId":"1159317139","regionId":"region.3acbb1ae-9b4d-43b1-a200-3eae6478ba22","countryId":"country.sq8sl2"},"geometry":{"type":"Polygon","coordinates":[[[59.2591,22.8904],[59.1698,22.7939],[58.841,22.8341],[58.5411,23.0223],[58.3899,22.9875],[58.1621,22.8815],[57.9328,22.7141],[57.8343,22.5231],[58.0823,21.7106],[59.0514,22.0386],[59.3915,22.2098],[59.4402,22.3298],[59.4294,22.5653],[59.4839,22.6188],[59.2975,22.7927],[59.2591,22.8904]]]}},{"type":"Feature","properties":{"sourceId":"1159311787","regionId":"region.877291fe-4e33-4f79-b949-89ea0170bd33","countryId":"country.sq8sl2"},"geometry":{"type":"Polygon","coordinates":[[[58.1316,23.7133],[58.0928,23.5608],[58.1183,23.4622],[58.335,23.4886],[58.5877,23.2494],[58.5411,23.0223],[58.841,22.8341],[59.1698,22.7939],[59.2591,22.8904],[59.0837,23.0554],[58.9152,23.3361],[58.8076,23.4211],[58.7861,23.5121],[58.4909,23.6566],[58.412,23.6162],[58.2824,23.6314],[58.1316,23.7133]]]}},{"type":"Feature","properties":{"sourceId":"1159317141","regionId":"region.bf579a25-5337-4800-b14a-4e7ecbde6ac4","countryId":"country.sq8sl2"},"geometry":{"type":"Polygon","coordinates":[[[57.5327,23.8296],[57.4165,23.6426],[57.2868,23.541],[57.1637,23.504],[57.4601,23.2252],[57.6138,23.1957],[57.8702,23.2343],[57.9004,23.2961],[58.1183,23.4622],[58.0928,23.5608],[58.1316,23.7133],[57.9128,23.7178],[57.7957,23.7822],[57.5327,23.8296]]]}},{"type":"Feature","properties":{"sourceId":"1159311777","regionId":"region.b326641e-8362-45dc-b431-5dc271a961cd","countryId":"country.sq8sl2"},"geometry":{"type":"Polygon","coordinates":[[[58.0823,21.7106],[57.8343,22.5231],[57.9328,22.7141],[58.1621,22.8815],[58.3899,22.9875],[58.5411,23.0223],[58.5877,23.2494],[58.335,23.4886],[58.1183,23.4622],[57.9004,23.2961],[57.8702,23.2343],[57.6138,23.1957],[57.4601,23.2252],[57.1637,23.504],[56.8747,23.4907],[56.6828,22.6975],[56.5237,22.2538],[56.3256,22.0153],[57.9721,21.2481],[58.2899,21.0956],[58.178,21.3974],[58.0823,21.7106]]]}}]}