{"type":"FeatureCollection","features":[{"type":"Feature","properties":{"sourceId":"1159309789","regionId":"region.5726132d-6bc9-43b9-98bb-d048a9be6545","countryId":"country.1cin176"},"geometry":{"type":"Polygon","coordinates":[[[-58.2001,-32.4472],[-58.1016,-32.3114],[-58.1865,-32.1529],[-58.1483,-32.0629],[-58.1686,-31.846],[-58.0593,-31.8115],[-57.9886,-31.6428],[-58.039,-31.5086],[-57.9051,-31.241],[-57.8552,-31.059],[-57.9117,-30.9474],[-57.8072,-30.9076],[-57.7994,-30.7915],[-57.8087,-30.7473],[-57.9873,-30.6035],[-58.068,-30.4207],[-58.2608,-30.2307],[-58.6297,-30.1523],[-58.8762,-30.227],[-59.005,-30.2041],[-59.2413,-30.3435],[-59.3885,-30.306],[-59.6615,-30.3369],[-59.6181,-30.4468],[-59.6606,-30.7361],[-59.841,-30.9773],[-60.094,-31.3537],[-60.4141,-31.6735],[-60.6478,-31.716],[-60.7225,-31.9472],[-60.6662,-32.0483],[-60.709,-32.1747],[-60.7271,-32.4352],[-60.7657,-32.5411],[-60.6755,-32.8465],[-60.4954,-33.1221],[-60.2941,-33.2566],[-60.1181,-33.3936],[-59.8601,-33.524],[-59.6406,-33.671],[-59.5207,-33.6553],[-59.3926,-33.7394],[-59.2623,-33.7242],[-59.1627,-33.8288],[-59.0318,-33.8296],[-58.6798,-34.0312],[-58.447,-34.0069],[-58.4694,-33.8425],[-58.5494,-33.683],[-58.5217,-33.4493],[-58.4123,-33.2983],[-58.4332,-33.2324],[-58.3832,-33.0755],[-58.2414,-33.0951],[-58.1468,-33.05],[-58.1378,-32.9003],[-58.1794,-32.8283],[-58.2228,-32.5343],[-58.2001,-32.4472]]]}},{"type":"Feature","properties":{"sourceId":"1159309777","regionId":"region.4001044a-5eeb-4093-b23c-2d38205fff10","countryId":"country.1cin176"},"geometry":{"type":"Polygon","coordinates":[[[-67.2513,-23.7331],[-67.3624,-24.0304],[-68.2445,-24.3854],[-68.314,-24.4873],[-68.3977,-24.5005],[-68.5037,-24.6123],[-68.5724,-24.7699],[-68.4793,-24.8996],[-68.3792,-25.1368],[-68.4965,-25.16],[-67.8069,-25.2832],[-66.601,-25.2691],[-66.5516,-25.279],[-66.4692,-25.4798],[-66.5125,-25.6309],[-66.7354,-25.674],[-66.8068,-25.725],[-66.7817,-25.8949],[-66.6194,-26.0969],[-66.5333,-26.26],[-66.4198,-26.3767],[-66.2248,-26.171],[-66.0538,-26.2535],[-65.7118,-26.2954],[-65.6653,-26.0748],[-65.4421,-26.1201],[-65.3144,-26.076],[-65.2673,-26.1636],[-64.9664,-26.2688],[-64.7674,-26.2114],[-64.4863,-26.2202],[-64.425,-26.0276],[-64.2116,-25.6037],[-64.1534,-25.5847],[-63.9244,-25.6523],[-63.3986,-25.6594],[-63.0919,-25.3013],[-62.3344,-24.4029],[-62.3392,-24.1206],[-62.3388,-23.5562],[-62.3414,-22.4723],[-62.6327,-22.296],[-62.6504,-22.2345],[-62.7909,-22.1132],[-62.8044,-22.0041],[-63.6394,-21.9975],[-63.7404,-22.0506],[-63.8131,-22.003],[-63.9476,-22.0076],[-64.1605,-22.4385],[-64.2508,-22.5407],[-64.294,-22.6909],[-64.369,-22.7297],[-64.4537,-22.6429],[-64.4283,-22.5423],[-64.572,-22.3432],[-64.5869,-22.2128],[-64.6874,-22.1729],[-65.0204,-22.0966],[-65.1905,-22.0985],[-65.2419,-22.3262],[-65.3343,-22.5023],[-65.2687,-22.6298],[-65.2684,-22.8437],[-65.1925,-22.9805],[-65.0393,-23.0023],[-65.0072,-23.0746],[-65.0429,-23.2514],[-64.9642,-23.2985],[-64.8159,-23.5046],[-64.6601,-23.4546],[-64.5558,-23.5056],[-64.4383,-23.6196],[-64.347,-23.5046],[-64.1811,-23.5416],[-64.1588,-24.1836],[-64.3149,-24.414],[-64.3994,-24.424],[-64.5565,-24.5258],[-64.6255,-24.6132],[-64.8166,-24.4589],[-64.9017,-24.5926],[-65.0315,-24.5649],[-65.1746,-24.4547],[-65.2769,-24.5018],[-65.5871,-24.4026],[-65.7593,-24.1558],[-65.7591,-24.0768],[-65.8807,-23.9925],[-65.9641,-23.9897],[-66.026,-23.8476],[-65.987,-23.7142],[-65.9868,-23.5433],[-66.1702,-23.4207],[-66.3522,-23.3678],[-66.4029,-23.5569],[-66.3379,-23.7238],[-66.352,-24.0414],[-66.381,-24.1281],[-66.5045,-24.2371],[-66.6753,-24.1991],[-66.8574,-24.0602],[-67.0922,-23.8263],[-67.2513,-23.7331]]]}},{"type":"Feature","properties":{"sourceId":"1159309771","regionId":"region.a8f638b5-3c02-411a-89b3-0ba1e9f4470f","countryId":"country.1cin176"},"geometry":{"type":"Polygon","coordinates":[[[-67.2513,-23.7331],[-67.0922,-23.8263],[-66.8574,-24.0602],[-66.6753,-24.1991],[-66.5045,-24.2371],[-66.381,-24.1281],[-66.352,-24.0414],[-66.3379,-23.7238],[-66.4029,-23.5569],[-66.3522,-23.3678],[-66.1702,-23.4207],[-65.9868,-23.5433],[-65.987,-23.7142],[-66.026,-23.8476],[-65.9641,-23.9897],[-65.8807,-23.9925],[-65.7591,-24.0768],[-65.7593,-24.1558],[-65.5871,-24.4026],[-65.2769,-24.5018],[-65.1746,-24.4547],[-65.0315,-24.5649],[-64.9017,-24.5926],[-64.8166,-24.4589],[-64.6255,-24.6132],[-64.5565,-24.5258],[-64.3994,-24.424],[-64.3149,-24.414],[-64.1588,-24.1836],[-64.1811,-23.5416],[-64.347,-23.5046],[-64.4383,-23.6196],[-64.5558,-23.5056],[-64.6601,-23.4546],[-64.8159,-23.5046],[-64.9642,-23.2985],[-65.0429,-23.2514],[-65.0072,-23.0746],[-65.0393,-23.0023],[-65.1925,-22.9805],[-65.2684,-22.8437],[-65.2687,-22.6298],[-65.3343,-22.5023],[-65.2419,-22.3262],[-65.1905,-22.0985],[-65.5799,-22.0865],[-65.7446,-22.114],[-65.9327,-21.9446],[-66.0465,-21.918],[-66.0945,-21.8329],[-66.24,-21.7924],[-66.2972,-22.0503],[-66.3775,-22.1271],[-66.7359,-22.2251],[-66.7965,-22.4349],[-67.0327,-22.5246],[-67.0377,-22.6546],[-67.1939,-22.8222],[-67.014,-23.0007],[-67.2513,-23.7331]]]}},{"type":"Feature","properties":{"sourceId":"1159309785","regionId":"region.3fdb3a5a-dc5a-48e9-aee2-8490d415ccff","countryId":"country.1cin176"},"geometry":{"type":"Polygon","coordinates":[[[-62.3414,-22.4723],[-62.3388,-23.5562],[-62.3392,-24.1206],[-62.0495,-24.2092],[-61.902,-24.3173],[-61.7757,-24.3417],[-61.6603,-24.4764],[-61.4511,-24.6194],[-61.1987,-24.6749],[-61.0343,-24.898],[-60.7999,-25.0754],[-60.4997,-25.2096],[-60.3603,-25.3633],[-60.1781,-25.6651],[-60.0334,-25.7012],[-59.8625,-25.8231],[-59.8483,-25.8695],[-59.6736,-26.0135],[-59.669,-26.1172],[-59.4131,-26.1901],[-59.3872,-26.2914],[-59.2835,-26.3478],[-59.1468,-26.2995],[-58.9535,-26.4056],[-58.8633,-26.5039],[-58.5771,-26.6896],[-58.5347,-26.7543],[-58.3513,-26.8858],[-58.2479,-26.7582],[-58.2062,-26.4027],[-58.17,-26.2703],[-58.0865,-26.1272],[-57.8727,-26.0103],[-57.8754,-25.8761],[-57.8197,-25.8498],[-57.7537,-25.6727],[-57.6231,-25.6154],[-57.5569,-25.4598],[-57.5975,-25.4034],[-57.672,-25.2898],[-57.7541,-25.1809],[-57.8905,-25.0787],[-57.9698,-25.0785],[-58.2241,-24.9412],[-58.312,-24.9936],[-58.4734,-24.8513],[-58.8092,-24.7768],[-59.0009,-24.6442],[-59.341,-24.4876],[-59.4597,-24.3585],[-60.0337,-24.007],[-60.328,-24.018],[-60.4849,-23.9773],[-60.5936,-23.9122],[-60.7878,-23.8734],[-61.0063,-23.8055],[-61.1188,-23.6664],[-61.1099,-23.607],[-61.297,-23.4814],[-61.4918,-23.4132],[-61.6051,-23.2893],[-61.7443,-23.2348],[-61.845,-23.0972],[-61.9564,-23.0344],[-62.0358,-22.8849],[-62.1708,-22.7173],[-62.2872,-22.4839],[-62.3414,-22.4723]]]}},{"type":"Feature","properties":{"sourceId":"1159309795","regionId":"region.626f033a-5f2d-4f08-9601-5be0aee7f0e1","countryId":"country.1cin176"},"geometry":{"type":"Polygon","coordinates":[[[-54.6002,-25.5749],[-54.6431,-25.6879],[-54.5879,-25.8108],[-54.665,-26.2389],[-54.7065,-26.4418],[-54.7898,-26.5285],[-54.7931,-26.645],[-54.9033,-26.6599],[-54.9753,-26.7878],[-55.1258,-26.8636],[-55.1384,-26.9537],[-55.2806,-26.9343],[-55.414,-26.9799],[-55.4619,-27.098],[-55.599,-27.1826],[-55.5913,-27.3284],[-55.7547,-27.4437],[-55.9661,-27.3317],[-56.0173,-27.4516],[-55.8733,-27.7158],[-55.8386,-27.9066],[-55.737,-28.066],[-55.623,-28.1443],[-55.4407,-28.0789],[-55.3299,-27.9281],[-55.1977,-27.8606],[-55.0258,-27.8402],[-54.9132,-27.7369],[-54.8983,-27.6236],[-54.8275,-27.5451],[-54.6997,-27.553],[-54.6053,-27.468],[-54.4608,-27.4126],[-54.2869,-27.4284],[-54.1895,-27.2609],[-54.0918,-27.2852],[-53.9641,-27.154],[-53.842,-27.1635],[-53.7107,-26.8738],[-53.746,-26.6939],[-53.7244,-26.3761],[-53.6616,-26.2598],[-53.765,-26.0281],[-53.8262,-25.9727],[-53.8373,-25.8092],[-53.91,-25.6292],[-54.2148,-25.5315],[-54.3217,-25.5551],[-54.4606,-25.6421],[-54.6002,-25.5749]]]}},{"type":"Feature","properties":{"sourceId":"1159309783","regionId":"region.1cbd732e-3425-423c-a5e0-6c91ea96a00a","countryId":"country.1cin176"},"geometry":{"type":"Polygon","coordinates":[[[-58.3513,-26.8858],[-58.5347,-26.7543],[-58.5771,-26.6896],[-58.8633,-26.5039],[-58.9535,-26.4056],[-59.1468,-26.2995],[-59.2835,-26.3478],[-59.3872,-26.2914],[-59.4131,-26.1901],[-59.669,-26.1172],[-59.6736,-26.0135],[-59.8483,-25.8695],[-59.8625,-25.8231],[-60.0334,-25.7012],[-60.1781,-25.6651],[-60.3603,-25.3633],[-60.4997,-25.2096],[-60.7999,-25.0754],[-61.0343,-24.898],[-61.1987,-24.6749],[-61.4511,-24.6194],[-61.6603,-24.4764],[-61.7757,-24.3417],[-61.902,-24.3173],[-62.0495,-24.2092],[-62.3392,-24.1206],[-62.3344,-24.4029],[-63.0919,-25.3013],[-63.3986,-25.6594],[-61.7539,-25.6614],[-61.7223,-25.7442],[-61.7105,-26.1466],[-61.7094,-26.7938],[-61.7099,-28.0004],[-60.7447,-28.0027],[-60.0413,-28.0001],[-58.8647,-27.9993],[-58.8179,-27.7726],[-58.8865,-27.4789],[-58.6042,-27.3163],[-58.6533,-27.1563],[-58.5115,-27.0602],[-58.4598,-26.9282],[-58.3513,-26.8858]]]}},{"type":"Feature","properties":{"sourceId":"1159309787","regionId":"region.99dbe718-6e0c-4b21-9cf1-50410f84ea9e","countryId":"country.1cin176"},"geometry":{"type":"Polygon","coordinates":[[[-57.3101,-27.4292],[-57.5357,-27.4072],[-57.6978,-27.3335],[-58.022,-27.2598],[-58.5108,-27.2784],[-58.6042,-27.3163],[-58.8865,-27.4789],[-58.8179,-27.7726],[-58.8647,-27.9993],[-58.9505,-28.1124],[-59.0814,-28.1576],[-59.0662,-28.4014],[-59.0991,-28.6642],[-59.1429,-28.7458],[-59.1974,-29.0221],[-59.3589,-29.1435],[-59.5113,-29.2076],[-59.5891,-29.4112],[-59.5911,-29.615],[-59.6648,-29.8783],[-59.5991,-30.0127],[-59.6615,-30.3369],[-59.3885,-30.306],[-59.2413,-30.3435],[-59.005,-30.2041],[-58.8762,-30.227],[-58.6297,-30.1523],[-58.2608,-30.2307],[-58.068,-30.4207],[-57.9873,-30.6035],[-57.8087,-30.7473],[-57.8858,-30.5899],[-57.8496,-30.4853],[-57.6527,-30.3291],[-57.6425,-30.1931],[-57.6117,-30.183],[-57.5062,-30.1443],[-57.3252,-29.981],[-57.3085,-29.8485],[-57.2196,-29.7783],[-57.0942,-29.752],[-56.9658,-29.6009],[-56.677,-29.3134],[-56.6173,-29.1609],[-56.4158,-29.0514],[-56.3916,-28.9522],[-56.301,-28.8814],[-56.2861,-28.7802],[-56.1847,-28.7442],[-56.0219,-28.5857],[-56.0116,-28.4966],[-55.8981,-28.4607],[-55.8423,-28.3464],[-55.6841,-28.388],[-55.6636,-28.3265],[-55.7725,-28.232],[-55.623,-28.1443],[-55.737,-28.066],[-55.8386,-27.9066],[-55.8733,-27.7158],[-56.0173,-27.4516],[-55.9661,-27.3317],[-56.1246,-27.2989],[-56.2798,-27.3896],[-56.3675,-27.5806],[-56.4615,-27.5539],[-56.5464,-27.4551],[-56.638,-27.4529],[-56.7712,-27.5067],[-56.9044,-27.4187],[-57.0762,-27.484],[-57.1801,-27.4873],[-57.3101,-27.4292]]]}},{"type":"Feature","properties":{"sourceId":"1159309769","regionId":"region.7cca0e7d-a759-48b3-adcb-84d0ce80e082","countryId":"country.1cin176"},"geometry":{"type":"Polygon","coordinates":[[[-68.5542,-25.2912],[-68.606,-25.437],[-68.5594,-25.663],[-68.4985,-25.7549],[-68.4171,-26.0936],[-68.4199,-26.1793],[-68.5752,-26.3035],[-68.5953,-26.4573],[-68.5702,-26.5506],[-68.3201,-26.8701],[-68.3305,-27.045],[-68.518,-27.0769],[-68.5859,-27.1628],[-68.8011,-27.1128],[-68.8797,-27.2215],[-68.9314,-27.3952],[-69.0101,-27.4489],[-69.0286,-27.5513],[-69.1341,-27.7723],[-68.8496,-27.7934],[-68.6571,-27.7521],[-68.435,-27.7466],[-68.4473,-27.9794],[-68.2958,-28.0745],[-68.0844,-28.1552],[-67.9319,-28.1241],[-67.9121,-28.2534],[-67.8241,-28.3824],[-67.7042,-28.3393],[-67.2601,-28.3583],[-67.0986,-28.3415],[-66.9762,-28.2674],[-66.5844,-28.4042],[-66.496,-28.4991],[-66.4739,-28.6141],[-66.3376,-28.7357],[-66.3344,-28.8745],[-66.1218,-28.9706],[-65.7924,-29.2501],[-65.7295,-29.5022],[-65.5688,-29.8428],[-65.4019,-30.1402],[-65.1382,-30.0631],[-64.9434,-29.8783],[-64.9616,-29.6105],[-64.8825,-29.5571],[-65.0354,-29.2927],[-65.0793,-29.0001],[-65.1022,-28.6949],[-65.18,-28.6451],[-65.0783,-28.4815],[-65.0791,-28.2746],[-65.1691,-27.9097],[-65.3334,-27.8636],[-65.4327,-27.9094],[-65.5707,-28.0502],[-65.6551,-27.9577],[-65.7132,-27.8096],[-65.8211,-27.8057],[-65.9293,-27.6543],[-65.9868,-27.43],[-66.1911,-27.309],[-65.8723,-26.9164],[-65.8535,-26.7232],[-66.1555,-26.4972],[-66.0538,-26.2535],[-66.2248,-26.171],[-66.4198,-26.3767],[-66.5333,-26.26],[-66.6194,-26.0969],[-66.7817,-25.8949],[-66.8068,-25.725],[-66.7354,-25.674],[-66.5125,-25.6309],[-66.4692,-25.4798],[-66.5516,-25.279],[-66.601,-25.2691],[-67.8069,-25.2832],[-68.4965,-25.16],[-68.5542,-25.2912]]]}},{"type":"Feature","properties":{"sourceId":"1159309775","regionId":"region.c04dc80f-460e-4ab9-b944-ea30457db631","countryId":"country.1cin176"},"geometry":{"type":"Polygon","coordinates":[[[-69.1341,-27.7723],[-69.173,-27.9241],[-69.3032,-27.9995],[-69.4203,-28.2126],[-69.654,-28.401],[-69.473,-28.4264],[-69.3363,-28.4848],[-69.1902,-28.594],[-69.103,-28.7777],[-68.9211,-28.9895],[-68.9988,-29.1179],[-69.0002,-29.2334],[-68.943,-29.3053],[-69.022,-29.6117],[-68.8066,-29.6303],[-68.7006,-29.6021],[-68.328,-29.6925],[-68.0986,-29.8685],[-67.9279,-30.0382],[-67.6345,-30.2479],[-67.5662,-30.3797],[-67.1821,-30.7262],[-67.0807,-30.9055],[-67.1184,-31.0092],[-67.06,-31.0818],[-67.1039,-31.3543],[-67.0489,-31.5233],[-66.8665,-31.6277],[-66.8323,-31.7537],[-66.7305,-31.8766],[-66.6015,-31.9137],[-66.2172,-31.9254],[-66.0544,-31.8714],[-65.7596,-31.8855],[-65.7673,-31.0962],[-65.5211,-30.4052],[-65.4019,-30.1402],[-65.5688,-29.8428],[-65.7295,-29.5022],[-65.7924,-29.2501],[-66.1218,-28.9706],[-66.3344,-28.8745],[-66.3376,-28.7357],[-66.4739,-28.6141],[-66.496,-28.4991],[-66.5844,-28.4042],[-66.9762,-28.2674],[-67.0986,-28.3415],[-67.2601,-28.3583],[-67.7042,-28.3393],[-67.8241,-28.3824],[-67.9121,-28.2534],[-67.9319,-28.1241],[-68.0844,-28.1552],[-68.2958,-28.0745],[-68.4473,-27.9794],[-68.435,-27.7466],[-68.6571,-27.7521],[-68.8496,-27.7934],[-69.1341,-27.7723]]]}},{"type":"Feature","properties":{"sourceId":"1159309751","regionId":"region.b88c3aa6-cd43-4ad8-abf0-4be5f52f5dc6","countryId":"country.1cin176"},"geometry":{"type":"Polygon","coordinates":[[[-69.9294,-29.7179],[-69.9222,-29.9396],[-69.9756,-30.0586],[-69.8497,-30.1266],[-69.9028,-30.3127],[-70.2171,-30.5151],[-70.3195,-30.8008],[-70.3398,-31.0417],[-70.4798,-31.0967],[-70.569,-31.3042],[-70.5914,-31.5496],[-70.484,-31.7976],[-70.4283,-31.8701],[-70.3133,-31.8821],[-70.2417,-31.9615],[-70.2754,-32.0378],[-70.3846,-32.062],[-70.3308,-32.2096],[-70.2561,-32.3143],[-69.9812,-32.3054],[-69.6317,-32.2335],[-69.6126,-32.1234],[-69.4477,-32.0528],[-69.285,-32.0503],[-69.1451,-31.9619],[-69.025,-32.0773],[-68.9222,-32.0762],[-68.9022,-32.3257],[-68.6896,-32.3351],[-68.3937,-32.1501],[-68.2729,-32.1443],[-68.0207,-32.069],[-67.8318,-32.2392],[-67.7391,-32.2529],[-67.4672,-32.2179],[-67.393,-32.2622],[-67.3888,-31.8976],[-67.3444,-31.8468],[-67.1165,-31.8522],[-66.9851,-31.8885],[-66.7305,-31.8766],[-66.8323,-31.7537],[-66.8665,-31.6277],[-67.0489,-31.5233],[-67.1039,-31.3543],[-67.06,-31.0818],[-67.1184,-31.0092],[-67.0807,-30.9055],[-67.1821,-30.7262],[-67.5662,-30.3797],[-67.6345,-30.2479],[-67.9279,-30.0382],[-68.0986,-29.8685],[-68.328,-29.6925],[-68.7006,-29.6021],[-68.8066,-29.6303],[-69.022,-29.6117],[-68.943,-29.3053],[-69.0002,-29.2334],[-68.9988,-29.1179],[-68.9211,-28.9895],[-69.103,-28.7777],[-69.1902,-28.594],[-69.3363,-28.4848],[-69.473,-28.4264],[-69.654,-28.401],[-69.6748,-28.5631],[-69.7409,-28.6406],[-69.7358,-28.8124],[-69.8066,-28.9599],[-69.8039,-29.0987],[-69.9109,-29.1432],[-70.0311,-29.2772],[-70.0426,-29.3631],[-69.9294,-29.7179]]]}},{"type":"Feature","properties":{"sourceId":"1159309757","regionId":"region.ee9fc6be-b73f-4301-b597-1841e3b590a1","countryId":"country.1cin176"},"geometry":{"type":"Polygon","coordinates":[[[-70.1061,-33.0526],[-70.1008,-33.1869],[-70.01,-33.2991],[-69.9053,-33.2382],[-69.8139,-33.2895],[-69.7877,-33.3794],[-69.8954,-33.6623],[-69.9096,-33.9557],[-69.8558,-33.9847],[-69.8732,-34.14],[-69.8328,-34.2432],[-70.0482,-34.2835],[-70.0587,-34.3958],[-70.2278,-34.5853],[-70.2767,-34.7982],[-70.3724,-35.0274],[-70.3866,-35.1667],[-70.5429,-35.2093],[-70.4082,-35.5062],[-70.4215,-35.6597],[-70.3573,-35.8152],[-70.4202,-35.8684],[-70.3803,-36.046],[-70.4307,-36.1294],[-70.3569,-36.2111],[-70.378,-36.3253],[-70.2709,-36.3645],[-70.1754,-36.5681],[-70.0677,-36.6118],[-69.9221,-36.779],[-69.7901,-36.8632],[-69.8099,-37.0113],[-69.6235,-37.1526],[-69.4787,-37.1764],[-69.2604,-37.1526],[-69.0884,-37.2072],[-68.9851,-37.3638],[-68.7567,-37.3717],[-68.6782,-37.4263],[-68.526,-37.4412],[-68.4275,-37.5378],[-68.2494,-37.557],[-68.2488,-36.8335],[-68.2568,-36.2768],[-68.2932,-36.1283],[-68.2463,-35.9993],[-67.135,-35.9993],[-66.6172,-35.9999],[-66.6288,-35.9491],[-66.5256,-35.5146],[-66.5066,-35.1415],[-66.572,-34.8529],[-66.738,-34.6154],[-66.8126,-34.3846],[-66.8214,-34.2293],[-66.7471,-34.0642],[-66.832,-33.9139],[-66.9296,-33.8379],[-67.0197,-33.6165],[-67.1426,-33.452],[-67.1904,-33.2289],[-67.1978,-32.9865],[-67.2269,-32.9161],[-67.1921,-32.7611],[-67.2584,-32.6536],[-67.393,-32.2622],[-67.4672,-32.2179],[-67.7391,-32.2529],[-67.8318,-32.2392],[-68.0207,-32.069],[-68.2729,-32.1443],[-68.3937,-32.1501],[-68.6896,-32.3351],[-68.9022,-32.3257],[-68.9222,-32.0762],[-69.025,-32.0773],[-69.1451,-31.9619],[-69.285,-32.0503],[-69.4477,-32.0528],[-69.6126,-32.1234],[-69.6317,-32.2335],[-69.9812,-32.3054],[-70.2561,-32.3143],[-70.1725,-32.4649],[-70.1804,-32.6302],[-70.14,-32.7683],[-70.0002,-32.8766],[-70.1061,-33.0526]]]}},{"type":"Feature","properties":{"sourceId":"1159309759","regionId":"region.71f21729-4f16-4215-a362-48ab0cbc9931","countryId":"country.1cin176"},"geometry":{"type":"Polygon","coordinates":[[[-70.4307,-36.1294],[-70.5885,-36.1502],[-70.7031,-36.2601],[-70.7186,-36.4146],[-70.8904,-36.4004],[-71.0278,-36.4812],[-71.0553,-36.6713],[-71.1453,-36.6882],[-71.1952,-36.8391],[-71.1396,-37.0617],[-71.0891,-37.1034],[-71.2056,-37.2927],[-71.1231,-37.4432],[-71.1331,-37.5906],[-71.185,-37.7061],[-71.01,-38.0655],[-71.0161,-38.1437],[-70.9738,-38.4247],[-70.8487,-38.5276],[-70.8738,-38.6914],[-71.228,-38.8088],[-71.4158,-38.9353],[-71.402,-39.236],[-71.4617,-39.4338],[-71.6411,-39.6],[-71.7144,-39.7263],[-71.6248,-39.931],[-71.6837,-40.099],[-71.8007,-40.0797],[-71.8238,-40.2101],[-71.6785,-40.3402],[-71.8042,-40.4264],[-71.8606,-40.5594],[-71.9556,-40.7204],[-71.8514,-40.9383],[-71.8674,-41.0102],[-71.5537,-41.032],[-71.3593,-41.0897],[-71.148,-41.0512],[-71.0311,-40.9288],[-71.1302,-40.7795],[-70.9715,-40.6404],[-70.7177,-40.5973],[-70.5761,-40.5235],[-70.4448,-40.5669],[-70.2142,-40.5382],[-70.0846,-40.4206],[-70.0109,-40.198],[-69.9665,-39.9731],[-69.6804,-39.8231],[-69.5402,-39.8259],[-69.364,-39.7172],[-69.2652,-39.5984],[-68.9622,-39.4887],[-68.809,-39.3077],[-68.5745,-39.1076],[-68.3209,-38.9618],[-68.2584,-38.9963],[-68.0316,-38.9697],[-68.0495,-38.9037],[-68.2521,-38.6593],[-68.2494,-37.557],[-68.4275,-37.5378],[-68.526,-37.4412],[-68.6782,-37.4263],[-68.7567,-37.3717],[-68.9851,-37.3638],[-69.0884,-37.2072],[-69.2604,-37.1526],[-69.4787,-37.1764],[-69.6235,-37.1526],[-69.8099,-37.0113],[-69.7901,-36.8632],[-69.9221,-36.779],[-70.0677,-36.6118],[-70.1754,-36.5681],[-70.2709,-36.3645],[-70.378,-36.3253],[-70.3569,-36.2111],[-70.4307,-36.1294]]]}},{"type":"Feature","properties":{"sourceId":"1159309753","regionId":"region.1a4cb40f-5c99-454c-83bc-6c148548163c","countryId":"country.1cin176"},"geometry":{"type":"Polygon","coordinates":[[[-71.7693,-41.9996],[-71.7363,-42.0839],[-71.948,-42.1673],[-72.0399,-42.1447],[-72.1247,-42.2633],[-72.0419,-42.491],[-72.1484,-42.5926],[-72.1127,-42.8638],[-72.1485,-42.9987],[-72.0098,-43.1204],[-71.743,-43.1901],[-71.7507,-43.2953],[-71.9017,-43.322],[-71.9373,-43.4569],[-71.8738,-43.5389],[-71.7238,-43.5948],[-71.7037,-43.6716],[-71.8192,-43.7581],[-71.6599,-43.9263],[-71.7453,-44.045],[-71.8587,-44.1078],[-71.8063,-44.2225],[-71.822,-44.4032],[-71.4378,-44.4015],[-71.2098,-44.4276],[-71.1227,-44.5303],[-71.336,-44.8016],[-71.4971,-44.7429],[-71.8545,-44.791],[-72.0478,-44.7548],[-72.0809,-44.8866],[-71.8894,-44.9472],[-71.7599,-44.9318],[-71.5887,-44.9781],[-71.4971,-45.1117],[-71.3115,-45.2995],[-71.5083,-45.4084],[-71.5258,-45.519],[-71.7651,-45.5724],[-71.7985,-45.7399],[-71.6659,-45.884],[-71.6492,-45.9994],[-69.6333,-45.9996],[-68.3669,-45.9994],[-67.5817,-46],[-67.4559,-45.825],[-67.3606,-45.7767],[-67.3319,-45.6135],[-67.0648,-45.3499],[-66.8689,-45.2356],[-66.524,-45.2161],[-66.5714,-45.1412],[-66.4677,-45.077],[-66.2004,-44.9929],[-65.8416,-45.0032],[-65.6906,-45.0627],[-65.6026,-45.0277],[-65.5729,-44.8958],[-65.7154,-44.87],[-65.6855,-44.7125],[-65.3257,-44.5083],[-65.2169,-44.3664],[-65.3087,-44.2001],[-65.2224,-44.0369],[-65.3182,-43.8322],[-65.3341,-43.6726],[-65.2754,-43.5873],[-65.0323,-43.3781],[-65.0323,-43.2994],[-64.7652,-43.1474],[-64.4476,-43.0686],[-64.3282,-43.0099],[-64.5131,-42.9363],[-64.9971,-42.7848],[-64.946,-42.6542],[-64.8231,-42.6271],[-64.6149,-42.5153],[-64.4377,-42.5069],[-64.3226,-42.5424],[-64.2186,-42.6559],[-64.251,-42.7521],[-64.1079,-42.8837],[-63.7366,-42.8248],[-63.6203,-42.7512],[-63.5793,-42.5929],[-63.5905,-42.3412],[-63.7096,-42.1344],[-63.81,-42.0702],[-64.1622,-42.2094],[-64.0684,-42.2696],[-64.0597,-42.3881],[-64.1276,-42.4327],[-64.5663,-42.436],[-64.5315,-42.2442],[-64.8573,-42.1936],[-65.005,-42.0932],[-65.0546,-42.0107],[-65.1272,-42.0002],[-66.0333,-41.9993],[-66.8838,-41.9992],[-68.0806,-41.9993],[-69.3997,-41.9996],[-71.2327,-41.999],[-71.7693,-41.9996]]]}},{"type":"Feature","properties":{"sourceId":"1159309763","regionId":"region.9c56cc64-384c-45bd-9103-888dfb1fb76f","countryId":"country.1cin176"},"geometry":{"type":"Polygon","coordinates":[[[-71.7693,-41.9996],[-71.2327,-41.999],[-69.3997,-41.9996],[-68.0806,-41.9993],[-66.8838,-41.9992],[-66.0333,-41.9993],[-65.1272,-42.0002],[-65.0546,-42.0107],[-65.0745,-41.9509],[-64.9999,-41.7934],[-65.0372,-41.6651],[-64.9933,-41.553],[-65.0612,-41.4484],[-65.1468,-41.1806],[-65.1751,-41.0102],[-65.1219,-40.8337],[-64.9465,-40.7114],[-64.7962,-40.7233],[-64.773,-40.8061],[-64.4171,-40.9107],[-64.1743,-41.009],[-64.0621,-40.9994],[-63.7794,-41.1588],[-63.0995,-41.1549],[-62.8016,-41.0417],[-62.8615,-40.9384],[-63.1178,-40.7461],[-63.3874,-40.7091],[-63.3873,-39.871],[-63.3886,-39.3258],[-63.478,-39.3185],[-63.9945,-39.0098],[-64.4715,-38.8537],[-64.8209,-38.8104],[-65.1142,-38.8036],[-65.3674,-38.8384],[-65.5114,-38.7837],[-65.6488,-38.8099],[-65.9602,-38.7421],[-66.2152,-38.7166],[-66.3919,-38.7342],[-66.562,-38.7016],[-66.6479,-38.5574],[-67.0698,-38.409],[-67.1766,-38.2226],[-67.5541,-38.2617],[-67.7057,-38.1006],[-67.8449,-38.0569],[-67.8483,-37.9078],[-67.7105,-37.78],[-67.7486,-37.6691],[-67.8503,-37.6002],[-68.2494,-37.557],[-68.2521,-38.6593],[-68.0495,-38.9037],[-68.0316,-38.9697],[-68.2584,-38.9963],[-68.3209,-38.9618],[-68.5745,-39.1076],[-68.809,-39.3077],[-68.9622,-39.4887],[-69.2652,-39.5984],[-69.364,-39.7172],[-69.5402,-39.8259],[-69.6804,-39.8231],[-69.9665,-39.9731],[-70.0109,-40.198],[-70.0846,-40.4206],[-70.2142,-40.5382],[-70.4448,-40.5669],[-70.5761,-40.5235],[-70.7177,-40.5973],[-70.9715,-40.6404],[-71.1302,-40.7795],[-71.0311,-40.9288],[-71.148,-41.0512],[-71.3593,-41.0897],[-71.5537,-41.032],[-71.8674,-41.0102],[-71.8528,-41.0572],[-71.904,-41.3677],[-71.8533,-41.5673],[-71.926,-41.6229],[-71.794,-41.8675],[-71.7693,-41.9996]]]}},{"type":"Feature","properties":{"sourceId":"1159309749","regionId":"region.fe31239c-1ee6-4af9-9a62-7d7c9d6c3cd3","countryId":"country.1cin176"},"geometry":{"type":"Polygon","coordinates":[[[-71.6492,-45.9994],[-71.7702,-46.1126],[-71.9147,-46.1523],[-71.7633,-46.2445],[-71.7519,-46.393],[-71.6849,-46.5192],[-71.6872,-46.6901],[-71.9341,-46.7995],[-72,-47.0422],[-71.8626,-47.1689],[-72.0098,-47.1982],[-72.0579,-47.3119],[-72.1706,-47.4075],[-72.3287,-47.4265],[-72.3444,-47.6023],[-72.5439,-47.9148],[-72.343,-48.0704],[-72.3256,-48.2855],[-72.4331,-48.4004],[-72.5768,-48.4521],[-72.5923,-48.7911],[-72.7429,-48.9138],[-73.0097,-48.9904],[-73.1713,-49.1893],[-73.1704,-49.2509],[-73.0982,-49.2728],[-73.1187,-49.3924],[-73.0597,-49.555],[-73.1967,-49.6824],[-73.4651,-49.76],[-73.5727,-49.9324],[-73.4808,-50.0227],[-73.5306,-50.1408],[-73.3229,-50.2684],[-73.2742,-50.3645],[-73.2619,-50.5566],[-73.1777,-50.7495],[-73.0961,-50.7706],[-72.7784,-50.6196],[-72.6181,-50.6668],[-72.506,-50.6013],[-72.3028,-50.6489],[-72.3381,-50.7606],[-72.2635,-50.8363],[-72.2934,-51.0292],[-72.3822,-51.1606],[-72.2576,-51.2306],[-72.3134,-51.298],[-72.3515,-51.5835],[-72.2811,-51.7015],[-72.0726,-51.7786],[-71.9585,-51.868],[-71.9177,-51.9901],[-69.9528,-52.0074],[-69.4853,-52.1325],[-69.2123,-52.138],[-68.8205,-52.2432],[-68.4545,-52.2999],[-68.4486,-52.3466],[-68.3656,-52.3062],[-68.6851,-52.005],[-68.9359,-51.6455],[-69.1196,-51.6047],[-68.9637,-51.5007],[-69.0627,-51.3215],[-69.1678,-50.9782],[-69.15,-50.7421],[-69.0765,-50.5602],[-68.8764,-50.3306],[-68.4381,-50.2008],[-68.3283,-50.1202],[-68.0763,-50.0873],[-67.8332,-49.9545],[-67.732,-49.7813],[-67.6533,-49.3771],[-67.7042,-49.3039],[-67.5565,-49.0158],[-67.4057,-48.9042],[-67.1983,-48.8184],[-67.1143,-48.6737],[-66.651,-48.4311],[-66.4685,-48.4003],[-66.3009,-48.2519],[-65.9641,-48.057],[-65.8471,-47.9444],[-65.9018,-47.7699],[-65.8456,-47.7422],[-65.7357,-47.5095],[-65.713,-47.3415],[-65.7449,-47.2042],[-65.9796,-47.0662],[-66.2005,-47.0896],[-66.6288,-47.0512],[-66.7864,-47.0066],[-67.13,-46.7066],[-67.4232,-46.5674],[-67.5409,-46.4013],[-67.6225,-46.1638],[-67.5817,-46],[-68.3669,-45.9994],[-69.6333,-45.9996],[-71.6492,-45.9994]]]}},{"type":"Feature","properties":{"sourceId":"1159309691","regionId":"region.44ac6d3e-394e-4435-9f17-04e5b83b7598","countryId":"country.1cin176"},"geometry":{"type":"MultiPolygon","coordinates":[[[[-68.6419,-54.783],[-68.5203,-54.8522],[-68.0776,-54.8461],[-67.031,-54.9052],[-66.8028,-54.9426],[-66.5405,-55.051],[-66.3171,-54.995],[-65.9934,-54.9724],[-65.9662,-54.9021],[-65.4997,-54.933],[-65.3323,-54.9138],[-65.1556,-54.6406],[-65.3093,-54.6266],[-65.6981,-54.6624],[-65.8442,-54.6474],[-66.4822,-54.4658],[-66.7666,-54.2498],[-67.2978,-54.0538],[-67.5715,-53.908],[-67.5582,-53.8362],[-67.7938,-53.7272],[-67.9836,-53.6013],[-68.1114,-53.3438],[-68.4514,-53.2977],[-68.5508,-53.2385],[-68.5207,-53.1206],[-68.266,-52.9806],[-68.6276,-52.6396],[-68.6347,-53.7109],[-68.6419,-54.783]]],[[[-63.8884,-54.7299],[-64.3755,-54.7214],[-64.7587,-54.8323],[-64.6072,-54.9006],[-64.3111,-54.7776],[-64.2703,-54.8141],[-63.8884,-54.7299]]]]}},{"type":"Feature","properties":{"sourceId":"1159309705","regionId":"region.4efdef19-4af1-45ed-bc01-038f9748c632","countryId":"country.1cin176"},"geometry":{"type":"MultiPolygon","coordinates":[[[[-62.8016,-41.0417],[-62.7294,-41.0411],[-62.3378,-40.8727],[-62.2543,-40.7464],[-62.2506,-40.6222],[-62.3251,-40.5016],[-62.4149,-40.4621],[-62.4842,-40.2875],[-62.3687,-40.2112],[-62.3663,-40.0541],[-62.3146,-39.8694],[-62.1642,-39.8588],[-62.1117,-39.7325],[-62.0558,-39.4519],[-62.1954,-39.3971],[-62.1679,-39.2834],[-62.3164,-39.2652],[-62.3578,-39.1022],[-62.274,-38.9545],[-62.3797,-38.7984],[-62.1573,-38.8105],[-62.0267,-38.9376],[-61.839,-38.9809],[-61.7311,-38.9684],[-61.5181,-39.0115],[-61.428,-38.9825],[-61.1434,-39.0011],[-60.8657,-38.9757],[-59.8893,-38.8385],[-59.6324,-38.7838],[-59.0632,-38.6938],[-58.7292,-38.5885],[-58.567,-38.5589],[-58.1557,-38.4301],[-57.5936,-38.1528],[-57.5357,-38.0842],[-57.5119,-37.8723],[-57.3092,-37.6454],[-57.0559,-37.4127],[-56.8887,-37.162],[-56.6864,-36.9277],[-56.6649,-36.851],[-56.6976,-36.3962],[-56.7679,-36.3439],[-56.9287,-36.3637],[-57.1083,-36.2823],[-57.248,-36.1703],[-57.3664,-35.9879],[-57.3933,-35.863],[-57.3526,-35.7275],[-57.1449,-35.4842],[-57.1336,-35.4167],[-57.2488,-35.2488],[-57.522,-35.0132],[-57.7588,-34.9097],[-57.871,-34.8299],[-58.1549,-34.7504],[-58.315,-34.6572],[-58.444,-34.7749],[-58.5416,-34.7103],[-58.5385,-34.567],[-58.4742,-34.5216],[-58.5115,-34.4359],[-58.4602,-34.2729],[-58.3786,-34.1882],[-58.3878,-34.0465],[-58.447,-34.0069],[-58.6798,-34.0312],[-59.0318,-33.8296],[-59.1627,-33.8288],[-59.2623,-33.7242],[-59.3926,-33.7394],[-59.5207,-33.6553],[-59.6406,-33.671],[-59.8601,-33.524],[-60.1181,-33.3936],[-60.2941,-33.2566],[-60.4668,-33.612],[-60.5427,-33.6429],[-60.6776,-33.5757],[-60.9105,-33.5637],[-60.9631,-33.6772],[-61.7105,-34.3768],[-62.8538,-34.3821],[-63.3396,-34.3805],[-63.3736,-34.4136],[-63.3841,-35.0021],[-63.3888,-35.9846],[-63.3886,-36.8524],[-63.3878,-37.7794],[-63.3871,-38.8255],[-63.3886,-39.3258],[-63.3873,-39.871],[-63.3874,-40.7091],[-63.1178,-40.7461],[-62.8615,-40.9384],[-62.8016,-41.0417]]],[[[-62.1553,-40.3742],[-62.2373,-40.5099],[-62.1087,-40.5641],[-62.0285,-40.4549],[-62.1553,-40.3742]]]]}},{"type":"Feature","properties":{"sourceId":"1159317131","regionId":"region.984af807-11d8-4dd9-aed5-58b2021db020","countryId":"country.1cin176"},"geometry":{"type":"Polygon","coordinates":[[[-58.4742,-34.5216],[-58.5385,-34.567],[-58.5416,-34.7103],[-58.444,-34.7749],[-58.315,-34.6572],[-58.4742,-34.5216]]]}},{"type":"Feature","properties":{"sourceId":"1159309793","regionId":"region.eeeb2b48-6323-4e59-9ccd-5cffcd453582","countryId":"country.1cin176"},"geometry":{"type":"Polygon","coordinates":[[[-58.8647,-27.9993],[-60.0413,-28.0001],[-60.7447,-28.0027],[-61.7099,-28.0004],[-61.8655,-28.9169],[-62.0871,-30.1566],[-62.1253,-30.4577],[-61.9039,-30.6725],[-61.8658,-30.7888],[-62.1216,-31.6086],[-62.2228,-31.7068],[-62.1848,-31.9555],[-62.2186,-32.1385],[-62.0729,-32.2536],[-62.0146,-32.3863],[-61.9141,-32.4629],[-61.8294,-32.6806],[-61.733,-32.8275],[-61.7628,-32.9998],[-61.9199,-33.1141],[-62.4502,-33.8366],[-62.8538,-34.3821],[-61.7105,-34.3768],[-60.9631,-33.6772],[-60.9105,-33.5637],[-60.6776,-33.5757],[-60.5427,-33.6429],[-60.4668,-33.612],[-60.2941,-33.2566],[-60.4954,-33.1221],[-60.6755,-32.8465],[-60.7657,-32.5411],[-60.7271,-32.4352],[-60.709,-32.1747],[-60.6662,-32.0483],[-60.7225,-31.9472],[-60.6478,-31.716],[-60.4141,-31.6735],[-60.094,-31.3537],[-59.841,-30.9773],[-59.6606,-30.7361],[-59.6181,-30.4468],[-59.6615,-30.3369],[-59.5991,-30.0127],[-59.6648,-29.8783],[-59.5911,-29.615],[-59.5891,-29.4112],[-59.5113,-29.2076],[-59.3589,-29.1435],[-59.1974,-29.0221],[-59.1429,-28.7458],[-59.0991,-28.6642],[-59.0662,-28.4014],[-59.0814,-28.1576],[-58.9505,-28.1124],[-58.8647,-27.9993]]]}},{"type":"Feature","properties":{"sourceId":"1159309781","regionId":"region.fd80fdc8-c3c5-427b-b55e-35445df1a212","countryId":"country.1cin176"},"geometry":{"type":"Polygon","coordinates":[[[-64.4863,-26.2202],[-64.7674,-26.2114],[-64.9664,-26.2688],[-65.2673,-26.1636],[-65.3144,-26.076],[-65.4421,-26.1201],[-65.6653,-26.0748],[-65.7118,-26.2954],[-66.0538,-26.2535],[-66.1555,-26.4972],[-65.8535,-26.7232],[-65.8723,-26.9164],[-66.1911,-27.309],[-65.9868,-27.43],[-65.9293,-27.6543],[-65.8211,-27.8057],[-65.7132,-27.8096],[-65.6551,-27.9577],[-65.5707,-28.0502],[-65.4327,-27.9094],[-65.3334,-27.8636],[-65.1691,-27.9097],[-65.0692,-27.8865],[-65.001,-27.7641],[-65.0683,-27.6237],[-64.9696,-27.5137],[-65.0636,-27.4724],[-64.8798,-27.3092],[-64.7281,-26.9876],[-64.6744,-26.8048],[-64.5885,-26.688],[-64.5055,-26.6835],[-64.524,-26.4466],[-64.4863,-26.2202]]]}},{"type":"Feature","properties":{"sourceId":"1159309779","regionId":"region.1ad41268-d730-48a0-bbee-781af72ef581","countryId":"country.1cin176"},"geometry":{"type":"Polygon","coordinates":[[[-63.3986,-25.6594],[-63.9244,-25.6523],[-64.1534,-25.5847],[-64.2116,-25.6037],[-64.425,-26.0276],[-64.4863,-26.2202],[-64.524,-26.4466],[-64.5055,-26.6835],[-64.5885,-26.688],[-64.6744,-26.8048],[-64.7281,-26.9876],[-64.8798,-27.3092],[-65.0636,-27.4724],[-64.9696,-27.5137],[-65.0683,-27.6237],[-65.001,-27.7641],[-65.0692,-27.8865],[-65.1691,-27.9097],[-65.0791,-28.2746],[-65.0783,-28.4815],[-65.18,-28.6451],[-65.1022,-28.6949],[-65.0793,-29.0001],[-65.0354,-29.2927],[-64.8825,-29.5571],[-64.2941,-29.4251],[-64.0584,-29.4693],[-64.0487,-29.5257],[-63.8076,-29.6498],[-63.4627,-29.6552],[-63.3628,-29.7735],[-62.2882,-29.7767],[-62.2426,-29.8056],[-62.0871,-30.1566],[-61.8655,-28.9169],[-61.7099,-28.0004],[-61.7094,-26.7938],[-61.7105,-26.1466],[-61.7223,-25.7442],[-61.7539,-25.6614],[-63.3986,-25.6594]]]}},{"type":"Feature","properties":{"sourceId":"1159309765","regionId":"region.5a98393c-a8db-4f49-8153-9f61cb93fffd","countryId":"country.1cin176"},"geometry":{"type":"Polygon","coordinates":[[[-65.0866,-35.0018],[-65.0869,-33.9624],[-65.1317,-33.2055],[-65.0059,-32.9855],[-64.8753,-32.5441],[-64.945,-32.2905],[-65.1769,-32.3297],[-65.2555,-32.1116],[-65.3105,-32.0611],[-65.5897,-31.9152],[-65.7596,-31.8855],[-66.0544,-31.8714],[-66.2172,-31.9254],[-66.6015,-31.9137],[-66.7305,-31.8766],[-66.9851,-31.8885],[-67.1165,-31.8522],[-67.3444,-31.8468],[-67.3888,-31.8976],[-67.393,-32.2622],[-67.2584,-32.6536],[-67.1921,-32.7611],[-67.2269,-32.9161],[-67.1978,-32.9865],[-67.1904,-33.2289],[-67.1426,-33.452],[-67.0197,-33.6165],[-66.9296,-33.8379],[-66.832,-33.9139],[-66.7471,-34.0642],[-66.8214,-34.2293],[-66.8126,-34.3846],[-66.738,-34.6154],[-66.572,-34.8529],[-66.5066,-35.1415],[-66.5256,-35.5146],[-66.6288,-35.9491],[-66.6172,-35.9999],[-65.0878,-35.9988],[-65.0866,-35.0018]]]}},{"type":"Feature","properties":{"sourceId":"1159309761","regionId":"region.dc1af4bb-53b3-4e99-b2b9-dbe86c2f01a7","countryId":"country.1cin176"},"geometry":{"type":"Polygon","coordinates":[[[-65.0866,-35.0018],[-65.0878,-35.9988],[-66.6172,-35.9999],[-67.135,-35.9993],[-68.2463,-35.9993],[-68.2932,-36.1283],[-68.2568,-36.2768],[-68.2488,-36.8335],[-68.2494,-37.557],[-67.8503,-37.6002],[-67.7486,-37.6691],[-67.7105,-37.78],[-67.8483,-37.9078],[-67.8449,-38.0569],[-67.7057,-38.1006],[-67.5541,-38.2617],[-67.1766,-38.2226],[-67.0698,-38.409],[-66.6479,-38.5574],[-66.562,-38.7016],[-66.3919,-38.7342],[-66.2152,-38.7166],[-65.9602,-38.7421],[-65.6488,-38.8099],[-65.5114,-38.7837],[-65.3674,-38.8384],[-65.1142,-38.8036],[-64.8209,-38.8104],[-64.4715,-38.8537],[-63.9945,-39.0098],[-63.478,-39.3185],[-63.3886,-39.3258],[-63.3871,-38.8255],[-63.3878,-37.7794],[-63.3886,-36.8524],[-63.3888,-35.9846],[-63.3841,-35.0021],[-64.4869,-35.0005],[-65.0866,-35.0018]]]}},{"type":"Feature","properties":{"sourceId":"1159309767","regionId":"region.6dbde65a-8d15-4923-98ee-9738bd3cab8b","countryId":"country.1cin176"},"geometry":{"type":"Polygon","coordinates":[[[-62.0871,-30.1566],[-62.2426,-29.8056],[-62.2882,-29.7767],[-63.3628,-29.7735],[-63.4627,-29.6552],[-63.8076,-29.6498],[-64.0487,-29.5257],[-64.0584,-29.4693],[-64.2941,-29.4251],[-64.8825,-29.5571],[-64.9616,-29.6105],[-64.9434,-29.8783],[-65.1382,-30.0631],[-65.4019,-30.1402],[-65.5211,-30.4052],[-65.7673,-31.0962],[-65.7596,-31.8855],[-65.5897,-31.9152],[-65.3105,-32.0611],[-65.2555,-32.1116],[-65.1769,-32.3297],[-64.945,-32.2905],[-64.8753,-32.5441],[-65.0059,-32.9855],[-65.1317,-33.2055],[-65.0869,-33.9624],[-65.0866,-35.0018],[-64.4869,-35.0005],[-63.3841,-35.0021],[-63.3736,-34.4136],[-63.3396,-34.3805],[-62.8538,-34.3821],[-62.4502,-33.8366],[-61.9199,-33.1141],[-61.7628,-32.9998],[-61.733,-32.8275],[-61.8294,-32.6806],[-61.9141,-32.4629],[-62.0146,-32.3863],[-62.0729,-32.2536],[-62.2186,-32.1385],[-62.1848,-31.9555],[-62.2228,-31.7068],[-62.1216,-31.6086],[-61.8658,-30.7888],[-61.9039,-30.6725],[-62.1253,-30.4577],[-62.0871,-30.1566]]]}}]}