{"type":"FeatureCollection","features":[{"type":"Feature","properties":{"sourceId":"1159307821","regionId":"region.ee313b51-794e-4dc2-b6dd-14a8e53110a5","countryId":"country.6th7vw"},"geometry":{"type":"Polygon","coordinates":[[[25.9674,-18.9999],[25.9565,-19.1221],[26.0344,-19.2437],[26.1303,-19.5011],[26.2926,-19.5725],[26.3122,-19.6514],[26.5663,-19.8008],[26.6772,-19.8868],[26.9384,-19.8102],[27.3889,-19.8058],[27.5261,-19.8605],[27.6454,-20.032],[27.8424,-20.1806],[28.1423,-20.0838],[28.339,-20.3356],[28.4997,-20.2298],[28.4137,-20.1405],[28.4312,-20.0312],[28.6474,-20.0876],[28.6993,-20.1992],[28.5999,-20.2367],[28.6726,-20.2762],[28.9711,-19.9712],[28.9621,-19.8358],[29.085,-19.8118],[29.1224,-19.5906],[29.1134,-19.4938],[29.2239,-19.4874],[29.0984,-19.3734],[29.1093,-19.297],[28.9982,-19.1837],[29.0163,-19.0994],[28.9397,-19],[28.8812,-18.7474],[29.1282,-18.6328],[29.1072,-18.5652],[28.5106,-18.5773],[28.0566,-18.5613],[28.0052,-18.5152],[28.0092,-18.2223],[28.0744,-18.1257],[28.0086,-18.0069],[28.0677,-17.9242],[28.0872,-17.7545],[28.201,-17.6851],[28.2476,-17.4096],[28.1685,-17.3152],[28.1386,-17.1493],[28.0426,-17.0846],[28.023,-16.8654],[27.7773,-17.0012],[27.6412,-17.1985],[27.5773,-17.3631],[27.1571,-17.7693],[27.149,-17.8425],[27.0485,-17.9443],[26.8883,-17.9846],[26.7119,-18.0658],[26.4086,-17.939],[26.203,-17.8872],[25.9785,-17.999],[25.8636,-17.9716],[25.8497,-17.9067],[25.6814,-17.8115],[25.4956,-17.8549],[25.3355,-17.8412],[25.2598,-17.7941],[25.2261,-17.9319],[25.2964,-18.0686],[25.3875,-18.139],[25.5085,-18.3991],[25.7619,-18.6303],[25.8153,-18.814],[25.9407,-18.9213],[25.9674,-18.9999]]]}},{"type":"Feature","properties":{"sourceId":"1159307831","regionId":"region.f239f64f-8158-4462-83ee-1c6d63857d38","countryId":"country.6th7vw"},"geometry":{"type":"Polygon","coordinates":[[[26.6772,-19.8868],[26.9251,-20.0009],[27.0267,-20.0101],[27.2149,-20.1105],[27.284,-20.3515],[27.2684,-20.4957],[27.3407,-20.473],[27.5909,-20.4733],[27.6981,-20.5091],[27.7073,-20.7167],[27.676,-20.8667],[27.6748,-21.0901],[27.885,-21.3102],[27.9904,-21.5519],[28.0329,-21.5779],[28.2849,-21.5969],[28.4646,-21.6603],[28.6297,-21.6513],[28.8609,-21.7574],[29.0387,-21.7979],[29.0216,-21.9828],[29.0708,-22.051],[29.2393,-22.0726],[29.3501,-22.1867],[29.6614,-22.1265],[29.7589,-22.1309],[30.1351,-22.2936],[30.3008,-22.337],[30.5074,-22.3096],[30.6324,-22.3307],[30.8379,-22.2823],[31.097,-22.3349],[31.0128,-22.1977],[30.9327,-22.1524],[30.6545,-21.7789],[30.5501,-21.7343],[30.3755,-21.6005],[30.2563,-21.5923],[30.1116,-21.497],[29.9607,-21.3583],[29.728,-21.0242],[29.6111,-21.043],[29.4806,-21.0023],[29.6225,-20.9108],[29.6827,-20.6631],[29.6862,-20.5183],[29.8046,-20.1934],[29.871,-20.0608],[29.8,-19.962],[29.707,-19.9754],[29.4979,-19.8703],[29.4399,-19.8793],[29.4055,-19.7304],[29.2239,-19.4874],[29.1134,-19.4938],[29.1224,-19.5906],[29.085,-19.8118],[28.9621,-19.8358],[28.9711,-19.9712],[28.6726,-20.2762],[28.5999,-20.2367],[28.4997,-20.2298],[28.339,-20.3356],[28.1423,-20.0838],[27.8424,-20.1806],[27.6454,-20.032],[27.5261,-19.8605],[27.3889,-19.8058],[26.9384,-19.8102],[26.6772,-19.8868]]]}},{"type":"Feature","properties":{"sourceId":"1159307835","regionId":"region.2c94b220-3f47-4d9c-b88f-d3a79f501589","countryId":"country.6th7vw"},"geometry":{"type":"Polygon","coordinates":[[[31.097,-22.3349],[31.1633,-22.3226],[31.2889,-22.3973],[31.4338,-22.302],[31.9576,-21.7588],[32.4085,-21.2903],[32.3129,-21.2327],[32.2502,-21.0886],[32.1801,-21.0556],[32.135,-20.9198],[32.2485,-20.672],[32.3362,-20.1231],[32.3283,-20.0051],[32.1184,-19.9168],[31.9395,-19.7973],[31.8343,-19.6432],[31.7007,-19.4991],[31.4349,-19.4011],[31.1987,-19.2484],[30.9983,-19.2464],[30.9012,-19.1926],[30.8593,-19.2724],[30.7197,-19.3811],[30.7232,-19.6421],[30.6939,-19.7929],[30.632,-19.8695],[30.4725,-19.847],[30.4211,-19.994],[30.1784,-20.037],[30.1581,-20.1322],[30.2315,-20.2118],[30.2321,-20.3053],[30.4103,-20.4723],[30.4906,-20.6898],[30.4321,-20.9513],[30.3329,-21.0374],[30.1576,-21.0312],[29.9886,-20.9172],[29.8184,-21.0188],[29.728,-21.0242],[29.9607,-21.3583],[30.1116,-21.497],[30.2563,-21.5923],[30.3755,-21.6005],[30.5501,-21.7343],[30.6545,-21.7789],[30.9327,-22.1524],[31.0128,-22.1977],[31.097,-22.3349]]]}},{"type":"Feature","properties":{"sourceId":"1159307837","regionId":"region.34cf4cb5-6329-4650-bc57-742b4ac36270","countryId":"country.6th7vw"},"geometry":{"type":"Polygon","coordinates":[[[30.2962,-15.639],[30.1301,-15.6237],[30.0107,-15.6462],[29.8373,-15.6148],[29.5085,-15.7036],[29.407,-15.7142],[29.1863,-15.8128],[29.0423,-15.9463],[28.9469,-15.9572],[28.871,-16.0872],[28.8225,-16.4708],[28.7329,-16.5581],[28.6433,-16.5688],[28.2801,-16.7065],[28.023,-16.8654],[28.0426,-17.0846],[28.1386,-17.1493],[28.1685,-17.3152],[28.2476,-17.4096],[28.5016,-17.395],[28.6465,-17.2316],[28.8157,-17.1556],[28.9322,-17.1423],[28.9801,-17.224],[29.2712,-17.3299],[29.4024,-17.4854],[29.3174,-17.5867],[29.3206,-17.7669],[29.2001,-18.0079],[29.3147,-18.2128],[29.5447,-18.3573],[29.581,-18.5922],[29.9328,-18.7183],[29.9865,-18.7026],[30.1806,-18.7516],[30.3631,-18.8615],[30.4416,-18.6913],[30.656,-18.7159],[30.7578,-18.5721],[30.7963,-18.3849],[30.7026,-18.2331],[30.879,-17.949],[30.9061,-17.8032],[30.9821,-17.7217],[30.7835,-17.6333],[30.776,-17.5626],[30.6354,-17.5631],[30.6227,-17.3635],[30.7238,-17.1623],[30.7349,-17.0797],[30.5564,-17.057],[30.5028,-16.6955],[30.4062,-16.6479],[30.3859,-16.5534],[30.4355,-16.4101],[30.2923,-16.2693],[30.1033,-16.3689],[30.1042,-16.1426],[30.0506,-15.9952],[30.3117,-15.7768],[30.2962,-15.639]]]}},{"type":"Feature","properties":{"sourceId":"1159307817","regionId":"region.4ab3867f-2436-4501-8d46-3ac2df9fe641","countryId":"country.6th7vw"},"geometry":{"type":"Polygon","coordinates":[[[30.2962,-15.639],[30.3117,-15.7768],[30.0506,-15.9952],[30.1042,-16.1426],[30.1033,-16.3689],[30.2923,-16.2693],[30.4355,-16.4101],[30.3859,-16.5534],[30.4062,-16.6479],[30.5028,-16.6955],[30.5564,-17.057],[30.7349,-17.0797],[30.7238,-17.1623],[30.6227,-17.3635],[30.6354,-17.5631],[30.776,-17.5626],[30.7835,-17.6333],[30.9821,-17.7217],[31.0887,-17.6661],[31.0877,-17.5433],[31.1511,-17.4683],[31.3086,-17.4819],[31.2963,-17.6299],[31.3739,-17.6265],[31.6071,-17.4559],[31.7547,-17.2814],[31.7586,-17.1864],[31.8805,-17.0795],[31.9299,-16.965],[32.042,-16.8152],[32.3135,-16.7581],[32.4379,-16.7095],[32.6651,-16.7452],[32.731,-16.7087],[32.6718,-16.5998],[32.2905,-16.4518],[31.9103,-16.4289],[31.8601,-16.3408],[31.6861,-16.2072],[31.4046,-16.1623],[31.26,-16.0235],[31.1141,-15.9969],[30.9731,-16.062],[30.8574,-15.9981],[30.4026,-16.0012],[30.3963,-15.636],[30.2962,-15.639]]]}},{"type":"Feature","properties":{"sourceId":"1159307825","regionId":"region.596373bf-40fb-46bf-9448-0703917e38d8","countryId":"country.6th7vw"},"geometry":{"type":"Polygon","coordinates":[[[32.731,-16.7087],[32.6651,-16.7452],[32.4379,-16.7095],[32.3135,-16.7581],[32.042,-16.8152],[31.9299,-16.965],[31.8805,-17.0795],[31.7586,-17.1864],[31.7547,-17.2814],[31.6071,-17.4559],[31.3739,-17.6265],[31.2963,-17.6299],[31.3086,-17.4819],[31.1511,-17.4683],[31.0877,-17.5433],[31.0887,-17.6661],[31.1965,-17.7067],[31.2221,-17.8518],[31.0633,-18.0542],[30.879,-17.949],[30.7026,-18.2331],[30.7963,-18.3849],[30.7578,-18.5721],[30.656,-18.7159],[30.4416,-18.6913],[30.3631,-18.8615],[30.5734,-18.9603],[30.6599,-18.9719],[30.7235,-19.0893],[30.7224,-19.1756],[30.8593,-19.2724],[30.9012,-19.1926],[30.9983,-19.2464],[31.1987,-19.2484],[31.3083,-19.2326],[31.3193,-19.1199],[31.42,-19.1082],[31.5419,-19.1543],[31.6046,-19.0472],[31.7463,-19.0356],[31.83,-19.0977],[31.9852,-19.1322],[31.9925,-18.9971],[31.9,-18.7737],[31.7707,-18.6315],[31.7435,-18.5091],[31.8513,-18.4209],[31.8641,-18.2675],[31.9117,-18.1663],[32.1462,-17.9386],[32.1563,-17.8616],[32.3951,-17.6809],[32.5912,-17.5987],[32.709,-17.4845],[32.7673,-17.375],[32.9691,-17.2661],[32.9541,-17.1672],[32.8288,-16.9351],[32.9334,-16.8158],[32.8934,-16.7124],[32.731,-16.7087]]]}},{"type":"Feature","properties":{"sourceId":"1159307827","regionId":"region.4c129721-52c8-45e5-998f-7070968d16b0","countryId":"country.6th7vw"},"geometry":{"type":"Polygon","coordinates":[[[33.0117,-17.384],[32.9691,-17.2661],[32.7673,-17.375],[32.709,-17.4845],[32.5912,-17.5987],[32.3951,-17.6809],[32.1563,-17.8616],[32.1462,-17.9386],[31.9117,-18.1663],[31.8641,-18.2675],[31.8513,-18.4209],[31.7435,-18.5091],[31.7707,-18.6315],[31.9,-18.7737],[31.9925,-18.9971],[31.9852,-19.1322],[31.83,-19.0977],[31.7463,-19.0356],[31.6046,-19.0472],[31.5419,-19.1543],[31.42,-19.1082],[31.3193,-19.1199],[31.3083,-19.2326],[31.1987,-19.2484],[31.4349,-19.4011],[31.7007,-19.4991],[31.8343,-19.6432],[31.9395,-19.7973],[32.1184,-19.9168],[32.3283,-20.0051],[32.3362,-20.1231],[32.2485,-20.672],[32.135,-20.9198],[32.1801,-21.0556],[32.2502,-21.0886],[32.3129,-21.2327],[32.4085,-21.2903],[32.4458,-21.309],[32.3398,-21.1341],[32.4677,-20.9802],[32.4972,-20.8981],[32.4691,-20.6868],[32.5131,-20.5646],[32.6465,-20.558],[32.8452,-20.2867],[32.8853,-20.103],[33.002,-19.927],[33.0328,-19.7842],[32.8163,-19.6521],[32.8254,-19.4792],[32.7688,-19.3636],[32.8287,-19.2846],[32.8623,-19.1181],[32.82,-19.0283],[32.6911,-19.0143],[32.6914,-18.8342],[32.8852,-18.7878],[32.9202,-18.7262],[32.8707,-18.5358],[32.9964,-18.4671],[33.035,-18.3329],[32.9523,-18.233],[32.9371,-18.0471],[32.957,-17.818],[32.9991,-17.7943],[33.0066,-17.581],[32.9366,-17.4983],[33.0117,-17.384]]]}},{"type":"Feature","properties":{"sourceId":"1159307823","regionId":"region.5c449c66-2da3-4680-a64e-237e95241543","countryId":"country.6th7vw"},"geometry":{"type":"Polygon","coordinates":[[[30.3631,-18.8615],[30.1806,-18.7516],[29.9865,-18.7026],[29.9328,-18.7183],[29.581,-18.5922],[29.5447,-18.3573],[29.3147,-18.2128],[29.2001,-18.0079],[29.3206,-17.7669],[29.3174,-17.5867],[29.4024,-17.4854],[29.2712,-17.3299],[28.9801,-17.224],[28.9322,-17.1423],[28.8157,-17.1556],[28.6465,-17.2316],[28.5016,-17.395],[28.2476,-17.4096],[28.201,-17.6851],[28.0872,-17.7545],[28.0677,-17.9242],[28.0086,-18.0069],[28.0744,-18.1257],[28.0092,-18.2223],[28.0052,-18.5152],[28.0566,-18.5613],[28.5106,-18.5773],[29.1072,-18.5652],[29.1282,-18.6328],[28.8812,-18.7474],[28.9397,-19],[29.0163,-19.0994],[28.9982,-19.1837],[29.1093,-19.297],[29.0984,-19.3734],[29.2239,-19.4874],[29.4055,-19.7304],[29.4399,-19.8793],[29.4979,-19.8703],[29.707,-19.9754],[29.8,-19.962],[29.871,-20.0608],[29.8046,-20.1934],[29.6862,-20.5183],[29.6827,-20.6631],[29.6225,-20.9108],[29.4806,-21.0023],[29.6111,-21.043],[29.728,-21.0242],[29.8184,-21.0188],[29.9886,-20.9172],[30.1576,-21.0312],[30.3329,-21.0374],[30.4321,-20.9513],[30.4906,-20.6898],[30.4103,-20.4723],[30.2321,-20.3053],[30.2315,-20.2118],[30.1581,-20.1322],[30.1784,-20.037],[30.4211,-19.994],[30.4725,-19.847],[30.632,-19.8695],[30.6939,-19.7929],[30.7232,-19.6421],[30.7197,-19.3811],[30.8593,-19.2724],[30.7224,-19.1756],[30.7235,-19.0893],[30.6599,-18.9719],[30.5734,-18.9603],[30.3631,-18.8615]]]}},{"type":"Feature","properties":{"sourceId":"1159307819","regionId":"region.cdb9ae54-5a22-4cda-b770-90de412a1a98","countryId":"country.6th7vw"},"geometry":{"type":"Polygon","coordinates":[[[31.0887,-17.6661],[30.9821,-17.7217],[30.9061,-17.8032],[30.879,-17.949],[31.0633,-18.0542],[31.2221,-17.8518],[31.1965,-17.7067],[31.0887,-17.6661]]]}},{"type":"Feature","properties":{"sourceId":"1159307833","regionId":"region.f46ab660-7bf7-4755-87a8-8b4b425d2645","countryId":"country.6th7vw"},"geometry":{"type":"Polygon","coordinates":[[[28.5999,-20.2367],[28.6993,-20.1992],[28.6474,-20.0876],[28.4312,-20.0312],[28.4137,-20.1405],[28.4997,-20.2298],[28.5999,-20.2367]]]}}]}