{"type":"FeatureCollection","features":[{"type":"Feature","properties":{"sourceId":"1159314653","regionId":"region.5d1ea134-324f-4b6d-a32f-087c22b1e5b9","countryId":"country.1t8wy2p"},"geometry":{"type":"Polygon","coordinates":[[[22.8776,47.9467],[22.831,48.0724],[22.6001,48.1011],[22.4814,48.2426],[22.3571,48.2431],[22.2718,48.4035],[22.1583,48.4022],[22.0792,48.3115],[21.6902,48.1674],[21.4761,48.1771],[21.3733,48.027],[21.2529,48.0475],[21.1137,47.9605],[21.2694,47.9097],[21.5561,47.9169],[21.5397,47.8075],[21.8019,47.7064],[21.8956,47.7449],[22.0951,47.6763],[22.1542,47.5822],[22.1676,47.5949],[22.2617,47.7158],[22.563,47.7572],[22.7458,47.825],[22.8776,47.9467]],[[21.85,47.9903],[21.8374,47.8411],[21.6199,47.874],[21.6619,48.0292],[21.85,47.9903]]]}},{"type":"Feature","properties":{"sourceId":"1159314655","regionId":"region.15b1886b-4a86-4b16-af51-03291e44a60b","countryId":"country.1t8wy2p"},"geometry":{"type":"Polygon","coordinates":[[[21.4235,46.6582],[21.5029,46.8053],[21.6485,46.943],[21.6343,47.0194],[21.3868,46.9408],[21.2883,47.0158],[21.2711,47.1454],[20.9945,47.236],[20.8214,47.1368],[20.7005,47.0143],[20.7057,46.9237],[20.4187,46.8654],[20.4232,46.8033],[20.5865,46.7537],[20.5856,46.4481],[20.5993,46.3845],[20.702,46.3938],[20.7874,46.2634],[21.0515,46.2361],[21.1645,46.3183],[21.3162,46.6166],[21.4235,46.6582]],[[21.1677,46.6701],[21.0028,46.6657],[20.9753,46.7697],[21.0597,46.8522],[21.2011,46.7761],[21.1677,46.6701]]]}},{"type":"Feature","properties":{"sourceId":"1159314659","regionId":"region.24f702f6-71f5-4f41-90ac-cf2ad71bdfbe","countryId":"country.1t8wy2p"},"geometry":{"type":"Polygon","coordinates":[[[22.1542,47.5822],[22.0951,47.6763],[21.8956,47.7449],[21.8019,47.7064],[21.5397,47.8075],[21.5561,47.9169],[21.2694,47.9097],[21.1137,47.9605],[21.0285,47.8163],[20.8921,47.6843],[20.8192,47.6794],[20.9766,47.5689],[21.0279,47.3495],[20.9945,47.236],[21.2711,47.1454],[21.2883,47.0158],[21.3868,46.9408],[21.6343,47.0194],[21.826,47.1851],[21.8622,47.2974],[22.0016,47.3938],[21.9889,47.4929],[22.1542,47.5822]],[[21.5464,47.6715],[21.678,47.5905],[21.8628,47.5703],[21.84,47.469],[21.6375,47.3906],[21.4161,47.5516],[21.5464,47.6715]]]}},{"type":"Feature","properties":{"sourceId":"1159314657","regionId":"region.41ebfa86-1f75-4b15-b89b-f707b667950a","countryId":"country.1t8wy2p"},"geometry":{"type":"MultiPolygon","coordinates":[[[[20.7874,46.2634],[20.702,46.3938],[20.5993,46.3845],[20.4719,46.2459],[20.269,46.2589],[20.1148,46.1522],[20.2428,46.1081],[20.2832,46.1438],[20.6076,46.1295],[20.7044,46.1685],[20.7874,46.2634]]],[[[19.7119,46.1587],[19.8736,46.153],[20.0634,46.1453],[20.0687,46.253],[20.2167,46.3168],[20.1882,46.4337],[20.2972,46.5208],[20.4621,46.5326],[20.5856,46.4481],[20.5865,46.7537],[20.4232,46.8033],[20.3225,46.7644],[20.0613,46.8007],[19.979,46.5905],[19.8571,46.5735],[19.8497,46.3793],[19.6898,46.3612],[19.6531,46.255],[19.7119,46.1587]]]]}},{"type":"Feature","properties":{"sourceId":"1159314625","regionId":"region.4adf6369-34e2-4e47-ba01-a04db1935a2e","countryId":"country.1t8wy2p"},"geometry":{"type":"Polygon","coordinates":[[[17.1483,48.0054],[17.0395,47.8374],[17.0548,47.702],[16.7168,47.697],[16.5578,47.6298],[16.688,47.5226],[16.627,47.4455],[16.7632,47.4033],[17.0514,47.4542],[17.2019,47.3984],[17.3694,47.4409],[17.8825,47.4548],[17.8835,47.7525],[17.7192,47.7737],[17.2623,48.0073],[17.1483,48.0054]],[[17.7265,47.73],[17.7963,47.6475],[17.5876,47.5869],[17.582,47.7145],[17.7265,47.73]]]}},{"type":"Feature","properties":{"sourceId":"1159316033","regionId":"region.8266b0fa-6298-4274-aeed-73955cb09b76","countryId":"country.1t8wy2p"},"geometry":{"type":"Polygon","coordinates":[[[16.7168,47.697],[16.6098,47.7506],[16.5578,47.6298],[16.7168,47.697]]]}},{"type":"Feature","properties":{"sourceId":"1159314621","regionId":"region.156732e8-f5d2-40cf-b7e1-3379d12a70d0","countryId":"country.1t8wy2p"},"geometry":{"type":"Polygon","coordinates":[[[16.627,47.4455],[16.425,47.3511],[16.4128,47.1872],[16.5095,47.1375],[16.4372,47.0318],[16.2749,47.0043],[16.094,46.8628],[16.1302,46.8567],[16.1795,46.8585],[16.2974,46.847],[16.3298,46.8344],[16.3111,46.7975],[16.2995,46.7795],[16.3654,46.6967],[16.3662,46.6965],[16.6133,46.9212],[16.9548,46.9804],[17.098,47.0468],[17.2204,47.0671],[17.2019,47.3984],[17.0514,47.4542],[16.7632,47.4033],[16.627,47.4455]],[[16.6591,47.2866],[16.6805,47.1594],[16.5714,47.1648],[16.5273,47.2698],[16.6591,47.2866]]]}},{"type":"Feature","properties":{"sourceId":"1159314637","regionId":"region.0d17da42-dd9f-4586-abf4-39b34c1806e3","countryId":"country.1t8wy2p"},"geometry":{"type":"Polygon","coordinates":[[[19.7119,46.1587],[19.6531,46.255],[19.6898,46.3612],[19.8497,46.3793],[19.8571,46.5735],[19.979,46.5905],[20.0613,46.8007],[20.1464,46.9793],[19.8191,46.9455],[19.6505,46.8066],[19.5563,46.9735],[19.6467,47.0121],[19.5306,47.1162],[19.3028,47.0411],[19.2653,47.1516],[18.968,47.0332],[18.9552,46.9947],[18.9267,46.8484],[19.0018,46.7085],[18.8581,46.6148],[18.9201,46.4988],[18.9144,46.2457],[18.7858,46.0997],[18.8524,46.0112],[18.8225,45.9056],[18.9013,45.9312],[18.9865,45.9313],[19.2983,46.0221],[19.3789,46.0337],[19.5499,46.1642],[19.7119,46.1587]]]}},{"type":"Feature","properties":{"sourceId":"1159316061","regionId":"region.5eba8690-5bcb-4dce-a981-0b39b14723a7","countryId":"country.1t8wy2p"},"geometry":{"type":"Polygon","coordinates":[[[20.1148,46.1522],[20.269,46.2589],[20.2167,46.3168],[20.0687,46.253],[20.0634,46.1453],[20.1148,46.1522]]]}},{"type":"Feature","properties":{"sourceId":"1159314631","regionId":"region.6c57bc54-c99d-4557-ae27-8051b1009bb7","countryId":"country.1t8wy2p"},"geometry":{"type":"Polygon","coordinates":[[[16.5153,46.5017],[16.8594,46.3648],[16.8793,46.3121],[17.0539,46.3896],[16.9232,46.4016],[16.9181,46.5165],[16.995,46.5616],[17.0686,46.4232],[17.1813,46.4422],[17.2204,46.6646],[17.1358,46.681],[17.1357,46.9761],[17.098,47.0468],[16.9548,46.9804],[16.6133,46.9212],[16.3662,46.6965],[16.4026,46.6631],[16.3722,46.6363],[16.5153,46.5017]],[[16.8103,46.7813],[16.7708,46.8999],[16.896,46.8774],[16.8103,46.7813]]]}},{"type":"Feature","properties":{"sourceId":"1159314627","regionId":"region.6e8ab143-3a6a-4fbb-b611-d31b00b789d3","countryId":"country.1t8wy2p"},"geometry":{"type":"Polygon","coordinates":[[[17.3066,45.9799],[17.5911,45.9362],[17.6547,45.8521],[17.617,46.0623],[17.6909,46.1763],[17.8151,46.2122],[17.9382,46.3129],[18.0976,46.3712],[18.0379,46.5157],[18.1515,46.77],[18.218,46.7907],[18.1771,46.9531],[18.0726,46.972],[17.6619,46.8088],[17.2992,46.7334],[17.2204,46.6646],[17.1813,46.4422],[17.0686,46.4232],[17.0539,46.3896],[16.8793,46.3121],[17.1162,46.1231],[17.1973,46.1212],[17.3066,45.9799]],[[17.7764,46.4391],[17.8805,46.3284],[17.7429,46.2476],[17.707,46.3613],[17.7764,46.4391]]]}},{"type":"Feature","properties":{"sourceId":"1159314623","regionId":"region.c42d44a6-c9fe-4407-809c-2c1ef88f4409","countryId":"country.1t8wy2p"},"geometry":{"type":"Polygon","coordinates":[[[17.6547,45.8521],[17.9062,45.7921],[18.2112,45.7854],[18.4117,45.7432],[18.5735,45.8167],[18.6743,45.9104],[18.8225,45.9056],[18.8524,46.0112],[18.7858,46.0997],[18.683,46.1299],[18.5784,46.2387],[18.4079,46.2272],[18.3034,46.4116],[18.0976,46.3712],[17.9382,46.3129],[17.8151,46.2122],[17.6909,46.1763],[17.617,46.0623],[17.6547,45.8521]],[[18.3615,46.0566],[18.2628,45.9968],[18.1281,46.0387],[18.1355,46.1235],[18.3196,46.1703],[18.3615,46.0566]]]}},{"type":"Feature","properties":{"sourceId":"1159314649","regionId":"region.2de0f2e2-7476-4ef1-87e8-7d2071c03f92","countryId":"country.1t8wy2p"},"geometry":{"type":"Polygon","coordinates":[[[22.1328,48.4048],[21.7277,48.3409],[21.4246,48.5613],[21.1093,48.4891],[20.7841,48.5691],[20.4817,48.5261],[20.466,48.4638],[20.2724,48.2525],[20.1345,48.2467],[20.0383,48.1772],[20.0959,48.1411],[20.2209,48.0929],[20.4184,48.1514],[20.4728,48.1134],[20.7111,48.2228],[20.8274,48.1874],[20.9033,48.0407],[20.7794,48.0027],[20.6403,48.0811],[20.4918,48.0549],[20.422,47.9691],[20.4484,47.8806],[20.6089,47.7011],[20.7741,47.6723],[20.8192,47.6794],[20.8921,47.6843],[21.0285,47.8163],[21.1137,47.9605],[21.2529,48.0475],[21.3733,48.027],[21.4761,48.1771],[21.6902,48.1674],[22.0792,48.3115],[22.1583,48.4022],[22.1328,48.4048]]]}},{"type":"Feature","properties":{"sourceId":"1159314647","regionId":"region.0f259c2e-0562-4832-8193-704b108dc417","countryId":"country.1t8wy2p"},"geometry":{"type":"Polygon","coordinates":[[[19.9051,48.1243],[19.789,48.0401],[19.7667,48.159],[19.6232,48.227],[19.503,48.1894],[19.4282,48.0859],[19.019,48.0655],[18.9336,48.0543],[18.9589,47.9194],[19.0829,47.8601],[19.3772,47.8342],[19.4586,47.706],[19.5807,47.7372],[19.763,47.8794],[19.9568,47.9463],[19.9851,48.0944],[20.0959,48.1411],[20.0383,48.1772],[19.9051,48.1243]]]}},{"type":"Feature","properties":{"sourceId":"1159316071","regionId":"region.cebe6f35-040e-4c84-b9b3-46fe0aca2137","countryId":"country.1t8wy2p"},"geometry":{"type":"Polygon","coordinates":[[[19.7667,48.159],[19.789,48.0401],[19.9051,48.1243],[19.7667,48.159]]]}},{"type":"Feature","properties":{"sourceId":"1159314641","regionId":"region.55f6d6bf-ed1e-4ad4-835f-1d1bef0c361e","countryId":"country.1t8wy2p"},"geometry":{"type":"Polygon","coordinates":[[[18.8149,47.8322],[18.6928,47.778],[18.5526,47.7928],[18.2359,47.7539],[17.8835,47.7525],[17.8825,47.4548],[17.9892,47.3424],[18.1032,47.3592],[18.2135,47.4635],[18.3028,47.4067],[18.462,47.5054],[18.3748,47.556],[18.4004,47.6208],[18.516,47.5553],[18.685,47.5619],[18.9215,47.7413],[18.8149,47.8322]]]}},{"type":"Feature","properties":{"sourceId":"1159314643","regionId":"region.7749d7d2-bc42-44ae-b2b0-84082eed9717","countryId":"country.1t8wy2p"},"geometry":{"type":"Polygon","coordinates":[[[18.8149,47.8322],[18.9215,47.7413],[18.685,47.5619],[18.8194,47.3563],[18.9555,47.4045],[18.9296,47.5737],[19.0886,47.6068],[19.3267,47.4861],[19.1426,47.3602],[18.949,47.3693],[18.9028,47.3038],[18.8792,47.1492],[18.968,47.0332],[19.2653,47.1516],[19.3028,47.0411],[19.5306,47.1162],[19.6467,47.0121],[19.8191,46.9455],[20.1464,46.9793],[20.0564,47.152],[20.0224,47.2491],[19.9986,47.3289],[19.6837,47.5387],[19.6748,47.5959],[19.5807,47.7372],[19.4586,47.706],[19.3772,47.8342],[19.0829,47.8601],[18.9589,47.9194],[18.9336,48.0543],[18.7548,47.9518],[18.8149,47.8322]]]}},{"type":"Feature","properties":{"sourceId":"1159314663","regionId":"region.2ebd69fb-75bb-4315-80ff-24809d11140c","countryId":"country.1t8wy2p"},"geometry":{"type":"Polygon","coordinates":[[[20.7741,47.6723],[20.6893,47.5779],[20.3744,47.4297],[20.1959,47.6068],[20.0239,47.5829],[19.9998,47.6616],[19.6748,47.5959],[19.6837,47.5387],[19.9986,47.3289],[20.0224,47.2491],[20.1323,47.3414],[20.2614,47.2528],[20.2209,47.0984],[20.0564,47.152],[20.1464,46.9793],[20.0613,46.8007],[20.3225,46.7644],[20.4232,46.8033],[20.4187,46.8654],[20.7057,46.9237],[20.7005,47.0143],[20.8214,47.1368],[20.9945,47.236],[21.0279,47.3495],[20.9766,47.5689],[20.8192,47.6794],[20.7741,47.6723]]]}},{"type":"Feature","properties":{"sourceId":"1159314639","regionId":"region.c3902146-2711-4824-a9db-85fc526b0abd","countryId":"country.1t8wy2p"},"geometry":{"type":"Polygon","coordinates":[[[18.1771,46.9531],[18.218,46.7907],[18.3295,46.8031],[18.6303,46.7074],[18.7396,46.7327],[18.9267,46.8484],[18.8422,46.9766],[18.9552,46.9947],[18.968,47.0332],[18.8792,47.1492],[18.9028,47.3038],[18.8194,47.3563],[18.685,47.5619],[18.516,47.5553],[18.462,47.5054],[18.3028,47.4067],[18.2135,47.4635],[18.1032,47.3592],[18.1065,47.2542],[18.2274,47.1339],[18.1771,46.9531]],[[18.4979,47.2757],[18.5764,47.1462],[18.4292,47.0657],[18.3289,47.2041],[18.4979,47.2757]]]}},{"type":"Feature","properties":{"sourceId":"1159314629","regionId":"region.23f147c2-0e17-4f4b-b630-7fc86330f6d4","countryId":"country.1t8wy2p"},"geometry":{"type":"Polygon","coordinates":[[[18.1032,47.3592],[17.9892,47.3424],[17.8825,47.4548],[17.3694,47.4409],[17.2019,47.3984],[17.2204,47.0671],[17.098,47.0468],[17.1357,46.9761],[17.1358,46.681],[17.2204,46.6646],[17.2992,46.7334],[17.6619,46.8088],[18.0726,46.972],[18.1771,46.9531],[18.2274,47.1339],[18.1065,47.2542],[18.1032,47.3592]],[[18.0065,47.0581],[17.8246,47.0964],[17.9323,47.2281],[18.0065,47.0581]]]}},{"type":"Feature","properties":{"sourceId":"1159314645","regionId":"region.c215a0c2-aa6d-4f48-9042-b81051f76aa8","countryId":"country.1t8wy2p"},"geometry":{"type":"Polygon","coordinates":[[[18.9267,46.8484],[18.7396,46.7327],[18.6303,46.7074],[18.3295,46.8031],[18.218,46.7907],[18.1515,46.77],[18.0379,46.5157],[18.0976,46.3712],[18.3034,46.4116],[18.4079,46.2272],[18.5784,46.2387],[18.683,46.1299],[18.7858,46.0997],[18.9144,46.2457],[18.9201,46.4988],[18.8581,46.6148],[19.0018,46.7085],[18.9267,46.8484]],[[18.7693,46.361],[18.7005,46.2987],[18.6271,46.369],[18.7393,46.4165],[18.7693,46.361]]]}},{"type":"Feature","properties":{"sourceId":"1159316065","regionId":"region.cb26959b-399e-4bf7-84c6-ff4f2c2a5408","countryId":"country.1t8wy2p"},"geometry":{"type":"Polygon","coordinates":[[[20.0564,47.152],[20.2209,47.0984],[20.2614,47.2528],[20.1323,47.3414],[20.0224,47.2491],[20.0564,47.152]]]}},{"type":"Feature","properties":{"sourceId":"1159314635","regionId":"region.66669a23-ea76-49ab-b55d-3cb9ec27910d","countryId":"country.1t8wy2p"},"geometry":{"type":"Polygon","coordinates":[[[18.949,47.3693],[19.1426,47.3602],[19.3267,47.4861],[19.0886,47.6068],[18.9296,47.5737],[18.9555,47.4045],[18.949,47.3693]]]}},{"type":"Feature","properties":{"sourceId":"1159316041","regionId":"region.e82d0bc7-5e21-4a84-b5b0-3abad55d1dfb","countryId":"country.1t8wy2p"},"geometry":{"type":"Polygon","coordinates":[[[18.9555,47.4045],[18.8194,47.3563],[18.9028,47.3038],[18.949,47.3693],[18.9555,47.4045]]]}},{"type":"Feature","properties":{"sourceId":"1159314661","regionId":"region.3165af37-7836-483d-8354-a3a7c00f4c2e","countryId":"country.1t8wy2p"},"geometry":{"type":"Polygon","coordinates":[[[20.7741,47.6723],[20.6089,47.7011],[20.4484,47.8806],[20.3029,47.8494],[20.2966,48.0012],[20.422,47.9691],[20.4918,48.0549],[20.4728,48.1134],[20.4184,48.1514],[20.2209,48.0929],[20.0959,48.1411],[19.9851,48.0944],[19.9568,47.9463],[19.763,47.8794],[19.5807,47.7372],[19.6748,47.5959],[19.9998,47.6616],[20.0239,47.5829],[20.1959,47.6068],[20.3744,47.4297],[20.6893,47.5779],[20.7741,47.6723]]]}},{"type":"Feature","properties":{"sourceId":"1159316069","regionId":"region.4ccea1d7-bb71-4ead-a49f-ec388d0c06a9","countryId":"country.1t8wy2p"},"geometry":{"type":"Polygon","coordinates":[[[20.422,47.9691],[20.2966,48.0012],[20.3029,47.8494],[20.4484,47.8806],[20.422,47.9691]]]}},{"type":"Feature","properties":{"sourceId":"1159316075","regionId":"region.22104bd5-3868-4ecf-9d72-5522cd95ac59","countryId":"country.1t8wy2p"},"geometry":{"type":"Polygon","coordinates":[[[20.4918,48.0549],[20.6403,48.0811],[20.7794,48.0027],[20.9033,48.0407],[20.8274,48.1874],[20.7111,48.2228],[20.4728,48.1134],[20.4918,48.0549]]]}},{"type":"Feature","properties":{"sourceId":"1159316063","regionId":"region.92ceb021-4959-47a3-b85e-f923a8cd2c1c","countryId":"country.1t8wy2p"},"geometry":{"type":"Polygon","coordinates":[[[20.5856,46.4481],[20.4621,46.5326],[20.2972,46.5208],[20.1882,46.4337],[20.2167,46.3168],[20.269,46.2589],[20.4719,46.2459],[20.5993,46.3845],[20.5856,46.4481]]]}},{"type":"Feature","properties":{"sourceId":"1159316081","regionId":"region.6e32d626-9d26-46ef-bd23-c72da338285a","countryId":"country.1t8wy2p"},"geometry":{"type":"Polygon","coordinates":[[[18.9552,46.9947],[18.8422,46.9766],[18.9267,46.8484],[18.9552,46.9947]]]}},{"type":"Feature","properties":{"sourceId":"1159316059","regionId":"region.950226e4-2881-44bb-ac2a-d7c9e6484e92","countryId":"country.1t8wy2p"},"geometry":{"type":"Polygon","coordinates":[[[19.6467,47.0121],[19.5563,46.9735],[19.6505,46.8066],[19.8191,46.9455],[19.6467,47.0121]]]}},{"type":"Feature","properties":{"sourceId":"1159316039","regionId":"region.ce296a00-fa7b-46e9-92c7-b7d47a10fe2b","countryId":"country.1t8wy2p"},"geometry":{"type":"Polygon","coordinates":[[[18.516,47.5553],[18.4004,47.6208],[18.3748,47.556],[18.462,47.5054],[18.516,47.5553]]]}},{"type":"Feature","properties":{"sourceId":"1159316035","regionId":"region.c4ea0f76-1c8f-4934-b364-acea2385af75","countryId":"country.1t8wy2p"},"geometry":{"type":"Polygon","coordinates":[[[17.7265,47.73],[17.582,47.7145],[17.5876,47.5869],[17.7963,47.6475],[17.7265,47.73]]]}},{"type":"Feature","properties":{"sourceId":"1159316031","regionId":"region.462ea1f9-cb1e-480a-8721-c0ad64460a87","countryId":"country.1t8wy2p"},"geometry":{"type":"Polygon","coordinates":[[[16.6591,47.2866],[16.5273,47.2698],[16.5714,47.1648],[16.6805,47.1594],[16.6591,47.2866]]]}},{"type":"Feature","properties":{"sourceId":"1159316047","regionId":"region.315e2a80-8139-428c-95ad-9dc72ac00f0d","countryId":"country.1t8wy2p"},"geometry":{"type":"Polygon","coordinates":[[[16.8103,46.7813],[16.896,46.8774],[16.7708,46.8999],[16.8103,46.7813]]]}},{"type":"Feature","properties":{"sourceId":"1159316049","regionId":"region.bee23181-c658-4edb-b8a6-7f8faed555d2","countryId":"country.1t8wy2p"},"geometry":{"type":"Polygon","coordinates":[[[17.0686,46.4232],[16.995,46.5616],[16.9181,46.5165],[16.9232,46.4016],[17.0539,46.3896],[17.0686,46.4232]]]}},{"type":"Feature","properties":{"sourceId":"1159316045","regionId":"region.f6417eb3-470f-4409-a0d2-182dd8559e73","countryId":"country.1t8wy2p"},"geometry":{"type":"Polygon","coordinates":[[[18.0065,47.0581],[17.9323,47.2281],[17.8246,47.0964],[18.0065,47.0581]]]}},{"type":"Feature","properties":{"sourceId":"1159316051","regionId":"region.94893af6-6df2-4c11-a2d3-f96ae383a0f0","countryId":"country.1t8wy2p"},"geometry":{"type":"Polygon","coordinates":[[[17.7764,46.4391],[17.707,46.3613],[17.7429,46.2476],[17.8805,46.3284],[17.7764,46.4391]]]}},{"type":"Feature","properties":{"sourceId":"1159316053","regionId":"region.e347de4f-36ac-40b9-b712-7845e090311a","countryId":"country.1t8wy2p"},"geometry":{"type":"Polygon","coordinates":[[[18.3615,46.0566],[18.3196,46.1703],[18.1355,46.1235],[18.1281,46.0387],[18.2628,45.9968],[18.3615,46.0566]]]}},{"type":"Feature","properties":{"sourceId":"1159316057","regionId":"region.9f668696-a798-45af-9218-70b16132b84e","countryId":"country.1t8wy2p"},"geometry":{"type":"Polygon","coordinates":[[[18.7693,46.361],[18.7393,46.4165],[18.6271,46.369],[18.7005,46.2987],[18.7693,46.361]]]}},{"type":"Feature","properties":{"sourceId":"1159316043","regionId":"region.bde25bb8-7b19-4f30-ade5-5436c28730a5","countryId":"country.1t8wy2p"},"geometry":{"type":"Polygon","coordinates":[[[18.4979,47.2757],[18.3289,47.2041],[18.4292,47.0657],[18.5764,47.1462],[18.4979,47.2757]]]}},{"type":"Feature","properties":{"sourceId":"1159316067","regionId":"region.2446e2bf-224a-46e3-8a6f-5318d9db2bb2","countryId":"country.1t8wy2p"},"geometry":{"type":"Polygon","coordinates":[[[21.1677,46.6701],[21.2011,46.7761],[21.0597,46.8522],[20.9753,46.7697],[21.0028,46.6657],[21.1677,46.6701]]]}},{"type":"Feature","properties":{"sourceId":"1159316079","regionId":"region.e362fba1-dbe4-4ddd-afe8-85b9fa633c05","countryId":"country.1t8wy2p"},"geometry":{"type":"Polygon","coordinates":[[[21.5464,47.6715],[21.4161,47.5516],[21.6375,47.3906],[21.84,47.469],[21.8628,47.5703],[21.678,47.5905],[21.5464,47.6715]]]}},{"type":"Feature","properties":{"sourceId":"1159316077","regionId":"region.8aab9d48-af89-4051-abec-6ce8f7bab30d","countryId":"country.1t8wy2p"},"geometry":{"type":"Polygon","coordinates":[[[21.85,47.9903],[21.6619,48.0292],[21.6199,47.874],[21.8374,47.8411],[21.85,47.9903]]]}}]}