{"type":"FeatureCollection","features":[{"type":"Feature","properties":{"sourceId":"1159316709","regionId":"region.122b12f7-798d-40dd-9720-aab7ab13244d","countryId":"country.91355bcb-0475-45e6-8a22-9425ff14ef5a"},"geometry":{"type":"Polygon","coordinates":[[[134.2715,7.0745],[134.2357,7.0085],[134.28,7.0205],[134.2715,7.0745]]]}},{"type":"Feature","properties":{"sourceId":"1159316711","regionId":"region.466367ca-c1e9-4aa3-a84a-00b00da8c61a","countryId":"country.91355bcb-0475-45e6-8a22-9425ff14ef5a"},"geometry":{"type":"Polygon","coordinates":[[[134.4639,7.2943],[134.4439,7.2874],[134.4017,7.2465],[134.4639,7.2636],[134.4639,7.2943]]]}},{"type":"Feature","properties":{"sourceId":"1159316717","regionId":"region.0a1bd943-85fa-4e3c-925c-dcb0186f412a","countryId":"country.91355bcb-0475-45e6-8a22-9425ff14ef5a"},"geometry":{"type":"Polygon","coordinates":[[[134.5283,7.5161],[134.5807,7.474],[134.5947,7.5123],[134.6078,7.5422],[134.6199,7.573],[134.5471,7.5804],[134.5283,7.5161]]]}},{"type":"Feature","properties":{"sourceId":"1159316715","regionId":"region.cd12a955-9000-46f7-9860-6a0e4859eab6","countryId":"country.91355bcb-0475-45e6-8a22-9425ff14ef5a"},"geometry":{"type":"Polygon","coordinates":[[[134.4876,7.4699],[134.5657,7.432],[134.5807,7.474],[134.5283,7.5161],[134.4876,7.4699]]]}},{"type":"Feature","properties":{"sourceId":"1159316713","regionId":"region.20c294e8-53f4-4108-a88f-45cbb7a2ed59","countryId":"country.91355bcb-0475-45e6-8a22-9425ff14ef5a"},"geometry":{"type":"Polygon","coordinates":[[[134.5105,7.4042],[134.5657,7.432],[134.4876,7.4699],[134.5105,7.4042]]]}},{"type":"Feature","properties":{"sourceId":"1159316723","regionId":"region.2b9ca94f-6685-4c01-ab1a-6f8b03e139c4","countryId":"country.91355bcb-0475-45e6-8a22-9425ff14ef5a"},"geometry":{"type":"Polygon","coordinates":[[[134.5942,7.4211],[134.5657,7.432],[134.5105,7.4042],[134.5942,7.4211]]]}},{"type":"Feature","properties":{"sourceId":"1159316725","regionId":"region.346eb9b9-d8be-4940-93ed-c56d8695cb30","countryId":"country.91355bcb-0475-45e6-8a22-9425ff14ef5a"},"geometry":{"type":"Polygon","coordinates":[[[134.6282,7.489],[134.5947,7.5123],[134.5807,7.474],[134.5657,7.432],[134.5942,7.4211],[134.6282,7.489]]]}},{"type":"Feature","properties":{"sourceId":"1159316727","regionId":"region.7f8450a9-f005-4de5-ae3b-047a9db22bb2","countryId":"country.91355bcb-0475-45e6-8a22-9425ff14ef5a"},"geometry":{"type":"Polygon","coordinates":[[[134.6257,7.5305],[134.6078,7.5422],[134.5947,7.5123],[134.6282,7.489],[134.6257,7.5305]]]}},{"type":"Feature","properties":{"sourceId":"1159316729","regionId":"region.7ceefd9d-485d-456c-aa0c-a9ca92aa8855","countryId":"country.91355bcb-0475-45e6-8a22-9425ff14ef5a"},"geometry":{"type":"Polygon","coordinates":[[[134.6582,7.5911],[134.6236,7.6001],[134.6199,7.573],[134.6078,7.5422],[134.6257,7.5305],[134.6582,7.5911]]]}},{"type":"Feature","properties":{"sourceId":"1159316731","regionId":"region.781ed4a2-8af0-41a4-9265-71689be2e9a4","countryId":"country.91355bcb-0475-45e6-8a22-9425ff14ef5a"},"geometry":{"type":"Polygon","coordinates":[[[134.6602,7.686],[134.6351,7.6841],[134.6229,7.6259],[134.6236,7.6001],[134.6582,7.5911],[134.6602,7.686]]]}},{"type":"Feature","properties":{"sourceId":"1159316733","regionId":"region.0d21bb8a-5061-494b-af9a-b724910c6340","countryId":"country.91355bcb-0475-45e6-8a22-9425ff14ef5a"},"geometry":{"type":"Polygon","coordinates":[[[134.6351,7.6841],[134.6602,7.686],[134.6433,7.7265],[134.6237,7.718],[134.6351,7.6841]]]}},{"type":"Feature","properties":{"sourceId":"1159316719","regionId":"region.56b7bfba-9dbf-41f1-b83e-8613fe570ca0","countryId":"country.91355bcb-0475-45e6-8a22-9425ff14ef5a"},"geometry":{"type":"Polygon","coordinates":[[[134.5471,7.5804],[134.6199,7.573],[134.6236,7.6001],[134.6229,7.6259],[134.5471,7.5804]]]}},{"type":"Feature","properties":{"sourceId":"1159315517","regionId":"region.da7a9bc5-610e-4436-8874-ea3f3020d32e","countryId":"country.91355bcb-0475-45e6-8a22-9425ff14ef5a"},"geometry":{"type":"Polygon","coordinates":[[[131.1421,3.0473],[131.1384,3.0189],[131.1804,3.0333],[131.1836,3.0603],[131.1421,3.0473]]]}},{"type":"Feature","properties":{"sourceId":"1159316705","regionId":"region.bc8deea5-c4fb-41a5-849c-b553da80fc81","countryId":"country.91355bcb-0475-45e6-8a22-9425ff14ef5a"},"geometry":{"type":"Polygon","coordinates":[[[132.2204,5.2922],[132.2267,5.3043],[132.2139,5.3071],[132.2204,5.2922]]]}},{"type":"Feature","properties":{"sourceId":"1159316707","regionId":"region.cc9a3375-9f6c-47a1-8c1a-3b24c772a778","countryId":"country.91355bcb-0475-45e6-8a22-9425ff14ef5a"},"geometry":{"type":"Polygon","coordinates":[[[134.1597,6.8845],[134.1732,6.9249],[134.1367,6.9191],[134.1597,6.8845]]]}},{"type":"Feature","properties":{"sourceId":"1159316735","regionId":"region.1be01b7d-473a-4046-a7e5-5a647e58baa4","countryId":"country.91355bcb-0475-45e6-8a22-9425ff14ef5a"},"geometry":{"type":"Polygon","coordinates":[[[134.7097,8.0966],[134.6928,8.0755],[134.7181,8.0587],[134.7273,8.0829],[134.7097,8.0966]]]}}]}