{"type":"FeatureCollection","features":[{"type":"Feature","properties":{"sourceId":"1159310109","regionId":"region.76ce4c4b-cb0e-43e4-ae3e-ec0c50d24647","countryId":"country.mqcp0q"},"geometry":{"type":"Polygon","coordinates":[[[-10.5931,9.0476],[-10.7463,9.0838],[-10.6751,9.3065],[-10.8549,9.4553],[-10.8526,9.5121],[-11.0101,9.7427],[-11.1603,9.8728],[-11.1996,9.9822],[-11.4492,9.995],[-11.5875,9.9943],[-11.9101,9.9925],[-11.9218,9.9222],[-12.1098,9.8817],[-12.2536,9.9284],[-12.5083,9.8604],[-12.5375,9.7157],[-12.6016,9.6517],[-12.7016,9.4202],[-12.8358,9.282],[-12.9579,9.2724],[-13.0289,9.096],[-13.1159,9.0439],[-13.2075,9.0767],[-13.3011,9.0415],[-13.2884,8.9695],[-13.1426,8.9167],[-13.2402,8.8258],[-13.2412,8.6722],[-13.1685,8.5252],[-13.0424,8.3754],[-12.9187,8.3375],[-12.9005,8.2745],[-12.8228,8.3702],[-12.656,8.3577],[-12.4753,8.2829],[-12.3648,8.3347],[-12.2027,8.3437],[-12.0924,8.2903],[-12.0388,8.3584],[-11.8441,8.3463],[-11.779,8.3715],[-11.6972,8.489],[-11.5802,8.5081],[-11.3291,8.5959],[-11.3415,8.7769],[-11.2625,8.9028],[-11.136,8.965],[-11.0623,9.0702],[-10.9445,9.0516],[-10.815,8.9467],[-10.5922,9.0417],[-10.5931,9.0476]]]}},{"type":"Feature","properties":{"sourceId":"1159308939","regionId":"region.d933e808-5a45-4273-a73c-3970a32fe837","countryId":"country.mqcp0q"},"geometry":{"type":"Polygon","coordinates":[[[-10.5922,9.0417],[-10.815,8.9467],[-10.9445,9.0516],[-11.0623,9.0702],[-11.136,8.965],[-11.2625,8.9028],[-11.3415,8.7769],[-11.3291,8.5959],[-11.5802,8.5081],[-11.529,8.3669],[-11.3752,8.2056],[-11.3358,8.0777],[-11.3478,7.9523],[-11.4395,7.8807],[-11.4066,7.7702],[-11.5205,7.6807],[-11.483,7.5482],[-11.3617,7.6165],[-11.3579,7.4244],[-11.1442,7.3452],[-10.9779,7.4849],[-10.864,7.5437],[-10.7306,7.7055],[-10.6152,7.769],[-10.6162,8.0225],[-10.5292,8.1243],[-10.3649,8.1482],[-10.2822,8.4846],[-10.3898,8.4891],[-10.5193,8.3348],[-10.5833,8.3069],[-10.6691,8.3991],[-10.6389,8.5199],[-10.4819,8.6725],[-10.6002,8.819],[-10.5922,9.0417]]]}},{"type":"Feature","properties":{"sourceId":"1159310083","regionId":"region.9b0404d9-ade3-4c48-ae64-c7e768284481","countryId":"country.mqcp0q"},"geometry":{"type":"MultiPolygon","coordinates":[[[[-11.1442,7.3452],[-11.3579,7.4244],[-11.3617,7.6165],[-11.483,7.5482],[-11.5205,7.6807],[-11.4066,7.7702],[-11.4395,7.8807],[-11.3478,7.9523],[-11.3358,8.0777],[-11.3752,8.2056],[-11.529,8.3669],[-11.5802,8.5081],[-11.6972,8.489],[-11.779,8.3715],[-11.8441,8.3463],[-12.0388,8.3584],[-12.0924,8.2903],[-12.2027,8.3437],[-12.3648,8.3347],[-12.4753,8.2829],[-12.656,8.3577],[-12.8228,8.3702],[-12.9005,8.2745],[-12.9762,8.2465],[-12.8952,8.0796],[-12.8759,7.8287],[-12.7114,7.712],[-12.5314,7.6871],[-12.4283,7.5336],[-12.5066,7.3898],[-12.3148,7.329],[-11.8396,7.149],[-11.4762,6.9194],[-11.4073,6.9964],[-11.3732,7.1388],[-11.2179,7.2541],[-11.1442,7.3452]]],[[[-12.493,7.568],[-12.6214,7.6397],[-12.8981,7.6107],[-12.9517,7.568],[-12.6055,7.4787],[-12.493,7.568]]]]}},{"type":"Feature","properties":{"sourceId":"1159310107","regionId":"region.a258d5e5-2fae-4104-afc9-6f57debc0620","countryId":"country.mqcp0q"},"geometry":{"type":"Polygon","coordinates":[[[-12.9762,8.2465],[-12.9005,8.2745],[-12.9187,8.3375],[-13.0424,8.3754],[-13.2108,8.4934],[-13.2742,8.4209],[-13.1756,8.2838],[-13.1617,8.1872],[-12.9762,8.2465]]]}}]}