{"type":"FeatureCollection","features":[{"type":"Feature","properties":{"sourceId":"1159309541","regionId":"region.5305ca78-de21-471a-8b55-3f364320300b","countryId":"country.1br72am"},"geometry":{"type":"Polygon","coordinates":[[[19.7119,46.1587],[19.5499,46.1642],[19.3789,46.0337],[19.2983,46.0221],[19.3525,45.8632],[19.4422,45.7677],[19.5776,45.7405],[19.5865,45.66],[19.7316,45.633],[19.7498,45.7415],[19.8606,45.7722],[19.7649,45.9024],[19.8736,46.153],[19.7119,46.1587]]]}},{"type":"Feature","properties":{"sourceId":"1159309537","regionId":"region.39a86726-f933-4387-805d-e685090e3c72","countryId":"country.1br72am"},"geometry":{"type":"Polygon","coordinates":[[[19.2983,46.0221],[18.9865,45.9313],[18.9013,45.9312],[18.845,45.8157],[18.9685,45.6687],[18.9124,45.6192],[19.0179,45.4978],[19.1928,45.4343],[19.3643,45.4384],[19.5865,45.66],[19.5776,45.7405],[19.4422,45.7677],[19.3525,45.8632],[19.2983,46.0221]]]}},{"type":"Feature","properties":{"sourceId":"1159309543","regionId":"region.f73d6614-1379-45aa-a67f-2af992aeb303","countryId":"country.1br72am"},"geometry":{"type":"Polygon","coordinates":[[[20.0634,46.1453],[19.8736,46.153],[19.7649,45.9024],[19.8606,45.7722],[20.1142,45.7243],[20.1453,45.7801],[20.3496,45.7885],[20.4068,45.6769],[20.6203,45.7063],[20.6435,45.7951],[20.5721,45.8877],[20.3386,45.9928],[20.2428,46.1081],[20.1148,46.1522],[20.0634,46.1453]]]}},{"type":"Feature","properties":{"sourceId":"1159309525","regionId":"region.01956b32-603a-4d35-b729-ba1ff70ae17a","countryId":"country.1br72am"},"geometry":{"type":"Polygon","coordinates":[[[22.345,42.3134],[22.5088,42.4049],[22.5249,42.5077],[22.4413,42.6329],[22.4814,42.7398],[22.4304,42.8171],[22.2868,42.7459],[22.086,42.8208],[21.8228,42.7714],[21.7443,42.6794],[21.7177,42.5512],[21.619,42.4492],[21.5149,42.3178],[21.5641,42.2463],[21.6769,42.2349],[21.7195,42.261],[21.9415,42.3331],[22.0454,42.3024],[22.1381,42.3191],[22.2598,42.3691],[22.345,42.3134]]]}},{"type":"Feature","properties":{"sourceId":"1159308505","regionId":"region.58320834-80d6-479c-972f-2193323a5402","countryId":"country.1br72am"},"geometry":{"type":"Polygon","coordinates":[[[22.6916,44.2284],[22.6815,44.3053],[22.5051,44.4041],[22.4841,44.4998],[22.6212,44.5692],[22.6212,44.6374],[22.4837,44.724],[22.3197,44.6853],[22.1851,44.5151],[22.0362,44.5895],[21.9247,44.4418],[21.8269,44.3979],[21.8157,44.2981],[21.9583,44.1928],[21.9608,44.1101],[21.8178,44.0656],[21.7724,43.9918],[21.8996,43.986],[22.1217,43.8756],[22.24,44.0419],[22.1929,44.1198],[22.3918,44.1408],[22.4659,44.0176],[22.6047,44.0794],[22.6916,44.2284]]]}},{"type":"Feature","properties":{"sourceId":"1159309529","regionId":"region.3f526d77-7021-4b78-9426-a26353df3acf","countryId":"country.1br72am"},"geometry":{"type":"Polygon","coordinates":[[[22.4659,44.0176],[22.3918,44.1408],[22.1929,44.1198],[22.24,44.0419],[22.1217,43.8756],[21.8996,43.986],[21.7724,43.9918],[21.646,43.8029],[21.7049,43.6418],[21.7783,43.5752],[21.9773,43.57],[22.0565,43.4892],[22.3515,43.4242],[22.3373,43.3824],[22.5776,43.3407],[22.6589,43.4013],[22.5189,43.4742],[22.4729,43.6359],[22.3495,43.8079],[22.3996,43.9933],[22.4659,44.0176]]]}},{"type":"Feature","properties":{"sourceId":"1159308503","regionId":"region.7730babc-00dd-46f7-ba21-dd2fd335557c","countryId":"country.1br72am"},"geometry":{"type":"Polygon","coordinates":[[[22.6589,43.4013],[22.5776,43.3407],[22.3373,43.3824],[22.1374,43.3369],[22.1136,43.2029],[22.234,43.074],[22.2024,43.0222],[22.5448,42.8717],[22.7396,42.8989],[22.9353,43.0856],[22.9829,43.1873],[22.8332,43.2746],[22.7243,43.3861],[22.6589,43.4013]]]}},{"type":"Feature","properties":{"sourceId":"1159309527","regionId":"region.0c51191f-d333-45a6-a11f-bb8aa92779c0","countryId":"country.1br72am"},"geometry":{"type":"Polygon","coordinates":[[[22.5448,42.8717],[22.2024,43.0222],[22.234,43.074],[22.1552,43.0587],[22.0251,43.1442],[21.8055,43.1378],[21.5466,43.0246],[21.4084,42.8417],[21.3871,42.755],[21.4795,42.7323],[21.7443,42.6794],[21.8228,42.7714],[22.086,42.8208],[22.2868,42.7459],[22.4304,42.8171],[22.5448,42.8717]]]}},{"type":"Feature","properties":{"sourceId":"1159309511","regionId":"region.6926b70c-3d8e-4228-912b-36e449b57fe2","countryId":"country.1br72am"},"geometry":{"type":"Polygon","coordinates":[[[20.8097,43.2596],[20.7819,43.4596],[20.9081,43.5643],[20.957,43.7282],[20.9084,43.8074],[20.6208,43.8592],[20.4659,43.6657],[20.3578,43.6276],[20.3053,43.5332],[20.4019,43.454],[20.4214,43.3488],[20.2674,43.2985],[20.0544,43.0222],[20.0563,43.0208],[20.1295,42.9736],[20.3371,42.907],[20.3454,42.8274],[20.4944,42.8875],[20.4764,42.9664],[20.6173,43.0221],[20.6438,43.0523],[20.5975,43.185],[20.8097,43.2596]]]}},{"type":"Feature","properties":{"sourceId":"1159309509","regionId":"region.1cdf3496-59f7-4ce3-b201-ba06e6671f97","countryId":"country.1br72am"},"geometry":{"type":"Polygon","coordinates":[[[20.8097,43.2596],[20.9125,43.1388],[20.9845,43.2549],[21.1341,43.2548],[21.2128,43.3539],[21.4694,43.3678],[21.5548,43.4038],[21.5663,43.5185],[21.481,43.5863],[21.4659,43.7494],[21.2389,43.7692],[21.137,43.7138],[20.957,43.7282],[20.9081,43.5643],[20.7819,43.4596],[20.8097,43.2596]]]}},{"type":"Feature","properties":{"sourceId":"1159309513","regionId":"region.7b52070d-dd47-46de-97d1-5d8a1f705d0c","countryId":"country.1br72am"},"geometry":{"type":"Polygon","coordinates":[[[20.9934,43.1041],[21.0926,43.0907],[21.2324,42.9109],[21.4084,42.8417],[21.5466,43.0246],[21.8055,43.1378],[21.7659,43.2466],[21.611,43.2459],[21.5703,43.343],[21.4694,43.3678],[21.2128,43.3539],[21.1341,43.2548],[20.9845,43.2549],[20.9125,43.1388],[20.9934,43.1041]]]}},{"type":"Feature","properties":{"sourceId":"1159310647","regionId":"region.a5c24dc4-42b0-4f3d-be6e-373cd2f739d0","countryId":"country.1br72am"},"geometry":{"type":"Polygon","coordinates":[[[19.5478,43.2188],[19.7136,43.1656],[19.8051,43.09],[19.9292,43.1139],[20.0544,43.0222],[20.2674,43.2985],[20.1173,43.2984],[19.9995,43.484],[19.9148,43.5116],[20.1628,43.7219],[20.0904,43.8373],[20.062,44.0853],[19.8938,44.1277],[19.7413,44.1045],[19.6182,44.1437],[19.5162,44.0912],[19.5522,43.9834],[19.241,43.9524],[19.4617,43.7621],[19.4817,43.5608],[19.3634,43.6016],[19.1953,43.5328],[19.2184,43.4382],[19.3556,43.3931],[19.5478,43.2188]]]}},{"type":"Feature","properties":{"sourceId":"1159309545","regionId":"region.22e3a349-3f2a-4fb0-b0cd-12e56b68681e","countryId":"country.1br72am"},"geometry":{"type":"Polygon","coordinates":[[[19.0158,44.8656],[19.1743,44.9254],[19.357,44.8959],[19.7569,44.9154],[19.7006,44.8076],[19.9734,44.6412],[20.0941,44.7082],[20.1568,44.8882],[20.3247,44.9292],[20.339,45.0803],[20.2778,45.141],[20.185,45.185],[19.9126,45.1426],[19.6001,45.1384],[19.3939,45.1716],[19.1417,45.1622],[19.0823,45.0849],[19.1317,44.9532],[19.0158,44.8656]]]}},{"type":"Feature","properties":{"sourceId":"1159309519","regionId":"region.8cebdc0e-9456-46cd-9c08-cb1cd107cece","countryId":"country.1br72am"},"geometry":{"type":"Polygon","coordinates":[[[19.1796,44.5383],[19.1072,44.3827],[19.1772,44.287],[19.3243,44.264],[19.3624,44.1912],[19.5162,44.0912],[19.6182,44.1437],[19.4302,44.2719],[19.5035,44.4195],[19.6803,44.4381],[19.8371,44.39],[19.8899,44.5556],[19.9711,44.5648],[19.9734,44.6412],[19.7006,44.8076],[19.7569,44.9154],[19.357,44.8959],[19.3284,44.734],[19.1796,44.5383]]]}},{"type":"Feature","properties":{"sourceId":"1159310649","regionId":"region.a40ca3ca-c5b1-45cd-ac69-72cfac02ada7","countryId":"country.1br72am"},"geometry":{"type":"Polygon","coordinates":[[[19.0023,45.4437],[19.1041,45.2987],[19.3939,45.1716],[19.6001,45.1384],[19.9126,45.1426],[20.185,45.185],[20.2778,45.141],[20.3186,45.2092],[20.2361,45.3064],[20.2298,45.443],[20.113,45.5272],[20.1142,45.7243],[19.8606,45.7722],[19.7498,45.7415],[19.7316,45.633],[19.5865,45.66],[19.3643,45.4384],[19.1928,45.4343],[19.0179,45.4978],[19.0023,45.4437]]]}},{"type":"Feature","properties":{"sourceId":"1159310653","regionId":"region.f7aa147e-ab62-4d1a-aba3-ddb07f23f090","countryId":"country.1br72am"},"geometry":{"type":"Polygon","coordinates":[[[20.6435,45.7951],[20.6203,45.7063],[20.4068,45.6769],[20.3496,45.7885],[20.1453,45.7801],[20.1142,45.7243],[20.113,45.5272],[20.2298,45.443],[20.2361,45.3064],[20.3186,45.2092],[20.2778,45.141],[20.339,45.0803],[20.3952,45.0652],[20.4821,45.2015],[20.6863,45.181],[21.0167,45.3215],[20.816,45.4629],[20.7544,45.6056],[20.7857,45.7526],[20.6435,45.7951]]]}},{"type":"Feature","properties":{"sourceId":"1159310651","regionId":"region.dfca9d2d-74ea-4bd7-ac81-7d13ea919c79","countryId":"country.1br72am"},"geometry":{"type":"Polygon","coordinates":[[[21.0167,45.3215],[20.6863,45.181],[20.4821,45.2015],[20.3952,45.0652],[20.3994,45.0287],[20.6364,44.8494],[20.6333,44.7652],[20.7948,44.6647],[21.0368,44.722],[21.3598,44.8267],[21.4844,45.1527],[21.0167,45.3215]]]}},{"type":"Feature","properties":{"sourceId":"1159309531","regionId":"region.c32c674e-6262-454c-a970-07ed80322dcb","countryId":"country.1br72am"},"geometry":{"type":"Polygon","coordinates":[[[21.3598,44.8267],[21.0368,44.722],[21.1609,44.5045],[21.1102,44.371],[21.134,44.2866],[21.5583,44.1192],[21.8178,44.0656],[21.9608,44.1101],[21.9583,44.1928],[21.8157,44.2981],[21.8269,44.3979],[21.9247,44.4418],[22.0362,44.5895],[22.0342,44.5962],[21.8554,44.6985],[21.6563,44.6877],[21.5584,44.7817],[21.3598,44.8267]]]}},{"type":"Feature","properties":{"sourceId":"1159309515","regionId":"region.2bb52919-3cd4-4656-9916-de7d6bf9d8ea","countryId":"country.1br72am"},"geometry":{"type":"Polygon","coordinates":[[[19.9734,44.6412],[19.9711,44.5648],[20.1766,44.5423],[20.2258,44.4077],[20.2103,44.2867],[20.3891,44.2943],[20.4422,44.4189],[20.772,44.2978],[20.7324,44.3765],[20.8211,44.464],[20.7948,44.6647],[20.6333,44.7652],[20.6364,44.8494],[20.3994,45.0287],[20.3952,45.0652],[20.339,45.0803],[20.3247,44.9292],[20.1568,44.8882],[20.0941,44.7082],[19.9734,44.6412]]]}},{"type":"Feature","properties":{"sourceId":"1159309505","regionId":"region.1d38dcc4-506b-47f1-b098-5a2831904fcc","countryId":"country.1br72am"},"geometry":{"type":"Polygon","coordinates":[[[20.7948,44.6647],[20.8211,44.464],[20.7324,44.3765],[20.772,44.2978],[21.1392,44.1833],[21.134,44.2866],[21.1102,44.371],[21.1609,44.5045],[21.0368,44.722],[20.7948,44.6647]]]}},{"type":"Feature","properties":{"sourceId":"1159309501","regionId":"region.fccad76c-884e-479d-aa53-8e5ffc081b81","countryId":"country.1br72am"},"geometry":{"type":"Polygon","coordinates":[[[21.4694,43.3678],[21.5703,43.343],[21.611,43.2459],[21.7659,43.2466],[21.8055,43.1378],[22.0251,43.1442],[22.1552,43.0587],[22.234,43.074],[22.1136,43.2029],[22.1374,43.3369],[22.3373,43.3824],[22.3515,43.4242],[22.0565,43.4892],[21.9773,43.57],[21.7783,43.5752],[21.7049,43.6418],[21.646,43.8029],[21.4659,43.7494],[21.481,43.5863],[21.5663,43.5185],[21.5548,43.4038],[21.4694,43.3678]]]}},{"type":"Feature","properties":{"sourceId":"1159309507","regionId":"region.b12c9b83-ad5b-4e5d-a217-65683c673b37","countryId":"country.1br72am"},"geometry":{"type":"Polygon","coordinates":[[[20.957,43.7282],[21.137,43.7138],[21.2389,43.7692],[21.4659,43.7494],[21.646,43.8029],[21.7724,43.9918],[21.8178,44.0656],[21.5583,44.1192],[21.134,44.2866],[21.1392,44.1833],[21.1327,44.0862],[21.0147,43.8547],[20.9084,43.8074],[20.957,43.7282]]]}},{"type":"Feature","properties":{"sourceId":"1159309523","regionId":"region.89062f15-ca0b-4817-a99a-490003093064","countryId":"country.1br72am"},"geometry":{"type":"Polygon","coordinates":[[[20.6208,43.8592],[20.9084,43.8074],[21.0147,43.8547],[21.1327,44.0862],[21.1392,44.1833],[20.772,44.2978],[20.4422,44.4189],[20.3891,44.2943],[20.4231,44.2418],[20.595,44.0113],[20.5262,43.9469],[20.6208,43.8592]]]}},{"type":"Feature","properties":{"sourceId":"1159309499","regionId":"region.bf21da39-80b3-405e-84c1-dff9d5774875","countryId":"country.1br72am"},"geometry":{"type":"Polygon","coordinates":[[[20.6208,43.8592],[20.5262,43.9469],[20.595,44.0113],[20.4231,44.2418],[20.2885,44.1229],[20.062,44.0853],[20.0904,43.8373],[20.1628,43.7219],[19.9148,43.5116],[19.9995,43.484],[20.1173,43.2984],[20.2674,43.2985],[20.4214,43.3488],[20.4019,43.454],[20.3053,43.5332],[20.3578,43.6276],[20.4659,43.6657],[20.6208,43.8592]]]}},{"type":"Feature","properties":{"sourceId":"1159309517","regionId":"region.f27c1182-5be9-4e03-afe6-a5848a5edee7","countryId":"country.1br72am"},"geometry":{"type":"Polygon","coordinates":[[[19.6182,44.1437],[19.7413,44.1045],[19.8938,44.1277],[20.062,44.0853],[20.2885,44.1229],[20.4231,44.2418],[20.3891,44.2943],[20.2103,44.2867],[20.2258,44.4077],[20.1766,44.5423],[19.9711,44.5648],[19.8899,44.5556],[19.8371,44.39],[19.6803,44.4381],[19.5035,44.4195],[19.4302,44.2719],[19.6182,44.1437]]]}}]}