{"type":"FeatureCollection","features":[{"type":"Feature","properties":{"sourceId":"1159315639","regionId":"region.085ef695-9457-40c3-a8b0-f4eda7be2893","countryId":"country.46088230-c32b-4e3f-a816-fa6daf9737c4"},"geometry":{"type":"Polygon","coordinates":[[[-24.7043,14.9008],[-24.7494,14.8855],[-24.7446,14.8266],[-24.6869,14.8266],[-24.7043,14.9008]]]}},{"type":"Feature","properties":{"sourceId":"1159316309","regionId":"region.ccc24b02-e1ea-434c-ab4b-fbbbac5dc47f","countryId":"country.46088230-c32b-4e3f-a816-fa6daf9737c4"},"geometry":{"type":"Polygon","coordinates":[[[-24.3015,14.9548],[-24.374,14.9449],[-24.2982,14.8955],[-24.3015,14.9548]]]}},{"type":"Feature","properties":{"sourceId":"1159316305","regionId":"region.92f2fbff-c00e-4447-ba26-d581a1619acf","countryId":"country.46088230-c32b-4e3f-a816-fa6daf9737c4"},"geometry":{"type":"Polygon","coordinates":[[[-24.4297,15.025],[-24.374,14.9449],[-24.3015,14.9548],[-24.3292,15.0287],[-24.4297,15.025]]]}},{"type":"Feature","properties":{"sourceId":"1159316303","regionId":"region.dfa76c87-d670-4f14-9ae7-cb4fd3f306e9","countryId":"country.46088230-c32b-4e3f-a816-fa6daf9737c4"},"geometry":{"type":"Polygon","coordinates":[[[-24.2982,14.8955],[-24.374,14.9449],[-24.4297,15.025],[-24.5262,14.9247],[-24.4491,14.8381],[-24.3345,14.8319],[-24.2982,14.8955]]]}},{"type":"Feature","properties":{"sourceId":"1159316311","regionId":"region.d4325b1c-1af6-4cef-a2fd-a2e5fa664cca","countryId":"country.46088230-c32b-4e3f-a816-fa6daf9737c4"},"geometry":{"type":"Polygon","coordinates":[[[-23.7701,15.184],[-23.6859,15.1844],[-23.6561,15.2297],[-23.7701,15.184]]]}},{"type":"Feature","properties":{"sourceId":"1159316313","regionId":"region.bc599a0b-4143-4294-9488-e3d95a0127ea","countryId":"country.46088230-c32b-4e3f-a816-fa6daf9737c4"},"geometry":{"type":"Polygon","coordinates":[[[-23.7151,14.9685],[-23.6294,15.0393],[-23.6183,15.1058],[-23.6266,15.1314],[-23.6859,15.1844],[-23.7701,15.184],[-23.7899,15.0938],[-23.7151,14.9685]]]}},{"type":"Feature","properties":{"sourceId":"1159316327","regionId":"region.4ba20424-9333-4768-a91a-2d2b251e6c72","countryId":"country.46088230-c32b-4e3f-a816-fa6daf9737c4"},"geometry":{"type":"Polygon","coordinates":[[[-23.5393,14.9076],[-23.5641,14.9607],[-23.5962,15.0117],[-23.612,15.0409],[-23.6294,15.0393],[-23.7151,14.9685],[-23.5393,14.9076]]]}},{"type":"Feature","properties":{"sourceId":"1159316329","regionId":"region.0f887d83-892d-4b8e-a6f8-1d0867eb6590","countryId":"country.46088230-c32b-4e3f-a816-fa6daf9737c4"},"geometry":{"type":"Polygon","coordinates":[[[-23.4715,14.9737],[-23.5641,14.9607],[-23.5393,14.9076],[-23.4715,14.9737]]]}},{"type":"Feature","properties":{"sourceId":"1159316323","regionId":"region.e418340d-0433-46c8-9ce2-08389293e517","countryId":"country.46088230-c32b-4e3f-a816-fa6daf9737c4"},"geometry":{"type":"Polygon","coordinates":[[[-23.4847,15.064],[-23.5264,15.0593],[-23.5962,15.0117],[-23.5641,14.9607],[-23.4715,14.9737],[-23.4847,15.064]]]}},{"type":"Feature","properties":{"sourceId":"1159316317","regionId":"region.70449505-dd6c-4a71-af39-95110425aff6","countryId":"country.46088230-c32b-4e3f-a816-fa6daf9737c4"},"geometry":{"type":"Polygon","coordinates":[[[-23.5916,15.1702],[-23.6266,15.1314],[-23.6183,15.1058],[-23.58,15.0816],[-23.5264,15.0593],[-23.4847,15.064],[-23.5916,15.1702]]]}},{"type":"Feature","properties":{"sourceId":"1159316315","regionId":"region.3482742a-d860-4bcf-b31e-e6e2550121f3","countryId":"country.46088230-c32b-4e3f-a816-fa6daf9737c4"},"geometry":{"type":"Polygon","coordinates":[[[-23.6561,15.2297],[-23.6859,15.1844],[-23.6266,15.1314],[-23.5916,15.1702],[-23.6561,15.2297]]]}},{"type":"Feature","properties":{"sourceId":"1159316331","regionId":"region.58c466a8-eece-4309-97c1-60318d9ccb73","countryId":"country.46088230-c32b-4e3f-a816-fa6daf9737c4"},"geometry":{"type":"Polygon","coordinates":[[[-23.1278,15.3117],[-23.2457,15.2711],[-23.2582,15.1745],[-23.1827,15.1186],[-23.1105,15.1994],[-23.1278,15.3117]]]}},{"type":"Feature","properties":{"sourceId":"1159316333","regionId":"region.0a4f908d-c713-474f-b3e3-b3b463b2e505","countryId":"country.46088230-c32b-4e3f-a816-fa6daf9737c4"},"geometry":{"type":"Polygon","coordinates":[[[-22.6821,16.1136],[-22.7139,16.2058],[-22.9244,16.213],[-22.9455,16.0197],[-22.8061,15.9859],[-22.6821,16.1136]]]}},{"type":"Feature","properties":{"sourceId":"1159316337","regionId":"region.1a567918-e6f5-4a0e-9b88-eac332101946","countryId":"country.46088230-c32b-4e3f-a816-fa6daf9737c4"},"geometry":{"type":"Polygon","coordinates":[[[-24.3756,16.6771],[-24.3202,16.6128],[-24.3247,16.4827],[-24.2333,16.6021],[-24.3756,16.6771]]]}},{"type":"Feature","properties":{"sourceId":"1159316339","regionId":"region.f31e95f6-24cb-4976-9c8b-733d75eef06a","countryId":"country.46088230-c32b-4e3f-a816-fa6daf9737c4"},"geometry":{"type":"Polygon","coordinates":[[[-24.3247,16.4827],[-24.3202,16.6128],[-24.3756,16.6771],[-24.3247,16.4827]]]}},{"type":"Feature","properties":{"sourceId":"1159316335","regionId":"region.e769da64-38e1-4dcf-ab12-69cf76420859","countryId":"country.46088230-c32b-4e3f-a816-fa6daf9737c4"},"geometry":{"type":"Polygon","coordinates":[[[-22.9292,16.5934],[-22.8951,16.8293],[-22.9908,16.8157],[-22.9292,16.5934]]]}},{"type":"Feature","properties":{"sourceId":"1159316341","regionId":"region.5f7fe363-c55a-4ce8-9453-41068fd9a789","countryId":"country.46088230-c32b-4e3f-a816-fa6daf9737c4"},"geometry":{"type":"Polygon","coordinates":[[[-24.9197,16.8951],[-24.9713,16.923],[-25.0898,16.8475],[-24.9952,16.7861],[-24.9197,16.8951]]]}},{"type":"Feature","properties":{"sourceId":"1159316347","regionId":"region.f3c6744c-2708-4857-a849-1402ed4e61f4","countryId":"country.46088230-c32b-4e3f-a816-fa6daf9737c4"},"geometry":{"type":"Polygon","coordinates":[[[-25.2454,17.1367],[-25.1583,17.0858],[-25.073,17.1136],[-25.0259,17.1449],[-25.1026,17.1966],[-25.2454,17.1367]]]}},{"type":"Feature","properties":{"sourceId":"1159316345","regionId":"region.9ec08185-c7cd-461f-83c9-3bc9f5e2a498","countryId":"country.46088230-c32b-4e3f-a816-fa6daf9737c4"},"geometry":{"type":"Polygon","coordinates":[[[-24.9867,17.0789],[-25.073,17.1136],[-25.1583,17.0858],[-25.2454,17.1367],[-25.3168,17.1061],[-25.2987,16.9174],[-25.1879,16.9282],[-24.9867,17.0789]]]}},{"type":"Feature","properties":{"sourceId":"1159316349","regionId":"region.09aabe5c-248e-4eb9-8090-64bae4279668","countryId":"country.46088230-c32b-4e3f-a816-fa6daf9737c4"},"geometry":{"type":"Polygon","coordinates":[[[-25.0259,17.1449],[-25.073,17.1136],[-24.9867,17.0789],[-25.0259,17.1449]]]}},{"type":"Feature","properties":{"sourceId":"1159316319","regionId":"region.af5420e8-47d0-475f-8692-ed234a3ea7b7","countryId":"country.46088230-c32b-4e3f-a816-fa6daf9737c4"},"geometry":{"type":"Polygon","coordinates":[[[-23.6183,15.1058],[-23.6294,15.0393],[-23.612,15.0409],[-23.58,15.0816],[-23.6183,15.1058]]]}},{"type":"Feature","properties":{"sourceId":"1159316321","regionId":"region.22350855-5df5-4ffa-a0e1-fb8fbadf34b5","countryId":"country.46088230-c32b-4e3f-a816-fa6daf9737c4"},"geometry":{"type":"Polygon","coordinates":[[[-23.612,15.0409],[-23.5962,15.0117],[-23.5264,15.0593],[-23.58,15.0816],[-23.612,15.0409]]]}}]}