{"type":"FeatureCollection","features":[{"type":"Feature","properties":{"sourceId":"1159307995","regionId":"region.9899aca5-2a25-4b63-9f09-221f14919942","countryId":"country.ieqa5v"},"geometry":{"type":"Polygon","coordinates":[[[-54.6153,2.3263],[-54.5203,2.3489],[-54.3594,2.508],[-54.2853,2.678],[-54.2125,2.7764],[-54.1634,2.9697],[-54.1905,3.1781],[-54.003,3.4554],[-53.9888,3.611],[-54.0507,3.6406],[-54.1255,3.7887],[-54.1874,3.8147],[-54.3552,4.0665],[-54.3386,4.1523],[-54.4105,4.2086],[-54.403,4.3129],[-54.4508,4.4842],[-54.4355,4.7094],[-54.4787,4.7552],[-54.4821,4.9128],[-54.4302,5.0534],[-54.3207,5.2125],[-54.473,5.3065],[-54.6549,5.3746],[-54.8032,5.1626],[-54.8513,4.9809],[-54.7401,4.8903],[-54.8185,4.6491],[-54.8319,4.5157],[-54.899,4.4291],[-54.875,4.2893],[-54.9401,4.1414],[-55.0113,4.1721],[-55.2493,4.0156],[-55.311,4.0699],[-55.331,4.4221],[-55.3672,4.4972],[-55.3765,4.8537],[-55.503,5.0805],[-55.6334,4.9872],[-55.8169,5.108],[-55.9988,5.1029],[-55.9695,5.3808],[-55.9169,5.5399],[-56.06,5.395],[-56.3222,5.3729],[-56.4839,5.3168],[-56.7239,5.3333],[-57.2325,5.2606],[-57.289,5.171],[-57.3152,5.0261],[-57.4903,4.9914],[-57.7205,4.9898],[-57.8503,4.9228],[-57.9185,4.8298],[-57.8374,4.6509],[-57.9527,4.4097],[-57.965,4.282],[-58.0677,4.1511],[-58.0321,3.9877],[-57.9421,3.9054],[-57.8539,3.7667],[-57.8298,3.6624],[-57.644,3.5167],[-57.6582,3.3952],[-57.5651,3.3498],[-57.3668,3.3656],[-57.2836,3.3438],[-57.2749,3.1343],[-57.206,3.0281],[-57.2346,2.9704],[-57.1746,2.819],[-57.0272,2.6482],[-56.9941,2.5049],[-56.9302,2.4362],[-56.8844,2.3037],[-56.7052,2.0296],[-56.5798,2.0168],[-56.4818,1.9416],[-56.3672,1.9289],[-56.0197,1.8335],[-55.9168,1.9222],[-55.9258,2.0617],[-56.0313,2.1635],[-56.1168,2.3331],[-56.0133,2.3988],[-55.9892,2.5208],[-55.7831,2.4452],[-55.7243,2.3969],[-55.6083,2.434],[-55.3996,2.4302],[-55.3545,2.4949],[-55.1125,2.5278],[-55.0177,2.5906],[-54.8803,2.4473],[-54.7755,2.4573],[-54.7032,2.4458],[-54.7041,2.3248],[-54.6153,2.3263]]]}},{"type":"Feature","properties":{"sourceId":"1159307985","regionId":"region.dfa1abf9-20d3-4401-87db-6148b17b2f1e","countryId":"country.ieqa5v"},"geometry":{"type":"Polygon","coordinates":[[[-57.2477,5.4849],[-57.3241,5.3386],[-57.2325,5.2606],[-56.7239,5.3333],[-56.4839,5.3168],[-56.4793,5.3892],[-56.5662,5.5018],[-56.5022,5.56],[-56.5988,5.7485],[-56.6037,5.9503],[-56.6595,5.9797],[-56.9565,6.0116],[-57.066,5.9501],[-57.1258,5.8181],[-57.1637,5.5571],[-57.2477,5.4849]]]}},{"type":"Feature","properties":{"sourceId":"1159307989","regionId":"region.7e94c2ec-66d6-43f7-9e02-71c45d0117ff","countryId":"country.ieqa5v"},"geometry":{"type":"Polygon","coordinates":[[[-54.171,5.3484],[-54.0736,5.4898],[-53.9864,5.7457],[-54.0367,5.8424],[-54.4718,5.941],[-54.7049,5.9748],[-54.7369,5.7668],[-54.628,5.5593],[-54.6125,5.4422],[-54.6549,5.3746],[-54.473,5.3065],[-54.3207,5.2125],[-54.171,5.3484]]]}},{"type":"Feature","properties":{"sourceId":"1159307999","regionId":"region.63ca5a3b-29e7-48ed-b454-7f76e80759ac","countryId":"country.ieqa5v"},"geometry":{"type":"Polygon","coordinates":[[[-56.6037,5.9503],[-56.5988,5.7485],[-56.5022,5.56],[-56.5662,5.5018],[-56.4793,5.3892],[-56.4839,5.3168],[-56.3222,5.3729],[-56.06,5.395],[-55.9169,5.5399],[-55.9744,5.6314],[-55.8972,5.6767],[-55.8977,5.763],[-55.9992,5.8107],[-56.3038,5.8925],[-56.6037,5.9503]]]}},{"type":"Feature","properties":{"sourceId":"1159308003","regionId":"region.25edceca-556e-4fc7-aa97-7df51bd867c0","countryId":"country.ieqa5v"},"geometry":{"type":"Polygon","coordinates":[[[-55.8972,5.6767],[-55.9744,5.6314],[-55.9169,5.5399],[-55.9073,5.4125],[-55.4907,5.4296],[-55.3985,5.4565],[-55.4055,5.5389],[-55.3522,5.6727],[-55.2532,5.9178],[-55.395,5.9739],[-55.6373,5.9859],[-55.8861,5.963],[-55.9479,5.8615],[-55.8873,5.7595],[-55.8972,5.6767]]]}},{"type":"Feature","properties":{"sourceId":"1159308005","regionId":"region.20db4380-72b8-402e-91eb-bd7e1fe59d97","countryId":"country.ieqa5v"},"geometry":{"type":"Polygon","coordinates":[[[-55.2532,5.9178],[-55.3522,5.6727],[-55.0392,5.6668],[-55.1438,5.7662],[-55.2111,5.7991],[-55.2298,5.9024],[-55.2532,5.9178]]]}},{"type":"Feature","properties":{"sourceId":"1159308001","regionId":"region.d2bf408a-d932-40ba-938f-fb7f0e280e53","countryId":"country.ieqa5v"},"geometry":{"type":"Polygon","coordinates":[[[-55.2298,5.9024],[-55.2111,5.7991],[-55.1438,5.7662],[-55.1286,5.8214],[-55.2298,5.9024]]]}},{"type":"Feature","properties":{"sourceId":"1159307997","regionId":"region.3709cd88-036f-4932-9e40-92f1d1bd8746","countryId":"country.ieqa5v"},"geometry":{"type":"Polygon","coordinates":[[[-55.1286,5.8214],[-55.1438,5.7662],[-55.0392,5.6668],[-55.0104,5.5314],[-54.628,5.5593],[-54.7369,5.7668],[-54.7049,5.9748],[-55.0139,5.9934],[-55.1445,5.9742],[-55.0855,5.8828],[-55.1286,5.8214]]]}},{"type":"Feature","properties":{"sourceId":"1159307993","regionId":"region.80b455fb-6b00-4062-b24c-d68a108e4aa0","countryId":"country.ieqa5v"},"geometry":{"type":"Polygon","coordinates":[[[-55.0392,5.6668],[-55.3522,5.6727],[-55.4055,5.5389],[-55.3985,5.4565],[-55.4907,5.4296],[-55.9073,5.4125],[-55.9169,5.5399],[-55.9695,5.3808],[-55.9988,5.1029],[-55.8169,5.108],[-55.6334,4.9872],[-55.503,5.0805],[-55.3869,5.1892],[-55.3243,5.32],[-55.0258,5.3226],[-54.8971,5.1474],[-54.8513,4.9809],[-54.8032,5.1626],[-54.6549,5.3746],[-54.6125,5.4422],[-54.628,5.5593],[-55.0104,5.5314],[-55.0392,5.6668]]]}},{"type":"Feature","properties":{"sourceId":"1159307987","regionId":"region.7e3d564b-879a-4ad4-a61e-77a835ebc2d5","countryId":"country.ieqa5v"},"geometry":{"type":"Polygon","coordinates":[[[-54.8513,4.9809],[-54.8971,5.1474],[-55.0258,5.3226],[-55.3243,5.32],[-55.3869,5.1892],[-55.503,5.0805],[-55.3765,4.8537],[-55.3672,4.4972],[-55.331,4.4221],[-55.311,4.0699],[-55.2493,4.0156],[-55.0113,4.1721],[-54.9401,4.1414],[-54.875,4.2893],[-54.899,4.4291],[-54.8319,4.5157],[-54.8185,4.6491],[-54.7401,4.8903],[-54.8513,4.9809]]]}}]}