{"type":"FeatureCollection","features":[{"type":"Feature","properties":{"sourceId":"1159311847","regionId":"region.5c34f235-9bdd-49dd-ad89-89195409ac32","countryId":"country.18echaw"},"geometry":{"type":"MultiPolygon","coordinates":[[[[47.948,29.994],[47.6742,30.0982],[47.3582,30.0921],[47.1971,30.0342],[47.1105,29.9609],[46.9578,29.6204],[46.8535,29.4446],[46.5615,29.1242],[46.5324,29.0957],[47.4341,28.9946],[47.4463,28.9762],[47.5231,29.021],[47.7468,29.049],[47.7841,29.2037],[47.8417,29.2663],[47.8649,29.31],[47.8585,29.3232],[47.8493,29.502],[47.9655,29.5763],[48.1809,29.5622],[48.0789,29.744],[48.0217,29.7797],[47.948,29.994]]],[[[48.3527,29.7098],[48.3445,29.7906],[48.1887,29.9835],[48.1587,29.8792],[48.0461,29.8004],[48.1616,29.6297],[48.229,29.5999],[48.3527,29.7098]]]]}},{"type":"Feature","properties":{"sourceId":"1159311851","regionId":"region.8cd312cf-a236-44e5-8125-fc1044de8e1c","countryId":"country.18echaw"},"geometry":{"type":"Polygon","coordinates":[[[47.4463,28.9762],[47.5499,28.7706],[47.5968,28.6088],[47.6681,28.5335],[48.4328,28.5405],[48.3288,28.76],[48.1585,29.0173],[48.1061,29.2135],[48.0346,29.2087],[47.8772,29.185],[47.8417,29.2663],[47.7841,29.2037],[47.7468,29.049],[47.5231,29.021],[47.4463,28.9762]]]}},{"type":"Feature","properties":{"sourceId":"1159311853","regionId":"region.30ff7866-777b-41fa-ade6-e061d0e1ec3d","countryId":"country.18echaw"},"geometry":{"type":"Polygon","coordinates":[[[48.0938,29.3104],[48.0087,29.2954],[48.0346,29.2087],[48.1061,29.2135],[48.0938,29.3104]]]}},{"type":"Feature","properties":{"sourceId":"1159315229","regionId":"region.67084cb3-7a9f-42de-be76-40e81d7027a8","countryId":"country.18echaw"},"geometry":{"type":"Polygon","coordinates":[[[48.0084,29.3692],[47.9918,29.3304],[48.0087,29.2954],[48.0938,29.3104],[48.0084,29.3692]]]}},{"type":"Feature","properties":{"sourceId":"1159311845","regionId":"region.a3554da8-0a66-4041-914c-fff508949281","countryId":"country.18echaw"},"geometry":{"type":"Polygon","coordinates":[[[47.8585,29.3232],[47.8649,29.31],[47.9918,29.3304],[48.0084,29.3692],[47.8585,29.3232]]]}},{"type":"Feature","properties":{"sourceId":"1159311849","regionId":"region.8630a216-8a0e-49f8-8576-fd479b267b76","countryId":"country.18echaw"},"geometry":{"type":"Polygon","coordinates":[[[47.8649,29.31],[47.8417,29.2663],[47.8772,29.185],[48.0346,29.2087],[48.0087,29.2954],[47.9918,29.3304],[47.8649,29.31]]]}}]}