{"type":"FeatureCollection","features":[{"type":"Feature","properties":{"sourceId":"1159308745","regionId":"region.12268834-577c-4e04-99b0-05df0b5da939","countryId":"country.1ga7ffb"},"geometry":{"type":"Polygon","coordinates":[[[20.6232,69.0364],[20.1023,69.0221],[20.3411,68.9101],[20.3565,68.8046],[20.2366,68.6591],[19.9622,68.5412],[20.2459,68.4774],[19.931,68.3502],[19.0381,68.5056],[18.6446,68.5012],[18.4362,68.5739],[18.1893,68.5384],[18.1357,68.3957],[18.1667,68.1585],[17.8954,67.9697],[17.3215,68.1053],[17.2201,68.0401],[16.808,67.9106],[16.6087,67.6473],[16.483,67.5578],[16.1996,67.5083],[16.1271,67.4228],[16.4379,67.2003],[16.4156,67.0527],[16.0388,66.8875],[15.6695,66.5994],[15.4263,66.4912],[15.4761,66.3549],[15.8635,66.2762],[16.4979,66.0756],[16.8814,66.0059],[17.4721,65.7554],[17.7806,65.6571],[18.1636,65.583],[18.3586,65.4951],[18.7011,65.4416],[18.8204,65.3747],[19.2312,65.2619],[19.4032,65.1623],[19.7036,65.2499],[20.1149,65.3116],[21.2662,65.1645],[21.5817,65.0677],[21.5376,65.2309],[21.7017,65.2859],[21.4891,65.3934],[21.9422,65.4118],[22.1701,65.553],[22.3606,65.7612],[22.8372,65.8077],[23.0868,65.7277],[23.3743,65.8227],[23.957,65.7891],[24.1631,65.8227],[24.0197,66.0489],[23.7242,66.2066],[23.6423,66.4363],[23.8819,66.5635],[23.8924,66.7509],[24.0013,66.8124],[23.5813,67.1531],[23.7354,67.2897],[23.7652,67.4201],[23.4313,67.4855],[23.5535,67.587],[23.4989,67.8822],[23.6612,67.9329],[23.1517,68.1303],[23.0522,68.2982],[22.6076,68.4249],[22.0722,68.477],[21.9192,68.5682],[21.4636,68.6869],[20.9346,68.967],[20.6232,69.0364]]]}},{"type":"Feature","properties":{"sourceId":"1159308741","regionId":"region.010d5b1d-dfdc-4be7-9946-b58f73dd1f76","countryId":"country.1ga7ffb"},"geometry":{"type":"Polygon","coordinates":[[[14.3329,65.115],[14.7085,65.0004],[15.2915,64.6446],[15.6394,64.4726],[15.9854,64.3536],[16.0846,64.263],[16.263,64.2556],[16.745,64.0175],[16.9017,63.9599],[17.7299,63.8895],[18.3623,63.9828],[18.5208,63.852],[18.9562,63.7703],[19.206,63.5942],[19.3156,63.4577],[19.7532,63.5243],[20.5034,63.822],[20.6875,63.7987],[20.897,63.9837],[20.9666,64.1494],[21.2439,64.3071],[21.6065,64.4522],[21.4898,64.487],[21.1813,64.8358],[21.5817,65.0677],[21.2662,65.1645],[20.1149,65.3116],[19.7036,65.2499],[19.4032,65.1623],[19.2312,65.2619],[18.8204,65.3747],[18.7011,65.4416],[18.3586,65.4951],[18.1636,65.583],[17.7806,65.6571],[17.4721,65.7554],[16.8814,66.0059],[16.4979,66.0756],[15.8635,66.2762],[15.4761,66.3549],[15.4819,66.2749],[15.0534,66.1533],[14.5405,66.1254],[14.6444,65.8429],[14.5607,65.7011],[14.5143,65.3181],[14.3329,65.115]]]}},{"type":"Feature","properties":{"sourceId":"1159308769","regionId":"region.6bd9c14d-b9ef-44a0-91a1-23af949ebb4c","countryId":"country.1ga7ffb"},"geometry":{"type":"Polygon","coordinates":[[[14.3321,65.114],[13.6428,64.584],[14.1156,64.4412],[14.1614,64.2054],[13.9394,64.0095],[13.2341,64.0909],[12.9824,64.0588],[12.6819,63.9564],[12.2932,63.657],[12.1703,63.5981],[12.2049,63.4546],[11.9924,63.2889],[12.0598,63.2048],[12.2227,63.0015],[12.1044,62.9233],[12.1562,62.7337],[12.0912,62.5863],[12.2795,62.3442],[12.3151,62.2718],[12.7971,62.2071],[13.0486,62.0812],[13.3821,62.0044],[13.327,61.9058],[13.6065,61.6585],[14.4816,61.5915],[14.6017,61.812],[15.1256,61.8513],[15.1252,62.0003],[15.4549,62.1601],[15.3587,62.282],[15.066,62.2977],[14.8514,62.4252],[14.8248,62.5847],[15.6091,62.6534],[15.8861,62.7105],[16.3139,62.7248],[16.6584,62.9225],[16.9691,62.9934],[16.0205,63.4619],[15.9378,63.6638],[16.592,63.7369],[16.745,64.0175],[16.263,64.2556],[16.0846,64.263],[15.9854,64.3536],[15.6394,64.4726],[15.2915,64.6446],[14.7085,65.0004],[14.3329,65.115],[14.3321,65.114]]]}},{"type":"Feature","properties":{"sourceId":"1159308753","regionId":"region.200c784a-7bbf-468c-ab5b-e4da180a4b3c","countryId":"country.1ga7ffb"},"geometry":{"type":"Polygon","coordinates":[[[12.7108,61.057],[12.756,61.0009],[13.0983,60.8167],[13.5279,60.4465],[13.6686,60.407],[13.8453,60.2615],[14.1575,60.2285],[14.2574,60.1071],[14.4511,60.0366],[14.7174,60.018],[14.7692,60.0985],[15.2384,60.0156],[15.4547,59.8832],[15.6824,59.9693],[15.7497,60.1468],[15.9749,60.1892],[16.32,60.0776],[16.7174,60.2159],[16.3989,60.4187],[16.2025,60.58],[16.4041,60.7948],[16.1559,60.9994],[15.8009,61.0634],[15.6369,61.2462],[15.4507,61.3459],[15.1855,61.5442],[15.1015,61.4924],[14.7122,61.4923],[14.4816,61.5915],[13.6065,61.6585],[13.327,61.9058],[13.3821,62.0044],[13.0486,62.0812],[12.7971,62.2071],[12.3151,62.2718],[12.1617,61.7248],[12.4165,61.5823],[12.6138,61.547],[12.8771,61.371],[12.7108,61.057]]]}},{"type":"Feature","properties":{"sourceId":"1159308767","regionId":"region.c8624847-e5b5-4dae-bcef-bc3636b9d72c","countryId":"country.1ga7ffb"},"geometry":{"type":"Polygon","coordinates":[[[12.7108,61.057],[12.281,61.0152],[12.377,60.7541],[12.5944,60.5149],[12.5936,60.395],[12.4873,60.2959],[12.5109,60.118],[12.4468,60.0511],[12.1437,59.8984],[11.8746,59.8849],[11.8837,59.8054],[11.8917,59.7058],[11.6774,59.5591],[11.8111,59.2487],[12.0704,59.2009],[12.2563,59.2147],[12.596,59.125],[12.7563,59.1368],[12.9281,58.8152],[13.2882,58.7422],[13.457,58.9678],[13.6145,59.0546],[14.2267,59.0445],[14.3126,59.0163],[14.3299,59.3005],[14.4688,59.4982],[14.4182,59.9257],[14.4511,60.0366],[14.2574,60.1071],[14.1575,60.2285],[13.8453,60.2615],[13.6686,60.407],[13.5279,60.4465],[13.0983,60.8167],[12.756,61.0009],[12.7108,61.057]]]}},{"type":"Feature","properties":{"sourceId":"1159315463","regionId":"region.14a90cd8-b62f-4077-a5c9-4d2724c00c9e","countryId":"country.1ga7ffb"},"geometry":{"type":"MultiPolygon","coordinates":[[[[11.8111,59.2487],[11.6644,58.9201],[11.452,58.896],[11.4375,58.9917],[11.3547,59.0916],[11.2201,59.0902],[11.1082,58.9536],[11.2317,58.7996],[11.2249,58.3707],[11.3825,58.3539],[11.5671,58.2492],[11.807,58.3266],[11.8757,58.1992],[11.6936,57.8812],[11.9128,57.5829],[12.3019,57.6164],[12.4155,57.4359],[12.5946,57.3506],[12.9444,57.2775],[12.9532,57.1996],[13.1166,57.157],[13.3151,57.317],[13.5423,57.4358],[13.6827,57.5651],[13.7506,57.8531],[14.045,57.8643],[14.212,57.9159],[14.2371,58.0015],[14.4286,58.2244],[14.8115,58.6455],[14.6953,58.7341],[14.5206,58.728],[14.3126,59.0163],[14.2267,59.0445],[13.6145,59.0546],[13.457,58.9678],[13.2882,58.7422],[12.9281,58.8152],[12.7563,59.1368],[12.596,59.125],[12.2563,59.2147],[12.0704,59.2009],[11.8111,59.2487]]],[[[11.807,58.2304],[11.7388,58.2851],[11.429,58.161],[11.7082,58.0982],[11.807,58.2304]]]]}},{"type":"Feature","properties":{"sourceId":"1159308739","regionId":"region.6d0f5419-5fb9-4602-aebc-accfda5cc134","countryId":"country.1ga7ffb"},"geometry":{"type":"Polygon","coordinates":[[[19.3156,63.4577],[19.206,63.5942],[18.9562,63.7703],[18.5208,63.852],[18.3623,63.9828],[17.7299,63.8895],[16.9017,63.9599],[16.745,64.0175],[16.592,63.7369],[15.9378,63.6638],[16.0205,63.4619],[16.9691,62.9934],[16.6584,62.9225],[16.3139,62.7248],[15.8861,62.7105],[15.6091,62.6534],[14.8248,62.5847],[14.8514,62.4252],[15.066,62.2977],[15.3587,62.282],[15.6271,62.355],[16.2095,62.2606],[16.4876,62.2509],[17.0111,62.1804],[17.4985,62.1476],[17.5466,62.2491],[17.3928,62.3283],[17.3415,62.4981],[17.5763,62.4403],[17.8617,62.5008],[18.0425,62.5921],[17.9264,62.8223],[18.1462,62.8223],[18.2683,62.8835],[18.5125,62.9041],[18.4679,63.0237],[18.6113,63.1789],[19.0325,63.182],[19.3156,63.4577]]]}},{"type":"Feature","properties":{"sourceId":"1159308749","regionId":"region.d3654522-43e1-4668-9b53-64ac0d1c0904","countryId":"country.1ga7ffb"},"geometry":{"type":"Polygon","coordinates":[[[17.4985,62.1476],[17.0111,62.1804],[16.4876,62.2509],[16.2095,62.2606],[15.6271,62.355],[15.3587,62.282],[15.4549,62.1601],[15.1252,62.0003],[15.1256,61.8513],[14.6017,61.812],[14.4816,61.5915],[14.7122,61.4923],[15.1015,61.4924],[15.1855,61.5442],[15.4507,61.3459],[15.6369,61.2462],[15.8009,61.0634],[16.1559,60.9994],[16.4041,60.7948],[16.2025,60.58],[16.3989,60.4187],[16.7174,60.2159],[16.9815,60.2969],[17.2262,60.3096],[17.2175,60.3847],[17.3766,60.6239],[17.238,60.6977],[17.2831,60.7812],[17.1582,60.9484],[17.2127,61.2353],[17.104,61.3994],[17.177,61.4869],[17.0972,61.6361],[17.3992,61.7224],[17.3442,61.9241],[17.4985,62.1476]]]}},{"type":"Feature","properties":{"sourceId":"1159308737","regionId":"region.9c7eb5a5-8a1d-4fdb-941e-1d2304f89e28","countryId":"country.1ga7ffb"},"geometry":{"type":"Polygon","coordinates":[[[17.3766,60.6239],[17.2175,60.3847],[17.2262,60.3096],[17.3857,60.2013],[17.2108,60.0421],[17.1806,59.8847],[17.0504,59.8391],[16.8589,59.8844],[16.7968,59.7849],[16.9664,59.5321],[17.2448,59.5003],[17.4445,59.3853],[17.5938,59.5796],[17.5817,59.6662],[18.009,59.7516],[18.39,59.882],[18.5545,60.1214],[18.4199,60.1935],[18.428,60.3488],[18.2775,60.3494],[17.9675,60.5189],[17.9186,60.6002],[17.6382,60.5154],[17.575,60.6479],[17.3766,60.6239]]]}},{"type":"Feature","properties":{"sourceId":"1159308733","regionId":"region.45974659-90f0-4c3f-a779-aecb384be941","countryId":"country.1ga7ffb"},"geometry":{"type":"Polygon","coordinates":[[[18.5545,60.1214],[18.39,59.882],[18.009,59.7516],[17.5817,59.6662],[17.5938,59.5796],[17.4445,59.3853],[17.2853,59.2272],[17.386,58.9983],[17.5863,58.9649],[17.9307,58.9101],[18.0432,59.0597],[18.3926,59.1758],[18.0425,59.3974],[18.2769,59.4226],[18.6865,59.6058],[18.8616,59.803],[19.0716,59.8963],[18.9031,59.9472],[18.8245,60.0683],[18.5545,60.1214]]]}},{"type":"Feature","properties":{"sourceId":"1159308759","regionId":"region.9d3d1ad4-f821-4f36-a26d-9cc50506a5c2","countryId":"country.1ga7ffb"},"geometry":{"type":"Polygon","coordinates":[[[17.5863,58.9649],[17.386,58.9983],[17.2853,59.2272],[17.4445,59.3853],[17.2448,59.5003],[16.9664,59.5321],[16.2871,59.4537],[16.2773,59.3752],[16.0046,59.3586],[15.7786,59.2062],[15.8042,59.1222],[15.6399,59.0365],[15.7236,58.9845],[15.8483,59.0099],[16.2981,58.8239],[16.4533,58.6922],[16.7814,58.6345],[17.093,58.6608],[17.4597,58.7914],[17.6267,58.9178],[17.5863,58.9649]]]}},{"type":"Feature","properties":{"sourceId":"1159308727","regionId":"region.d8a3cd37-f541-4e3c-8fc9-04244577f5b0","countryId":"country.1ga7ffb"},"geometry":{"type":"Polygon","coordinates":[[[16.7814,58.6345],[16.4533,58.6922],[16.2981,58.8239],[15.8483,59.0099],[15.7236,58.9845],[15.5394,58.874],[15.2793,58.8454],[15.0113,58.6993],[14.8115,58.6455],[14.4286,58.2244],[14.5978,58.1119],[14.835,58.0949],[14.9928,58.1551],[15.0987,58.0094],[15.0247,57.9141],[15.1535,57.7403],[15.4431,57.7116],[15.634,57.846],[15.9308,57.8192],[16.0416,57.8629],[16.0762,57.9758],[16.3015,58.1243],[16.5966,58.0785],[16.6869,57.9892],[16.8213,58.2071],[16.7205,58.4365],[16.8659,58.4831],[16.7814,58.6345]]]}},{"type":"Feature","properties":{"sourceId":"1159308723","regionId":"region.e368969e-76ea-40ba-b6a1-f0265e703205","countryId":"country.1ga7ffb"},"geometry":{"type":"MultiPolygon","coordinates":[[[[16.6869,57.9892],[16.5966,58.0785],[16.3015,58.1243],[16.0762,57.9758],[16.0416,57.8629],[15.9308,57.8192],[15.634,57.846],[15.4431,57.7116],[15.6631,57.6027],[15.6295,57.4614],[15.5275,57.4401],[15.4954,57.3016],[15.5508,57.2114],[15.8056,57.0205],[15.7826,56.9081],[15.5283,56.9033],[15.5595,56.8244],[15.3924,56.7572],[15.419,56.6777],[15.363,56.4821],[15.5973,56.5017],[15.8002,56.3749],[16.0662,56.3359],[16.2552,56.6504],[16.4681,56.9493],[16.5525,57.1101],[16.465,57.1773],[16.5348,57.3603],[16.689,57.4717],[16.6106,57.6824],[16.6755,57.7645],[16.4603,57.8947],[16.6869,57.9892]]],[[[17.1245,57.3193],[16.9665,57.3046],[16.8884,57.1182],[16.7168,56.8918],[16.6209,56.8723],[16.3989,56.5447],[16.4126,56.2293],[16.5664,56.3461],[16.6432,56.5684],[16.7816,56.8106],[16.8831,56.9162],[17.1245,57.3193]]]]}},{"type":"Feature","properties":{"sourceId":"1159308721","regionId":"region.bc2fbf0a-d52e-4b24-92df-a9aa413cb46b","countryId":"country.1ga7ffb"},"geometry":{"type":"Polygon","coordinates":[[[16.0662,56.3359],[15.8002,56.3749],[15.5973,56.5017],[15.363,56.4821],[14.9957,56.4474],[14.9152,56.3819],[14.7251,56.402],[14.5407,56.4775],[14.4135,56.3464],[14.587,56.1547],[14.5534,56.054],[14.6858,56.1474],[15.4929,56.1763],[15.5728,56.2063],[15.8517,56.0864],[16.0383,56.2551],[16.0662,56.3359]]]}},{"type":"Feature","properties":{"sourceId":"1159315465","regionId":"region.4b3a6533-d1bf-4a44-8d14-dfd2cb5aa118","countryId":"country.1ga7ffb"},"geometry":{"type":"Polygon","coordinates":[[[14.5534,56.054],[14.587,56.1547],[14.4135,56.3464],[14.5407,56.4775],[14.0947,56.5412],[13.9933,56.4792],[13.5014,56.4238],[13.2306,56.3428],[13.0165,56.3707],[12.9109,56.4744],[12.6216,56.4193],[12.8335,56.2657],[12.6095,56.1165],[12.9226,55.7495],[13.0614,55.6745],[12.9294,55.5789],[13,55.4001],[13.3814,55.346],[13.6296,55.4183],[13.8823,55.4331],[14.1812,55.3908],[14.363,55.5236],[14.1958,55.7257],[14.2085,55.8213],[14.3464,55.9533],[14.5534,56.054]]]}},{"type":"Feature","properties":{"sourceId":"1159308763","regionId":"region.c24b7978-d03a-4a2c-a2cd-2613b3ad39fc","countryId":"country.1ga7ffb"},"geometry":{"type":"Polygon","coordinates":[[[12.9109,56.4744],[13.0165,56.3707],[13.2306,56.3428],[13.5014,56.4238],[13.4488,56.5591],[13.3082,56.7019],[13.3521,56.8676],[13.6218,56.9068],[13.6937,56.9834],[13.5924,57.0678],[13.3947,57.1206],[13.2395,57.0975],[13.1166,57.157],[12.9532,57.1996],[12.9444,57.2775],[12.5946,57.3506],[12.4155,57.4359],[12.3019,57.6164],[11.9128,57.5829],[11.9448,57.4899],[12.1087,57.3944],[12.2044,57.1479],[12.375,56.9121],[12.5983,56.821],[12.7318,56.647],[12.8718,56.6495],[12.9109,56.4744]]]}},{"type":"Feature","properties":{"sourceId":"1159308725","regionId":"region.1f27d76a-f986-45f4-9383-6cf83f25b35a","countryId":"country.1ga7ffb"},"geometry":{"type":"Polygon","coordinates":[[[19.0402,57.8679],[18.4631,57.8032],[18.112,57.5111],[18.1792,57.3795],[18.0994,57.259],[18.228,57.1337],[18.2039,56.9152],[18.3584,56.9897],[18.4312,57.1543],[18.7141,57.2429],[18.7702,57.3645],[18.8103,57.7097],[18.9413,57.7296],[19.0402,57.8679]]]}},{"type":"Feature","properties":{"sourceId":"1159308761","regionId":"region.31a7907d-7810-458d-858f-65f6a3d17d26","countryId":"country.1ga7ffb"},"geometry":{"type":"Polygon","coordinates":[[[16.9664,59.5321],[16.7968,59.7849],[16.8589,59.8844],[17.0504,59.8391],[17.1806,59.8847],[17.2108,60.0421],[17.3857,60.2013],[17.2262,60.3096],[16.9815,60.2969],[16.7174,60.2159],[16.32,60.0776],[15.9749,60.1892],[15.7497,60.1468],[15.6824,59.9693],[15.4547,59.8832],[15.579,59.741],[15.7522,59.4406],[15.6333,59.2934],[15.7786,59.2062],[16.0046,59.3586],[16.2773,59.3752],[16.2871,59.4537],[16.9664,59.5321]]]}},{"type":"Feature","properties":{"sourceId":"1159308751","regionId":"region.d66d77e4-9675-4b33-86f9-d9bd47974f35","countryId":"country.1ga7ffb"},"geometry":{"type":"Polygon","coordinates":[[[13.1166,57.157],[13.2395,57.0975],[13.3947,57.1206],[13.5924,57.0678],[13.6937,56.9834],[14.0653,57.0502],[14.2335,56.9174],[14.3931,56.9553],[14.3819,57.1424],[14.8087,57.2278],[14.9509,57.1525],[15.2332,57.2345],[15.5508,57.2114],[15.4954,57.3016],[15.5275,57.4401],[15.6295,57.4614],[15.6631,57.6027],[15.4431,57.7116],[15.1535,57.7403],[15.0247,57.9141],[15.0987,58.0094],[14.9928,58.1551],[14.835,58.0949],[14.5978,58.1119],[14.4286,58.2244],[14.2371,58.0015],[14.212,57.9159],[14.045,57.8643],[13.7506,57.8531],[13.6827,57.5651],[13.5423,57.4358],[13.3151,57.317],[13.1166,57.157]]]}},{"type":"Feature","properties":{"sourceId":"1159308757","regionId":"region.0255be9b-0f13-4493-b5bc-31ab9f1e5d9e","countryId":"country.1ga7ffb"},"geometry":{"type":"Polygon","coordinates":[[[14.4511,60.0366],[14.4182,59.9257],[14.4688,59.4982],[14.3299,59.3005],[14.3126,59.0163],[14.5206,58.728],[14.6953,58.7341],[14.8115,58.6455],[15.0113,58.6993],[15.2793,58.8454],[15.5394,58.874],[15.7236,58.9845],[15.6399,59.0365],[15.8042,59.1222],[15.7786,59.2062],[15.6333,59.2934],[15.7522,59.4406],[15.579,59.741],[15.4547,59.8832],[15.2384,60.0156],[14.7692,60.0985],[14.7174,60.018],[14.4511,60.0366]]]}},{"type":"Feature","properties":{"sourceId":"1159308755","regionId":"region.a25d492a-558c-4467-9e9a-5fb37c67ccb8","countryId":"country.1ga7ffb"},"geometry":{"type":"Polygon","coordinates":[[[13.5014,56.4238],[13.9933,56.4792],[14.0947,56.5412],[14.5407,56.4775],[14.7251,56.402],[14.9152,56.3819],[14.9957,56.4474],[15.363,56.4821],[15.419,56.6777],[15.3924,56.7572],[15.5595,56.8244],[15.5283,56.9033],[15.7826,56.9081],[15.8056,57.0205],[15.5508,57.2114],[15.2332,57.2345],[14.9509,57.1525],[14.8087,57.2278],[14.3819,57.1424],[14.3931,56.9553],[14.2335,56.9174],[14.0653,57.0502],[13.6937,56.9834],[13.6218,56.9068],[13.3521,56.8676],[13.3082,56.7019],[13.4488,56.5591],[13.5014,56.4238]]]}}]}