{"type":"FeatureCollection","features":[{"type":"Feature","properties":{"sourceId":"1159311751","regionId":"region.29331d69-83ec-4ac4-b5b7-2e9c5bf3c52a","countryId":"country.1rdien2"},"geometry":{"type":"MultiPolygon","coordinates":[[[[92.641,21.3086],[92.5902,21.4955],[92.5759,21.9776],[92.5373,22.1286],[92.577,22.1687],[92.4959,22.6956],[92.3787,22.9004],[92.3276,23.1714],[92.3569,23.2891],[92.2528,23.6093],[92.2597,23.7026],[92.1508,23.7317],[92.0035,23.6474],[91.9144,23.6883],[91.9408,23.4952],[91.7916,23.3683],[91.7437,23.2723],[91.7956,23.0895],[91.6947,22.9881],[91.5366,22.9819],[91.4636,23.1841],[91.3005,23.1423],[91.2273,23.4688],[91.1408,23.6121],[91.2163,23.9084],[91.3084,23.9925],[91.2871,24.2056],[91.1534,24.2564],[91.0071,24.1415],[90.9524,23.9232],[90.7562,23.8465],[90.7251,23.7155],[90.7676,23.6178],[90.7023,23.5548],[90.6003,23.4499],[90.6673,23.2676],[90.6272,23.0867],[90.7175,22.9406],[90.7742,22.7781],[90.9549,22.5758],[91.1273,22.527],[91.2027,22.5432],[91.2434,22.7022],[91.4563,22.7848],[91.676,22.5346],[91.7437,22.4111],[91.7717,22.2603],[91.8552,22.1092],[91.9157,21.8625],[91.9087,21.7812],[91.9666,21.7789],[91.9497,21.716],[92.0221,21.5994],[91.9597,21.424],[92.0453,21.2995],[92.0525,21.1548],[92.1929,20.9957],[92.2651,21.0611],[92.175,21.1756],[92.1837,21.3172],[92.2363,21.4171],[92.3227,21.4619],[92.4231,21.3637],[92.641,21.3086]]],[[[91.9356,21.76],[91.863,21.7456],[91.8479,21.6888],[91.8711,21.5477],[91.9839,21.6092],[91.9356,21.76]]],[[[91.1488,22.3571],[91.0748,22.3886],[91.0633,22.0898],[91.1868,22.2278],[91.1488,22.3571]]]]}},{"type":"Feature","properties":{"sourceId":"1159311793","regionId":"region.ab3edeb8-7405-4851-9867-e51fd56c415c","countryId":"country.1rdien2"},"geometry":{"type":"Polygon","coordinates":[[[92.15,24.5422],[92.2338,24.7775],[92.2522,24.903],[92.3807,24.8367],[92.4838,24.9282],[92.3849,25.0048],[92.3035,25.0743],[92.0018,25.183],[91.5661,25.16],[91.471,25.1339],[91.2357,25.2019],[90.9348,25.1564],[90.9124,24.9789],[90.9777,24.8806],[91.1253,24.8801],[91.1483,24.6996],[91.2229,24.6742],[91.1887,24.4911],[91.2488,24.3792],[91.1534,24.2564],[91.2871,24.2056],[91.3084,23.9925],[91.363,24.0998],[91.5965,24.105],[91.9059,24.2606],[91.95,24.3754],[92.1076,24.406],[92.15,24.5422]]]}},{"type":"Feature","properties":{"sourceId":"1159311761","regionId":"region.1439cf82-3326-4de3-8bb5-6409cdb6231c","countryId":"country.1rdien2"},"geometry":{"type":"Polygon","coordinates":[[[89.7992,25.4029],[89.7368,25.3278],[89.6815,25.1595],[89.6533,24.9689],[89.7011,24.8082],[89.7911,24.7379],[89.7657,24.5619],[89.7557,24.2745],[89.8325,24.1662],[89.8001,24.0559],[89.7022,23.98],[89.6981,23.8542],[89.5559,23.8149],[89.3449,23.9207],[89.3085,23.7293],[89.4213,23.6745],[89.5989,23.4732],[89.6981,23.097],[89.8284,22.9392],[89.9288,22.8702],[89.9812,22.8791],[90.1435,23.0628],[90.2745,22.9736],[90.3598,23.0645],[90.4501,23.0493],[90.5991,23.1175],[90.5691,23.295],[90.4285,23.3261],[90.2588,23.4446],[90.5537,23.4007],[90.6034,23.4947],[90.7023,23.5548],[90.7676,23.6178],[90.7251,23.7155],[90.7562,23.8465],[90.9524,23.9232],[91.0071,24.1415],[91.1534,24.2564],[91.2488,24.3792],[91.1887,24.4911],[91.2229,24.6742],[91.1483,24.6996],[91.1253,24.8801],[90.9777,24.8806],[90.9124,24.9789],[90.9348,25.1564],[90.5014,25.1688],[90.3646,25.15],[90.1301,25.2116],[89.9081,25.2969],[89.8074,25.3045],[89.7992,25.4029]]]}},{"type":"Feature","properties":{"sourceId":"1159317129","regionId":"region.d6c92d4b-de7c-43f8-ab94-a40d1e3b9b1c","countryId":"country.1rdien2"},"geometry":{"type":"Polygon","coordinates":[[[89.8086,25.4395],[89.8344,25.6348],[89.7831,25.8144],[89.8301,25.908],[89.7065,26.1542],[89.6578,26.1872],[89.5628,26.1426],[89.6029,26.0553],[89.4806,25.9992],[89.3515,25.9969],[89.1316,26.1338],[89.0437,26.3811],[88.9502,26.4369],[88.8919,26.3688],[88.9027,26.2729],[88.808,26.2334],[88.6563,26.4151],[88.3528,26.5787],[88.3536,26.4846],[88.4611,26.4539],[88.4955,26.3781],[88.3668,26.3134],[88.3087,26.2061],[88.1638,26.1405],[88.0744,25.9081],[88.1277,25.7749],[88.2275,25.8043],[88.4194,25.6538],[88.5303,25.5002],[88.6454,25.4673],[88.7723,25.502],[88.842,25.3328],[88.9753,25.3026],[89.2235,25.2903],[89.3506,25.2076],[89.5064,25.1663],[89.6815,25.1595],[89.7368,25.3278],[89.7992,25.4029],[89.8086,25.4395]]]}},{"type":"Feature","properties":{"sourceId":"1159314011","regionId":"region.c35fedee-0dea-4ee9-930b-5d997d44ab33","countryId":"country.1rdien2"},"geometry":{"type":"Polygon","coordinates":[[[88.7315,24.1898],[88.843,24.1233],[88.9771,24.156],[89.1164,23.9559],[89.3449,23.9207],[89.5559,23.8149],[89.6981,23.8542],[89.7022,23.98],[89.8001,24.0559],[89.8325,24.1662],[89.7557,24.2745],[89.7657,24.5619],[89.7911,24.7379],[89.7011,24.8082],[89.6533,24.9689],[89.6815,25.1595],[89.5064,25.1663],[89.3506,25.2076],[89.2235,25.2903],[88.9753,25.3026],[88.8986,25.1693],[88.5991,25.1931],[88.4315,25.173],[88.4258,25.0511],[88.3228,24.8747],[88.2025,24.9453],[88.0218,24.6456],[88.1388,24.4953],[88.4754,24.3155],[88.7375,24.2871],[88.7315,24.1898]]]}},{"type":"Feature","properties":{"sourceId":"1159311755","regionId":"region.6c3eb68a-8b74-4c0c-9bfc-527ee83df744","countryId":"country.1rdien2"},"geometry":{"type":"Polygon","coordinates":[[[89.0604,22.1299],[89.1047,21.8159],[89.1897,21.7912],[89.3659,21.8289],[89.4658,21.7813],[89.6682,21.7509],[89.6498,21.8264],[89.8142,21.8408],[89.8872,21.9001],[89.8359,22.0495],[89.8743,22.1088],[89.8387,22.2678],[89.9795,22.4701],[89.8934,22.716],[89.9288,22.8702],[89.8284,22.9392],[89.6981,23.097],[89.5989,23.4732],[89.4213,23.6745],[89.3085,23.7293],[89.3449,23.9207],[89.1164,23.9559],[88.9771,24.156],[88.843,24.1233],[88.7315,24.1898],[88.6741,24.0826],[88.7142,23.9252],[88.5936,23.8669],[88.5401,23.65],[88.7194,23.4681],[88.6859,23.2933],[88.9547,23.1838],[88.8513,23.0751],[88.8428,22.9646],[88.9445,22.848],[88.9081,22.7408],[88.9896,22.3869],[89.0623,22.2116],[89.0604,22.1299]]]}},{"type":"Feature","properties":{"sourceId":"1159311757","regionId":"region.fc3670fe-61ae-4efc-908b-5f340648a26c","countryId":"country.1rdien2"},"geometry":{"type":"MultiPolygon","coordinates":[[[[90.4501,23.0493],[90.3598,23.0645],[90.2745,22.9736],[90.1435,23.0628],[89.9812,22.8791],[89.9288,22.8702],[89.8934,22.716],[89.9795,22.4701],[89.8804,22.2882],[89.9344,21.9977],[90.0524,21.989],[90.0244,21.8625],[90.1848,21.801],[90.2727,21.8574],[90.3322,22.0381],[90.4596,22.0919],[90.6135,22.3149],[90.6066,22.4658],[90.5127,22.6115],[90.4899,22.7202],[90.4064,22.7631],[90.507,22.9421],[90.4501,23.0493]]],[[[90.7906,22.4953],[90.6715,22.7224],[90.5786,22.757],[90.5588,22.6029],[90.6475,22.5483],[90.688,22.3776],[90.6035,22.044],[90.6577,21.9929],[90.7748,22.0759],[90.8362,22.1782],[90.855,22.4347],[90.7906,22.4953]]]]}}]}