{"type":"FeatureCollection","features":[{"type":"Feature","properties":{"sourceId":"1159309961","regionId":"region.a8e51774-0cc6-4826-8d6b-cddceafb8daf","countryId":"country.13l0w18"},"geometry":{"type":"Polygon","coordinates":[[[-78.8287,1.4343],[-78.8323,1.3813],[-78.9578,1.1634],[-79.0718,1.2095],[-79.1473,1.1096],[-79.2482,1.0803],[-79.4565,1.0725],[-79.5718,0.9837],[-79.7656,0.9551],[-79.8622,0.8764],[-80.0758,0.8161],[-80.1086,0.7381],[-80.0364,0.6252],[-80.0434,0.5012],[-79.9995,0.3451],[-79.9612,0.2661],[-79.7411,0.3741],[-79.659,0.2681],[-79.7023,0.1937],[-79.568,0.1132],[-79.5955,-0.0136],[-79.493,-0.0256],[-79.3638,0.0469],[-79.3071,0.1856],[-79.3467,0.2393],[-79.2219,0.3156],[-79.0107,0.2674],[-78.86,0.4228],[-78.6754,0.3721],[-78.5392,0.5151],[-78.4263,0.5585],[-78.5112,0.7509],[-78.4421,0.8719],[-78.5235,0.9284],[-78.5306,1.0214],[-78.4781,1.1871],[-78.5701,1.1958],[-78.8287,1.4343]]]}},{"type":"Feature","properties":{"sourceId":"1159309963","regionId":"region.2b94abc4-23ac-4286-b6ab-132d287fda68","countryId":"country.13l0w18"},"geometry":{"type":"Polygon","coordinates":[[[-78.4781,1.1871],[-78.5306,1.0214],[-78.5235,0.9284],[-78.4421,0.8719],[-78.289,0.8018],[-78.1686,0.6514],[-78.1308,0.5056],[-78.0005,0.4687],[-77.8141,0.3457],[-77.7893,0.4225],[-77.6517,0.5933],[-77.5141,0.6605],[-77.5798,0.6709],[-77.7279,0.8433],[-77.848,0.8093],[-77.9085,0.8642],[-78.12,0.9212],[-78.3728,1.0738],[-78.4781,1.1871]]]}},{"type":"Feature","properties":{"sourceId":"1159309967","regionId":"region.a6244515-29a9-44a3-b7c2-22d7b632b3c9","countryId":"country.13l0w18"},"geometry":{"type":"Polygon","coordinates":[[[-77.1039,0.3541],[-77.2069,0.3342],[-77.4244,0.4083],[-77.4681,0.6509],[-77.5141,0.6605],[-77.6517,0.5933],[-77.7893,0.4225],[-77.8141,0.3457],[-77.8355,0.2692],[-77.9454,0.1613],[-77.8327,0.0319],[-77.7721,-0.0662],[-77.589,-0.1],[-77.459,-0.0261],[-77.4465,-0.1248],[-77.3627,-0.1408],[-77.2994,-0.0585],[-77.186,-0.0928],[-76.9175,-0.0786],[-76.7141,-0.3419],[-76.4102,-0.5103],[-76.2744,-0.4431],[-76.1028,-0.4419],[-76.0835,-0.4948],[-75.9372,-0.5617],[-75.951,-0.4493],[-75.7483,-0.4226],[-75.398,-0.5691],[-75.2666,-0.6427],[-75.272,-0.5257],[-75.4342,-0.403],[-75.4848,-0.2477],[-75.4553,-0.1612],[-75.2835,-0.107],[-75.4214,-0.0622],[-75.6467,0.0854],[-75.7897,0.0844],[-75.9271,0.181],[-76.0535,0.3635],[-76.3116,0.4585],[-76.4159,0.3954],[-76.408,0.2545],[-76.5843,0.2226],[-76.7369,0.2729],[-76.8968,0.2453],[-77.1039,0.3541]]]}},{"type":"Feature","properties":{"sourceId":"1159309995","regionId":"region.4b8df201-f17b-4fab-b0b5-36fda77bb1c0","countryId":"country.13l0w18"},"geometry":{"type":"Polygon","coordinates":[[[-75.2666,-0.6427],[-75.398,-0.5691],[-75.7483,-0.4226],[-75.951,-0.4493],[-75.9372,-0.5617],[-76.0835,-0.4948],[-76.1028,-0.4419],[-76.2744,-0.4431],[-76.4102,-0.5103],[-76.7141,-0.3419],[-76.9175,-0.0786],[-77.186,-0.0928],[-77.2994,-0.0585],[-77.2732,-0.3604],[-77.395,-0.4969],[-77.5515,-0.458],[-77.6202,-0.5366],[-77.5097,-0.6557],[-77.5285,-0.8412],[-77.4992,-0.9453],[-77.2471,-0.8296],[-77.0417,-0.9204],[-77.0516,-1.0104],[-77.0453,-1.0994],[-76.8679,-1.1574],[-76.7609,-1.0979],[-76.5623,-1.0464],[-76.4637,-1.2513],[-76.2453,-1.2821],[-76.0635,-1.2761],[-75.9502,-1.3445],[-75.7475,-1.4053],[-75.5807,-1.5466],[-75.56,-1.5026],[-75.4126,-0.9239],[-75.3487,-0.975],[-75.2273,-0.9698],[-75.297,-0.747],[-75.2666,-0.6427]]]}},{"type":"Feature","properties":{"sourceId":"1159309999","regionId":"region.e128af33-fac9-4a90-8cfd-6fd210ef6adc","countryId":"country.13l0w18"},"geometry":{"type":"Polygon","coordinates":[[[-75.5807,-1.5466],[-75.7475,-1.4053],[-75.9502,-1.3445],[-76.0635,-1.2761],[-76.2453,-1.2821],[-76.4637,-1.2513],[-76.5623,-1.0464],[-76.7609,-1.0979],[-76.8679,-1.1574],[-77.0453,-1.0994],[-77.0516,-1.0104],[-77.2338,-1.0245],[-77.5471,-1.1357],[-77.6956,-1.1517],[-77.846,-1.2247],[-78.1165,-1.2333],[-78.1142,-1.3426],[-78.1726,-1.447],[-78.0698,-1.5207],[-78.0211,-1.6558],[-77.9141,-1.6681],[-77.8383,-1.9128],[-77.7235,-2.011],[-77.3843,-2.1543],[-77.1231,-2.3137],[-77.0171,-2.4772],[-76.9183,-2.5404],[-76.6697,-2.5646],[-76.0912,-2.1289],[-75.6515,-1.6167],[-75.5807,-1.5466]]]}},{"type":"Feature","properties":{"sourceId":"1159309993","regionId":"region.d00e8208-2e15-4638-a098-b0827339174f","countryId":"country.13l0w18"},"geometry":{"type":"Polygon","coordinates":[[[-76.6697,-2.5646],[-76.9183,-2.5404],[-77.0171,-2.4772],[-77.1231,-2.3137],[-77.3843,-2.1543],[-77.7235,-2.011],[-77.8383,-1.9128],[-77.9141,-1.6681],[-78.0211,-1.6558],[-78.0698,-1.5207],[-78.1726,-1.447],[-78.3534,-1.5264],[-78.3594,-1.6217],[-78.4502,-1.7173],[-78.4183,-1.8675],[-78.4895,-1.9648],[-78.4458,-2.0752],[-78.5032,-2.2183],[-78.5799,-2.3115],[-78.4812,-2.3807],[-78.4937,-2.5133],[-78.5491,-2.5629],[-78.4368,-2.6453],[-78.5476,-2.7018],[-78.576,-2.8536],[-78.6717,-3.0908],[-78.9376,-3.2878],[-78.939,-3.3227],[-78.856,-3.3817],[-78.8222,-3.547],[-78.3759,-3.5293],[-78.334,-3.3845],[-78.1964,-3.3637],[-77.9415,-3.0545],[-77.8104,-2.9671],[-76.6697,-2.5646]]]}},{"type":"Feature","properties":{"sourceId":"1159309977","regionId":"region.8179bdd8-882a-43af-9401-bfafae7aee6b","countryId":"country.13l0w18"},"geometry":{"type":"Polygon","coordinates":[[[-78.3759,-3.5293],[-78.8222,-3.547],[-78.856,-3.3817],[-78.939,-3.3227],[-79.0461,-3.3992],[-79.0502,-3.5521],[-79.1022,-3.636],[-79.1936,-3.731],[-79.1192,-3.8831],[-79.1495,-4.1513],[-79.1062,-4.1901],[-79.1135,-4.408],[-79.2051,-4.503],[-79.3184,-4.5134],[-79.3316,-4.6082],[-79.4608,-4.7705],[-79.3032,-4.9612],[-79.2337,-4.9656],[-79.0093,-4.9601],[-78.9803,-4.874],[-78.9002,-4.8437],[-78.9286,-4.7475],[-78.8531,-4.6523],[-78.7089,-4.5851],[-78.6372,-4.4351],[-78.6824,-4.3269],[-78.5766,-4.1001],[-78.5669,-3.9962],[-78.5018,-3.9537],[-78.3759,-3.5293]]]}},{"type":"Feature","properties":{"sourceId":"1159309975","regionId":"region.18bdafef-4d8b-4fbf-bda0-a43791e5bc6c","countryId":"country.13l0w18"},"geometry":{"type":"Polygon","coordinates":[[[-80.1651,-3.8807],[-80.3046,-4.0052],[-80.4811,-3.9988],[-80.5123,-4.065],[-80.4696,-4.2132],[-80.3563,-4.2206],[-80.4885,-4.396],[-80.4085,-4.4775],[-80.2397,-4.3698],[-80.205,-4.2982],[-80.0797,-4.309],[-79.9041,-4.3986],[-79.7957,-4.4847],[-79.658,-4.4387],[-79.5072,-4.5316],[-79.5279,-4.6181],[-79.4608,-4.7705],[-79.3316,-4.6082],[-79.3184,-4.5134],[-79.2051,-4.503],[-79.1135,-4.408],[-79.1062,-4.1901],[-79.1495,-4.1513],[-79.1192,-3.8831],[-79.1936,-3.731],[-79.1022,-3.636],[-79.1788,-3.4482],[-79.2565,-3.4607],[-79.3295,-3.3409],[-79.4578,-3.328],[-79.4617,-3.5007],[-79.3725,-3.6841],[-79.4153,-3.7934],[-79.5718,-3.7901],[-79.7054,-3.8209],[-79.9542,-3.8339],[-80.1651,-3.8807]]]}},{"type":"Feature","properties":{"sourceId":"1159309973","regionId":"region.b8dbd521-0a2c-4963-9473-5077c5342285","countryId":"country.13l0w18"},"geometry":{"type":"Polygon","coordinates":[[[-80.1651,-3.8807],[-79.9542,-3.8339],[-79.7054,-3.8209],[-79.5718,-3.7901],[-79.4153,-3.7934],[-79.3725,-3.6841],[-79.4617,-3.5007],[-79.4578,-3.328],[-79.65,-3.3288],[-79.6004,-3.1617],[-79.7605,-3.0647],[-79.8959,-3.0454],[-79.9532,-3.1974],[-80.0705,-3.2182],[-80.1356,-3.3276],[-80.3407,-3.3935],[-80.2164,-3.6316],[-80.2216,-3.7694],[-80.1651,-3.8807]]]}},{"type":"Feature","properties":{"sourceId":"1159309903","regionId":"region.ec3fb2a2-a2e9-4e98-b19d-1c4af97eac84","countryId":"country.13l0w18"},"geometry":{"type":"MultiPolygon","coordinates":[[[[-80.0599,-2.6628],[-80.2107,-2.7249],[-80.2622,-2.8408],[-80.2659,-3.0185],[-80.131,-3.0209],[-79.9458,-2.7066],[-80.0599,-2.6628]]],[[[-79.8959,-3.0454],[-79.7605,-3.0647],[-79.6948,-2.9571],[-79.6906,-2.8257],[-79.4248,-2.5553],[-79.4374,-2.4971],[-79.4257,-2.3607],[-79.235,-2.2818],[-79.1301,-2.2037],[-79.2355,-2.1543],[-79.3608,-1.9831],[-79.502,-1.8877],[-79.6495,-1.9065],[-79.7732,-1.6833],[-79.8554,-1.6407],[-79.8473,-1.3991],[-79.7383,-1.1848],[-79.5756,-1.0403],[-79.5171,-0.8605],[-79.6196,-0.8502],[-79.7224,-0.8812],[-79.8531,-1.0883],[-79.9931,-1.1288],[-80.0433,-1.2718],[-80.1858,-1.4231],[-80.235,-1.6849],[-80.3209,-1.6836],[-80.4456,-1.839],[-80.5161,-1.8408],[-80.4783,-1.9312],[-80.3474,-1.9816],[-80.2134,-2.1103],[-80.232,-2.2998],[-80.2765,-2.3679],[-80.4108,-2.4167],[-80.5427,-2.5298],[-80.4679,-2.6179],[-80.3205,-2.7106],[-80.1751,-2.5867],[-80.0689,-2.5608],[-79.9235,-2.5739],[-79.8395,-2.377],[-79.7251,-2.5698],[-79.8346,-2.8068],[-79.8959,-3.0454]]]]}},{"type":"Feature","properties":{"sourceId":"1159309933","regionId":"region.3400e9b1-66ab-4903-b873-6f5b1b4710dd","countryId":"country.13l0w18"},"geometry":{"type":"MultiPolygon","coordinates":[[[[-90.3807,-1.2545],[-90.4719,-1.2167],[-90.524,-1.3059],[-90.3993,-1.3259],[-90.3807,-1.2545]]],[[[-89.3081,-0.6856],[-89.4132,-0.7135],[-89.4889,-0.8082],[-89.6314,-0.9167],[-89.5543,-0.9537],[-89.4347,-0.9293],[-89.2548,-0.7192],[-89.3081,-0.6856]]],[[[-90.192,-0.5383],[-90.247,-0.4928],[-90.4877,-0.5255],[-90.5445,-0.6816],[-90.4289,-0.7625],[-90.3371,-0.777],[-90.1988,-0.6816],[-90.192,-0.5383]]],[[[-91.4011,-0.4529],[-91.3995,-0.3079],[-91.4742,-0.2493],[-91.6686,-0.2849],[-91.6437,-0.4036],[-91.5076,-0.4904],[-91.4011,-0.4529]]],[[[-90.565,-0.2849],[-90.6325,-0.2013],[-90.8104,-0.1513],[-90.8489,-0.2756],[-90.7401,-0.3539],[-90.5868,-0.3637],[-90.565,-0.2849]]],[[[-90.8114,-0.7306],[-90.956,-0.6071],[-90.9623,-0.442],[-91.1241,-0.2996],[-91.1846,-0.211],[-91.2093,-0.0107],[-91.3806,0.147],[-91.6044,0.0015],[-91.5455,-0.0479],[-91.4233,-0.0286],[-91.352,-0.3072],[-91.2357,-0.3864],[-91.2089,-0.4846],[-91.0942,-0.5694],[-91.1681,-0.6827],[-91.2348,-0.6619],[-91.4359,-0.7784],[-91.5023,-0.8963],[-91.3997,-1.0185],[-91.1598,-1.0302],[-91.0131,-0.9687],[-90.9287,-0.9703],[-90.8114,-0.7306]]]]}},{"type":"Feature","properties":{"sourceId":"1159317163","regionId":"region.7ea39f39-16cb-48ab-aafd-bb197b88673a","countryId":"country.13l0w18"},"geometry":{"type":"Polygon","coordinates":[[[-80.5427,-2.5298],[-80.4108,-2.4167],[-80.2765,-2.3679],[-80.232,-2.2998],[-80.2134,-2.1103],[-80.3474,-1.9816],[-80.4783,-1.9312],[-80.5161,-1.8408],[-80.5774,-1.6597],[-80.8182,-1.677],[-80.733,-1.904],[-80.745,-2.1029],[-80.9512,-2.2376],[-80.9136,-2.3188],[-80.6566,-2.4158],[-80.5427,-2.5298]]]}},{"type":"Feature","properties":{"sourceId":"1159309987","regionId":"region.b2034b3a-bfc9-463f-8d53-7f896e6f7870","countryId":"country.13l0w18"},"geometry":{"type":"Polygon","coordinates":[[[-80.8182,-1.677],[-80.5774,-1.6597],[-80.5161,-1.8408],[-80.4456,-1.839],[-80.3209,-1.6836],[-80.235,-1.6849],[-80.1858,-1.4231],[-80.0433,-1.2718],[-79.9931,-1.1288],[-79.8531,-1.0883],[-79.7224,-0.8812],[-79.6196,-0.8502],[-79.48,-0.5437],[-79.4069,-0.3834],[-79.413,-0.2048],[-79.5988,-0.0718],[-79.5955,-0.0136],[-79.568,0.1132],[-79.7023,0.1937],[-79.659,0.2681],[-79.7411,0.3741],[-79.9612,0.2661],[-79.9995,0.3451],[-80.0485,0.3183],[-80.037,0.176],[-80.0665,0.0522],[-80.2318,-0.1397],[-80.3712,-0.2228],[-80.4965,-0.3814],[-80.422,-0.5996],[-80.5159,-0.7421],[-80.5472,-0.8885],[-80.6163,-0.9414],[-80.8164,-0.9463],[-80.9162,-1.0655],[-80.8336,-1.2312],[-80.7443,-1.3438],[-80.7709,-1.4778],[-80.8516,-1.5769],[-80.8182,-1.677]]]}},{"type":"Feature","properties":{"sourceId":"1159309969","regionId":"region.3c2aba38-aec4-4bda-8f1b-e48fd1abd323","countryId":"country.13l0w18"},"geometry":{"type":"Polygon","coordinates":[[[-79.4374,-2.4971],[-79.4248,-2.5553],[-79.6906,-2.8257],[-79.6948,-2.9571],[-79.7605,-3.0647],[-79.6004,-3.1617],[-79.65,-3.3288],[-79.4578,-3.328],[-79.3295,-3.3409],[-79.2565,-3.4607],[-79.1788,-3.4482],[-79.1022,-3.636],[-79.0502,-3.5521],[-79.0461,-3.3992],[-78.939,-3.3227],[-78.9376,-3.2878],[-78.6717,-3.0908],[-78.576,-2.8536],[-78.5476,-2.7018],[-78.4368,-2.6453],[-78.5491,-2.5629],[-78.6236,-2.6329],[-78.7662,-2.6871],[-78.8201,-2.8239],[-78.93,-2.8171],[-79.072,-2.65],[-79.1777,-2.7226],[-79.294,-2.588],[-79.4374,-2.4971]]]}},{"type":"Feature","properties":{"sourceId":"1159309981","regionId":"region.1dcdabbb-1d79-4822-8d2e-996d0bab7648","countryId":"country.13l0w18"},"geometry":{"type":"Polygon","coordinates":[[[-79.4374,-2.4971],[-79.294,-2.588],[-79.1777,-2.7226],[-79.072,-2.65],[-78.93,-2.8171],[-78.8201,-2.8239],[-78.7662,-2.6871],[-78.6236,-2.6329],[-78.5491,-2.5629],[-78.4937,-2.5133],[-78.4812,-2.3807],[-78.5799,-2.3115],[-78.7252,-2.3171],[-78.8624,-2.39],[-79.0284,-2.3451],[-79.1301,-2.2037],[-79.235,-2.2818],[-79.4257,-2.3607],[-79.4374,-2.4971]]]}},{"type":"Feature","properties":{"sourceId":"1159310001","regionId":"region.1ac66a0e-36b9-4bf6-952d-a433023ab714","countryId":"country.13l0w18"},"geometry":{"type":"Polygon","coordinates":[[[-78.3914,-0.9636],[-78.4554,-1.0748],[-78.5327,-1.0594],[-78.6774,-1.1426],[-78.8662,-1.1783],[-78.9238,-1.3971],[-78.8807,-1.4592],[-78.8,-1.4244],[-78.6986,-1.4781],[-78.5154,-1.4801],[-78.3534,-1.5264],[-78.1726,-1.447],[-78.1142,-1.3426],[-78.1165,-1.2333],[-78.2215,-1.14],[-78.3037,-1.1433],[-78.3914,-0.9636]]]}},{"type":"Feature","properties":{"sourceId":"1159310003","regionId":"region.0306fb90-3580-4651-83dc-24e90e172b8a","countryId":"country.13l0w18"},"geometry":{"type":"Polygon","coordinates":[[[-78.3914,-0.9636],[-78.3037,-1.1433],[-78.2215,-1.14],[-78.1165,-1.2333],[-77.846,-1.2247],[-77.6956,-1.1517],[-77.5471,-1.1357],[-77.2338,-1.0245],[-77.0516,-1.0104],[-77.0417,-0.9204],[-77.2471,-0.8296],[-77.4992,-0.9453],[-77.5285,-0.8412],[-77.5097,-0.6557],[-77.6202,-0.5366],[-77.5515,-0.458],[-77.395,-0.4969],[-77.2732,-0.3604],[-77.2994,-0.0585],[-77.3627,-0.1408],[-77.4465,-0.1248],[-77.459,-0.0261],[-77.589,-0.1],[-77.7721,-0.0662],[-77.8327,0.0319],[-77.9645,-0.0478],[-78.0076,-0.132],[-78.1773,-0.1809],[-78.1874,-0.2965],[-78.2504,-0.4148],[-78.2717,-0.5515],[-78.3968,-0.6844],[-78.3914,-0.9636]]]}},{"type":"Feature","properties":{"sourceId":"1159309991","regionId":"region.9f637aaa-c654-4f4c-96da-c2c1dd475e2f","countryId":"country.13l0w18"},"geometry":{"type":"Polygon","coordinates":[[[-79.1301,-2.2037],[-79.0284,-2.3451],[-78.8624,-2.39],[-78.7252,-2.3171],[-78.5799,-2.3115],[-78.5032,-2.2183],[-78.4458,-2.0752],[-78.4895,-1.9648],[-78.4183,-1.8675],[-78.4502,-1.7173],[-78.3594,-1.6217],[-78.3534,-1.5264],[-78.5154,-1.4801],[-78.6986,-1.4781],[-78.8,-1.4244],[-78.8807,-1.4592],[-78.8598,-1.6639],[-79.005,-1.7915],[-79.0146,-2.0882],[-79.1301,-2.2037]]]}},{"type":"Feature","properties":{"sourceId":"1159309979","regionId":"region.cd273b61-9e25-4bce-a076-f56680347d5c","countryId":"country.13l0w18"},"geometry":{"type":"Polygon","coordinates":[[[-78.8662,-1.1783],[-78.9512,-1.2034],[-79.0821,-1.1549],[-79.2807,-1.2026],[-79.3432,-1.2912],[-79.3185,-1.468],[-79.2501,-1.5409],[-79.3402,-1.6428],[-79.2504,-1.7362],[-79.2294,-1.8229],[-79.2782,-1.9539],[-79.2053,-2.0733],[-79.2355,-2.1543],[-79.1301,-2.2037],[-79.0146,-2.0882],[-79.005,-1.7915],[-78.8598,-1.6639],[-78.8807,-1.4592],[-78.9238,-1.3971],[-78.8662,-1.1783]]]}},{"type":"Feature","properties":{"sourceId":"1159309965","regionId":"region.bfbb815a-d5fe-4a9c-ad44-1935814635db","countryId":"country.13l0w18"},"geometry":{"type":"Polygon","coordinates":[[[-77.8141,0.3457],[-78.0005,0.4687],[-78.1308,0.5056],[-78.1686,0.6514],[-78.289,0.8018],[-78.4421,0.8719],[-78.5112,0.7509],[-78.4263,0.5585],[-78.5392,0.5151],[-78.6754,0.3721],[-78.86,0.4228],[-79.0107,0.2674],[-78.9517,0.2113],[-78.7781,0.2393],[-78.6523,0.2156],[-78.414,0.2454],[-78.2268,0.1333],[-78.0777,0.1978],[-77.9454,0.1613],[-77.8355,0.2692],[-77.8141,0.3457]]]}},{"type":"Feature","properties":{"sourceId":"1159309983","regionId":"region.8511c98c-1ac3-46c9-903a-52ea94fef2a1","countryId":"country.13l0w18"},"geometry":{"type":"Polygon","coordinates":[[[-78.3968,-0.6844],[-78.4621,-0.6154],[-78.6086,-0.6053],[-78.7076,-0.6559],[-78.8294,-0.5157],[-78.9216,-0.3451],[-79.007,-0.4244],[-78.9964,-0.5103],[-79.0868,-0.5519],[-79.166,-0.7589],[-79.2907,-0.914],[-79.323,-1.121],[-79.2807,-1.2026],[-79.0821,-1.1549],[-78.9512,-1.2034],[-78.8662,-1.1783],[-78.6774,-1.1426],[-78.5327,-1.0594],[-78.4554,-1.0748],[-78.3914,-0.9636],[-78.3968,-0.6844]]]}},{"type":"Feature","properties":{"sourceId":"1159309985","regionId":"region.325d4acc-65c7-4a53-86bf-adaf52aab8c2","countryId":"country.13l0w18"},"geometry":{"type":"Polygon","coordinates":[[[-79.2807,-1.2026],[-79.323,-1.121],[-79.2907,-0.914],[-79.166,-0.7589],[-79.0868,-0.5519],[-79.1315,-0.5555],[-79.3032,-0.6957],[-79.374,-0.5458],[-79.48,-0.5437],[-79.6196,-0.8502],[-79.5171,-0.8605],[-79.5756,-1.0403],[-79.7383,-1.1848],[-79.8473,-1.3991],[-79.8554,-1.6407],[-79.7732,-1.6833],[-79.6495,-1.9065],[-79.502,-1.8877],[-79.3608,-1.9831],[-79.2355,-2.1543],[-79.2053,-2.0733],[-79.2782,-1.9539],[-79.2294,-1.8229],[-79.2504,-1.7362],[-79.3402,-1.6428],[-79.2501,-1.5409],[-79.3185,-1.468],[-79.3432,-1.2912],[-79.2807,-1.2026]]]}},{"type":"Feature","properties":{"sourceId":"1159309997","regionId":"region.e5a5352b-4e08-473e-b720-41204cf0dba8","countryId":"country.13l0w18"},"geometry":{"type":"Polygon","coordinates":[[[-77.8327,0.0319],[-77.9454,0.1613],[-78.0777,0.1978],[-78.2268,0.1333],[-78.414,0.2454],[-78.6523,0.2156],[-78.7781,0.2393],[-78.9517,0.2113],[-79.0107,0.2674],[-79.2219,0.3156],[-79.3467,0.2393],[-79.3071,0.1856],[-79.3638,0.0469],[-79.3095,0.0066],[-79.1067,0.0003],[-79.1003,-0.0821],[-78.9229,-0.0758],[-78.7454,-0.2152],[-78.7644,-0.285],[-78.9216,-0.3451],[-78.8294,-0.5157],[-78.7076,-0.6559],[-78.6086,-0.6053],[-78.4621,-0.6154],[-78.3968,-0.6844],[-78.2717,-0.5515],[-78.2504,-0.4148],[-78.1874,-0.2965],[-78.1773,-0.1809],[-78.0076,-0.132],[-77.9645,-0.0478],[-77.8327,0.0319]]]}},{"type":"Feature","properties":{"sourceId":"1159317165","regionId":"region.6ac08c96-eba7-460b-81dc-b6ed0c7d099b","countryId":"country.13l0w18"},"geometry":{"type":"Polygon","coordinates":[[[-78.9216,-0.3451],[-78.7644,-0.285],[-78.7454,-0.2152],[-78.9229,-0.0758],[-79.1003,-0.0821],[-79.1067,0.0003],[-79.3095,0.0066],[-79.3638,0.0469],[-79.493,-0.0256],[-79.5955,-0.0136],[-79.5988,-0.0718],[-79.413,-0.2048],[-79.4069,-0.3834],[-79.48,-0.5437],[-79.374,-0.5458],[-79.3032,-0.6957],[-79.1315,-0.5555],[-79.0868,-0.5519],[-78.9964,-0.5103],[-79.007,-0.4244],[-78.9216,-0.3451]]]}}]}