{"type":"FeatureCollection","features":[{"type":"Feature","properties":{"sourceId":"1159309663","regionId":"region.484a8071-8a27-463a-b17d-6db10bef9815","countryId":"country.1vrmp4h"},"geometry":{"type":"MultiPolygon","coordinates":[[[[20.6232,69.0364],[20.7444,69.1044],[21.0325,69.041],[21.0336,69.1812],[21.3136,69.2914],[21.6629,69.2632],[21.9461,69.0657],[22.4407,69.0897],[22.5911,69.2306],[22.3495,69.4044],[22.3515,69.4772],[22.7621,69.5126],[22.9334,69.6399],[22.6642,69.6858],[22.5264,69.8],[22.5649,69.91],[22.3214,69.9516],[22.1122,70.1584],[21.8601,70.1044],[21.648,70.1808],[21.2339,70.2243],[21.5134,70.0917],[21.8392,70.0924],[21.9401,69.9857],[21.9046,69.8254],[21.2531,70.003],[21.1704,69.8756],[20.512,69.7695],[20.315,69.9638],[20.007,69.7685],[19.7842,69.8044],[19.2957,69.7829],[19.0983,69.7362],[18.8527,69.5523],[18.301,69.4868],[18.0031,69.2857],[18.0813,69.1691],[17.6794,69.0919],[17.4364,68.9134],[17.6942,68.8918],[17.2344,68.756],[16.6292,68.6417],[16.5808,68.5345],[18.0367,68.6196],[18.1893,68.5384],[18.4362,68.5739],[18.6446,68.5012],[19.0381,68.5056],[19.931,68.3502],[20.2459,68.4774],[19.9622,68.5412],[20.2366,68.6591],[20.3565,68.8046],[20.3411,68.9101],[20.1023,69.0221],[20.6232,69.0364]]],[[[15.9079,68.9575],[15.7246,68.7334],[15.8721,68.5496],[16.2458,68.6286],[16.4961,68.5793],[16.5055,68.8032],[15.9331,68.6841],[15.8633,68.7829],[15.9079,68.9575]]],[[[18.0708,69.4379],[17.7722,69.5478],[17.2634,69.4784],[16.9153,69.3176],[16.8233,69.0544],[17.5191,69.1579],[17.9583,69.1805],[17.9231,69.3323],[18.0708,69.4379]]],[[[18.999,69.8286],[18.3568,69.7929],[18.262,69.5306],[18.8229,69.5907],[18.8035,69.6815],[19.0335,69.7437],[18.999,69.8286]]],[[[19.6192,70.0168],[19.3926,69.9919],[19.2082,70.0986],[18.7693,69.9553],[19.1216,69.7878],[19.4067,69.8386],[19.6192,70.0168]]],[[[20.7915,70.0924],[20.8242,70.1946],[20.5877,70.2362],[20.4157,70.1715],[20.4317,70.0681],[20.7915,70.0924]]]]}},{"type":"Feature","properties":{"sourceId":"1159308743","regionId":"region.e1865529-c58b-4379-b2f9-094261690ca4","countryId":"country.1vrmp4h"},"geometry":{"type":"MultiPolygon","coordinates":[[[[18.1893,68.5384],[18.0367,68.6196],[16.5808,68.5345],[16.5348,68.4383],[16.1724,68.3179],[16.172,68.2037],[16.32,68.1258],[16.2754,67.9753],[16.042,68.0299],[16.104,68.1602],[15.7101,68.0846],[15.9688,68.0086],[15.7887,67.9514],[15.0632,67.8388],[15.0407,67.6776],[15.1965,67.6446],[14.7268,67.4887],[14.8,67.4218],[14.4069,67.2781],[14.6738,67.2167],[15.138,67.311],[15.0946,67.2134],[14.7814,67.2143],[14.363,67.1597],[14.2228,66.9815],[13.9175,66.9289],[13.5897,66.9382],[13.6883,66.835],[13.4802,66.6753],[13.2839,66.6607],[13.0818,66.498],[13.2266,66.2973],[13.2254,66.1858],[12.869,66.1343],[12.9175,65.953],[12.6823,65.9267],[12.6603,65.8097],[12.3489,65.6384],[12.4043,65.535],[12.6022,65.4323],[12.3421,65.3026],[12.5028,65.1449],[12.1931,65.0505],[12.2017,64.9993],[12.6247,64.9502],[12.8962,64.9795],[13.1584,65.12],[13.6785,65.1064],[14.227,65.1322],[14.3321,65.114],[14.3329,65.115],[14.5143,65.3181],[14.5607,65.7011],[14.6444,65.8429],[14.5405,66.1254],[15.0534,66.1533],[15.4819,66.2749],[15.4761,66.3549],[15.4263,66.4912],[15.6695,66.5994],[16.0388,66.8875],[16.4156,67.0527],[16.4379,67.2003],[16.1271,67.4228],[16.1996,67.5083],[16.483,67.5578],[16.6087,67.6473],[16.808,67.9106],[17.2201,68.0401],[17.3215,68.1053],[17.8954,67.9697],[18.1667,68.1585],[18.1357,68.3957],[18.1893,68.5384]]],[[[14.0278,68.2626],[13.6367,68.2943],[13.5,68.2423],[13.4857,68.1068],[13.7188,68.0776],[14.0278,68.2626]]],[[[15.0005,68.3651],[14.6535,68.4285],[14.3034,68.312],[14.1985,68.1528],[14.7632,68.259],[15.0005,68.3651]]],[[[16.4229,68.4919],[16.1921,68.515],[16.0949,68.3975],[16.3986,68.4135],[16.4229,68.4919]]],[[[16.4961,68.5793],[16.2458,68.6286],[15.8721,68.5496],[15.7246,68.7334],[15.9079,68.9575],[15.6766,68.9627],[15.4592,68.7961],[15.5138,68.6362],[15.2388,68.5643],[15.2166,68.3354],[15.904,68.3699],[16.0935,68.5335],[16.4961,68.5793]]],[[[14.3972,68.6605],[14.8159,68.6378],[15.0627,68.5785],[15.3362,68.6529],[15.3942,68.7311],[15.2953,68.9069],[14.72,68.7629],[14.4382,68.756],[14.3972,68.6605]]],[[[15.5287,68.9138],[16.0608,69.1446],[15.7914,69.1613],[15.4598,69.0131],[15.5287,68.9138]]],[[[-7.9626,71.1749],[-8.3257,71.1476],[-8.5074,71.0207],[-8.006,71.0325],[-7.9626,71.1749]]]]}},{"type":"Feature","properties":{"sourceId":"1159309661","regionId":"region.80debf14-4edf-47d4-957e-1adf78df4a3c","countryId":"country.1vrmp4h"},"geometry":{"type":"Polygon","coordinates":[[[14.3321,65.114],[14.227,65.1322],[13.6785,65.1064],[13.1584,65.12],[12.8962,64.9795],[12.6247,64.9502],[12.2017,64.9993],[12.1763,65.0111],[12.0454,65.0601],[11.7764,64.9767],[11.4014,64.9223],[11.6221,64.8432],[11.402,64.6632],[11.5213,64.5182],[11.3621,64.4113],[11.0762,64.5236],[10.6252,64.4053],[10.9641,64.2937],[10.8118,64.1436],[10.9169,64.1064],[10.7825,63.9553],[10.6416,63.8978],[10.4822,63.7377],[10.2397,63.6546],[10.1979,63.5423],[10.4158,63.5794],[10.6428,63.6776],[10.91,63.731],[11.0964,63.8896],[11.4152,63.8501],[11.4639,63.8017],[11.0335,63.7192],[10.7557,63.6251],[10.7777,63.4875],[10.8759,63.4459],[10.963,63.349],[11.4591,63.3367],[11.6425,63.1969],[12.0598,63.2048],[11.9924,63.2889],[12.2049,63.4546],[12.1703,63.5981],[12.2932,63.657],[12.6819,63.9564],[12.9824,64.0588],[13.2341,64.0909],[13.9394,64.0095],[14.1614,64.2054],[14.1156,64.4412],[13.6428,64.584],[14.3321,65.114]]]}},{"type":"Feature","properties":{"sourceId":"1159311113","regionId":"region.f1fd7aa7-f88c-455e-8b6f-fa70f38a44f2","countryId":"country.1vrmp4h"},"geometry":{"type":"MultiPolygon","coordinates":[[[[12.0598,63.2048],[11.6425,63.1969],[11.4591,63.3367],[10.963,63.349],[10.8759,63.4459],[10.5769,63.4307],[10.3005,63.4665],[9.9606,63.4277],[9.6991,63.6445],[9.4167,63.5249],[9.2443,63.5137],[9.1677,63.402],[8.7864,63.4298],[8.915,63.3556],[8.869,63.2105],[8.8499,63.2034],[8.8587,63.1381],[9.2056,63.1408],[9.4671,63.1919],[9.49,63.0529],[9.4162,62.8332],[8.9484,62.7423],[9.2306,62.572],[9.0906,62.3801],[9.5973,62.2743],[9.7831,62.2858],[9.8637,62.3607],[10.105,62.4426],[10.1568,62.6549],[10.2857,62.7074],[10.7529,62.6703],[10.8965,62.7078],[11.1689,62.6661],[11.235,62.5693],[11.5413,62.407],[12.171,62.333],[12.2795,62.3442],[12.0912,62.5863],[12.1562,62.7337],[12.1044,62.9233],[12.2227,63.0015],[12.0598,63.2048]]],[[[10.1979,63.5423],[10.2397,63.6546],[10.4822,63.7377],[10.6416,63.8978],[10.7825,63.9553],[10.9169,64.1064],[10.8118,64.1436],[10.9641,64.2937],[10.6252,64.4053],[10.4626,64.2941],[10.0137,64.1188],[9.9939,63.9294],[9.5459,63.7744],[9.5868,63.6714],[9.7991,63.6918],[9.9182,63.5147],[10.1979,63.5423]]],[[[9.1387,63.5678],[8.9652,63.6562],[8.5453,63.6025],[8.3172,63.5132],[8.5036,63.4342],[9.1068,63.5333],[9.1387,63.5678]]]]}},{"type":"Feature","properties":{"sourceId":"1159309675","regionId":"region.38dc5c89-ebfc-4abd-9bfd-be8347bcf8a3","countryId":"country.1vrmp4h"},"geometry":{"type":"Polygon","coordinates":[[[12.2795,62.3442],[12.171,62.333],[11.5413,62.407],[11.235,62.5693],[11.1689,62.6661],[10.8965,62.7078],[10.7529,62.6703],[10.2857,62.7074],[10.1568,62.6549],[10.105,62.4426],[9.8637,62.3607],[9.7831,62.2858],[9.659,62.1697],[9.8885,62.0851],[9.8116,61.9299],[10.0856,61.9044],[10.0583,61.7563],[10.3997,61.683],[10.6259,61.7068],[10.6877,61.4798],[10.8537,61.2812],[10.4591,61.0366],[10.73,60.8842],[10.7272,60.8043],[11.164,60.6226],[11.2429,60.5127],[11.5827,60.2801],[11.5796,60.1898],[11.84,60.0618],[11.8746,59.8849],[12.1437,59.8984],[12.4468,60.0511],[12.5109,60.118],[12.4873,60.2959],[12.5936,60.395],[12.5944,60.5149],[12.377,60.7541],[12.281,61.0152],[12.7108,61.057],[12.8771,61.371],[12.6138,61.547],[12.4165,61.5823],[12.1617,61.7248],[12.3151,62.2718],[12.2795,62.3442]]]}},{"type":"Feature","properties":{"sourceId":"1159309671","regionId":"region.0fd50f92-3fa9-4f81-b366-7cb5a8559664","countryId":"country.1vrmp4h"},"geometry":{"type":"Polygon","coordinates":[[[11.8746,59.8849],[11.84,60.0618],[11.5796,60.1898],[11.5827,60.2801],[11.2429,60.5127],[11.164,60.6226],[11.0953,60.532],[10.8623,60.4902],[10.9195,60.3739],[10.7541,60.1682],[10.6801,60.1534],[10.928,59.9934],[10.9342,59.873],[10.7566,59.8442],[10.6146,59.8337],[10.5602,59.7262],[10.688,59.4836],[10.9819,59.7194],[11.2134,59.7124],[11.3554,59.7652],[11.5227,59.6258],[11.7152,59.766],[11.8837,59.8054],[11.8746,59.8849]]]}},{"type":"Feature","properties":{"sourceId":"1159309653","regionId":"region.5d5d74e7-26a7-4549-9c23-3dbba5cc86a3","countryId":"country.1vrmp4h"},"geometry":{"type":"Polygon","coordinates":[[[11.8837,59.8054],[11.7152,59.766],[11.5227,59.6258],[11.3554,59.7652],[11.2134,59.7124],[10.9819,59.7194],[10.688,59.4836],[10.6428,59.3749],[10.7332,59.2409],[10.8503,59.1804],[11.3705,59.1007],[11.4375,58.9917],[11.452,58.896],[11.6644,58.9201],[11.8111,59.2487],[11.6774,59.5591],[11.8917,59.7058],[11.8837,59.8054]]]}},{"type":"Feature","properties":{"sourceId":"1159311131","regionId":"region.f4ecabe2-f5aa-4e97-8224-4962aef39839","countryId":"country.1vrmp4h"},"geometry":{"type":"MultiPolygon","coordinates":[[[[28.9541,69.0273],[29.2405,69.1151],[29.3345,69.2774],[29.9007,69.3582],[30.1234,69.4419],[30.2944,69.6202],[30.5117,69.5363],[30.853,69.5274],[30.9277,69.6721],[30.841,69.8058],[30.4507,69.8103],[30.1652,69.8795],[29.993,69.768],[29.7754,69.8386],[29.6859,69.9696],[29.138,70.0576],[28.7327,70.0856],[28.7537,70.1675],[29.2267,70.1203],[30.1331,70.0732],[30.5488,70.2487],[30.9336,70.2637],[31.0633,70.3668],[30.4563,70.5612],[30.2068,70.6815],[29.3805,70.7694],[29.2214,70.8554],[28.7947,70.8732],[28.5262,70.7217],[28.3975,70.5483],[28.1372,70.4467],[27.8494,70.4829],[28.2332,70.6152],[28.1305,70.736],[28.4832,70.8895],[28.5461,70.9799],[27.8767,71.0377],[27.5687,71.0972],[27.2532,71.0263],[27.1226,70.9217],[27.3913,70.8764],[27.287,70.7436],[26.9761,70.5274],[26.513,70.4316],[26.7443,70.8235],[26.6136,70.9491],[26.0708,70.7125],[26.0122,70.6262],[25.4411,70.3422],[25.5171,70.2779],[25.2527,70.1013],[24.9434,70.1024],[24.9798,70.2294],[25.2013,70.3071],[25.2459,70.5279],[25.8252,70.8275],[25.7057,70.8956],[25.3418,70.9527],[24.8602,70.9284],[24.666,70.9777],[24.574,70.7988],[24.2694,70.8384],[24.3524,70.691],[24.2643,70.6063],[23.5132,70.3655],[23.3578,70.1153],[22.9981,70.0822],[22.9671,70.2075],[22.6037,70.2185],[21.9868,70.3234],[21.8218,70.2686],[21.4393,70.2695],[21.2339,70.2243],[21.648,70.1808],[21.8601,70.1044],[22.1122,70.1584],[22.3214,69.9516],[22.5649,69.91],[22.5264,69.8],[22.6642,69.6858],[22.9334,69.6399],[22.7621,69.5126],[22.3515,69.4772],[22.3495,69.4044],[22.5911,69.2306],[22.4407,69.0897],[21.9461,69.0657],[22.5965,68.7246],[23.0193,68.6867],[23.1976,68.618],[23.7348,68.7154],[23.929,68.8162],[24.3325,68.7086],[24.6634,68.6661],[24.8609,68.5634],[25.1176,68.6377],[25.2013,68.8126],[25.6516,68.8835],[25.8011,69.0132],[25.7341,69.1913],[25.8774,69.3708],[25.8867,69.5209],[26.032,69.6967],[26.1983,69.7154],[26.5007,69.9183],[27.3118,69.9295],[27.6126,70.0621],[27.8669,70.0753],[28.1674,69.8943],[28.4046,69.8023],[29.1312,69.6742],[29.3445,69.4644],[28.8648,69.2166],[28.827,69.1068],[28.9541,69.0273]]],[[[22.9224,70.3047],[22.689,70.3941],[22.3737,70.332],[22.7317,70.2569],[22.9224,70.3047]]],[[[23.656,70.5033],[23.3108,70.5187],[22.8972,70.451],[22.9496,70.3593],[23.2163,70.2828],[23.5925,70.4153],[23.656,70.5033]]],[[[24.0669,70.661],[23.8157,70.7512],[23.6401,70.7022],[23.697,70.5716],[23.8679,70.5124],[24.1016,70.5887],[24.0669,70.661]]],[[[22.4221,70.5107],[22.6438,70.5642],[23.0889,70.5862],[23.1284,70.7578],[22.7737,70.6502],[22.541,70.7175],[22.2659,70.675],[22.1409,70.4829],[22.4221,70.5107]]],[[[26.136,71.0377],[25.5534,71.1408],[25.2933,71.0452],[25.5335,70.9318],[26.0726,70.9752],[26.136,71.0377]]]]}},{"type":"Feature","properties":{"sourceId":"1159309679","regionId":"region.825371fd-c631-4a39-8fc7-4fa0b9c84e54","countryId":"country.1vrmp4h"},"geometry":{"type":"Polygon","coordinates":[[[10.7566,59.8442],[10.9342,59.873],[10.928,59.9934],[10.6801,60.1534],[10.6236,60.1547],[10.3745,59.9755],[10.3499,59.8385],[10.4867,59.8032],[10.5295,59.8823],[10.7566,59.8442]]]}},{"type":"Feature","properties":{"sourceId":"1159309673","regionId":"region.93c401ca-9b3f-434b-b028-30a9f20deb37","countryId":"country.1vrmp4h"},"geometry":{"type":"Polygon","coordinates":[[[10.4867,59.8032],[10.3499,59.8385],[10.3745,59.9755],[10.6236,60.1547],[10.3983,60.2363],[10.2374,60.3785],[10.168,60.5323],[10.0437,60.6554],[9.8077,60.5792],[9.4102,60.5847],[9.326,60.7529],[8.5694,61.0169],[8.1981,61.0724],[8.0369,60.9327],[7.874,60.9304],[7.6795,60.7797],[7.4779,60.7023],[7.6687,60.5474],[7.6694,60.3476],[7.4678,60.1137],[7.8234,60.1278],[8.1714,60.1975],[8.8065,60.1698],[8.9974,60.017],[9.3599,59.8077],[9.493,59.5147],[9.7827,59.4322],[10.0186,59.4925],[9.9295,59.6284],[10.033,59.6846],[10.283,59.6958],[10.403,59.6828],[10.4236,59.5338],[10.5931,59.5704],[10.4867,59.8032]]]}},{"type":"Feature","properties":{"sourceId":"1159309685","regionId":"region.f1da5244-6210-46ee-88f7-139d8dec85d2","countryId":"country.1vrmp4h"},"geometry":{"type":"Polygon","coordinates":[[[10.283,59.6958],[10.033,59.6846],[9.9295,59.6284],[10.0186,59.4925],[9.7827,59.4322],[9.884,59.2043],[9.8272,59.0184],[9.8462,58.9556],[10.282,59.0997],[10.459,59.4409],[10.3313,59.4951],[10.3909,59.6382],[10.283,59.6958]]]}},{"type":"Feature","properties":{"sourceId":"1159309681","regionId":"region.b6e561af-1e55-42c5-b7fe-a010f5af184b","countryId":"country.1vrmp4h"},"geometry":{"type":"Polygon","coordinates":[[[9.8272,59.0184],[9.884,59.2043],[9.7827,59.4322],[9.493,59.5147],[9.3599,59.8077],[8.9974,60.017],[8.8065,60.1698],[8.1714,60.1975],[7.8234,60.1278],[7.4678,60.1137],[7.262,59.9894],[7.0921,59.7941],[7.2439,59.691],[7.462,59.6656],[7.6136,59.5061],[7.5273,59.4275],[7.7259,59.319],[7.7629,59.1713],[7.9684,59.0031],[8.1685,59.0007],[8.454,58.9205],[8.5794,58.9414],[8.7607,58.8571],[8.847,59.0033],[8.9913,59.0099],[9.3866,58.7848],[9.4281,58.8931],[9.8272,59.0184]]]}},{"type":"Feature","properties":{"sourceId":"1159311133","regionId":"region.ca03b22f-747b-4e6d-9900-b8fe85109776","countryId":"country.1vrmp4h"},"geometry":{"type":"Polygon","coordinates":[[[9.3866,58.7848],[8.9913,59.0099],[8.847,59.0033],[8.7607,58.8571],[8.5794,58.9414],[8.454,58.9205],[8.1685,59.0007],[7.9684,59.0031],[7.7629,59.1713],[7.7259,59.319],[7.5273,59.4275],[7.6136,59.5061],[7.462,59.6656],[7.2439,59.691],[6.9844,59.5957],[6.8151,59.3127],[6.9426,59.2086],[7.1699,59.1804],[7.1184,59.0192],[7.1986,58.8554],[7.6018,58.8723],[7.6784,58.788],[7.5907,58.6978],[7.5805,58.4804],[7.765,58.4808],[7.9883,58.3428],[8.2107,58.2887],[8.2246,58.1569],[8.5134,58.2934],[9.3866,58.7848]]]}},{"type":"Feature","properties":{"sourceId":"1159309669","regionId":"region.7bb41805-f7c3-4f66-8088-9f2ffc1840ce","countryId":"country.1vrmp4h"},"geometry":{"type":"Polygon","coordinates":[[[8.2246,58.1569],[8.2107,58.2887],[7.9883,58.3428],[7.765,58.4808],[7.5805,58.4804],[7.5907,58.6978],[7.6784,58.788],[7.6018,58.8723],[7.1986,58.8554],[7.1184,59.0192],[7.1699,59.1804],[6.9426,59.2086],[6.865,59.1239],[6.5734,58.9405],[6.5166,58.7857],[6.6019,58.7217],[6.6273,58.3668],[6.3976,58.273],[6.6262,58.2447],[6.542,58.1077],[6.8738,58.1348],[6.9994,58.0307],[7.3906,58.0175],[7.6536,58.0646],[8.1229,58.102],[8.2246,58.1569]]]}},{"type":"Feature","properties":{"sourceId":"1159309655","regionId":"region.5a2ee88a-97ac-44c0-bb87-6231db96f478","countryId":"country.1vrmp4h"},"geometry":{"type":"Polygon","coordinates":[[[6.3976,58.273],[6.6273,58.3668],[6.6019,58.7217],[6.5166,58.7857],[6.5734,58.9405],[6.865,59.1239],[6.9426,59.2086],[6.8151,59.3127],[6.9844,59.5957],[7.2439,59.691],[7.0921,59.7941],[6.7029,59.7126],[6.6686,59.8458],[6.5286,59.8586],[6.2955,59.7873],[6.1706,59.6158],[5.9442,59.6167],[5.5287,59.5579],[5.4079,59.5162],[5.19,59.4802],[5.2972,59.3447],[5.4754,59.2788],[5.8596,59.3508],[5.7484,59.4458],[5.8345,59.5156],[6.1123,59.2746],[6.0088,59.1494],[5.8727,59.087],[5.8825,58.9593],[5.6262,58.9256],[5.478,58.7547],[5.7042,58.5208],[5.9285,58.4836],[6.1403,58.3397],[6.3976,58.273]]]}},{"type":"Feature","properties":{"sourceId":"1159309657","regionId":"region.4563d977-16e6-4a9c-a72e-e1a07e37d796","countryId":"country.1vrmp4h"},"geometry":{"type":"MultiPolygon","coordinates":[[[[5.5287,59.5579],[5.9442,59.6167],[6.1706,59.6158],[6.2955,59.7873],[6.5286,59.8586],[6.6686,59.8458],[6.7029,59.7126],[7.0921,59.7941],[7.262,59.9894],[7.4678,60.1137],[7.6694,60.3476],[7.6687,60.5474],[7.4779,60.7023],[6.9839,60.7489],[6.8168,60.9258],[6.6535,60.9718],[6.2699,60.9178],[6.0018,61.0316],[5.8642,60.9755],[5.63,60.9909],[5.2689,60.9555],[5.1048,60.8372],[5.033,60.7417],[5.0977,60.6491],[5.3001,60.5608],[5.7386,60.7051],[5.7083,60.4711],[5.6177,60.4172],[5.2383,60.4892],[5.2656,60.387],[5.1707,60.2787],[5.304,60.1906],[5.8528,60.1371],[6.1053,60.2452],[6.1921,60.3835],[6.3518,60.3681],[6.1423,60.2155],[6.098,60.0919],[5.7722,59.9307],[5.7151,59.8317],[5.8317,59.7722],[5.7461,59.6755],[5.5641,59.6767],[5.5287,59.5579]]],[[[5.6192,60.0739],[5.3753,60.0025],[5.5715,59.923],[5.6192,60.0739]]],[[[5.6877,60.6766],[5.324,60.5468],[5.486,60.4443],[5.6814,60.4817],[5.6877,60.6766]]]]}},{"type":"Feature","properties":{"sourceId":"1159309659","regionId":"region.a56a509d-c276-4125-84ec-a48a1fb8668f","countryId":"country.1vrmp4h"},"geometry":{"type":"Polygon","coordinates":[[[5.1048,60.8372],[5.2689,60.9555],[5.63,60.9909],[5.8642,60.9755],[6.0018,61.0316],[6.2699,60.9178],[6.6535,60.9718],[6.8168,60.9258],[6.9839,60.7489],[7.4779,60.7023],[7.6795,60.7797],[7.874,60.9304],[8.0369,60.9327],[8.1981,61.0724],[8.0547,61.2403],[8.2038,61.3373],[8.2041,61.5236],[8.0054,61.5701],[7.8381,61.7524],[7.5203,61.7542],[7.3935,61.8781],[7.3279,62.0498],[6.8051,61.973],[6.6701,62.0782],[6.3603,61.9802],[6.2127,62.007],[5.5739,61.9632],[5.4617,62.0067],[5.1818,62.2127],[5.0706,62.1638],[5.2979,62.0682],[5.2386,61.9606],[5.3626,61.9055],[5.2445,61.8173],[4.9745,61.7386],[4.9927,61.6304],[5.2293,61.6287],[5.2903,61.4796],[5.0571,61.4443],[4.9641,61.2657],[5.1252,61.1451],[5.4237,61.0797],[5.5573,61.1365],[5.9409,61.17],[6.4343,61.1147],[6.3835,61.046],[6.0985,61.1222],[5.5271,61.0754],[5.4338,61.0266],[5.0686,61.0736],[5.0039,61.0161],[5.1048,60.8372]]]}},{"type":"Feature","properties":{"sourceId":"1159311109","regionId":"region.bbabc757-d2f8-44cc-8661-b029e4f46950","countryId":"country.1vrmp4h"},"geometry":{"type":"MultiPolygon","coordinates":[[[[5.4617,62.0067],[5.5739,61.9632],[6.2127,62.007],[6.3603,61.9802],[6.6701,62.0782],[6.8051,61.973],[7.3279,62.0498],[7.5696,62.088],[7.7284,62.1951],[8.0218,62.2098],[8.1447,62.341],[8.4093,62.3789],[9.0906,62.3801],[9.2306,62.572],[8.9484,62.7423],[9.4162,62.8332],[9.49,63.0529],[9.4671,63.1919],[9.2056,63.1408],[8.8587,63.1381],[8.8499,63.2034],[8.6245,63.1281],[8.2362,63.1507],[8.2232,63.0334],[8.4797,62.9072],[8.3293,62.8807],[8.2468,63.008],[7.9973,63.0923],[7.7483,62.9421],[7.5012,62.9108],[7.2712,63.0141],[6.9102,62.9294],[7.0166,62.8415],[6.9704,62.7256],[7.3125,62.744],[7.365,62.5928],[7.0923,62.6509],[6.7771,62.6503],[6.6222,62.5888],[6.3196,62.6085],[6.3047,62.4592],[6.5003,62.3993],[6.0277,62.3057],[5.9287,62.1989],[5.3918,62.1329],[5.4617,62.0067]]],[[[8.869,63.2105],[8.915,63.3556],[8.7864,63.4298],[8.7376,63.3347],[8.5147,63.3059],[8.6122,63.2038],[8.869,63.2105]]],[[[7.9147,63.3425],[8.1817,63.3902],[8.0041,63.4728],[7.7782,63.4113],[7.9147,63.3425]]]]}},{"type":"Feature","properties":{"sourceId":"1159309689","regionId":"region.e37d1739-06bb-4915-839f-389d54ffbb91","countryId":"country.1vrmp4h"},"geometry":{"type":"MultiPolygon","coordinates":[[[[19.1603,74.526],[18.7898,74.4782],[19.0737,74.3474],[19.2974,74.4811],[19.1603,74.526]]],[[[24.4248,77.8259],[23.6283,77.8703],[23.1205,77.9859],[23.0713,78.0662],[23.4705,78.1514],[22.9661,78.2563],[22.3963,78.1999],[21.6968,78.2111],[20.9922,78.1386],[20.8801,78.0854],[21.6618,77.918],[21.2608,77.7331],[21.1896,77.6017],[20.8735,77.5686],[20.9217,77.4424],[22.1917,77.5041],[22.4388,77.4389],[22.4297,77.2637],[23.2345,77.2637],[23.3543,77.3769],[23.8928,77.5084],[24.4248,77.8259]]],[[[21.0243,78.2191],[22.2713,78.2675],[22.2354,78.4879],[21.9839,78.5692],[21.1782,78.6232],[20.8714,78.5566],[20.1831,78.4953],[20.6611,78.3911],[21.0243,78.2191]]],[[[12.1428,78.237],[11.8892,78.3951],[11.2673,78.5742],[11.1838,78.7336],[10.8438,78.8789],[10.5254,78.7883],[11.3053,78.4522],[12.1428,78.237]]],[[[20.0989,79.1241],[20.4059,78.9959],[20.8318,79.0552],[20.0989,79.1241]]],[[[20.2088,78.6381],[21.0374,78.6442],[21.5083,78.747],[21.5221,78.8537],[19.9064,79.0142],[19.7863,79.1651],[18.9451,79.157],[18.8818,79.4411],[17.5625,79.8979],[16.6165,79.9851],[16.2947,80.0674],[15.6516,79.8503],[15.9595,79.3096],[15.4973,79.33],[15.2624,79.6188],[14.8579,79.7737],[14.5486,79.8115],[13.8831,79.5424],[13.0105,79.6729],[13.7383,79.7064],[13.9727,79.7752],[13.797,79.8819],[12.7676,79.7733],[11.8223,79.845],[11.1976,79.7212],[10.708,79.5614],[10.8412,79.371],[11.2793,79.0996],[12.115,79.2612],[11.5671,78.9849],[11.8566,78.8556],[11.6432,78.7473],[12.3626,78.4873],[12.8581,78.3597],[12.9113,78.247],[13.856,78.2129],[14.2819,78.3051],[14.3836,78.5009],[14.8013,78.6442],[15.2093,78.6562],[15.4395,78.4584],[16.002,78.4827],[16.9365,78.3523],[15.7951,78.3429],[15.0347,78.1166],[13.8662,78.0969],[13.5891,78.0559],[13.7188,77.7679],[14.4578,77.758],[15.0903,77.791],[15.5545,77.8801],[15.7853,77.8354],[16.6829,77.866],[16.87,77.8113],[15.1154,77.7032],[14.9661,77.6232],[15.8459,77.5788],[15.8533,77.5316],[14.7742,77.5488],[14.44,77.5861],[13.9107,77.5345],[13.959,77.4252],[14.3737,77.1987],[15.0402,77.1348],[15.9416,76.7607],[16.284,76.7079],[16.3368,76.6164],[16.8096,76.5668],[17.1921,76.6968],[16.9424,76.7803],[17.3237,76.9789],[17.4832,77.3061],[17.8133,77.4935],[18.1941,77.4902],[18.4452,77.7563],[18.3304,77.905],[18.5829,78.0551],[19.0628,78.0869],[18.9206,78.1785],[19.0664,78.3779],[18.993,78.467],[19.6812,78.5146],[19.763,78.6242],[20.2088,78.6381]]],[[[33.0986,80.2277],[31.4963,80.1157],[31.6111,80.0727],[32.8311,80.1332],[33.0986,80.2277]]],[[[27.1711,80.0734],[26.8071,80.1743],[25.9397,80.1855],[24.8924,80.2613],[24.376,80.3323],[23.7577,80.2761],[23.6006,80.1426],[22.5642,80.3109],[22.3737,80.111],[21.7634,80.1469],[21.8467,80.2721],[20.8826,80.2112],[19.8023,80.493],[19.1052,80.258],[19.3994,80.1383],[18.0078,80.1904],[18.3755,80.039],[18.1467,79.9164],[18.7839,79.7231],[19.4856,79.718],[20.172,79.7852],[21.8877,79.8236],[21.8504,79.7069],[20.4756,79.6864],[19.6333,79.6113],[20.1968,79.4688],[20.7297,79.4586],[20.8169,79.3781],[21.7118,79.3718],[22.4167,79.4097],[22.9256,79.2228],[24.0531,79.1889],[24.2881,79.3099],[24.7715,79.3708],[25.1833,79.3362],[25.6457,79.3977],[25.9651,79.5262],[25.826,79.626],[27.1497,79.855],[27.1711,80.0734]]]]}},{"type":"Feature","properties":{"sourceId":"1159309677","regionId":"region.3a9336e5-51f2-45c6-9ebf-f0565fc6f1f1","countryId":"country.1vrmp4h"},"geometry":{"type":"Polygon","coordinates":[[[11.164,60.6226],[10.7272,60.8043],[10.73,60.8842],[10.4591,61.0366],[10.8537,61.2812],[10.6877,61.4798],[10.6259,61.7068],[10.3997,61.683],[10.0583,61.7563],[10.0856,61.9044],[9.8116,61.9299],[9.8885,62.0851],[9.659,62.1697],[9.7831,62.2858],[9.5973,62.2743],[9.0906,62.3801],[8.4093,62.3789],[8.1447,62.341],[8.0218,62.2098],[7.7284,62.1951],[7.5696,62.088],[7.3279,62.0498],[7.3935,61.8781],[7.5203,61.7542],[7.8381,61.7524],[8.0054,61.5701],[8.2041,61.5236],[8.2038,61.3373],[8.0547,61.2403],[8.1981,61.0724],[8.5694,61.0169],[9.326,60.7529],[9.4102,60.5847],[9.8077,60.5792],[10.0437,60.6554],[10.168,60.5323],[10.2374,60.3785],[10.3983,60.2363],[10.6236,60.1547],[10.6801,60.1534],[10.7541,60.1682],[10.9195,60.3739],[10.8623,60.4902],[11.0953,60.532],[11.164,60.6226]]]}}]}