{"type":"FeatureCollection","features":[{"type":"Feature","properties":{"sourceId":"1159315969","regionId":"region.337eacf5-bc6c-4f98-8b98-66c9886a7d1d","countryId":"country.19420d8c-93e0-40af-afbe-4ca4d8c4de9e"},"geometry":{"type":"Polygon","coordinates":[[[103.8469,1.2719],[103.8064,1.3249],[103.7622,1.431],[103.6838,1.4099],[103.6476,1.3084],[103.8469,1.2719]]]}},{"type":"Feature","properties":{"sourceId":"1159315513","regionId":"region.bc4d9a4a-418f-4200-9bbe-9d329c0455e1","countryId":"country.19420d8c-93e0-40af-afbe-4ca4d8c4de9e"},"geometry":{"type":"Polygon","coordinates":[[[103.8981,1.3052],[103.8989,1.3864],[103.9094,1.4126],[103.8815,1.4266],[103.8064,1.3249],[103.8469,1.2719],[103.8981,1.3052]]]}},{"type":"Feature","properties":{"sourceId":"1159315975","regionId":"region.55f31d95-6b68-41d9-8eff-a8ef6fe937ca","countryId":"country.19420d8c-93e0-40af-afbe-4ca4d8c4de9e"},"geometry":{"type":"Polygon","coordinates":[[[103.9658,1.39],[103.8989,1.3864],[103.8981,1.3052],[103.9658,1.39]]]}},{"type":"Feature","properties":{"sourceId":"1159315973","regionId":"region.cbb79e61-cdc7-486e-8812-74794c2a6b96","countryId":"country.19420d8c-93e0-40af-afbe-4ca4d8c4de9e"},"geometry":{"type":"Polygon","coordinates":[[[103.9094,1.4126],[103.8989,1.3864],[103.9658,1.39],[103.9094,1.4126]]]}},{"type":"Feature","properties":{"sourceId":"1159315971","regionId":"region.792621d7-9a36-4a4a-b859-0082d3741a35","countryId":"country.19420d8c-93e0-40af-afbe-4ca4d8c4de9e"},"geometry":{"type":"Polygon","coordinates":[[[103.7622,1.431],[103.8064,1.3249],[103.8815,1.4266],[103.7622,1.431]]]}}]}