{"type":"FeatureCollection","features":[{"type":"Feature","properties":{"sourceId":"1159316737","regionId":"region.30cabd54-f245-4465-b619-79b2cd5ada1a","countryId":"country.97e14s"},"geometry":{"type":"Polygon","coordinates":[[[2.5218,51.0875],[2.0633,51.0143],[2.2223,50.8057],[2.3624,50.7867],[2.3715,50.6743],[2.4892,50.6333],[2.8112,50.6104],[2.8242,50.525],[2.9857,50.5015],[3.0019,50.3813],[3.1348,50.2612],[3.0883,50.05],[3.157,50.0187],[3.4486,50.0154],[3.6832,50.0593],[3.9859,50.0306],[4.1317,49.975],[4.21,50.0602],[4.1573,50.2127],[4.0227,50.3381],[3.755,50.3463],[3.6444,50.4455],[3.4629,50.5191],[3.271,50.5269],[3.2244,50.7052],[3.1628,50.7499],[3.0238,50.7683],[2.8667,50.7001],[2.6204,50.8165],[2.6085,50.9611],[2.5218,51.0875]]]}},{"type":"Feature","properties":{"sourceId":"1159316801","regionId":"region.db7bd27f-06cf-464d-9e49-c9a56d2ef41e","countryId":"country.97e14s"},"geometry":{"type":"Polygon","coordinates":[[[4.9684,49.797],[4.849,49.7942],[4.7883,49.9743],[4.8629,50.0841],[4.6819,50.0839],[4.6567,49.9891],[4.4277,49.9336],[4.2159,49.9544],[4.231,49.7274],[4.0464,49.6257],[4.0553,49.4073],[4.1966,49.3946],[4.4489,49.2761],[4.9787,49.2357],[5.1139,49.4218],[5.1008,49.5635],[5.3021,49.5495],[5.3912,49.6088],[4.9684,49.797]]]}},{"type":"Feature","properties":{"sourceId":"1159316743","regionId":"region.a5c631ab-2067-4086-b4bb-391772038573","countryId":"country.97e14s"},"geometry":{"type":"Polygon","coordinates":[[[4.1317,49.975],[3.9859,50.0306],[3.6832,50.0593],[3.4486,50.0154],[3.157,50.0187],[3.0841,49.8611],[3.1186,49.7058],[3.1004,49.4189],[2.9946,49.1876],[3.0797,49.1062],[3.176,49.0043],[3.4779,48.8501],[3.6658,49.0088],[3.7026,49.1463],[3.6501,49.3028],[4.032,49.3598],[4.0553,49.4073],[4.0464,49.6257],[4.231,49.7274],[4.2159,49.9544],[4.1317,49.975]]]}},{"type":"Feature","properties":{"sourceId":"1159316807","regionId":"region.8234bd5e-cb84-4374-a106-e6a1ae29b3c4","countryId":"country.97e14s"},"geometry":{"type":"Polygon","coordinates":[[[5.3912,49.6088],[5.3021,49.5495],[5.1008,49.5635],[5.1139,49.4218],[4.9787,49.2357],[4.9554,49.1652],[5.0026,48.9299],[4.9172,48.7877],[4.9921,48.6929],[5.0359,48.6181],[5.4552,48.4192],[5.7652,48.4966],[5.7239,48.73],[5.8415,49.0556],[5.7601,49.1091],[5.7561,49.2893],[5.6436,49.4358],[5.4777,49.4952],[5.3912,49.6088]]]}},{"type":"Feature","properties":{"sourceId":"1159313581","regionId":"region.27046455-61d5-49e9-aa9e-62ca309e6972","countryId":"country.97e14s"},"geometry":{"type":"Polygon","coordinates":[[[5.7907,49.5378],[5.4777,49.4952],[5.6436,49.4358],[5.7561,49.2893],[5.7601,49.1091],[5.8415,49.0556],[5.7239,48.73],[5.7652,48.4966],[5.9769,48.3575],[6.1736,48.3994],[6.5018,48.4145],[6.6062,48.4693],[6.8072,48.396],[7.0887,48.5234],[6.9704,48.611],[6.7069,48.6681],[6.1432,48.9346],[5.935,49.084],[6.0155,49.152],[6.004,49.2931],[5.9275,49.3701],[5.9281,49.4823],[5.7907,49.5378]]]}},{"type":"Feature","properties":{"sourceId":"1159316809","regionId":"region.4ed2ec28-c0c8-4aaa-8b57-b7986e2928b8","countryId":"country.97e14s"},"geometry":{"type":"Polygon","coordinates":[[[6.3453,49.4553],[6.2511,49.4895],[6.0633,49.4485],[5.9281,49.4823],[5.9275,49.3701],[6.004,49.2931],[6.0155,49.152],[5.935,49.084],[6.1432,48.9346],[6.7069,48.6681],[6.9704,48.611],[7.0887,48.5234],[7.2705,48.5842],[7.3041,48.7755],[6.9808,48.9301],[7.0773,49.0295],[7.3417,48.9434],[7.5729,48.9437],[7.6449,49.0363],[7.3716,49.1662],[7.2681,49.1056],[6.8435,49.2111],[6.7256,49.1556],[6.4945,49.4355],[6.3453,49.4553]]]}},{"type":"Feature","properties":{"sourceId":"1159316855","regionId":"region.9c35f9bd-300b-47e1-b809-6d1bda41f4e7","countryId":"country.97e14s"},"geometry":{"type":"Polygon","coordinates":[[[7.6879,44.0908],[7.6247,44.1801],[7.3808,44.1229],[7.0335,44.2429],[6.8784,44.3546],[6.7308,44.2459],[6.695,44.1531],[6.8187,44.0067],[6.7993,43.9078],[6.6364,43.7889],[6.7494,43.7382],[6.7752,43.6551],[6.9069,43.5682],[6.9332,43.4803],[7.0884,43.5687],[7.1516,43.6548],[7.3658,43.7227],[7.407,43.7635],[7.4375,43.7434],[7.5023,43.7922],[7.4779,43.8655],[7.6309,43.9935],[7.6879,44.0908]]]}},{"type":"Feature","properties":{"sourceId":"1159316851","regionId":"region.bad990c4-da7e-42f8-9684-28b3248c1ecc","countryId":"country.97e14s"},"geometry":{"type":"Polygon","coordinates":[[[6.9383,44.658],[6.684,44.5406],[6.6304,44.4524],[6.5128,44.4492],[6.3652,44.5347],[6.2587,44.4678],[6.0735,44.4676],[5.9558,44.3955],[5.8051,44.2107],[5.6789,44.1907],[5.5062,44.1218],[5.5862,43.9216],[5.7538,43.7321],[5.9412,43.744],[6.0366,43.6756],[6.2132,43.7915],[6.386,43.741],[6.4273,43.7938],[6.6364,43.7889],[6.7993,43.9078],[6.8187,44.0067],[6.695,44.1531],[6.7308,44.2459],[6.8784,44.3546],[6.9178,44.4363],[6.8388,44.5029],[6.9383,44.658]]]}},{"type":"Feature","properties":{"sourceId":"1159316853","regionId":"region.ef270e73-3f6d-4811-9665-bb9afe68c548","countryId":"country.97e14s"},"geometry":{"type":"Polygon","coordinates":[[[7.0388,44.7121],[6.9828,44.847],[6.7279,44.9287],[6.6294,45.1235],[6.4594,45.0536],[6.2664,45.1248],[6.3651,44.8682],[6.1289,44.8549],[5.9731,44.8081],[5.812,44.7121],[5.6579,44.6414],[5.6513,44.4959],[5.4593,44.3703],[5.684,44.2594],[5.6789,44.1907],[5.8051,44.2107],[5.9558,44.3955],[6.0735,44.4676],[6.2587,44.4678],[6.3652,44.5347],[6.5128,44.4492],[6.6304,44.4524],[6.684,44.5406],[6.9383,44.658],[7.0388,44.7121]]]}},{"type":"Feature","properties":{"sourceId":"1159316843","regionId":"region.9455d156-216c-40e5-bd11-b2e1ff910115","countryId":"country.97e14s"},"geometry":{"type":"Polygon","coordinates":[[[7.0754,45.4663],[6.9828,45.5111],[6.9634,45.6407],[6.7839,45.765],[6.6027,45.7966],[6.5123,45.9066],[6.3302,45.7039],[6.1368,45.7591],[6.0032,45.7521],[5.8973,45.8229],[5.8404,45.9388],[5.7591,45.7207],[5.6005,45.6556],[5.7411,45.4509],[5.9108,45.3942],[5.9839,45.4833],[6.1254,45.4351],[6.1895,45.3299],[6.1309,45.2612],[6.1699,45.1523],[6.2664,45.1248],[6.4594,45.0536],[6.6294,45.1235],[6.8441,45.1301],[7.0622,45.2185],[7.1607,45.4109],[7.0754,45.4663]]]}},{"type":"Feature","properties":{"sourceId":"1159316841","regionId":"region.a47c1fad-d5a1-44df-8ffd-38e8909631be","countryId":"country.97e14s"},"geometry":{"type":"Polygon","coordinates":[[[7.0221,45.9253],[6.8539,46.1226],[6.7881,46.405],[6.6137,46.4559],[6.3016,46.3945],[6.2166,46.3095],[6.2812,46.2401],[6.1079,46.1386],[5.9588,46.1305],[5.8252,46.0953],[5.8404,45.9388],[5.8973,45.8229],[6.0032,45.7521],[6.1368,45.7591],[6.3302,45.7039],[6.5123,45.9066],[6.6027,45.7966],[6.7839,45.765],[6.8008,45.8265],[7.0221,45.9253]]]}},{"type":"Feature","properties":{"sourceId":"1159313549","regionId":"region.c1549925-c4b9-4a47-aa29-55e505de2e04","countryId":"country.97e14s"},"geometry":{"type":"Polygon","coordinates":[[[-1.7497,43.2948],[-1.4035,43.2433],[-1.435,43.0357],[-1.2749,43.0468],[-0.9815,42.957],[-0.745,42.9187],[-0.5612,42.7735],[-0.3051,42.8308],[-0.29,42.9876],[-0.0807,43.1725],[0.0232,43.3392],[-0.0473,43.5222],[-0.1097,43.5748],[-0.2363,43.5871],[-0.5623,43.5431],[-0.8,43.5674],[-1.173,43.5511],[-1.4407,43.4991],[-1.514,43.5386],[-1.661,43.3997],[-1.7941,43.386],[-1.7497,43.2948]]]}},{"type":"Feature","properties":{"sourceId":"1159313555","regionId":"region.8a21bd77-88e4-45c4-969a-93d8c018ef80","countryId":"country.97e14s"},"geometry":{"type":"Polygon","coordinates":[[[0.6634,42.6962],[0.6563,42.8384],[0.8561,42.8128],[0.8866,42.959],[0.9922,42.9903],[0.9966,43.0947],[1.2366,43.1848],[1.4409,43.213],[1.5152,43.2967],[1.7026,43.2667],[1.7254,43.3162],[2.0317,43.4226],[1.7289,43.6575],[1.5557,43.9183],[1.3736,43.8839],[1.2462,43.7743],[1.1648,43.8156],[0.9539,43.7873],[1.1923,43.5988],[1.0352,43.4755],[1.0253,43.3775],[0.7889,43.4137],[0.6067,43.3109],[0.4416,43.1311],[0.5629,43.0738],[0.6449,42.9569],[0.4578,42.8263],[0.4669,42.6904],[0.6634,42.6962]]]}},{"type":"Feature","properties":{"sourceId":"1159316869","regionId":"region.0d9ed782-b3fb-4c5a-80f2-c561c2fafb33","countryId":"country.97e14s"},"geometry":{"type":"Polygon","coordinates":[[[-0.3051,42.8308],[-0.0389,42.6851],[0.1692,42.7265],[0.2754,42.6687],[0.4669,42.6904],[0.4578,42.8263],[0.6449,42.9569],[0.5629,43.0738],[0.4416,43.1311],[0.6067,43.3109],[0.1957,43.3716],[0.1236,43.5049],[-0.1097,43.5748],[-0.0473,43.5222],[0.0232,43.3392],[-0.0807,43.1725],[-0.29,42.9876],[-0.3051,42.8308]]]}},{"type":"Feature","properties":{"sourceId":"1159316867","regionId":"region.b2c75432-1b6c-4c2b-9de5-b61c73b6d8fd","countryId":"country.97e14s"},"geometry":{"type":"Polygon","coordinates":[[[0.8561,42.8128],[1.0682,42.7761],[1.1343,42.716],[1.3191,42.7134],[1.4293,42.5954],[1.4514,42.6021],[1.5973,42.6219],[1.7611,42.5676],[1.9383,42.5718],[2.0056,42.6561],[2.1661,42.6638],[2.0556,42.7443],[1.9127,42.7566],[1.9772,42.8637],[1.9527,43.0957],[1.7136,43.1897],[1.7026,43.2667],[1.5152,43.2967],[1.4409,43.213],[1.2366,43.1848],[0.9966,43.0947],[0.9922,42.9903],[0.8866,42.959],[0.8561,42.8128]]]}},{"type":"Feature","properties":{"sourceId":"1159316863","regionId":"region.b87f29ca-ae34-4193-8c61-1ea8734770ed","countryId":"country.97e14s"},"geometry":{"type":"Polygon","coordinates":[[[1.7171,42.5399],[1.707,42.5028],[1.7122,42.4937],[1.9275,42.4369],[2.0517,42.3524],[2.137,42.4162],[2.2774,42.4286],[2.4649,42.3406],[2.6403,42.3728],[2.9337,42.4702],[3.181,42.4315],[3.0519,42.5549],[3.0463,42.8371],[2.8553,42.9138],[2.704,42.834],[2.375,42.8473],[2.343,42.7188],[2.1661,42.6638],[2.0056,42.6561],[1.9383,42.5718],[1.7611,42.5676],[1.7171,42.5399]]]}},{"type":"Feature","properties":{"sourceId":"1159316815","regionId":"region.8bd43ed5-36c6-4419-8d48-ac99d2fe1748","countryId":"country.97e14s"},"geometry":{"type":"Polygon","coordinates":[[[7.6449,49.0363],[7.5729,48.9437],[7.3417,48.9434],[7.0773,49.0295],[6.9808,48.9301],[7.3041,48.7755],[7.2705,48.5842],[7.0887,48.5234],[7.1099,48.3423],[7.2087,48.3034],[7.4661,48.2073],[7.582,48.1214],[7.752,48.3553],[7.8103,48.615],[7.9701,48.7573],[8.1027,48.8213],[8.1999,48.9583],[7.9319,49.0348],[7.6449,49.0363]]]}},{"type":"Feature","properties":{"sourceId":"1159313579","regionId":"region.3abc049e-a114-4eb4-9cb3-8890542e7b62","countryId":"country.97e14s"},"geometry":{"type":"Polygon","coordinates":[[[7.582,48.1214],[7.4661,48.2073],[7.2087,48.3034],[6.8689,47.819],[7.0503,47.7156],[7.0265,47.6236],[7.1422,47.4877],[7.3369,47.4319],[7.3882,47.4333],[7.4206,47.4509],[7.446,47.4869],[7.4858,47.4988],[7.5209,47.5634],[7.586,47.5846],[7.5259,47.7832],[7.6189,48.0027],[7.582,48.1214]]]}},{"type":"Feature","properties":{"sourceId":"1159316817","regionId":"region.236da115-8f85-47c0-87be-fa5934a6bb40","countryId":"country.97e14s"},"geometry":{"type":"Polygon","coordinates":[[[6.9392,47.4268],[6.9733,47.4891],[7.1422,47.4877],[7.0265,47.6236],[7.0503,47.7156],[6.8689,47.819],[6.836,47.8242],[6.7608,47.7138],[6.8071,47.5629],[6.8938,47.5518],[6.9392,47.4268]]]}},{"type":"Feature","properties":{"sourceId":"1159313577","regionId":"region.8a6be4ad-50ff-4672-8bfe-0868a5347cc7","countryId":"country.97e14s"},"geometry":{"type":"Polygon","coordinates":[[[6.9392,47.4268],[6.8938,47.5518],[6.8071,47.5629],[6.3077,47.4923],[6.0745,47.3555],[5.9271,47.343],[5.6988,47.265],[5.8149,47.1336],[5.7785,47.0652],[5.9622,46.9763],[6.0248,46.8582],[6.2066,46.7664],[6.0538,46.6163],[6.138,46.5576],[6.1319,46.5956],[6.4292,46.7608],[6.4431,46.8515],[6.4426,46.9442],[6.6654,47.0213],[6.8381,47.1681],[6.9562,47.2452],[6.9392,47.4268]]]}},{"type":"Feature","properties":{"sourceId":"1159316839","regionId":"region.db163a30-ffa0-4e2c-bfe9-493aef43ee3a","countryId":"country.97e14s"},"geometry":{"type":"Polygon","coordinates":[[[6.1186,46.3318],[6.059,46.4174],[5.8809,46.2755],[5.7305,46.2712],[5.6479,46.344],[5.5099,46.2607],[5.311,46.4554],[5.1786,46.5054],[4.9372,46.5005],[4.7978,46.1718],[4.7467,45.9666],[4.9091,45.8742],[5.1024,45.8262],[5.2392,45.7857],[5.3335,45.868],[5.6005,45.6556],[5.7591,45.7207],[5.8404,45.9388],[5.8252,46.0953],[5.9588,46.1305],[5.9585,46.212],[6.0897,46.2464],[6.1186,46.3318]]]}},{"type":"Feature","properties":{"sourceId":"1159316821","regionId":"region.46b7b0a3-49b0-49b7-b577-bafb3bfd1fc9","countryId":"country.97e14s"},"geometry":{"type":"Polygon","coordinates":[[[6.138,46.5576],[6.0538,46.6163],[6.2066,46.7664],[6.0248,46.8582],[5.9622,46.9763],[5.7785,47.0652],[5.8149,47.1336],[5.6988,47.265],[5.5217,47.2893],[5.4859,47.1911],[5.2506,46.9812],[5.376,46.8224],[5.423,46.6315],[5.311,46.4554],[5.5099,46.2607],[5.6479,46.344],[5.7305,46.2712],[5.8809,46.2755],[6.059,46.4174],[6.138,46.5576]]]}},{"type":"Feature","properties":{"sourceId":"1159313541","regionId":"region.2188901c-a091-485f-8826-dd54d21ed7d4","countryId":"country.97e14s"},"geometry":{"type":"Polygon","coordinates":[[[6.9332,43.4803],[6.9069,43.5682],[6.7752,43.6551],[6.7494,43.7382],[6.6364,43.7889],[6.4273,43.7938],[6.386,43.741],[6.2132,43.7915],[6.0366,43.6756],[5.9412,43.744],[5.7538,43.7321],[5.7073,43.6435],[5.6827,43.3991],[5.761,43.2786],[5.6722,43.1804],[5.7761,43.1308],[6.027,43.0782],[6.6798,43.2016],[6.7311,43.4078],[6.9332,43.4803]]]}},{"type":"Feature","properties":{"sourceId":"1159316845","regionId":"region.37e26294-8eb7-4fd2-93a9-c0547817d8ec","countryId":"country.97e14s"},"geometry":{"type":"Polygon","coordinates":[[[5.6722,43.1804],[5.761,43.2786],[5.6827,43.3991],[5.7073,43.6435],[5.7538,43.7321],[5.5825,43.666],[5.3366,43.7398],[5.1926,43.7491],[4.9685,43.8667],[4.7728,43.9328],[4.6409,43.8706],[4.6049,43.696],[4.4995,43.7063],[4.3371,43.5321],[4.2059,43.4599],[4.513,43.4558],[4.5663,43.3711],[4.8203,43.3464],[5.0223,43.5522],[5.2136,43.4578],[5.0571,43.4221],[5.0648,43.328],[5.3389,43.3343],[5.347,43.2159],[5.6722,43.1804]]]}},{"type":"Feature","properties":{"sourceId":"1159316859","regionId":"region.cd223779-cb4a-4e0d-8513-be6dec562e95","countryId":"country.97e14s"},"geometry":{"type":"Polygon","coordinates":[[[4.2059,43.4599],[4.3371,43.5321],[4.4995,43.7063],[4.6049,43.696],[4.6409,43.8706],[4.7728,43.9328],[4.8498,44.0127],[4.7235,44.094],[4.6578,44.2817],[4.5208,44.3368],[4.3731,44.3397],[4.2511,44.2818],[4.1306,44.3317],[3.994,44.4579],[3.8948,44.3902],[3.9624,44.2621],[3.9204,44.1664],[3.791,44.136],[3.6904,44.1802],[3.5179,44.1134],[3.3767,44.1683],[3.3065,44.0691],[3.4424,44.0002],[3.342,43.9039],[3.5451,43.8664],[3.7216,43.9707],[3.9544,43.8718],[3.9807,43.7985],[4.1416,43.7381],[4.1807,43.6407],[4.1053,43.5519],[4.2059,43.4599]]]}},{"type":"Feature","properties":{"sourceId":"1159313551","regionId":"region.860f6bc3-f103-46b2-b698-11594acb4f86","countryId":"country.97e14s"},"geometry":{"type":"Polygon","coordinates":[[[4.1053,43.5519],[4.1807,43.6407],[4.1416,43.7381],[3.9807,43.7985],[3.9544,43.8718],[3.7216,43.9707],[3.5451,43.8664],[3.342,43.9039],[3.1894,43.8131],[3.0529,43.8101],[3.0509,43.7015],[2.9345,43.6937],[2.7756,43.6179],[2.6414,43.6331],[2.6567,43.4608],[2.5675,43.4228],[2.5831,43.3246],[2.7556,43.258],[2.8395,43.3162],[3.2443,43.2194],[3.3854,43.2839],[3.5134,43.2811],[3.6222,43.3749],[3.9393,43.5325],[4.1053,43.5519]]]}},{"type":"Feature","properties":{"sourceId":"1159316861","regionId":"region.329c1560-1489-44f5-b68f-030d286443fc","countryId":"country.97e14s"},"geometry":{"type":"Polygon","coordinates":[[[3.2443,43.2194],[2.8395,43.3162],[2.7556,43.258],[2.5831,43.3246],[2.5675,43.4228],[2.2615,43.4423],[2.2172,43.3842],[2.0317,43.4226],[1.7254,43.3162],[1.7026,43.2667],[1.7136,43.1897],[1.9527,43.0957],[1.9772,42.8637],[1.9127,42.7566],[2.0556,42.7443],[2.1661,42.6638],[2.343,42.7188],[2.375,42.8473],[2.704,42.834],[2.8553,42.9138],[3.0463,42.8371],[3.039,42.9428],[3.114,43.1063],[3.2443,43.2194]]]}},{"type":"Feature","properties":{"sourceId":"1159316893","regionId":"region.01acf25d-e378-41b8-9dee-7f3dc5f8b20a","countryId":"country.97e14s"},"geometry":{"type":"Polygon","coordinates":[[[-1.514,43.5386],[-1.4407,43.4991],[-1.173,43.5511],[-0.8,43.5674],[-0.5623,43.5431],[-0.2363,43.5871],[-0.1675,43.9309],[0.0553,43.907],[0.0852,43.9673],[0.1355,44.1173],[-0.1292,44.1525],[-0.1406,44.2265],[-0.3799,44.2088],[-0.3841,44.2803],[-0.6806,44.4515],[-1.0078,44.4364],[-1.0794,44.5298],[-1.2513,44.4682],[-1.3461,44.0192],[-1.4769,43.5801],[-1.514,43.5386]]]}},{"type":"Feature","properties":{"sourceId":"1159316895","regionId":"region.700f4808-b9aa-4f7c-b717-3bb0d61753f6","countryId":"country.97e14s"},"geometry":{"type":"Polygon","coordinates":[[[-1.2513,44.4682],[-1.0794,44.5298],[-1.0078,44.4364],[-0.6806,44.4515],[-0.3841,44.2803],[-0.3799,44.2088],[-0.1406,44.2265],[-0.0347,44.2759],[0.016,44.3812],[-0.0061,44.5091],[0.1702,44.6374],[0.1104,44.7103],[0.2974,44.7623],[0.1745,44.8267],[0.0311,44.8403],[0.0051,44.9463],[0.0659,45.0635],[-0.0336,45.1201],[-0.1738,45.1011],[-0.3943,45.1665],[-0.4689,45.2833],[-0.7066,45.3222],[-1.0592,45.527],[-1.14,45.4901],[-1.1995,45.1208],[-1.2513,44.4682]]]}},{"type":"Feature","properties":{"sourceId":"1159313543","regionId":"region.292a5587-6724-4ba5-948a-9c22f2940d9c","countryId":"country.97e14s"},"geometry":{"type":"Polygon","coordinates":[[[-0.7066,45.3222],[-0.4689,45.2833],[-0.3943,45.1665],[-0.1738,45.1011],[-0.0336,45.1201],[0.0003,45.192],[-0.1439,45.2901],[-0.2657,45.3075],[-0.2483,45.435],[-0.2965,45.5644],[-0.4205,45.6202],[-0.4132,45.7832],[-0.1281,45.832],[-0.103,45.9697],[-0.2596,46.0652],[-0.6371,46.1545],[-0.7566,46.3012],[-0.9698,46.3624],[-1.1192,46.311],[-1.1796,46.2295],[-1.0487,46.0388],[-1.0734,45.9044],[-1.2303,45.7924],[-1.1942,45.7102],[-0.8418,45.5146],[-0.7066,45.3222]]]}},{"type":"Feature","properties":{"sourceId":"1159313545","regionId":"region.acfa8470-e4e7-43cd-ad0b-1c8d14c453f0","countryId":"country.97e14s"},"geometry":{"type":"Polygon","coordinates":[[[-1.1192,46.311],[-0.9698,46.3624],[-0.7566,46.3012],[-0.5654,46.357],[-0.6339,46.4228],[-0.616,46.5476],[-0.712,46.802],[-0.946,47.0004],[-1.1486,47.0295],[-1.2697,47.0763],[-1.368,47.024],[-1.5466,47.0201],[-1.5,46.8827],[-1.7203,46.8846],[-1.9907,47.0354],[-2.1022,46.9307],[-2.1188,46.82],[-1.8574,46.6353],[-1.8048,46.5036],[-1.5045,46.4193],[-1.2401,46.2842],[-1.1192,46.311]]]}},{"type":"Feature","properties":{"sourceId":"1159316759","regionId":"region.b0e88bac-6a70-474f-b568-eb872880d292","countryId":"country.97e14s"},"geometry":{"type":"Polygon","coordinates":[[[-1.9907,47.0354],[-1.7203,46.8846],[-1.5,46.8827],[-1.5466,47.0201],[-1.368,47.024],[-1.2697,47.0763],[-1.1486,47.0295],[-1.2301,47.1094],[-1.1619,47.1858],[-1.3347,47.3239],[-0.9416,47.4123],[-1.0313,47.6014],[-1.1581,47.6315],[-1.251,47.7804],[-1.4617,47.8234],[-1.6853,47.7185],[-2.0234,47.6729],[-2.0885,47.6326],[-2.11,47.5423],[-2.4611,47.4526],[-2.5564,47.3832],[-2.2784,47.2464],[-2.03,47.0921],[-1.9907,47.0354]]]}},{"type":"Feature","properties":{"sourceId":"1159313259","regionId":"region.f16c33fd-9e4d-45b5-aff8-81575839946c","countryId":"country.97e14s"},"geometry":{"type":"Polygon","coordinates":[[[-2.4611,47.4526],[-2.11,47.5423],[-2.0885,47.6326],[-2.0517,47.8361],[-2.106,47.945],[-2.2554,47.9974],[-2.2873,48.1337],[-2.5077,48.1649],[-2.5379,48.1001],[-2.7958,48.1294],[-3.1011,48.2075],[-3.1627,48.1559],[-3.5649,48.1857],[-3.7305,48.1012],[-3.6461,47.9941],[-3.3939,47.9525],[-3.3913,47.884],[-3.5393,47.7737],[-3.3451,47.7213],[-3.0738,47.5765],[-2.7582,47.6391],[-2.7414,47.5513],[-2.5017,47.5267],[-2.4611,47.4526]]]}},{"type":"Feature","properties":{"sourceId":"1159316751","regionId":"region.4cabe5b0-618a-4d13-84b7-18e7346c80bf","countryId":"country.97e14s"},"geometry":{"type":"Polygon","coordinates":[[[-3.5393,47.7737],[-3.3913,47.884],[-3.3939,47.9525],[-3.6461,47.9941],[-3.7305,48.1012],[-3.5649,48.1857],[-3.5256,48.2921],[-3.6385,48.6878],[-3.7319,48.719],[-3.9495,48.6693],[-3.974,48.7328],[-4.5636,48.6296],[-4.7646,48.5202],[-4.7834,48.3764],[-4.6189,48.3485],[-4.4265,48.4037],[-4.3247,48.3627],[-4.4576,48.249],[-4.3024,48.1964],[-4.3619,48.1157],[-4.6837,48.0673],[-4.4346,47.9757],[-4.3473,47.8629],[-4.2252,47.8024],[-4.0944,47.8755],[-3.8945,47.8553],[-3.8517,47.801],[-3.5393,47.7737]]]}},{"type":"Feature","properties":{"sourceId":"1159316753","regionId":"region.8d2d4fdd-aa52-4747-b7f5-4151efa69b52","countryId":"country.97e14s"},"geometry":{"type":"Polygon","coordinates":[[[-3.6385,48.6878],[-3.5256,48.2921],[-3.5649,48.1857],[-3.1627,48.1559],[-3.1011,48.2075],[-2.7958,48.1294],[-2.5379,48.1001],[-2.5077,48.1649],[-2.2873,48.1337],[-2.1602,48.2607],[-1.9824,48.2803],[-1.9327,48.3639],[-1.9485,48.5383],[-2.0524,48.6501],[-2.2192,48.6037],[-2.3125,48.687],[-2.6363,48.5388],[-2.813,48.5986],[-2.827,48.6575],[-3.0771,48.8283],[-3.5153,48.8419],[-3.6385,48.6878]]]}},{"type":"Feature","properties":{"sourceId":"1159316755","regionId":"region.238c106a-8844-44b2-9847-a98b94f9bf7e","countryId":"country.97e14s"},"geometry":{"type":"Polygon","coordinates":[[[-1.9485,48.5383],[-1.9327,48.3639],[-1.9824,48.2803],[-2.1602,48.2607],[-2.2873,48.1337],[-2.2554,47.9974],[-2.106,47.945],[-2.0517,47.8361],[-2.0885,47.6326],[-2.0234,47.6729],[-1.6853,47.7185],[-1.4617,47.8234],[-1.251,47.7804],[-1.243,47.8095],[-1.1677,47.9608],[-1.0406,48.0015],[-1.1017,48.2674],[-1.0791,48.4987],[-1.2657,48.5355],[-1.4483,48.4658],[-1.5897,48.6418],[-1.8382,48.6238],[-1.9485,48.5383]]]}},{"type":"Feature","properties":{"sourceId":"1159316747","regionId":"region.ffbff5f6-0984-433d-9afb-497f6e3eec25","countryId":"country.97e14s"},"geometry":{"type":"Polygon","coordinates":[[[-1.5897,48.6418],[-1.4483,48.4658],[-1.2657,48.5355],[-1.0791,48.4987],[-0.8627,48.5018],[-0.7368,48.6861],[-0.8409,48.7523],[-1.0922,48.7872],[-1.0642,48.9268],[-0.8626,49.0264],[-0.9235,49.211],[-1.1228,49.2762],[-1.1188,49.3462],[-1.3063,49.5581],[-1.2322,49.6414],[-1.3913,49.7127],[-1.5973,49.6523],[-1.8118,49.6907],[-1.8847,49.5309],[-1.8196,49.3968],[-1.6104,49.2159],[-1.5536,48.7471],[-1.5897,48.6418]]]}},{"type":"Feature","properties":{"sourceId":"1159313547","regionId":"region.3f5f479a-6dd3-420d-9b41-3c16b2fa64b1","countryId":"country.97e14s"},"geometry":{"type":"Polygon","coordinates":[[[-1.1188,49.3462],[-1.1228,49.2762],[-0.9235,49.211],[-0.8626,49.0264],[-1.0642,48.9268],[-1.0922,48.7872],[-0.8409,48.7523],[-0.4109,48.87],[-0.1404,48.8255],[0.148,48.9298],[0.4172,48.9461],[0.4226,49.1304],[0.305,49.3131],[0.2943,49.4347],[0.1624,49.4152],[-0.0338,49.3201],[-0.2195,49.2801],[-0.4111,49.3428],[-0.8221,49.3627],[-1.0723,49.3968],[-1.1188,49.3462]]]}},{"type":"Feature","properties":{"sourceId":"1159313563","regionId":"region.0e98e89b-396c-45e7-8140-a3fc984238a2","countryId":"country.97e14s"},"geometry":{"type":"Polygon","coordinates":[[[0.2943,49.4347],[0.305,49.3131],[0.4226,49.1304],[0.4172,48.9461],[0.5919,48.878],[0.8164,48.6651],[1.0389,48.7477],[1.2582,48.7516],[1.4514,48.8708],[1.4928,48.9395],[1.454,49.0486],[1.6199,49.0826],[1.6981,49.2307],[1.718,49.411],[1.3501,49.442],[1.0034,49.258],[0.8736,49.3151],[0.8047,49.4199],[0.664,49.4077],[0.4932,49.4936],[0.2943,49.4347]]]}},{"type":"Feature","properties":{"sourceId":"1159316745","regionId":"region.c8fef497-e04a-49ec-81e8-75fa9ec09fd7","countryId":"country.97e14s"},"geometry":{"type":"Polygon","coordinates":[[[0.4932,49.4936],[0.664,49.4077],[0.8047,49.4199],[0.8736,49.3151],[1.0034,49.258],[1.3501,49.442],[1.718,49.411],[1.6809,49.6451],[1.7545,49.7656],[1.6809,49.8885],[1.3731,50.0657],[1.1726,49.961],[0.6748,49.8758],[0.2359,49.7293],[0.0797,49.5422],[0.2568,49.4641],[0.4932,49.4936]]]}},{"type":"Feature","properties":{"sourceId":"1159316741","regionId":"region.018ec949-2114-4c38-8337-b2665091309b","countryId":"country.97e14s"},"geometry":{"type":"Polygon","coordinates":[[[1.3731,50.0657],[1.6809,49.8885],[1.7545,49.7656],[1.8562,49.7014],[2.2386,49.6978],[2.6534,49.5777],[2.8732,49.7],[3.1186,49.7058],[3.0841,49.8611],[3.157,50.0187],[3.0883,50.05],[2.9646,50.0381],[2.6768,50.0799],[2.3941,50.1594],[2.4103,50.2248],[2.1129,50.2031],[1.8196,50.3547],[1.595,50.3727],[1.521,50.2147],[1.3731,50.0657]]]}},{"type":"Feature","properties":{"sourceId":"1159313573","regionId":"region.64bc6cc8-c32c-4f08-8988-331606bfe4e0","countryId":"country.97e14s"},"geometry":{"type":"Polygon","coordinates":[[[1.595,50.3727],[1.8196,50.3547],[2.1129,50.2031],[2.4103,50.2248],[2.3941,50.1594],[2.6768,50.0799],[2.9646,50.0381],[3.0883,50.05],[3.1348,50.2612],[3.0019,50.3813],[2.9857,50.5015],[2.8242,50.525],[2.8112,50.6104],[2.4892,50.6333],[2.3715,50.6743],[2.3624,50.7867],[2.2223,50.8057],[2.0633,51.0143],[1.7298,50.9439],[1.5806,50.8688],[1.5632,50.6783],[1.595,50.3727]]]}},{"type":"Feature","properties":{"sourceId":"1159308481","regionId":"region.346f1d2a-07ed-46bb-beb6-e56ea159a0c3","countryId":"country.97e14s"},"geometry":{"type":"Polygon","coordinates":[[[8.5705,42.3818],[8.8681,42.3214],[9.0493,42.1967],[9.2432,41.8895],[9.3958,41.8604],[9.4032,41.9529],[9.5527,42.113],[9.5596,42.2946],[9.5281,42.5635],[9.4566,42.6064],[9.4844,42.8324],[9.4224,43.0174],[9.3057,42.8393],[9.3425,42.7491],[9.1071,42.7259],[9.0183,42.6501],[8.8128,42.5996],[8.6675,42.5097],[8.5705,42.3818]]]}},{"type":"Feature","properties":{"sourceId":"1159317105","regionId":"region.d8d9cd6b-3321-4312-bb49-1c02ab0fce30","countryId":"country.97e14s"},"geometry":{"type":"Polygon","coordinates":[[[9.3958,41.8604],[9.2432,41.8895],[9.0493,42.1967],[8.8681,42.3214],[8.5705,42.3818],[8.6808,42.2728],[8.5658,42.1745],[8.738,42.0439],[8.8054,41.9069],[8.6956,41.7294],[8.8992,41.6955],[8.7781,41.5916],[8.9357,41.4892],[9.2107,41.4409],[9.3411,41.5693],[9.4016,41.7064],[9.3958,41.8604]]]}},{"type":"Feature","properties":{"sourceId":"1159315635","regionId":"region.5f6117df-66a2-4a6e-a761-e03e968a98da","countryId":"country.97e14s"},"geometry":{"type":"Polygon","coordinates":[[[-109.212,10.3027],[-109.2342,10.3079],[-109.2186,10.2816],[-109.212,10.3027]]]}},{"type":"Feature","properties":{"sourceId":"1159316871","regionId":"region.59662e32-b648-47dc-ac7e-3b5b51fadad9","countryId":"country.97e14s"},"geometry":{"type":"Polygon","coordinates":[[[-0.1097,43.5748],[0.1236,43.5049],[0.1957,43.3716],[0.6067,43.3109],[0.7889,43.4137],[1.0253,43.3775],[1.0352,43.4755],[1.1923,43.5988],[0.9539,43.7873],[0.8484,44.0244],[0.7417,44.067],[0.4663,44.0563],[0.3143,43.9992],[0.0852,43.9673],[0.0553,43.907],[-0.1675,43.9309],[-0.2363,43.5871],[-0.1097,43.5748]]]}},{"type":"Feature","properties":{"sourceId":"1159313567","regionId":"region.c3991c16-3683-4841-a304-e279792faff8","countryId":"country.97e14s"},"geometry":{"type":"Polygon","coordinates":[[[1.8936,45.6962],[1.8853,45.773],[1.765,45.8525],[1.6165,45.8504],[1.495,46.1329],[1.3851,46.2373],[1.4144,46.3509],[1.177,46.387],[0.9871,46.2835],[0.7908,46.2187],[0.7964,46.1329],[0.9241,45.9737],[0.8101,45.9219],[0.7942,45.8246],[0.6359,45.7103],[0.8189,45.5956],[1.0086,45.6146],[1.1264,45.4891],[1.2553,45.4465],[1.4072,45.5276],[1.5664,45.5598],[1.7893,45.678],[1.8936,45.6962]]]}},{"type":"Feature","properties":{"sourceId":"1159316891","regionId":"region.cfd03144-e1ab-43b0-ab10-146a4eacffc4","countryId":"country.97e14s"},"geometry":{"type":"Polygon","coordinates":[[[1.8936,45.6962],[1.7893,45.678],[1.5664,45.5598],[1.4072,45.5276],[1.2553,45.4465],[1.247,45.2246],[1.4019,45.1275],[1.4586,45.0151],[1.6098,45.0291],[1.7996,44.9329],[2.0587,44.9751],[2.2069,45.1595],[2.1946,45.2237],[2.367,45.3689],[2.4887,45.397],[2.5186,45.4792],[2.4651,45.5846],[2.4899,45.7361],[2.289,45.6752],[2.0406,45.7603],[1.8936,45.6962]]]}},{"type":"Feature","properties":{"sourceId":"1159316873","regionId":"region.860220d7-4a4f-4c9e-81ef-cc25f9eb87c9","countryId":"country.97e14s"},"geometry":{"type":"Polygon","coordinates":[[[1.9774,44.1706],[1.8821,44.34],[1.6536,44.2743],[1.4736,44.2841],[1.2808,44.2404],[1.0645,44.3787],[0.9011,44.3671],[0.9059,44.201],[0.7417,44.067],[0.8484,44.0244],[0.9539,43.7873],[1.1648,43.8156],[1.2462,43.7743],[1.3736,43.8839],[1.5557,43.9183],[1.8538,44.1468],[1.9774,44.1706]]]}},{"type":"Feature","properties":{"sourceId":"1159316879","regionId":"region.f439561e-b857-4a15-bf03-507bbd0edc46","countryId":"country.97e14s"},"geometry":{"type":"Polygon","coordinates":[[[1.9774,44.1706],[1.8538,44.1468],[1.5557,43.9183],[1.7289,43.6575],[2.0317,43.4226],[2.2172,43.3842],[2.2615,43.4423],[2.5675,43.4228],[2.6567,43.4608],[2.6414,43.6331],[2.7756,43.6179],[2.9345,43.6937],[2.7406,43.729],[2.6138,43.7983],[2.4601,44.0467],[2.1552,44.1906],[1.9774,44.1706]]]}},{"type":"Feature","properties":{"sourceId":"1159310957","regionId":"region.09cfd7be-439b-4d98-9fe6-320f7a78196c","countryId":"country.97e14s"},"geometry":{"type":"Polygon","coordinates":[[[4.8114,45.2963],[4.9675,45.3405],[5.1733,45.2378],[5.1707,45.0996],[5.4932,44.9954],[5.4599,44.8182],[5.6547,44.7239],[5.812,44.7121],[5.9731,44.8081],[6.1289,44.8549],[6.3651,44.8682],[6.2664,45.1248],[6.1699,45.1523],[6.1309,45.2612],[6.1895,45.3299],[6.1254,45.4351],[5.9839,45.4833],[5.9108,45.3942],[5.7411,45.4509],[5.6005,45.6556],[5.3335,45.868],[5.2392,45.7857],[5.1024,45.8262],[5.1458,45.725],[5.0143,45.6124],[4.87,45.5497],[4.76,45.4445],[4.7698,45.3657],[4.8114,45.2963]]]}},{"type":"Feature","properties":{"sourceId":"1159316831","regionId":"region.4360e76a-ae86-4c4a-b376-7ccbe2c7af39","countryId":"country.97e14s"},"geometry":{"type":"Polygon","coordinates":[[[5.812,44.7121],[5.6547,44.7239],[5.4599,44.8182],[5.4932,44.9954],[5.1707,45.0996],[5.1733,45.2378],[4.9675,45.3405],[4.8114,45.2963],[4.8228,45.1112],[4.8926,44.9495],[4.7776,44.7954],[4.7895,44.6585],[4.7213,44.5734],[4.6575,44.3268],[4.8448,44.2388],[5.0523,44.2962],[5.3789,44.2021],[5.5062,44.1218],[5.6789,44.1907],[5.684,44.2594],[5.4593,44.3703],[5.6513,44.4959],[5.6579,44.6414],[5.812,44.7121]]]}},{"type":"Feature","properties":{"sourceId":"1159316877","regionId":"region.0ce4a6e1-ef6e-4f28-bdaf-184dc07b88db","countryId":"country.97e14s"},"geometry":{"type":"Polygon","coordinates":[[[2.2053,44.6223],[1.834,44.4883],[1.8821,44.34],[1.9774,44.1706],[2.1552,44.1906],[2.4601,44.0467],[2.6138,43.7983],[2.7406,43.729],[2.9345,43.6937],[3.0509,43.7015],[3.0529,43.8101],[3.1894,43.8131],[3.342,43.9039],[3.4424,44.0002],[3.3065,44.0691],[3.3767,44.1683],[3.1234,44.2634],[3.1407,44.421],[2.9801,44.6443],[2.9266,44.7686],[2.7267,44.9354],[2.594,44.835],[2.4547,44.6616],[2.3005,44.6687],[2.2053,44.6223]]]}},{"type":"Feature","properties":{"sourceId":"1159316875","regionId":"region.280a1d05-27e2-4a37-93d3-a0637e4ebe83","countryId":"country.97e14s"},"geometry":{"type":"Polygon","coordinates":[[[2.2053,44.6223],[2.0587,44.9751],[1.7996,44.9329],[1.6098,45.0291],[1.4586,45.0151],[1.4373,44.8834],[1.288,44.7174],[1.0772,44.5745],[1.013,44.5476],[1.0645,44.3787],[1.2808,44.2404],[1.4736,44.2841],[1.6536,44.2743],[1.8821,44.34],[1.834,44.4883],[2.2053,44.6223]]]}},{"type":"Feature","properties":{"sourceId":"1159316777","regionId":"region.0c6545eb-6142-444f-9e68-917911cc22be","countryId":"country.97e14s"},"geometry":{"type":"Polygon","coordinates":[[[1.3267,47.1863],[1.2391,47.2782],[1.0988,47.3259],[1.1196,47.4426],[0.9874,47.622],[0.8387,47.676],[0.6096,47.6892],[0.2418,47.6029],[0.1771,47.3774],[0.0668,47.1537],[0.3118,47.0322],[0.4339,46.9327],[0.6718,46.966],[0.8808,46.7505],[0.9798,46.7553],[1.0743,47.014],[1.2368,47.017],[1.3267,47.1863]]]}},{"type":"Feature","properties":{"sourceId":"1159316773","regionId":"region.4e07c85f-ea85-435f-81c8-c02d403787c0","countryId":"country.97e14s"},"geometry":{"type":"Polygon","coordinates":[[[1.3267,47.1863],[1.2368,47.017],[1.0743,47.014],[0.9798,46.7553],[0.8808,46.7505],[0.916,46.6151],[1.1015,46.5344],[1.177,46.387],[1.4144,46.3509],[1.8815,46.4382],[2.1392,46.4214],[2.1874,46.6227],[2.0777,46.8391],[2.1294,46.893],[2.0519,47.0964],[1.7744,47.1307],[1.839,47.2192],[1.7244,47.2892],[1.3267,47.1863]]]}},{"type":"Feature","properties":{"sourceId":"1159313561","regionId":"region.d9856b88-9cf8-43a5-8797-43b29412d22d","countryId":"country.97e14s"},"geometry":{"type":"Polygon","coordinates":[[[1.839,47.2192],[1.9499,47.2845],[2.1008,47.2701],[2.1157,47.3917],[2.2535,47.4692],[2.1328,47.5877],[2.2391,47.621],[2.1717,47.6772],[1.9704,47.6641],[1.5478,47.7694],[1.5789,47.8655],[1.5197,47.9855],[1.2118,47.9677],[1.0189,48.1293],[0.8326,48.0945],[0.8406,47.9546],[0.7447,47.7875],[0.6096,47.6892],[0.8387,47.676],[0.9874,47.622],[1.1196,47.4426],[1.0988,47.3259],[1.2391,47.2782],[1.3267,47.1863],[1.7244,47.2892],[1.839,47.2192]]]}},{"type":"Feature","properties":{"sourceId":"1159316889","regionId":"region.6d2386f5-63e5-4d55-a841-9818310b56c5","countryId":"country.97e14s"},"geometry":{"type":"Polygon","coordinates":[[[1.8936,45.6962],[2.0406,45.7603],[2.289,45.6752],[2.4899,45.7361],[2.4006,45.8292],[2.5953,45.9712],[2.5667,46.1359],[2.4741,46.2714],[2.3317,46.3291],[2.2539,46.4198],[2.1392,46.4214],[1.8815,46.4382],[1.4144,46.3509],[1.3851,46.2373],[1.495,46.1329],[1.6165,45.8504],[1.765,45.8525],[1.8853,45.773],[1.8936,45.6962]]]}},{"type":"Feature","properties":{"sourceId":"1159316763","regionId":"region.635f773a-4595-4730-b5f2-dd0f934b58db","countryId":"country.97e14s"},"geometry":{"type":"Polygon","coordinates":[[[-0.4198,47.7618],[-0.4438,47.8394],[-0.3424,48.0266],[-0.2219,48.0969],[-0.1383,48.2293],[-0.1534,48.3376],[-0.0527,48.3806],[-0.1711,48.5451],[-0.3526,48.4919],[-0.8096,48.4512],[-0.8627,48.5018],[-1.0791,48.4987],[-1.1017,48.2674],[-1.0406,48.0015],[-1.1677,47.9608],[-1.243,47.8095],[-0.9565,47.7934],[-0.6269,47.7351],[-0.4198,47.7618]]]}},{"type":"Feature","properties":{"sourceId":"1159316765","regionId":"region.22ab9ee8-b294-4968-ac23-99a4f1e657cc","countryId":"country.97e14s"},"geometry":{"type":"Polygon","coordinates":[[[-0.4198,47.7618],[0.1515,47.588],[0.2418,47.6029],[0.6096,47.6892],[0.7447,47.7875],[0.8406,47.9546],[0.8326,48.0945],[0.7984,48.186],[0.5011,48.2711],[0.3905,48.3329],[0.3715,48.4485],[0.1925,48.4602],[-0.0527,48.3806],[-0.1534,48.3376],[-0.1383,48.2293],[-0.2219,48.0969],[-0.3424,48.0266],[-0.4438,47.8394],[-0.4198,47.7618]]]}},{"type":"Feature","properties":{"sourceId":"1159316849","regionId":"region.26a7ece7-ffd0-41c2-9f40-83faec6826ad","countryId":"country.97e14s"},"geometry":{"type":"Polygon","coordinates":[[[5.7538,43.7321],[5.5862,43.9216],[5.5062,44.1218],[5.3789,44.2021],[5.0523,44.2962],[4.8448,44.2388],[4.6575,44.3268],[4.6578,44.2817],[4.7235,44.094],[4.8498,44.0127],[4.7728,43.9328],[4.9685,43.8667],[5.1926,43.7491],[5.3366,43.7398],[5.5825,43.666],[5.7538,43.7321]]]}},{"type":"Feature","properties":{"sourceId":"1159316805","regionId":"region.bdd715be-e82f-4ba4-9bfc-01fadd520ec9","countryId":"country.97e14s"},"geometry":{"type":"Polygon","coordinates":[[[4.9921,48.6929],[4.8021,48.6784],[4.7729,48.5351],[4.6702,48.5318],[4.6436,48.4522],[4.8196,48.3444],[4.8624,48.1983],[4.8276,48.1115],[4.6985,48.022],[4.7933,47.9969],[4.9864,47.8139],[4.9715,47.6934],[5.1677,47.6754],[5.3749,47.6078],[5.4207,47.6711],[5.7009,47.6931],[5.716,47.8129],[5.8918,47.9326],[5.6593,48.1008],[5.713,48.2114],[5.5844,48.2838],[5.4552,48.4192],[5.0359,48.6181],[4.9921,48.6929]]]}},{"type":"Feature","properties":{"sourceId":"1159313569","regionId":"region.7960a5d5-79cc-4675-98c3-b13cfc386298","countryId":"country.97e14s"},"geometry":{"type":"Polygon","coordinates":[[[4.9921,48.6929],[4.9172,48.7877],[5.0026,48.9299],[4.9554,49.1652],[4.9787,49.2357],[4.4489,49.2761],[4.1966,49.3946],[4.0553,49.4073],[4.032,49.3598],[3.6501,49.3028],[3.7026,49.1463],[3.6658,49.0088],[3.4779,48.8501],[3.3949,48.7602],[3.5378,48.6134],[3.6356,48.5413],[3.8484,48.5258],[4.0786,48.6945],[4.3072,48.7057],[4.3282,48.6112],[4.5261,48.5289],[4.6702,48.5318],[4.7729,48.5351],[4.8021,48.6784],[4.9921,48.6929]]]}},{"type":"Feature","properties":{"sourceId":"1159316897","regionId":"region.c4aaaa1e-081a-42fa-9a46-d4ef408661ad","countryId":"country.97e14s"},"geometry":{"type":"Polygon","coordinates":[[[-0.0336,45.1201],[0.0659,45.0635],[0.0051,44.9463],[0.0311,44.8403],[0.1745,44.8267],[0.2974,44.7623],[0.3753,44.6575],[0.6408,44.6999],[0.9722,44.6384],[1.0772,44.5745],[1.288,44.7174],[1.4373,44.8834],[1.4586,45.0151],[1.4019,45.1275],[1.247,45.2246],[1.2553,45.4465],[1.1264,45.4891],[1.0086,45.6146],[0.8189,45.5956],[0.6359,45.7103],[0.5172,45.6345],[0.4249,45.4839],[0.2883,45.4285],[0.2494,45.293],[0.0003,45.192],[-0.0336,45.1201]]]}},{"type":"Feature","properties":{"sourceId":"1159316837","regionId":"region.75021b3f-4495-4ba9-acb7-1914b44becc9","countryId":"country.97e14s"},"geometry":{"type":"Polygon","coordinates":[[[4.7978,46.1718],[4.7041,46.2475],[4.4085,46.2898],[4.3839,46.2248],[4.2584,46.0667],[4.3938,45.8428],[4.3842,45.6544],[4.497,45.5847],[4.6402,45.5813],[4.6543,45.4912],[4.76,45.4445],[4.87,45.5497],[5.0143,45.6124],[5.1458,45.725],[5.1024,45.8262],[4.9091,45.8742],[4.7467,45.9666],[4.7978,46.1718]]]}},{"type":"Feature","properties":{"sourceId":"1159316813","regionId":"region.bfb4561e-973b-4bee-9aff-079987ede2b2","countryId":"country.97e14s"},"geometry":{"type":"Polygon","coordinates":[[[7.0887,48.5234],[6.8072,48.396],[6.6062,48.4693],[6.5018,48.4145],[6.1736,48.3994],[5.9769,48.3575],[5.7652,48.4966],[5.4552,48.4192],[5.5844,48.2838],[5.713,48.2114],[5.6593,48.1008],[5.8918,47.9326],[6.1469,48.0016],[6.2438,47.9322],[6.3734,47.953],[6.4987,47.9047],[6.6138,47.9413],[6.836,47.8242],[6.8689,47.819],[7.2087,48.3034],[7.1099,48.3423],[7.0887,48.5234]]]}},{"type":"Feature","properties":{"sourceId":"1159316833","regionId":"region.b54a5821-58d1-46f4-a401-27924f0d789d","countryId":"country.97e14s"},"geometry":{"type":"Polygon","coordinates":[[[4.8114,45.2963],[4.7698,45.3657],[4.6303,45.3254],[4.5929,45.2428],[4.4627,45.2365],[4.4395,45.1256],[4.2966,44.9742],[4.1535,44.8754],[4.0235,44.8611],[3.8722,44.7509],[3.994,44.4579],[4.1306,44.3317],[4.2511,44.2818],[4.3731,44.3397],[4.5208,44.3368],[4.6578,44.2817],[4.6575,44.3268],[4.7213,44.5734],[4.7895,44.6585],[4.7776,44.7954],[4.8926,44.9495],[4.8228,45.1112],[4.8114,45.2963]]]}},{"type":"Feature","properties":{"sourceId":"1159316835","regionId":"region.a1dacb73-89aa-4dda-8e42-5f2df5a2791b","countryId":"country.97e14s"},"geometry":{"type":"Polygon","coordinates":[[[4.76,45.4445],[4.6543,45.4912],[4.6402,45.5813],[4.497,45.5847],[4.3842,45.6544],[4.3938,45.8428],[4.2584,46.0667],[4.3839,46.2248],[4.289,46.1727],[3.8977,46.2132],[3.8865,46.2762],[3.7723,46.2338],[3.8176,46.0086],[3.6795,45.957],[3.697,45.7893],[3.9689,45.4824],[3.8855,45.3587],[4.3256,45.3809],[4.3536,45.2785],[4.4627,45.2365],[4.5929,45.2428],[4.6303,45.3254],[4.7698,45.3657],[4.76,45.4445]]]}},{"type":"Feature","properties":{"sourceId":"1159313557","regionId":"region.d440942e-e730-44cc-9349-d643455de46b","countryId":"country.97e14s"},"geometry":{"type":"Polygon","coordinates":[[[3.6795,45.957],[3.5845,46.0048],[3.1463,46.067],[3.017,46.1025],[2.8903,46.2609],[2.5667,46.1359],[2.5953,45.9712],[2.4006,45.8292],[2.4899,45.7361],[2.4651,45.5846],[2.5186,45.4792],[2.8338,45.3964],[2.9486,45.3092],[3.1035,45.3545],[3.3435,45.4219],[3.505,45.4164],[3.6073,45.3541],[3.8855,45.3587],[3.9689,45.4824],[3.697,45.7893],[3.6795,45.957]]]}},{"type":"Feature","properties":{"sourceId":"1159316881","regionId":"region.76248c8a-a2c0-4e91-995a-130ac3eaff7c","countryId":"country.97e14s"},"geometry":{"type":"Polygon","coordinates":[[[2.5667,46.1359],[2.8903,46.2609],[3.017,46.1025],[3.1463,46.067],[3.5845,46.0048],[3.6795,45.957],[3.8176,46.0086],[3.7723,46.2338],[3.8865,46.2762],[3.9997,46.3263],[3.9788,46.4626],[3.7409,46.5493],[3.6249,46.7393],[3.4607,46.6515],[3.0515,46.7503],[3.0298,46.7909],[2.8381,46.7259],[2.7159,46.7309],[2.5914,46.634],[2.6135,46.5495],[2.3996,46.5218],[2.2539,46.4198],[2.3317,46.3291],[2.4741,46.2714],[2.5667,46.1359]]]}},{"type":"Feature","properties":{"sourceId":"1159316769","regionId":"region.9a24e7cb-f6e4-4ee3-9047-5f6c67ebb161","countryId":"country.97e14s"},"geometry":{"type":"Polygon","coordinates":[[[1.5197,47.9855],[1.5789,47.8655],[1.5478,47.7694],[1.9704,47.6641],[2.1717,47.6772],[2.2391,47.621],[2.5663,47.5728],[2.6616,47.492],[2.8747,47.5205],[2.9693,47.5676],[2.8349,47.7491],[3,47.8012],[2.9922,47.8999],[3.1123,48.0257],[2.9256,48.1559],[2.4963,48.1218],[2.5137,48.2066],[2.3907,48.3136],[2.2076,48.3391],[1.9884,48.2767],[1.8545,48.0862],[1.5374,48.0405],[1.5197,47.9855]]]}},{"type":"Feature","properties":{"sourceId":"1159316761","regionId":"region.396db8b8-46d3-45c9-864f-8837d0fa4e14","countryId":"country.97e14s"},"geometry":{"type":"Polygon","coordinates":[[[-1.251,47.7804],[-1.1581,47.6315],[-1.0313,47.6014],[-0.9416,47.4123],[-1.3347,47.3239],[-1.1619,47.1858],[-1.2301,47.1094],[-1.1486,47.0295],[-0.946,47.0004],[-0.6324,46.9924],[-0.5551,47.061],[-0.1706,47.0983],[-0.109,47.0696],[0.0668,47.1537],[0.1771,47.3774],[0.2418,47.6029],[0.1515,47.588],[-0.4198,47.7618],[-0.6269,47.7351],[-0.9565,47.7934],[-1.243,47.8095],[-1.251,47.7804]]]}},{"type":"Feature","properties":{"sourceId":"1159316803","regionId":"region.e10d8873-73c2-4668-a0ac-86cdc115fe8a","countryId":"country.97e14s"},"geometry":{"type":"Polygon","coordinates":[[[4.6702,48.5318],[4.5261,48.5289],[4.3282,48.6112],[4.3072,48.7057],[4.0786,48.6945],[3.8484,48.5258],[3.6356,48.5413],[3.5378,48.6134],[3.3895,48.4679],[3.3954,48.4117],[3.6067,48.2575],[3.8984,47.9864],[4.0289,47.9223],[4.2236,47.9684],[4.2884,47.9243],[4.5418,47.9653],[4.6985,48.022],[4.8276,48.1115],[4.8624,48.1983],[4.8196,48.3444],[4.6436,48.4522],[4.6702,48.5318]]]}},{"type":"Feature","properties":{"sourceId":"1159316799","regionId":"region.dfb7f6dc-b1a3-4a25-8e99-71fb342aa4df","countryId":"country.97e14s"},"geometry":{"type":"Polygon","coordinates":[[[2.2666,48.9011],[2.332,48.8171],[2.4734,48.8592],[2.2666,48.9011]]]}},{"type":"Feature","properties":{"sourceId":"1159316797","regionId":"region.c6b592fd-f179-4844-8cd2-de37a356308f","countryId":"country.97e14s"},"geometry":{"type":"Polygon","coordinates":[[[2.2666,48.9011],[2.3188,48.9581],[2.1516,48.8829],[2.2265,48.7761],[2.3208,48.7487],[2.332,48.8171],[2.2666,48.9011]]]}},{"type":"Feature","properties":{"sourceId":"1159316791","regionId":"region.c77a3b86-b656-403b-a1fc-c8b1f4e8f64d","countryId":"country.97e14s"},"geometry":{"type":"Polygon","coordinates":[[[2.2666,48.9011],[2.4734,48.8592],[2.5924,48.8075],[2.5531,49.0098],[2.3188,48.9581],[2.2666,48.9011]]]}},{"type":"Feature","properties":{"sourceId":"1159316789","regionId":"region.095ebba3-3f53-41bb-94e4-2a1b16505cec","countryId":"country.97e14s"},"geometry":{"type":"Polygon","coordinates":[[[2.3188,48.9581],[2.5531,49.0098],[2.5833,49.0845],[2.3349,49.1764],[2.081,49.2107],[1.8857,49.1678],[1.6981,49.2307],[1.6199,49.0826],[1.8547,49.0558],[2.1774,48.985],[2.1516,48.8829],[2.3188,48.9581]]]}},{"type":"Feature","properties":{"sourceId":"1159316787","regionId":"region.f2ff04de-7a7f-409a-81ee-6bd5ca52dc50","countryId":"country.97e14s"},"geometry":{"type":"Polygon","coordinates":[[[1.6199,49.0826],[1.454,49.0486],[1.4928,48.9395],[1.5704,48.8454],[1.5752,48.704],[1.748,48.5621],[1.801,48.4678],[1.9193,48.4445],[1.9489,48.5489],[2.1236,48.756],[2.2265,48.7761],[2.1516,48.8829],[2.1774,48.985],[1.8547,49.0558],[1.6199,49.0826]]]}},{"type":"Feature","properties":{"sourceId":"1159316783","regionId":"region.467d5be0-2255-40c4-b54e-e6efb1a56339","countryId":"country.97e14s"},"geometry":{"type":"Polygon","coordinates":[[[-0.103,45.9697],[-0.1281,45.832],[-0.4132,45.7832],[-0.4205,45.6202],[-0.2965,45.5644],[-0.2483,45.435],[-0.2657,45.3075],[-0.1439,45.2901],[0.0003,45.192],[0.2494,45.293],[0.2883,45.4285],[0.4249,45.4839],[0.5172,45.6345],[0.6359,45.7103],[0.7942,45.8246],[0.8101,45.9219],[0.9241,45.9737],[0.7964,46.1329],[0.6468,46.091],[0.5003,46.1323],[0.4028,46.0632],[0.1974,46.0955],[0.0358,46.0804],[-0.103,45.9697]]]}},{"type":"Feature","properties":{"sourceId":"1159316771","regionId":"region.33604c01-9fd1-494d-94a5-32b1d3fc7be4","countryId":"country.97e14s"},"geometry":{"type":"Polygon","coordinates":[[[1.839,47.2192],[1.7744,47.1307],[2.0519,47.0964],[2.1294,46.893],[2.0777,46.8391],[2.1874,46.6227],[2.1392,46.4214],[2.2539,46.4198],[2.3996,46.5218],[2.6135,46.5495],[2.5914,46.634],[2.7159,46.7309],[2.8381,46.7259],[3.0298,46.7909],[3.0732,46.8703],[3.0684,47.0455],[2.9721,47.2669],[2.875,47.3371],[2.9303,47.4529],[2.8747,47.5205],[2.6616,47.492],[2.5663,47.5728],[2.2391,47.621],[2.1328,47.5877],[2.2535,47.4692],[2.1157,47.3917],[2.1008,47.2701],[1.9499,47.2845],[1.839,47.2192]]]}},{"type":"Feature","properties":{"sourceId":"1159316767","regionId":"region.6cc72246-3cc5-4249-b273-3570a9d4bf90","countryId":"country.97e14s"},"geometry":{"type":"Polygon","coordinates":[[[0.8326,48.0945],[1.0189,48.1293],[1.2118,47.9677],[1.5197,47.9855],[1.5374,48.0405],[1.8545,48.0862],[1.9884,48.2767],[1.9193,48.4445],[1.801,48.4678],[1.748,48.5621],[1.5752,48.704],[1.5704,48.8454],[1.4928,48.9395],[1.4514,48.8708],[1.2582,48.7516],[1.0389,48.7477],[0.8164,48.6651],[0.9798,48.4331],[0.7886,48.335],[0.7984,48.186],[0.8326,48.0945]]]}},{"type":"Feature","properties":{"sourceId":"1159316887","regionId":"region.e52cca2b-ad07-4e13-8cb1-2944786fdc10","countryId":"country.97e14s"},"geometry":{"type":"Polygon","coordinates":[[[3.1035,45.3545],[3.2265,45.268],[3.2963,45.0391],[3.3697,44.9542],[3.4601,44.8366],[3.7378,44.8162],[3.8722,44.7509],[4.0235,44.8611],[4.1535,44.8754],[4.2966,44.9742],[4.4395,45.1256],[4.4627,45.2365],[4.3536,45.2785],[4.3256,45.3809],[3.8855,45.3587],[3.6073,45.3541],[3.505,45.4164],[3.3435,45.4219],[3.1035,45.3545]]]}},{"type":"Feature","properties":{"sourceId":"1159316885","regionId":"region.0e2ce809-a09d-4bed-bea3-8f802f4fc0ed","countryId":"country.97e14s"},"geometry":{"type":"Polygon","coordinates":[[[3.1035,45.3545],[2.9486,45.3092],[2.8338,45.3964],[2.5186,45.4792],[2.4887,45.397],[2.367,45.3689],[2.1946,45.2237],[2.2069,45.1595],[2.0587,44.9751],[2.2053,44.6223],[2.3005,44.6687],[2.4547,44.6616],[2.594,44.835],[2.7267,44.9354],[2.9266,44.7686],[2.9801,44.6443],[3.0446,44.7918],[3.2442,44.9221],[3.3697,44.9542],[3.2963,45.0391],[3.2265,45.268],[3.1035,45.3545]]]}},{"type":"Feature","properties":{"sourceId":"1159316899","regionId":"region.213c48aa-b11c-4827-99c6-80a539f6b148","countryId":"country.97e14s"},"geometry":{"type":"Polygon","coordinates":[[[-0.1406,44.2265],[-0.1292,44.1525],[0.1355,44.1173],[0.0852,43.9673],[0.3143,43.9992],[0.4663,44.0563],[0.7417,44.067],[0.9059,44.201],[0.9011,44.3671],[1.0645,44.3787],[1.013,44.5476],[1.0772,44.5745],[0.9722,44.6384],[0.6408,44.6999],[0.3753,44.6575],[0.2974,44.7623],[0.1104,44.7103],[0.1702,44.6374],[-0.0061,44.5091],[0.016,44.3812],[-0.0347,44.2759],[-0.1406,44.2265]]]}},{"type":"Feature","properties":{"sourceId":"1159316857","regionId":"region.9e862bed-5f5c-4f41-90ac-14225d2b3ef3","countryId":"country.97e14s"},"geometry":{"type":"Polygon","coordinates":[[[3.994,44.4579],[3.8722,44.7509],[3.7378,44.8162],[3.4601,44.8366],[3.3697,44.9542],[3.2442,44.9221],[3.0446,44.7918],[2.9801,44.6443],[3.1407,44.421],[3.1234,44.2634],[3.3767,44.1683],[3.5179,44.1134],[3.6904,44.1802],[3.791,44.136],[3.9204,44.1664],[3.9624,44.2621],[3.8948,44.3902],[3.994,44.4579]]]}},{"type":"Feature","properties":{"sourceId":"1159316823","regionId":"region.e3e5b2fc-fd9c-4da8-b4ba-5269c5a764f4","countryId":"country.97e14s"},"geometry":{"type":"Polygon","coordinates":[[[4.1061,47.3392],[3.9507,47.3931],[3.8045,47.3859],[3.6447,47.4567],[3.4154,47.5088],[3.3324,47.4813],[2.9693,47.5676],[2.8747,47.5205],[2.9303,47.4529],[2.875,47.3371],[2.9721,47.2669],[3.0684,47.0455],[3.0732,46.8703],[3.0298,46.7909],[3.0515,46.7503],[3.4607,46.6515],[3.6249,46.7393],[3.8093,46.7018],[4.0473,46.7856],[4.0484,47.0951],[4.2097,47.1553],[4.1061,47.3392]]]}},{"type":"Feature","properties":{"sourceId":"1159316827","regionId":"region.0d66c291-a0c6-47ea-bc0c-c85203adabf7","countryId":"country.97e14s"},"geometry":{"type":"Polygon","coordinates":[[[4.1061,47.3392],[4.2097,47.1553],[4.4409,47.0341],[4.5528,47.0161],[4.6718,46.9099],[5.0383,46.9811],[5.2506,46.9812],[5.4859,47.1911],[5.5217,47.2893],[5.3749,47.6078],[5.1677,47.6754],[4.9715,47.6934],[4.9864,47.8139],[4.7933,47.9969],[4.6985,48.022],[4.5418,47.9653],[4.2884,47.9243],[4.3303,47.7603],[4.0682,47.4245],[4.1061,47.3392]]]}},{"type":"Feature","properties":{"sourceId":"1159313575","regionId":"region.7b9af33d-48dd-4a52-9f7e-2a040f3390f6","countryId":"country.97e14s"},"geometry":{"type":"Polygon","coordinates":[[[3.1186,49.7058],[2.8732,49.7],[2.6534,49.5777],[2.2386,49.6978],[1.8562,49.7014],[1.7545,49.7656],[1.6809,49.6451],[1.718,49.411],[1.6981,49.2307],[1.8857,49.1678],[2.081,49.2107],[2.3349,49.1764],[2.5833,49.0845],[2.9786,49.0781],[3.0797,49.1062],[2.9946,49.1876],[3.1004,49.4189],[3.1186,49.7058]]]}},{"type":"Feature","properties":{"sourceId":"1159316749","regionId":"region.1f81be0b-c6a8-40f3-8797-c10d1c8d88a1","countryId":"country.97e14s"},"geometry":{"type":"Polygon","coordinates":[[[-0.8627,48.5018],[-0.8096,48.4512],[-0.3526,48.4919],[-0.1711,48.5451],[-0.0527,48.3806],[0.1925,48.4602],[0.3715,48.4485],[0.3905,48.3329],[0.5011,48.2711],[0.7984,48.186],[0.7886,48.335],[0.9798,48.4331],[0.8164,48.6651],[0.5919,48.878],[0.4172,48.9461],[0.148,48.9298],[-0.1404,48.8255],[-0.4109,48.87],[-0.8409,48.7523],[-0.7368,48.6861],[-0.8627,48.5018]]]}},{"type":"Feature","properties":{"sourceId":"1159316819","regionId":"region.d69c7869-2960-43b0-ad96-ea87a2f70656","countryId":"country.97e14s"},"geometry":{"type":"Polygon","coordinates":[[[5.5217,47.2893],[5.6988,47.265],[5.9271,47.343],[6.0745,47.3555],[6.3077,47.4923],[6.8071,47.5629],[6.7608,47.7138],[6.836,47.8242],[6.6138,47.9413],[6.4987,47.9047],[6.3734,47.953],[6.2438,47.9322],[6.1469,48.0016],[5.8918,47.9326],[5.716,47.8129],[5.7009,47.6931],[5.4207,47.6711],[5.3749,47.6078],[5.5217,47.2893]]]}},{"type":"Feature","properties":{"sourceId":"1159313559","regionId":"region.00329601-618a-4b51-a889-1e669104d224","countryId":"country.97e14s"},"geometry":{"type":"Polygon","coordinates":[[[4.2097,47.1553],[4.0484,47.0951],[4.0473,46.7856],[3.8093,46.7018],[3.6249,46.7393],[3.7409,46.5493],[3.9788,46.4626],[3.9997,46.3263],[3.8865,46.2762],[3.8977,46.2132],[4.289,46.1727],[4.3839,46.2248],[4.4085,46.2898],[4.7041,46.2475],[4.7978,46.1718],[4.9372,46.5005],[5.1786,46.5054],[5.311,46.4554],[5.423,46.6315],[5.376,46.8224],[5.2506,46.9812],[5.0383,46.9811],[4.6718,46.9099],[4.5528,47.0161],[4.4409,47.0341],[4.2097,47.1553]]]}},{"type":"Feature","properties":{"sourceId":"1159316779","regionId":"region.cee7ea40-514a-4fbe-9bb3-cd918bcf7cfb","countryId":"country.97e14s"},"geometry":{"type":"Polygon","coordinates":[[[-0.7566,46.3012],[-0.6371,46.1545],[-0.2596,46.0652],[-0.103,45.9697],[0.0358,46.0804],[0.1974,46.0955],[0.1087,46.1888],[-0.0146,46.4117],[-0.0292,46.65],[0.012,46.7255],[-0.0402,46.979],[-0.109,47.0696],[-0.1706,47.0983],[-0.5551,47.061],[-0.6324,46.9924],[-0.946,47.0004],[-0.712,46.802],[-0.616,46.5476],[-0.6339,46.4228],[-0.5654,46.357],[-0.7566,46.3012]]]}},{"type":"Feature","properties":{"sourceId":"1159316781","regionId":"region.b934ee3d-c5c0-4df7-8f37-5a3cf505b806","countryId":"country.97e14s"},"geometry":{"type":"Polygon","coordinates":[[[0.7964,46.1329],[0.7908,46.2187],[0.9871,46.2835],[1.177,46.387],[1.1015,46.5344],[0.916,46.6151],[0.8808,46.7505],[0.6718,46.966],[0.4339,46.9327],[0.3118,47.0322],[0.0668,47.1537],[-0.109,47.0696],[-0.0402,46.979],[0.012,46.7255],[-0.0292,46.65],[-0.0146,46.4117],[0.1087,46.1888],[0.1974,46.0955],[0.4028,46.0632],[0.5003,46.1323],[0.6468,46.091],[0.7964,46.1329]]]}},{"type":"Feature","properties":{"sourceId":"1159316825","regionId":"region.2159262d-350b-4790-9b95-476f5523ce45","countryId":"country.97e14s"},"geometry":{"type":"Polygon","coordinates":[[[2.9693,47.5676],[3.3324,47.4813],[3.4154,47.5088],[3.6447,47.4567],[3.8045,47.3859],[3.9507,47.3931],[4.1061,47.3392],[4.0682,47.4245],[4.3303,47.7603],[4.2884,47.9243],[4.2236,47.9684],[4.0289,47.9223],[3.8984,47.9864],[3.6067,48.2575],[3.3954,48.4117],[3.355,48.3743],[3.0423,48.3618],[3.0299,48.2683],[2.9256,48.1559],[3.1123,48.0257],[2.9922,47.8999],[3,47.8012],[2.8349,47.7491],[2.9693,47.5676]]]}},{"type":"Feature","properties":{"sourceId":"1159316785","regionId":"region.e7182ac7-4e91-46ef-96c5-4d4dd68d53ee","countryId":"country.97e14s"},"geometry":{"type":"Polygon","coordinates":[[[2.2265,48.7761],[2.1236,48.756],[1.9489,48.5489],[1.9193,48.4445],[1.9884,48.2767],[2.2076,48.3391],[2.3907,48.3136],[2.5054,48.433],[2.5241,48.6297],[2.5717,48.692],[2.3208,48.7487],[2.2265,48.7761]]]}},{"type":"Feature","properties":{"sourceId":"1159313565","regionId":"region.f2d79dd2-ec98-400a-bce7-685a48f76954","countryId":"country.97e14s"},"geometry":{"type":"Polygon","coordinates":[[[2.3907,48.3136],[2.5137,48.2066],[2.4963,48.1218],[2.9256,48.1559],[3.0299,48.2683],[3.0423,48.3618],[3.355,48.3743],[3.3954,48.4117],[3.3895,48.4679],[3.5378,48.6134],[3.3949,48.7602],[3.4779,48.8501],[3.176,49.0043],[3.0797,49.1062],[2.9786,49.0781],[2.5833,49.0845],[2.5531,49.0098],[2.5924,48.8075],[2.5717,48.692],[2.5241,48.6297],[2.5054,48.433],[2.3907,48.3136]]]}},{"type":"Feature","properties":{"sourceId":"1159316795","regionId":"region.798e9db4-74b1-4528-82c9-b0af39ce812c","countryId":"country.97e14s"},"geometry":{"type":"Polygon","coordinates":[[[2.4734,48.8592],[2.332,48.8171],[2.3208,48.7487],[2.5717,48.692],[2.5924,48.8075],[2.4734,48.8592]]]}}]}