{"type":"FeatureCollection","features":[{"type":"Feature","properties":{"sourceId":"1159316413","regionId":"region.981cb38c-ca85-41f5-9a3b-163ecb170647","countryId":"country.fbc079c5-7b73-4476-a6c0-f9cf0aa983f5"},"geometry":{"type":"Polygon","coordinates":[[[-61.7262,17.0385],[-61.7334,17.0643],[-61.7742,17.0602],[-61.815,17.048],[-61.8041,17.0073],[-61.7262,17.0385]]]}},{"type":"Feature","properties":{"sourceId":"1159316411","regionId":"region.437b8b1b-ddd9-4ce0-91b3-92e081fda16b","countryId":"country.fbc079c5-7b73-4476-a6c0-f9cf0aa983f5"},"geometry":{"type":"Polygon","coordinates":[[[-61.7148,17.0931],[-61.7334,17.0643],[-61.7262,17.0385],[-61.7148,17.0931]]]}},{"type":"Feature","properties":{"sourceId":"1159316409","regionId":"region.b57df84f-53b1-474e-8fc3-3c2d10c4f903","countryId":"country.fbc079c5-7b73-4476-a6c0-f9cf0aa983f5"},"geometry":{"type":"Polygon","coordinates":[[[-61.7564,17.1142],[-61.7742,17.0714],[-61.7742,17.0602],[-61.7334,17.0643],[-61.7148,17.0931],[-61.7564,17.1142]]]}},{"type":"Feature","properties":{"sourceId":"1159316407","regionId":"region.b707cd78-ef89-4d8c-a128-8178e74c52ff","countryId":"country.fbc079c5-7b73-4476-a6c0-f9cf0aa983f5"},"geometry":{"type":"Polygon","coordinates":[[[-61.7934,17.1649],[-61.7742,17.0714],[-61.7564,17.1142],[-61.7934,17.1649]]]}},{"type":"Feature","properties":{"sourceId":"1159316419","regionId":"region.983ba441-f0b0-4afc-826c-66a98041a497","countryId":"country.fbc079c5-7b73-4476-a6c0-f9cf0aa983f5"},"geometry":{"type":"Polygon","coordinates":[[[-61.8662,17.0869],[-61.815,17.048],[-61.7742,17.0602],[-61.7742,17.0714],[-61.7934,17.1649],[-61.8662,17.0869]]]}},{"type":"Feature","properties":{"sourceId":"1159316417","regionId":"region.cb0f55ad-4f8f-449a-acdd-687caf2822ef","countryId":"country.fbc079c5-7b73-4476-a6c0-f9cf0aa983f5"},"geometry":{"type":"Polygon","coordinates":[[[-61.8041,17.0073],[-61.815,17.048],[-61.8662,17.0869],[-61.8041,17.0073]]]}},{"type":"Feature","properties":{"sourceId":"1159315787","regionId":"region.e522d318-d338-4fea-be64-55e9cb9b6bc6","countryId":"country.fbc079c5-7b73-4476-a6c0-f9cf0aa983f5"},"geometry":{"type":"Polygon","coordinates":[[[-61.8389,17.5933],[-61.7707,17.5456],[-61.7543,17.6688],[-61.8601,17.6842],[-61.8389,17.5933]]]}},{"type":"Feature","properties":{"sourceId":"1159316405","regionId":"region.dcfb82cb-0777-4779-b372-0e4c5818b9e0","countryId":"country.fbc079c5-7b73-4476-a6c0-f9cf0aa983f5"},"geometry":{"type":"Polygon","coordinates":[[[-62.3456,16.9391],[-62.3483,16.9337],[-62.3431,16.9351],[-62.3456,16.9391]]]}}]}