{"type":"FeatureCollection","features":[{"type":"Feature","properties":{"sourceId":"1159311587","regionId":"region.2d5dbeb0-c415-425e-b345-45dcd2cab89b","countryId":"country.10o3gxv"},"geometry":{"type":"Polygon","coordinates":[[[107.5204,14.7046],[107.4149,14.5434],[107.2873,14.5985],[107.2112,14.4935],[106.9461,14.3235],[106.793,14.3226],[106.7072,14.4293],[106.622,14.4576],[106.6248,14.2977],[106.589,14.1123],[106.6293,14.0273],[106.6572,13.7864],[106.562,13.6127],[106.609,13.3356],[106.7385,13.2229],[106.8511,13.1673],[107.045,13.1716],[107.0824,13.3185],[107.2025,13.3154],[107.254,13.3701],[107.3705,13.2844],[107.4723,13.3312],[107.5749,13.2936],[107.6105,13.4004],[107.5969,13.5351],[107.4432,13.7835],[107.446,13.9216],[107.3431,14.0206],[107.3199,14.1198],[107.3869,14.4219],[107.4557,14.4339],[107.5053,14.541],[107.5204,14.7046]]]}},{"type":"Feature","properties":{"sourceId":"1159311585","regionId":"region.49d617c4-42f4-488f-9548-909bed090c2c","countryId":"country.10o3gxv"},"geometry":{"type":"Polygon","coordinates":[[[107.5401,12.7167],[107.4604,13.0216],[107.5616,13.262],[107.5749,13.2936],[107.4723,13.3312],[107.3705,13.2844],[107.254,13.3701],[107.2025,13.3154],[107.0824,13.3185],[107.045,13.1716],[106.8511,13.1673],[106.7385,13.2229],[106.609,13.3356],[106.4389,13.4207],[106.3616,13.4222],[106.3787,13.2304],[106.3489,13.1014],[106.4282,13.009],[106.6118,12.9162],[106.6178,12.8476],[106.3968,12.6869],[106.3796,12.5136],[106.5526,12.4122],[106.5967,12.3149],[106.7365,12.2622],[106.7879,12.1934],[106.7906,12.0674],[106.9777,12.0972],[107.1525,12.277],[107.2278,12.3106],[107.3202,12.3292],[107.4159,12.2541],[107.5143,12.3438],[107.5567,12.4727],[107.5401,12.7167]]]}},{"type":"Feature","properties":{"sourceId":"1159311583","regionId":"region.0827c292-3616-49a9-b7a9-b8132cc440bf","countryId":"country.10o3gxv"},"geometry":{"type":"Polygon","coordinates":[[[106.7906,12.0674],[106.7879,12.1934],[106.7365,12.2622],[106.5967,12.3149],[106.5526,12.4122],[106.3796,12.5136],[106.3968,12.6869],[106.6178,12.8476],[106.6118,12.9162],[106.4282,13.009],[106.3489,13.1014],[106.3787,13.2304],[106.3616,13.4222],[106.1003,13.3433],[106.0195,13.2045],[105.8693,13.1159],[105.5777,13.2698],[105.6379,13.0476],[105.6806,12.7784],[105.752,12.5076],[105.781,12.3425],[105.7594,12.266],[105.9737,12.2035],[106.0549,12.0942],[106.1542,12.0459],[106.1743,11.955],[106.3954,11.9658],[106.7016,11.9708],[106.7906,12.0674]]]}},{"type":"Feature","properties":{"sourceId":"1159311563","regionId":"region.7705f59f-4471-4926-9449-c58771688f72","countryId":"country.10o3gxv"},"geometry":{"type":"Polygon","coordinates":[[[106.4346,11.6784],[106.3989,11.7463],[106.4388,11.8637],[106.3954,11.9658],[106.1743,11.955],[106.1542,12.0459],[106.0549,12.0942],[105.9737,12.2035],[105.7594,12.266],[105.781,12.3425],[105.752,12.5076],[105.3999,12.4837],[105.347,12.3518],[105.2652,12.3921],[105.1373,12.3708],[105.2005,12.2165],[105.1196,12.2049],[104.9244,12.2608],[104.8874,12.2351],[104.8686,12.0767],[104.8946,12.0035],[104.8188,11.8918],[104.899,11.8096],[104.9991,11.889],[105.0729,11.7631],[105.1545,11.7471],[105.3294,11.8688],[105.4486,11.7778],[105.6995,11.746],[105.821,11.6415],[105.9341,11.6429],[106.0154,11.7705],[106.1546,11.7463],[106.2873,11.6746],[106.4346,11.6784]]]}},{"type":"Feature","properties":{"sourceId":"1159311595","regionId":"region.46cc3240-5be4-4bf3-9494-134e0fed3b04","countryId":"country.10o3gxv"},"geometry":{"type":"Polygon","coordinates":[[[105.7932,11.5829],[105.706,11.5607],[105.6511,11.4076],[105.6621,11.2557],[105.6097,11.187],[105.6172,10.9708],[105.7529,11.0156],[105.861,10.8393],[105.9313,10.8964],[106.0179,10.8198],[106.1551,10.7848],[106.1269,10.909],[106.1704,10.9706],[106.1603,11.0535],[106.0631,11.0933],[105.8434,11.3041],[105.871,11.4133],[105.8532,11.5469],[105.7932,11.5829]]]}},{"type":"Feature","properties":{"sourceId":"1159311577","regionId":"region.f5285dab-bf0b-443b-b7d4-70c1c56efe0b","countryId":"country.10o3gxv"},"geometry":{"type":"Polygon","coordinates":[[[105.821,11.6415],[105.6995,11.746],[105.4486,11.7778],[105.3294,11.8688],[105.1545,11.7471],[105.1124,11.5954],[105.295,11.4265],[105.2892,11.2606],[105.1994,11.0504],[105.2091,10.8916],[105.3275,10.8483],[105.4105,10.963],[105.5236,10.9513],[105.6172,10.9708],[105.6097,11.187],[105.6621,11.2557],[105.6511,11.4076],[105.706,11.5607],[105.7932,11.5829],[105.821,11.6415]]]}},{"type":"Feature","properties":{"sourceId":"1159311567","regionId":"region.c5dd8296-bbc4-46f9-ab52-abd6eee1090d","countryId":"country.10o3gxv"},"geometry":{"type":"Polygon","coordinates":[[[105.2091,10.8916],[105.1994,11.0504],[105.2892,11.2606],[105.295,11.4265],[105.1124,11.5954],[105.1545,11.7471],[105.0729,11.7631],[104.9991,11.889],[104.899,11.8096],[104.8188,11.8918],[104.761,11.8226],[104.6699,11.612],[104.6509,11.4456],[104.7441,11.3555],[104.9351,11.3289],[105.0197,11.1853],[105.0103,10.9889],[105.0385,10.9226],[105.2091,10.8916]],[[104.9235,11.4463],[104.8081,11.4347],[104.789,11.5983],[104.9162,11.6783],[104.9632,11.4955],[104.9235,11.4463]]]}},{"type":"Feature","properties":{"sourceId":"1159311597","regionId":"region.258382a0-1e61-48a7-b549-3e6a48a485ce","countryId":"country.10o3gxv"},"geometry":{"type":"Polygon","coordinates":[[[105.0385,10.9226],[105.0103,10.9889],[105.0197,11.1853],[104.9351,11.3289],[104.7441,11.3555],[104.7053,11.3188],[104.6736,11.1001],[104.5612,11.0873],[104.4376,11.1213],[104.5366,11.0256],[104.5776,10.8889],[104.7025,10.8891],[104.7392,10.7928],[104.6788,10.7126],[104.7006,10.5242],[104.7244,10.5213],[104.8544,10.5313],[105.0662,10.7464],[105.0148,10.8492],[105.0385,10.9226]]]}},{"type":"Feature","properties":{"sourceId":"1159311589","regionId":"region.7fc01440-a1ff-4a35-88a8-f132d4cf9842","countryId":"country.10o3gxv"},"geometry":{"type":"Polygon","coordinates":[[[104.7006,10.5242],[104.6788,10.7126],[104.7392,10.7928],[104.7025,10.8891],[104.5776,10.8889],[104.5366,11.0256],[104.4376,11.1213],[104.262,11.1192],[104.1447,11.1609],[104.0506,11.0545],[103.942,10.9889],[103.9538,10.6784],[103.9169,10.616],[104.0718,10.556],[104.2686,10.5521],[104.3876,10.5544],[104.4242,10.4511],[104.4513,10.4197],[104.554,10.5183],[104.7006,10.5242]]]}},{"type":"Feature","properties":{"sourceId":"1159311559","regionId":"region.a95ad1b7-ca9f-4550-a3c4-eef7a9aa2918","countryId":"country.10o3gxv"},"geometry":{"type":"Polygon","coordinates":[[[104.0451,14.357],[103.8703,14.3433],[103.5502,14.4219],[103.457,14.3744],[103.2433,14.3419],[103.085,14.2958],[103.0169,14.2389],[103.1905,14.1213],[103.2638,14.0009],[103.3425,14.0039],[103.4332,13.8872],[103.6867,13.9953],[103.813,14.1246],[104.0738,14.2446],[104.0451,14.357]]]}},{"type":"Feature","properties":{"sourceId":"1159311579","regionId":"region.c44a92dd-fab1-4c04-8095-4362c4b97143","countryId":"country.10o3gxv"},"geometry":{"type":"Polygon","coordinates":[[[104.9156,14.3932],[104.7717,14.4399],[104.5946,14.41],[104.4585,14.357],[104.4508,14.1334],[104.3908,13.9135],[104.4292,13.7045],[104.422,13.6038],[104.6343,13.5588],[104.5779,13.4144],[104.5634,13.2837],[104.7272,13.3586],[104.885,13.3387],[104.8817,13.1916],[104.9973,13.1155],[105.387,13.3908],[105.5458,13.4687],[105.5799,13.6368],[105.525,13.8257],[105.7098,13.8644],[105.7144,13.909],[105.8956,13.9248],[105.744,14.0869],[105.6173,14.103],[105.5332,14.1643],[105.3479,14.1061],[105.2569,14.1824],[105.1843,14.3457],[105.0473,14.2141],[104.9156,14.3932]]]}},{"type":"Feature","properties":{"sourceId":"1159311557","regionId":"region.795ed664-a068-4bd6-84e1-4c78aef20317","countryId":"country.10o3gxv"},"geometry":{"type":"Polygon","coordinates":[[[104.4585,14.357],[104.2475,14.4011],[104.0457,14.3573],[104.0451,14.357],[104.0738,14.2446],[103.813,14.1246],[103.6867,13.9953],[103.4332,13.8872],[103.4035,13.6483],[103.4055,13.4282],[103.6839,13.3164],[103.8087,13.1452],[104.1917,12.7491],[104.2737,12.852],[104.3835,12.9175],[104.4668,13.0781],[104.4875,13.2266],[104.5634,13.2837],[104.5779,13.4144],[104.6343,13.5588],[104.422,13.6038],[104.4292,13.7045],[104.3908,13.9135],[104.4508,14.1334],[104.4585,14.357]]]}},{"type":"Feature","properties":{"sourceId":"1159311549","regionId":"region.fe504b73-58fc-4640-8599-7421bcc502ec","countryId":"country.10o3gxv"},"geometry":{"type":"Polygon","coordinates":[[[102.9139,14.1649],[102.8698,14.0206],[102.7728,13.9361],[102.6986,13.7618],[102.5744,13.6939],[102.5132,13.5672],[102.3322,13.5646],[102.3295,13.4846],[102.6409,13.4612],[102.9638,13.4082],[103.1609,13.4584],[103.2521,13.4226],[103.4055,13.4282],[103.4035,13.6483],[103.4332,13.8872],[103.3425,14.0039],[103.2638,14.0009],[103.1905,14.1213],[103.0169,14.2389],[102.9139,14.1649]]]}},{"type":"Feature","properties":{"sourceId":"1159311449","regionId":"region.a9c2c169-3a12-4339-a6e1-1b3f37643f54","countryId":"country.10o3gxv"},"geometry":{"type":"Polygon","coordinates":[[[102.9136,11.6459],[102.9893,11.6732],[103.0303,11.5429],[103.1145,11.4582],[103.0789,11.2735],[103.1136,11.1611],[103.0956,10.934],[103.1812,10.8644],[103.2774,10.9327],[103.4021,10.8843],[103.4745,11.1337],[103.533,11.1627],[103.6595,11.0298],[103.7224,10.8948],[103.6887,10.743],[103.787,10.8936],[103.942,10.9889],[104.0506,11.0545],[104.1447,11.1609],[104.0927,11.2759],[104.1179,11.3516],[104.054,11.5373],[103.9351,11.5633],[103.809,11.6537],[103.7767,11.7964],[103.8635,11.9084],[103.65,12.0213],[103.4913,12.1423],[103.4121,12.1365],[103.2937,12.029],[103.1461,11.9795],[103.0008,12.0291],[102.765,12.0446],[102.9138,11.7655],[102.9136,11.6459]]]}},{"type":"Feature","properties":{"sourceId":"1159311553","regionId":"region.bf9bc036-38c8-490a-bdd0-41b285e43c94","countryId":"country.10o3gxv"},"geometry":{"type":"Polygon","coordinates":[[[102.765,12.0446],[103.0008,12.0291],[103.1461,11.9795],[103.2937,12.029],[103.4121,12.1365],[103.4913,12.1423],[103.65,12.0213],[103.8635,11.9084],[103.9951,11.9456],[104.1116,12.0811],[104.1985,12.1078],[104.2199,12.2773],[104.3441,12.3472],[104.3986,12.4335],[104.4051,12.5513],[104.1917,12.7491],[103.8087,13.1452],[103.6795,13.0194],[103.6278,12.8609],[103.6422,12.6775],[103.6024,12.5964],[103.5055,12.5587],[103.3397,12.5877],[103.1508,12.5193],[102.7638,12.4253],[102.7151,12.3422],[102.6922,12.1785],[102.765,12.0446]]]}},{"type":"Feature","properties":{"sourceId":"1159311551","regionId":"region.b90a42e3-d59f-4b43-829d-71e85553a049","countryId":"country.10o3gxv"},"geometry":{"type":"Polygon","coordinates":[[[102.7638,12.4253],[103.1508,12.5193],[103.3397,12.5877],[103.5055,12.5587],[103.6024,12.5964],[103.6422,12.6775],[103.6278,12.8609],[103.6795,13.0194],[103.8087,13.1452],[103.6839,13.3164],[103.4055,13.4282],[103.2521,13.4226],[103.1609,13.4584],[102.9638,13.4082],[102.6409,13.4612],[102.3295,13.4846],[102.3292,13.2726],[102.3821,13.1366],[102.4901,12.9952],[102.5861,13.0195],[102.6088,13.0956],[102.7405,13.043],[102.7582,12.8093],[102.6603,12.6945],[102.4959,12.6542],[102.5586,12.6312],[102.7638,12.4253]]]}},{"type":"Feature","properties":{"sourceId":"1159311561","regionId":"region.7a96cef3-98f3-4a6e-b30b-e59bd66e6138","countryId":"country.10o3gxv"},"geometry":{"type":"Polygon","coordinates":[[[102.4959,12.6542],[102.6603,12.6945],[102.7582,12.8093],[102.7405,13.043],[102.6088,13.0956],[102.5861,13.0195],[102.4901,12.9952],[102.4648,12.9275],[102.4952,12.746],[102.4959,12.6542]]]}},{"type":"Feature","properties":{"sourceId":"1159311581","regionId":"region.4828c6fd-6220-44a3-9472-2c88843dac3b","countryId":"country.10o3gxv"},"geometry":{"type":"Polygon","coordinates":[[[106.622,14.4576],[106.5402,14.5217],[106.34,14.449],[106.236,14.4844],[106.1541,14.3675],[105.9692,14.332],[106.0125,14.2258],[106.1446,14.0724],[106.0492,13.9155],[105.8956,13.9248],[105.7144,13.909],[105.7098,13.8644],[105.525,13.8257],[105.5799,13.6368],[105.5458,13.4687],[105.5777,13.2698],[105.8693,13.1159],[106.0195,13.2045],[106.1003,13.3433],[106.3616,13.4222],[106.4389,13.4207],[106.609,13.3356],[106.562,13.6127],[106.6572,13.7864],[106.6293,14.0273],[106.589,14.1123],[106.6248,14.2977],[106.622,14.4576]]]}},{"type":"Feature","properties":{"sourceId":"1159311445","regionId":"region.e9c9ae48-d3df-445e-bd21-3e1e8534bdb6","countryId":"country.10o3gxv"},"geometry":{"type":"Polygon","coordinates":[[[103.9169,10.616],[103.9538,10.6784],[103.942,10.9889],[103.787,10.8936],[103.6887,10.743],[103.5674,10.7265],[103.5068,10.6354],[103.6239,10.5009],[103.7471,10.509],[103.9169,10.616]]]}},{"type":"Feature","properties":{"sourceId":"1159311593","regionId":"region.82c355f1-39b9-41e6-b298-c78274b63784","countryId":"country.10o3gxv"},"geometry":{"type":"Polygon","coordinates":[[[104.4242,10.4511],[104.3876,10.5544],[104.2686,10.5521],[104.3062,10.4786],[104.4242,10.4511]]]}},{"type":"Feature","properties":{"sourceId":"1159311565","regionId":"region.225011ca-ac0e-49df-81fc-6ec9399cbf01","countryId":"country.10o3gxv"},"geometry":{"type":"Polygon","coordinates":[[[104.1985,12.1078],[104.3242,11.8406],[104.5179,11.7361],[104.761,11.8226],[104.8188,11.8918],[104.8946,12.0035],[104.8686,12.0767],[104.8874,12.2351],[104.8304,12.5326],[104.6024,12.5964],[104.504,12.5194],[104.4051,12.5513],[104.3986,12.4335],[104.3441,12.3472],[104.2199,12.2773],[104.1985,12.1078]]]}},{"type":"Feature","properties":{"sourceId":"1159311571","regionId":"region.bdf8fec6-5401-4a89-bffe-e74185283d3b","countryId":"country.10o3gxv"},"geometry":{"type":"Polygon","coordinates":[[[104.4051,12.5513],[104.504,12.5194],[104.6024,12.5964],[104.8304,12.5326],[104.8874,12.2351],[104.9244,12.2608],[105.1196,12.2049],[105.2005,12.2165],[105.1373,12.3708],[105.2652,12.3921],[105.347,12.3518],[105.3999,12.4837],[105.752,12.5076],[105.6806,12.7784],[105.6379,13.0476],[105.5777,13.2698],[105.5458,13.4687],[105.387,13.3908],[104.9973,13.1155],[104.8817,13.1916],[104.885,13.3387],[104.7272,13.3586],[104.5634,13.2837],[104.4875,13.2266],[104.4668,13.0781],[104.3835,12.9175],[104.2737,12.852],[104.1917,12.7491],[104.4051,12.5513]]]}},{"type":"Feature","properties":{"sourceId":"1159311569","regionId":"region.0b55238b-6686-48e1-a4d5-d3679022f3e0","countryId":"country.10o3gxv"},"geometry":{"type":"Polygon","coordinates":[[[103.8635,11.9084],[103.7767,11.7964],[103.809,11.6537],[103.9351,11.5633],[104.054,11.5373],[104.1179,11.3516],[104.0927,11.2759],[104.1447,11.1609],[104.262,11.1192],[104.4376,11.1213],[104.5612,11.0873],[104.6736,11.1001],[104.7053,11.3188],[104.7441,11.3555],[104.6509,11.4456],[104.6699,11.612],[104.761,11.8226],[104.5179,11.7361],[104.3242,11.8406],[104.1985,12.1078],[104.1116,12.0811],[103.9951,11.9456],[103.8635,11.9084]]]}},{"type":"Feature","properties":{"sourceId":"1159311575","regionId":"region.522e8419-aca7-4d3f-9fa5-06a5ba3f956f","countryId":"country.10o3gxv"},"geometry":{"type":"Polygon","coordinates":[[[104.9235,11.4463],[104.9632,11.4955],[104.9162,11.6783],[104.789,11.5983],[104.8081,11.4347],[104.9235,11.4463]]]}}]}