{"type":"FeatureCollection","features":[{"type":"Feature","properties":{"sourceId":"1159315545","regionId":"region.2121207c-8143-4716-b978-6b18f6a48f1f","countryId":"country.8a7dbb03-20f0-4679-858f-e8afad2bfdaa"},"geometry":{"type":"Polygon","coordinates":[[[-62.2255,16.7478],[-62.1886,16.739],[-62.17,16.777],[-62.2255,16.7478]]]}},{"type":"Feature","properties":{"sourceId":"1159316401","regionId":"region.ceae2a94-c317-44dc-9f48-e44b17d3c1ca","countryId":"country.8a7dbb03-20f0-4679-858f-e8afad2bfdaa"},"geometry":{"type":"Polygon","coordinates":[[[-62.1508,16.7204],[-62.1886,16.739],[-62.2255,16.7478],[-62.1508,16.7204]]]}},{"type":"Feature","properties":{"sourceId":"1159316399","regionId":"region.0257dece-871d-4bd4-93ba-5710c4ecbcea","countryId":"country.8a7dbb03-20f0-4679-858f-e8afad2bfdaa"},"geometry":{"type":"Polygon","coordinates":[[[-62.17,16.777],[-62.1886,16.739],[-62.1508,16.7204],[-62.17,16.777]]]}}]}