{"type":"FeatureCollection","features":[{"type":"Feature","properties":{"sourceId":"1159308305","regionId":"region.27068038-c51e-4bc2-afdb-44f5f31fb58a","countryId":"country.opradj"},"geometry":{"type":"Polygon","coordinates":[[[107.5204,14.7046],[107.5053,14.541],[107.4557,14.4339],[107.3869,14.4219],[107.3199,14.1198],[107.3431,14.0206],[107.446,13.9216],[107.6085,14.05],[107.6583,14.1381],[107.7872,14.2159],[108.1532,14.33],[108.3364,14.4307],[108.411,14.5161],[108.4262,14.6266],[108.6182,14.6406],[108.5487,14.8256],[108.4648,14.8573],[108.2966,15.0481],[108.075,15.0386],[108.0625,15.1465],[107.9724,15.2161],[107.8622,15.222],[107.7295,15.3],[107.6497,15.3989],[107.5764,15.4031],[107.6576,15.2824],[107.6568,15.2057],[107.5024,15.044],[107.4619,14.9568],[107.5553,14.8762],[107.4909,14.8042],[107.5204,14.7046]]]}},{"type":"Feature","properties":{"sourceId":"1159315895","regionId":"region.7b97c6dc-071b-4019-9886-53899bd6f354","countryId":"country.opradj"},"geometry":{"type":"Polygon","coordinates":[[[107.5401,12.7167],[107.5567,12.4727],[107.5143,12.3438],[107.4159,12.2541],[107.3202,12.3292],[107.2278,12.3106],[107.2473,12.0653],[107.3597,11.9182],[107.3904,11.7518],[107.5634,11.7869],[107.702,11.9069],[107.7859,11.8489],[107.8744,11.864],[107.9979,11.7696],[108.06,11.8216],[108.0879,11.9402],[107.9847,12.0674],[108.1176,12.1519],[108.1287,12.2008],[107.9788,12.3071],[107.9299,12.41],[108.0059,12.4868],[107.8743,12.5922],[107.8422,12.7207],[107.5401,12.7167]]]}},{"type":"Feature","properties":{"sourceId":"1159309225","regionId":"region.9e444712-72bd-4b83-83a5-ebfcd8b3e03b","countryId":"country.opradj"},"geometry":{"type":"Polygon","coordinates":[[[107.5401,12.7167],[107.8422,12.7207],[107.8743,12.5922],[108.0059,12.4868],[107.9299,12.41],[107.9788,12.3071],[108.1287,12.2008],[108.1176,12.1519],[108.2361,12.1558],[108.3364,12.2395],[108.5157,12.3003],[108.6815,12.303],[108.6766,12.4788],[108.8545,12.4847],[108.9068,12.6814],[109.0373,12.7527],[108.8177,12.8284],[108.6608,12.9962],[108.5146,13.0327],[108.3645,13.2949],[108.1075,13.3842],[107.9284,13.3453],[107.6809,13.3329],[107.5616,13.262],[107.4604,13.0216],[107.5401,12.7167]]]}},{"type":"Feature","properties":{"sourceId":"1159309227","regionId":"region.f5efa298-9317-466a-9aad-8bf557206975","countryId":"country.opradj"},"geometry":{"type":"Polygon","coordinates":[[[107.5616,13.262],[107.6809,13.3329],[107.9284,13.3453],[108.1075,13.3842],[108.3645,13.2949],[108.5146,13.0327],[108.6608,12.9962],[108.7291,13.1057],[108.8748,13.2113],[108.8217,13.4305],[108.8256,13.5575],[108.8076,13.7468],[108.7121,13.9301],[108.6347,14.2175],[108.6871,14.4572],[108.6669,14.596],[108.6182,14.6406],[108.4262,14.6266],[108.411,14.5161],[108.3364,14.4307],[108.1532,14.33],[107.7872,14.2159],[107.6583,14.1381],[107.6085,14.05],[107.446,13.9216],[107.4432,13.7835],[107.5969,13.5351],[107.6105,13.4004],[107.5749,13.2936],[107.5616,13.262]]]}},{"type":"Feature","properties":{"sourceId":"1159308301","regionId":"region.562057ce-c64b-443a-967d-4adcf23abf2d","countryId":"country.opradj"},"geometry":{"type":"Polygon","coordinates":[[[107.2278,12.3106],[107.1525,12.277],[106.9777,12.0972],[106.7906,12.0674],[106.7016,11.9708],[106.3954,11.9658],[106.4388,11.8637],[106.3989,11.7463],[106.4346,11.6784],[106.4643,11.5533],[106.7212,11.3457],[106.9648,11.2836],[107.0466,11.3542],[107.1043,11.4754],[107.3085,11.5662],[107.2844,11.6549],[107.3904,11.7518],[107.3597,11.9182],[107.2473,12.0653],[107.2278,12.3106]]]}},{"type":"Feature","properties":{"sourceId":"1159308319","regionId":"region.a107482d-74b9-490f-9fef-b018964dff66","countryId":"country.opradj"},"geometry":{"type":"Polygon","coordinates":[[[106.4346,11.6784],[106.2873,11.6746],[106.1546,11.7463],[106.0154,11.7705],[105.9341,11.6429],[105.821,11.6415],[105.7932,11.5829],[105.8532,11.5469],[105.871,11.4133],[105.8434,11.3041],[106.0631,11.0933],[106.1603,11.0535],[106.1704,10.9706],[106.3637,10.9821],[106.4296,11.1242],[106.3467,11.2727],[106.3789,11.4372],[106.4643,11.5533],[106.4346,11.6784]]]}},{"type":"Feature","properties":{"sourceId":"1159308385","regionId":"region.6dfe53c4-dac4-49fe-ae88-5597ce05c0bf","countryId":"country.opradj"},"geometry":{"type":"Polygon","coordinates":[[[106.1704,10.9706],[106.1269,10.909],[106.1551,10.7848],[106.0179,10.8198],[105.9313,10.8964],[105.861,10.8393],[105.7529,11.0156],[105.6172,10.9708],[105.5236,10.9513],[105.6534,10.8059],[105.866,10.6079],[105.9627,10.5535],[106.0989,10.5486],[106.271,10.5864],[106.4522,10.4164],[106.6154,10.4366],[106.7441,10.5522],[106.4949,10.736],[106.5247,10.851],[106.4769,10.925],[106.3637,10.9821],[106.1704,10.9706]]]}},{"type":"Feature","properties":{"sourceId":"1159308381","regionId":"region.4c6d4db4-00f7-4770-b3a3-ea7fb4b6d7f9","countryId":"country.opradj"},"geometry":{"type":"Polygon","coordinates":[[[105.5236,10.9513],[105.4105,10.963],[105.3275,10.8483],[105.2091,10.8916],[105.3057,10.7021],[105.3693,10.7027],[105.4033,10.587],[105.5043,10.5376],[105.583,10.4465],[105.6998,10.4079],[105.849,10.3014],[105.9627,10.5535],[105.866,10.6079],[105.6534,10.8059],[105.5236,10.9513]]]}},{"type":"Feature","properties":{"sourceId":"1159308377","regionId":"region.9a20065f-29a9-4bd0-8598-9b028bf82aeb","countryId":"country.opradj"},"geometry":{"type":"Polygon","coordinates":[[[105.2091,10.8916],[105.0385,10.9226],[105.0148,10.8492],[105.0662,10.7464],[104.8544,10.5313],[104.7244,10.5213],[104.8877,10.3825],[105.2415,10.1996],[105.4734,10.2753],[105.583,10.4465],[105.5043,10.5376],[105.4033,10.587],[105.3693,10.7027],[105.3057,10.7021],[105.2091,10.8916]]]}},{"type":"Feature","properties":{"sourceId":"1159308383","regionId":"region.c82fc359-ae0b-456c-934d-ab5a55024f65","countryId":"country.opradj"},"geometry":{"type":"MultiPolygon","coordinates":[[[[104.7006,10.5242],[104.554,10.5183],[104.4513,10.4197],[104.5889,10.2609],[104.8049,10.2071],[104.9011,10.0973],[105.0033,10.0921],[105.0877,9.9967],[104.97,9.8537],[104.8928,9.8511],[104.8341,9.5344],[105.0239,9.5283],[105.2799,9.4058],[105.3065,9.6054],[105.3923,9.5868],[105.3616,9.6835],[105.504,9.8343],[105.5189,9.9522],[105.4228,10.0436],[105.2415,10.1996],[104.8877,10.3825],[104.7244,10.5213],[104.7006,10.5242]]],[[[104.082,10.371],[104.0047,10.451],[103.8574,10.3209],[103.9372,10.2661],[104.0106,10.0305],[104.0855,10.2481],[104.082,10.371]]]]}},{"type":"Feature","properties":{"sourceId":"1159308321","regionId":"region.25e3d716-ba4b-45d5-8509-1c08ea574e4e","countryId":"country.opradj"},"geometry":{"type":"Polygon","coordinates":[[[102.1187,22.3975],[102.2262,22.2284],[102.4829,22.0214],[102.4781,21.9576],[102.591,21.9014],[102.6507,21.6578],[102.7867,21.7399],[102.9478,21.7371],[102.9741,21.5753],[102.895,21.4953],[102.8879,21.2269],[102.9259,21.1406],[103.147,20.846],[103.2258,20.8264],[103.2441,20.9634],[103.3184,21.0809],[103.4377,21.0728],[103.4498,21.2666],[103.3778,21.4061],[103.5616,21.6105],[103.5504,21.8869],[103.4165,22.0814],[103.324,22.1495],[103.2665,22.0816],[103.1401,22.0856],[103.0403,22.1477],[102.9519,22.1362],[102.8455,22.2054],[102.7768,22.3604],[102.6449,22.4362],[102.5086,22.5668],[102.3246,22.5651],[102.218,22.4107],[102.1187,22.3975]]]}},{"type":"Feature","properties":{"sourceId":"1159308331","regionId":"region.9fc9aab1-812f-4f06-8ff9-8ec6e128d1eb","countryId":"country.opradj"},"geometry":{"type":"Polygon","coordinates":[[[103.3891,20.7943],[103.5779,20.7329],[103.6654,20.6583],[103.7586,20.7497],[103.7756,20.8349],[104.0567,20.9588],[104.2953,20.8798],[104.3891,20.771],[104.6141,20.6426],[104.7763,20.575],[104.8429,20.6257],[104.8574,20.7279],[105.0771,20.7722],[104.8801,21.0225],[104.9086,21.1014],[104.8285,21.3296],[104.6037,21.4134],[104.4909,21.3657],[104.3571,21.4164],[104.311,21.4955],[104.3498,21.671],[104.3072,21.7097],[104.1698,21.6593],[103.9253,21.7198],[103.8348,21.733],[103.711,21.8612],[103.648,22.004],[103.5694,22.0336],[103.5504,21.8869],[103.5616,21.6105],[103.3778,21.4061],[103.4498,21.2666],[103.4377,21.0728],[103.3184,21.0809],[103.2441,20.9634],[103.2258,20.8264],[103.3891,20.7943]]]}},{"type":"Feature","properties":{"sourceId":"1159308335","regionId":"region.7350c2b5-01ff-4fb3-affe-79c738bf3f46","countryId":"country.opradj"},"geometry":{"type":"Polygon","coordinates":[[[104.6141,20.6426],[104.5426,20.5357],[104.445,20.5346],[104.3598,20.4397],[104.5755,20.4141],[104.6809,20.341],[104.6571,20.2127],[104.8192,20.221],[104.9569,20.0918],[104.9457,19.9924],[105.1796,19.891],[105.1361,19.8111],[105.1901,19.6875],[105.4009,19.484],[105.5344,19.4542],[105.7,19.3025],[105.8062,19.2743],[105.7826,19.3944],[105.8106,19.5996],[105.9234,19.7668],[105.9644,19.9353],[106.0342,19.9957],[105.9826,20.0782],[105.7549,20.1966],[105.5426,20.3671],[105.3088,20.4563],[105.138,20.5908],[105.0667,20.5754],[104.8429,20.6257],[104.7763,20.575],[104.6141,20.6426]]]}},{"type":"Feature","properties":{"sourceId":"1159308371","regionId":"region.79129c0a-d60a-44f7-a2e9-f714744eef64","countryId":"country.opradj"},"geometry":{"type":"Polygon","coordinates":[[[104.9457,19.9924],[104.7807,19.9081],[104.805,19.7909],[104.6548,19.698],[104.6231,19.6181],[104.5058,19.6028],[104.3801,19.6853],[104.2953,19.6549],[104.2002,19.6986],[104.0174,19.6004],[104.09,19.4837],[104.0388,19.4134],[103.8567,19.3172],[103.9728,19.2253],[104.1477,19.1829],[104.2596,19.1041],[104.4007,18.9923],[104.722,18.792],[104.8729,18.778],[104.9372,18.7312],[105.1127,18.6983],[105.1695,18.6183],[105.6618,18.5702],[105.7507,18.6628],[105.7576,18.772],[105.6483,18.8927],[105.6438,19.0654],[105.7371,19.1085],[105.7458,19.2373],[105.8062,19.2743],[105.7,19.3025],[105.5344,19.4542],[105.4009,19.484],[105.1901,19.6875],[105.1361,19.8111],[105.1796,19.891],[104.9457,19.9924]]]}},{"type":"Feature","properties":{"sourceId":"1159308367","regionId":"region.b260f85b-1532-468e-891a-f8c6406ba5fa","countryId":"country.opradj"},"geometry":{"type":"Polygon","coordinates":[[[105.1695,18.6183],[105.08,18.4544],[105.1567,18.3198],[105.2569,18.2475],[105.3683,18.15],[105.476,18.1273],[105.6034,17.9692],[105.86,18.0639],[105.9867,18.0607],[106.0583,17.9633],[106.3009,17.913],[106.35,17.9674],[106.5186,17.957],[106.4035,18.1062],[106.2708,18.2041],[106.0982,18.29],[105.9773,18.4021],[105.7507,18.6628],[105.6618,18.5702],[105.1695,18.6183]]]}},{"type":"Feature","properties":{"sourceId":"1159308373","regionId":"region.21e7cc3d-d262-4f9f-b59c-5debd69de98a","countryId":"country.opradj"},"geometry":{"type":"Polygon","coordinates":[[[105.6034,17.9692],[105.5942,17.8881],[105.7353,17.664],[105.846,17.598],[106.0193,17.3945],[106.1854,17.2574],[106.26,17.2892],[106.404,17.0146],[106.5336,16.9506],[106.8169,16.9788],[106.9026,17.1005],[107.0075,17.1622],[106.7639,17.3355],[106.6346,17.4704],[106.4701,17.7482],[106.447,17.8721],[106.5186,17.957],[106.35,17.9674],[106.3009,17.913],[106.0583,17.9633],[105.9867,18.0607],[105.86,18.0639],[105.6034,17.9692]]]}},{"type":"Feature","properties":{"sourceId":"1159308311","regionId":"region.b16c73a0-0f37-449d-94ec-3ad84be21638","countryId":"country.opradj"},"geometry":{"type":"Polygon","coordinates":[[[106.5336,16.9506],[106.5351,16.6835],[106.6402,16.5866],[106.6552,16.4708],[106.7515,16.4283],[106.8599,16.4118],[106.9673,16.2999],[107.068,16.2908],[107.0626,16.3439],[107.1668,16.4712],[107.1083,16.5534],[107.2688,16.6001],[107.4116,16.75],[107.2165,16.9079],[107.1118,17.0883],[107.0075,17.1622],[106.9026,17.1005],[106.8169,16.9788],[106.5336,16.9506]]]}},{"type":"Feature","properties":{"sourceId":"1159308313","regionId":"region.5cda0366-211b-42df-ad7d-ef366f87e8b6","countryId":"country.opradj"},"geometry":{"type":"Polygon","coordinates":[[[107.136,16.1848],[107.299,16.0642],[107.4333,16.0555],[107.5971,16.0562],[107.7217,16.0169],[107.8562,16.0876],[107.9531,16.2159],[108.2001,16.2116],[108.054,16.236],[107.9452,16.3568],[107.8965,16.2781],[107.8123,16.3132],[107.7588,16.4631],[107.6729,16.4973],[107.6047,16.5957],[107.4116,16.75],[107.2688,16.6001],[107.1083,16.5534],[107.1668,16.4712],[107.0626,16.3439],[107.068,16.2908],[107.136,16.1848]]]}},{"type":"Feature","properties":{"sourceId":"1159308307","regionId":"region.12240abb-ece8-406d-965a-e9f1cd7ec706","countryId":"country.opradj"},"geometry":{"type":"Polygon","coordinates":[[[107.4333,16.0555],[107.3906,15.9358],[107.1752,15.8485],[107.1603,15.7587],[107.3693,15.4961],[107.4479,15.5081],[107.4939,15.42],[107.5764,15.4031],[107.6497,15.3989],[107.7295,15.3],[107.8622,15.222],[107.9724,15.2161],[108.0625,15.1465],[108.075,15.0386],[108.2966,15.0481],[108.2762,15.1781],[108.3364,15.2849],[108.7616,15.3966],[108.6289,15.4557],[108.6187,15.5292],[108.4553,15.747],[108.4148,15.8674],[108.2823,15.9901],[108.0553,15.9781],[108.0069,16.0861],[107.8562,16.0876],[107.7217,16.0169],[107.5971,16.0562],[107.4333,16.0555]]]}},{"type":"Feature","properties":{"sourceId":"1159308401","regionId":"region.3528dc61-86ce-445e-abdf-5e2d65a2b018","countryId":"country.opradj"},"geometry":{"type":"Polygon","coordinates":[[[105.5213,23.1631],[105.4309,23.2678],[105.3323,23.318],[105.0611,23.2325],[104.7979,23.0856],[104.827,22.9543],[104.7282,22.8391],[104.5535,22.836],[104.3619,22.6925],[104.4402,22.5535],[104.4825,22.4052],[104.5947,22.3317],[104.6285,22.2579],[104.8483,22.1702],[104.9573,22.3535],[105.0489,22.357],[105.1966,22.6478],[105.3436,22.601],[105.5676,22.5922],[105.4519,22.7748],[105.3028,22.8546],[105.5352,23.099],[105.5213,23.1631]]]}},{"type":"Feature","properties":{"sourceId":"1159308399","regionId":"region.97f58555-4675-4827-a65b-009b5295dc9a","countryId":"country.opradj"},"geometry":{"type":"Polygon","coordinates":[[[105.5352,23.099],[105.3028,22.8546],[105.4519,22.7748],[105.5676,22.5922],[105.7249,22.7241],[105.8151,22.5053],[105.9096,22.4799],[106.0823,22.5423],[106.193,22.4067],[106.2862,22.4409],[106.3696,22.3885],[106.533,22.4034],[106.5688,22.5746],[106.6802,22.5795],[106.7355,22.6954],[106.731,22.8001],[106.6675,22.8675],[106.4878,22.9254],[106.3157,22.8538],[106.2024,22.947],[105.9992,22.9754],[105.8539,22.9047],[105.6903,23.044],[105.5352,23.099]]]}},{"type":"Feature","properties":{"sourceId":"1159308327","regionId":"region.743f617f-15a3-4aaa-8e39-a24a89e27b93","countryId":"country.opradj"},"geometry":{"type":"Polygon","coordinates":[[[104.3619,22.6925],[104.2495,22.7283],[104.2133,22.825],[104.0733,22.7827],[104.0238,22.7192],[103.9854,22.5272],[103.8668,22.5754],[103.6469,22.799],[103.5499,22.6487],[103.6022,22.5787],[103.5879,22.4519],[103.7473,22.4198],[103.7717,22.2879],[103.6221,22.1801],[103.5694,22.0336],[103.648,22.004],[103.711,21.8612],[103.8348,21.733],[103.9253,21.7198],[103.9133,21.854],[103.9773,21.9683],[104.2058,21.8922],[104.2322,21.9602],[104.3942,21.8986],[104.4406,21.989],[104.381,22.0997],[104.4743,22.1434],[104.5654,22.1],[104.6454,22.1724],[104.6285,22.2579],[104.5947,22.3317],[104.4825,22.4052],[104.4402,22.5535],[104.3619,22.6925]]]}},{"type":"Feature","properties":{"sourceId":"1159315897","regionId":"region.d4b7f106-58bd-4a01-8bb1-765063708ece","countryId":"country.opradj"},"geometry":{"type":"Polygon","coordinates":[[[103.5499,22.6487],[103.4731,22.5916],[103.4017,22.7378],[103.3096,22.7879],[103.2525,22.6786],[103.1417,22.607],[103.142,22.5378],[102.9891,22.4376],[102.8937,22.4874],[102.8452,22.5852],[102.6927,22.6705],[102.5358,22.6958],[102.4427,22.7652],[102.3246,22.5651],[102.5086,22.5668],[102.6449,22.4362],[102.7768,22.3604],[102.8455,22.2054],[102.9519,22.1362],[103.0403,22.1477],[103.1401,22.0856],[103.2665,22.0816],[103.324,22.1495],[103.4165,22.0814],[103.5504,21.8869],[103.5694,22.0336],[103.6221,22.1801],[103.7717,22.2879],[103.7473,22.4198],[103.5879,22.4519],[103.6022,22.5787],[103.5499,22.6487]]]}},{"type":"Feature","properties":{"sourceId":"1159308329","regionId":"region.8e4cf58b-235b-467e-bb2a-b4ace2d0a669","countryId":"country.opradj"},"geometry":{"type":"Polygon","coordinates":[[[106.533,22.4034],[106.3696,22.3885],[106.2862,22.4409],[106.193,22.4067],[106.26,22.2621],[106.1904,22.1118],[106.1328,22.0688],[106.114,21.9481],[106.1419,21.8053],[106.2533,21.6951],[106.1675,21.5708],[106.1655,21.5171],[106.3529,21.4239],[106.46,21.4308],[106.5593,21.5866],[106.631,21.6096],[106.7477,21.5493],[106.8113,21.5927],[106.922,21.445],[107.0653,21.3605],[107.2148,21.4067],[107.2416,21.556],[107.3336,21.6125],[107.2727,21.7183],[107.1724,21.7151],[107.0658,21.7958],[107.0211,21.8923],[106.7224,22.007],[106.6722,22.0925],[106.6629,22.2233],[106.533,22.4034]]]}},{"type":"Feature","properties":{"sourceId":"1159308275","regionId":"region.584279e6-53fd-4363-8171-a5d55f47382a","countryId":"country.opradj"},"geometry":{"type":"MultiPolygon","coordinates":[[[[107.3336,21.6125],[107.2416,21.556],[107.2148,21.4067],[107.0653,21.3605],[106.9986,21.3147],[106.9635,21.1983],[106.8244,21.1622],[106.5458,21.1937],[106.4445,21.0644],[106.6053,21.0254],[106.6507,21.018],[106.7308,21.0299],[106.8679,20.8827],[106.947,20.9543],[107.1609,20.9324],[107.2241,20.9982],[107.3338,21.0058],[107.3916,21.2804],[107.5992,21.2988],[107.6502,21.3769],[107.7485,21.4112],[107.7804,21.5031],[107.8819,21.5341],[107.9912,21.4857],[107.7448,21.6575],[107.6132,21.6056],[107.3336,21.6125]]],[[[107.0803,20.8004],[107.0227,20.8623],[106.9099,20.8185],[107.0051,20.7322],[107.0803,20.8004]]],[[[107.5806,21.212],[107.4671,21.2765],[107.3729,21.0596],[107.4707,21.0959],[107.5806,21.212]]]]}},{"type":"Feature","properties":{"sourceId":"1159308017","regionId":"region.a1dfc142-60c4-4956-b821-0a8258e5bb20","countryId":"country.opradj"},"geometry":{"type":"Polygon","coordinates":[[[105.9021,9.9167],[105.8204,9.7192],[105.5693,9.6104],[105.5776,9.4593],[105.6924,9.3839],[105.8018,9.3907],[105.8683,9.2547],[106.1934,9.3693],[106.197,9.5412],[106.0735,9.748],[105.9021,9.9167]]]}},{"type":"Feature","properties":{"sourceId":"1159315891","regionId":"region.c36d7811-ee6a-4843-bd47-d4f058380c61","countryId":"country.opradj"},"geometry":{"type":"Polygon","coordinates":[[[106.6154,10.4366],[106.4522,10.4164],[106.271,10.5864],[106.0989,10.5486],[105.9627,10.5535],[105.849,10.3014],[105.9549,10.2885],[106.3423,10.3374],[106.4224,10.317],[106.7756,10.2754],[106.7881,10.3931],[106.7411,10.468],[106.6154,10.4366]]]}},{"type":"Feature","properties":{"sourceId":"1159308029","regionId":"region.87bc8a04-a865-423c-8782-3ae99ad0cb8b","countryId":"country.opradj"},"geometry":{"type":"Polygon","coordinates":[[[107.0202,10.5119],[107.0256,10.5014],[107.176,10.4774],[107.272,10.3785],[107.326,10.4424],[107.5305,10.5129],[107.5865,10.5735],[107.5166,10.7561],[107.4579,10.8015],[107.3583,10.6913],[107.241,10.7694],[107.1167,10.6651],[107.0253,10.6353],[107.0202,10.5119]]]}},{"type":"Feature","properties":{"sourceId":"1159308033","regionId":"region.79db045b-91c4-45f2-a4ee-ccbccb268284","countryId":"country.opradj"},"geometry":{"type":"Polygon","coordinates":[[[106.9841,10.5669],[106.8925,10.6701],[106.836,10.8878],[106.7123,10.881],[106.5137,11.1358],[106.4296,11.1242],[106.3637,10.9821],[106.4769,10.925],[106.5247,10.851],[106.4949,10.736],[106.7441,10.5522],[106.8816,10.6522],[106.9841,10.5669]]]}},{"type":"Feature","properties":{"sourceId":"1159308127","regionId":"region.1995313c-da01-40a3-8645-31cf38951303","countryId":"country.opradj"},"geometry":{"type":"Polygon","coordinates":[[[109.3846,12.834],[109.1957,12.8468],[109.0373,12.7527],[108.9068,12.6814],[108.8545,12.4847],[108.6766,12.4788],[108.6815,12.303],[108.7192,12.1811],[108.8098,12.1243],[108.8779,11.9542],[109.0334,11.9077],[109.1141,11.798],[109.2039,11.7887],[109.1258,11.8636],[109.1987,11.9481],[109.2139,12.0681],[109.2066,12.3872],[109.3367,12.4101],[109.2049,12.5502],[109.2049,12.6464],[109.3846,12.834]]]}},{"type":"Feature","properties":{"sourceId":"1159308393","regionId":"region.eb6e9e5c-b89e-4a47-81ce-654f4f631b8f","countryId":"country.opradj"},"geometry":{"type":"Polygon","coordinates":[[[105.426,9.008],[105.3311,9.1025],[105.281,9.2362],[105.3169,9.2972],[105.2799,9.4058],[105.0239,9.5283],[104.8341,9.5344],[104.8071,9.0456],[104.7746,8.8179],[104.8528,8.7292],[104.8562,8.5656],[105.1015,8.6343],[105.184,8.7409],[105.334,8.8397],[105.426,9.008]]]}},{"type":"Feature","properties":{"sourceId":"1159308391","regionId":"region.694f24b6-cc72-420c-9198-2b9fc9a852b9","countryId":"country.opradj"},"geometry":{"type":"Polygon","coordinates":[[[105.8683,9.2547],[105.8018,9.3907],[105.6924,9.3839],[105.5776,9.4593],[105.5693,9.6104],[105.3923,9.5868],[105.3065,9.6054],[105.2799,9.4058],[105.3169,9.2972],[105.281,9.2362],[105.3311,9.1025],[105.426,9.008],[105.5387,9.1293],[105.8683,9.2547]]]}},{"type":"Feature","properties":{"sourceId":"1159308389","regionId":"region.a2e29c09-8867-4349-bf41-c0380cda39a8","countryId":"country.opradj"},"geometry":{"type":"Polygon","coordinates":[[[105.8385,10.0048],[105.6922,10.1232],[105.4228,10.0436],[105.5189,9.9522],[105.504,9.8343],[105.3616,9.6835],[105.3923,9.5868],[105.5693,9.6104],[105.8204,9.7192],[105.9021,9.9167],[105.8385,10.0048]]]}},{"type":"Feature","properties":{"sourceId":"1159308397","regionId":"region.11dd6e8c-83a4-4df4-abc6-12b6f5cc6722","countryId":"country.opradj"},"geometry":{"type":"Polygon","coordinates":[[[105.9966,9.8886],[106.1263,9.9426],[106.2464,10.0775],[106.1182,10.2381],[105.9549,10.2885],[105.849,10.3014],[105.9112,10.2215],[105.8814,10.1464],[105.7377,10.1834],[105.6922,10.1232],[105.8385,10.0048],[105.9966,9.8886]]]}},{"type":"Feature","properties":{"sourceId":"1159308395","regionId":"region.97b64e1c-a1b1-4c8f-af6f-b2b838757550","countryId":"country.opradj"},"geometry":{"type":"Polygon","coordinates":[[[106.2464,10.0775],[106.1263,9.9426],[105.9966,9.8886],[106.2503,9.6312],[106.3982,9.5421],[106.4849,9.5471],[106.5755,9.6486],[106.575,9.7391],[106.4758,9.8618],[106.2464,10.0775]]]}},{"type":"Feature","properties":{"sourceId":"1159308023","regionId":"region.9d63c421-2179-4da8-8094-4f4a475044f8","countryId":"country.opradj"},"geometry":{"type":"Polygon","coordinates":[[[106.4224,10.317],[106.3423,10.3374],[105.9549,10.2885],[106.1182,10.2381],[106.395,9.9744],[106.6113,9.817],[106.6143,9.939],[106.6687,10.0324],[106.7913,10.1102],[106.7209,10.1997],[106.4224,10.317]]]}},{"type":"Feature","properties":{"sourceId":"1159308375","regionId":"region.f3b94457-86a3-47d8-8cc6-22abac58c50e","countryId":"country.opradj"},"geometry":{"type":"Polygon","coordinates":[[[106.9978,10.6249],[107.0025,10.6249],[107.0253,10.6353],[107.1167,10.6651],[107.241,10.7694],[107.3583,10.6913],[107.4579,10.8015],[107.5166,10.7561],[107.5908,10.8509],[107.5574,10.9797],[107.4309,11.0381],[107.5698,11.3272],[107.6095,11.3617],[107.4489,11.4172],[107.4488,11.4906],[107.3085,11.5662],[107.1043,11.4754],[107.0466,11.3542],[106.9648,11.2836],[106.9339,11.2147],[106.9547,11.064],[106.7875,10.9807],[106.836,10.8878],[106.8925,10.6701],[106.9841,10.5669],[106.9978,10.6249]]]}},{"type":"Feature","properties":{"sourceId":"1159308035","regionId":"region.a112c2fe-6073-4ef6-bc4d-355e687b8bbd","countryId":"country.opradj"},"geometry":{"type":"Polygon","coordinates":[[[108.906,11.3234],[108.7719,11.4078],[108.697,11.5478],[108.6202,11.564],[108.5804,11.5052],[108.3865,11.5238],[108.319,11.4828],[108.3357,11.3687],[108.1526,11.2815],[108.0926,11.2187],[108.0102,11.3015],[107.7563,11.3149],[107.6095,11.3617],[107.5698,11.3272],[107.4309,11.0381],[107.5574,10.9797],[107.5908,10.8509],[107.5166,10.7561],[107.5865,10.5735],[107.8823,10.717],[107.9983,10.6994],[108.1065,10.9182],[108.345,10.9538],[108.4723,11.0532],[108.5774,11.1791],[108.7293,11.1815],[108.7879,11.3007],[108.906,11.3234]]]}},{"type":"Feature","properties":{"sourceId":"1159308293","regionId":"region.38e19e6a-b75b-4fb0-a310-54746519ff8e","countryId":"country.opradj"},"geometry":{"type":"Polygon","coordinates":[[[109.2039,11.7887],[109.1141,11.798],[109.0334,11.9077],[108.8779,11.9542],[108.8098,12.1243],[108.7192,12.1811],[108.6374,11.8392],[108.6847,11.7423],[108.6101,11.6401],[108.6202,11.564],[108.697,11.5478],[108.7719,11.4078],[108.906,11.3234],[109.0181,11.3559],[109.0278,11.5175],[109.136,11.5702],[109.2429,11.7357],[109.2039,11.7887]]]}},{"type":"Feature","properties":{"sourceId":"1159308295","regionId":"region.260f7444-1a6b-46b5-855f-ab38a809abee","countryId":"country.opradj"},"geometry":{"type":"Polygon","coordinates":[[[109.2371,13.6986],[108.9778,13.5426],[108.8256,13.5575],[108.8217,13.4305],[108.8748,13.2113],[108.7291,13.1057],[108.6608,12.9962],[108.8177,12.8284],[109.0373,12.7527],[109.1957,12.8468],[109.3846,12.834],[109.465,12.9133],[109.3074,13.133],[109.3088,13.3415],[109.2322,13.3931],[109.2659,13.5339],[109.2371,13.6986]]]}},{"type":"Feature","properties":{"sourceId":"1159308303","regionId":"region.ac998145-f3f3-48ac-add8-169896247257","countryId":"country.opradj"},"geometry":{"type":"Polygon","coordinates":[[[109.0773,14.6725],[108.8625,14.6795],[108.6669,14.596],[108.6871,14.4572],[108.6347,14.2175],[108.7121,13.9301],[108.8076,13.7468],[108.8256,13.5575],[108.9778,13.5426],[109.2371,13.6986],[109.304,13.7593],[109.1814,14.3048],[109.0745,14.5786],[109.0773,14.6725]]]}},{"type":"Feature","properties":{"sourceId":"1159308309","regionId":"region.4938f02d-9945-4e0d-bf70-2418eb67490a","countryId":"country.opradj"},"geometry":{"type":"Polygon","coordinates":[[[108.7616,15.3966],[108.3364,15.2849],[108.2762,15.1781],[108.2966,15.0481],[108.4648,14.8573],[108.5487,14.8256],[108.6182,14.6406],[108.6669,14.596],[108.8625,14.6795],[109.0773,14.6725],[108.9426,14.9796],[108.8977,15.154],[108.9243,15.2564],[108.839,15.3743],[108.7616,15.3966]]]}},{"type":"Feature","properties":{"sourceId":"1159308317","regionId":"region.ab8c6498-947e-4c73-a784-8ae85d50f961","countryId":"country.opradj"},"geometry":{"type":"Polygon","coordinates":[[[108.2001,16.2116],[107.9531,16.2159],[107.8562,16.0876],[108.0069,16.0861],[108.0553,15.9781],[108.2823,15.9901],[108.2409,16.0905],[108.1428,16.1194],[108.2001,16.2116]]]}},{"type":"Feature","properties":{"sourceId":"1159308355","regionId":"region.6e0da1a4-ac9e-4e05-8379-1fc25d6185f2","countryId":"country.opradj"},"geometry":{"type":"Polygon","coordinates":[[[106.1145,20.0333],[106.1551,20.2176],[105.9638,20.2826],[105.9512,20.3368],[105.8413,20.4195],[105.706,20.4133],[105.7156,20.3353],[105.5426,20.3671],[105.7549,20.1966],[105.9826,20.0782],[106.0342,19.9957],[106.1145,20.0333]]]}},{"type":"Feature","properties":{"sourceId":"1159308359","regionId":"region.4501ac99-59e7-4fe5-8052-a0bafa373f0e","countryId":"country.opradj"},"geometry":{"type":"Polygon","coordinates":[[[106.5029,20.3005],[106.4502,20.2873],[106.2141,20.4244],[106.1845,20.4909],[106.0709,20.4833],[105.9512,20.3368],[105.9638,20.2826],[106.1551,20.2176],[106.1145,20.0333],[106.1609,19.9841],[106.5029,20.3005]]]}},{"type":"Feature","properties":{"sourceId":"1159308365","regionId":"region.9fb8357a-791a-4c26-887e-4c26d93379af","countryId":"country.opradj"},"geometry":{"type":"Polygon","coordinates":[[[106.5936,20.6467],[106.469,20.6007],[106.4172,20.7193],[106.2574,20.6959],[106.1124,20.6316],[106.1845,20.4909],[106.2141,20.4244],[106.4502,20.2873],[106.5029,20.3005],[106.5731,20.3685],[106.5936,20.6467]]]}},{"type":"Feature","properties":{"sourceId":"1159315573","regionId":"region.0cae20bc-b055-49c4-8ad3-3ef7f9906dce","countryId":"country.opradj"},"geometry":{"type":"Polygon","coordinates":[[[106.6507,21.018],[106.6053,21.0254],[106.4966,20.8605],[106.5356,20.7823],[106.4172,20.7193],[106.469,20.6007],[106.5936,20.6467],[106.683,20.6434],[106.7888,20.7305],[106.7492,20.8043],[106.7551,20.9385],[106.6507,21.018]]]}},{"type":"Feature","properties":{"sourceId":"1159308341","regionId":"region.1221bee3-7fc9-4ac0-98f1-c2705aef5a33","countryId":"country.opradj"},"geometry":{"type":"Polygon","coordinates":[[[105.8413,20.4195],[105.7858,20.5683],[105.6798,20.6377],[105.6128,20.7616],[105.5073,20.8464],[105.5045,20.9872],[105.3079,21.0119],[105.3327,20.9188],[105.1153,20.9499],[104.9086,21.1014],[104.8801,21.0225],[105.0771,20.7722],[104.8574,20.7279],[104.8429,20.6257],[105.0667,20.5754],[105.138,20.5908],[105.3088,20.4563],[105.5426,20.3671],[105.7156,20.3353],[105.706,20.4133],[105.8413,20.4195]]]}},{"type":"Feature","properties":{"sourceId":"1159308337","regionId":"region.b326c158-5acd-4d48-a93d-7e8f1246bdc0","countryId":"country.opradj"},"geometry":{"type":"Polygon","coordinates":[[[105.1118,21.7039],[105.2332,21.6187],[105.3174,21.5141],[105.4604,21.4972],[105.5777,21.5438],[105.5223,21.6076],[105.5575,21.9509],[105.4886,22.1544],[105.5198,22.3403],[105.6093,22.47],[105.5676,22.5922],[105.3436,22.601],[105.1966,22.6478],[105.0489,22.357],[104.9573,22.3535],[104.8483,22.1702],[104.9826,22.0074],[104.9969,21.924],[105.1001,21.7952],[105.1118,21.7039]]]}},{"type":"Feature","properties":{"sourceId":"1159308339","regionId":"region.ba64fd25-1672-4698-a468-3dca9ce615c7","countryId":"country.opradj"},"geometry":{"type":"Polygon","coordinates":[[[104.8483,22.1702],[104.6285,22.2579],[104.6454,22.1724],[104.5654,22.1],[104.4743,22.1434],[104.381,22.0997],[104.4406,21.989],[104.3942,21.8986],[104.2322,21.9602],[104.2058,21.8922],[103.9773,21.9683],[103.9133,21.854],[103.9253,21.7198],[104.1698,21.6593],[104.3072,21.7097],[104.3498,21.671],[104.311,21.4955],[104.3571,21.4164],[104.4909,21.3657],[104.6037,21.4134],[104.8285,21.3296],[104.9193,21.3979],[104.8881,21.523],[104.9219,21.6206],[105.1118,21.7039],[105.1001,21.7952],[104.9969,21.924],[104.9826,22.0074],[104.8483,22.1702]]]}},{"type":"Feature","properties":{"sourceId":"1159308353","regionId":"region.b6ec1ae6-731c-4da9-87c0-fafea1bb3ae9","countryId":"country.opradj"},"geometry":{"type":"Polygon","coordinates":[[[105.4294,21.2764],[105.5142,21.1675],[105.7799,21.1791],[105.7721,21.3625],[105.5777,21.5438],[105.4604,21.4972],[105.3174,21.5141],[105.3437,21.4347],[105.4516,21.3239],[105.4294,21.2764]]]}},{"type":"Feature","properties":{"sourceId":"1159308361","regionId":"region.755b3313-b104-4b2b-902d-fedc3d528aaf","countryId":"country.opradj"},"geometry":{"type":"Polygon","coordinates":[[[105.3174,21.5141],[105.2332,21.6187],[105.1118,21.7039],[104.9219,21.6206],[104.8881,21.523],[104.9193,21.3979],[104.8285,21.3296],[104.9086,21.1014],[105.1153,20.9499],[105.3327,20.9188],[105.3079,21.0119],[105.2849,21.1915],[105.4294,21.2764],[105.4516,21.3239],[105.3437,21.4347],[105.3174,21.5141]]]}},{"type":"Feature","properties":{"sourceId":"1159308347","regionId":"region.11b70c6f-5fbd-4ee6-98a3-705afb0b33f7","countryId":"country.opradj"},"geometry":{"type":"Polygon","coordinates":[[[105.7858,20.5683],[105.8171,20.6474],[106.0072,20.7132],[105.9203,20.8013],[105.9124,20.9659],[106.0047,20.9913],[105.929,21.1274],[105.945,21.2475],[105.9208,21.3281],[105.7721,21.3625],[105.7799,21.1791],[105.5142,21.1675],[105.4294,21.2764],[105.2849,21.1915],[105.3079,21.0119],[105.5045,20.9872],[105.5073,20.8464],[105.6128,20.7616],[105.6798,20.6377],[105.7858,20.5683]]]}},{"type":"Feature","properties":{"sourceId":"1159308323","regionId":"region.eb8f46e2-1164-4b9c-ad1c-bb57c43731ec","countryId":"country.opradj"},"geometry":{"type":"Polygon","coordinates":[[[105.5575,21.9509],[105.7172,22.0303],[105.7729,21.9778],[105.8007,21.7877],[106.0262,21.9214],[106.114,21.9481],[106.1328,22.0688],[106.1904,22.1118],[106.26,22.2621],[106.193,22.4067],[106.0823,22.5423],[105.9096,22.4799],[105.8151,22.5053],[105.7249,22.7241],[105.5676,22.5922],[105.6093,22.47],[105.5198,22.3403],[105.4886,22.1544],[105.5575,21.9509]]]}},{"type":"Feature","properties":{"sourceId":"1159308345","regionId":"region.b26c3dc0-d62a-4694-851c-63cc8695c35f","countryId":"country.opradj"},"geometry":{"type":"Polygon","coordinates":[[[106.2574,20.6959],[106.1384,20.796],[106.1522,20.9978],[106.0047,20.9913],[105.9124,20.9659],[105.9203,20.8013],[106.0072,20.7132],[106.1124,20.6316],[106.2574,20.6959]]]}},{"type":"Feature","properties":{"sourceId":"1159308349","regionId":"region.f69d907f-5b89-4b8c-b2db-e41af343d37a","countryId":"country.opradj"},"geometry":{"type":"Polygon","coordinates":[[[106.1522,20.9978],[106.3068,21.0133],[106.298,21.1341],[106.2142,21.1814],[105.945,21.2475],[105.929,21.1274],[106.0047,20.9913],[106.1522,20.9978]]]}},{"type":"Feature","properties":{"sourceId":"1159308363","regionId":"region.68e8e97d-ad9c-422b-8c31-2885cc478d15","countryId":"country.opradj"},"geometry":{"type":"Polygon","coordinates":[[[107.0653,21.3605],[106.922,21.445],[106.8113,21.5927],[106.7477,21.5493],[106.631,21.6096],[106.5593,21.5866],[106.46,21.4308],[106.3529,21.4239],[106.1655,21.5171],[106.1675,21.5708],[106.0719,21.5026],[105.9208,21.3281],[105.945,21.2475],[106.2142,21.1814],[106.298,21.1341],[106.3858,21.2228],[106.5458,21.1937],[106.8244,21.1622],[106.9635,21.1983],[106.9986,21.3147],[107.0653,21.3605]]]}},{"type":"Feature","properties":{"sourceId":"1159308325","regionId":"region.36013edc-a70c-4a41-9c31-97deedc602cf","countryId":"country.opradj"},"geometry":{"type":"Polygon","coordinates":[[[105.5777,21.5438],[105.7721,21.3625],[105.9208,21.3281],[106.0719,21.5026],[106.1675,21.5708],[106.2533,21.6951],[106.1419,21.8053],[106.114,21.9481],[106.0262,21.9214],[105.8007,21.7877],[105.7729,21.9778],[105.7172,22.0303],[105.5575,21.9509],[105.5223,21.6076],[105.5777,21.5438]]]}},{"type":"Feature","properties":{"sourceId":"1159308343","regionId":"region.041a6302-e8d4-471a-9402-aa71fa24076e","countryId":"country.opradj"},"geometry":{"type":"Polygon","coordinates":[[[106.4172,20.7193],[106.5356,20.7823],[106.4966,20.8605],[106.6053,21.0254],[106.4445,21.0644],[106.5458,21.1937],[106.3858,21.2228],[106.298,21.1341],[106.3068,21.0133],[106.1522,20.9978],[106.1384,20.796],[106.2574,20.6959],[106.4172,20.7193]]]}},{"type":"Feature","properties":{"sourceId":"1159308357","regionId":"region.b3be1ce5-f99d-4d62-a093-9933ac020ba7","countryId":"country.opradj"},"geometry":{"type":"Polygon","coordinates":[[[105.9512,20.3368],[106.0709,20.4833],[106.1845,20.4909],[106.1124,20.6316],[106.0072,20.7132],[105.8171,20.6474],[105.7858,20.5683],[105.8413,20.4195],[105.9512,20.3368]]]}},{"type":"Feature","properties":{"sourceId":"1159308299","regionId":"region.cafd2917-303d-4262-8f4f-ff7b2b9cd99e","countryId":"country.opradj"},"geometry":{"type":"Polygon","coordinates":[[[106.4296,11.1242],[106.5137,11.1358],[106.7123,10.881],[106.836,10.8878],[106.7875,10.9807],[106.9547,11.064],[106.9339,11.2147],[106.9648,11.2836],[106.7212,11.3457],[106.4643,11.5533],[106.3789,11.4372],[106.3467,11.2727],[106.4296,11.1242]]]}},{"type":"Feature","properties":{"sourceId":"1159308291","regionId":"region.b5bc48b3-b3bb-4cd3-9652-fb986c9ca5b5","countryId":"country.opradj"},"geometry":{"type":"Polygon","coordinates":[[[108.7192,12.1811],[108.6815,12.303],[108.5157,12.3003],[108.3364,12.2395],[108.2361,12.1558],[108.1176,12.1519],[107.9847,12.0674],[108.0879,11.9402],[108.06,11.8216],[107.9979,11.7696],[107.8744,11.864],[107.7859,11.8489],[107.702,11.9069],[107.5634,11.7869],[107.3904,11.7518],[107.2844,11.6549],[107.3085,11.5662],[107.4488,11.4906],[107.4489,11.4172],[107.6095,11.3617],[107.7563,11.3149],[108.0102,11.3015],[108.0926,11.2187],[108.1526,11.2815],[108.3357,11.3687],[108.319,11.4828],[108.3865,11.5238],[108.5804,11.5052],[108.6202,11.564],[108.6101,11.6401],[108.6847,11.7423],[108.6374,11.8392],[108.7192,12.1811]]]}},{"type":"Feature","properties":{"sourceId":"1159308379","regionId":"region.fd0cbe85-f834-47c6-849d-702bc9f3967b","countryId":"country.opradj"},"geometry":{"type":"Polygon","coordinates":[[[105.4228,10.0436],[105.6922,10.1232],[105.7377,10.1834],[105.8814,10.1464],[105.9112,10.2215],[105.849,10.3014],[105.6998,10.4079],[105.583,10.4465],[105.4734,10.2753],[105.2415,10.1996],[105.4228,10.0436]]]}}]}