{"type":"FeatureCollection","features":[{"type":"Feature","properties":{"sourceId":"1159308475","regionId":"region.460ee266-2592-4f11-adc8-adc8d0440b81","countryId":"country.1pajyhp"},"geometry":{"type":"Polygon","coordinates":[[[70.959,40.2384],[70.7072,40.2002],[70.5818,40.2217],[70.5019,40.3508],[70.3714,40.3649],[70.3538,40.4561],[70.7563,40.6956],[70.6969,40.8162],[70.458,41.0157],[70.3635,41.0324],[70.2804,40.8777],[70.0097,40.758],[69.6601,40.6387],[69.4358,40.8027],[69.3142,40.7293],[69.3135,40.6094],[69.198,40.5458],[69.3063,40.365],[69.2853,40.2186],[69.0736,40.2169],[69.0192,40.2321],[68.6427,40.1837],[68.6965,40.1117],[68.9307,40.1468],[68.7894,39.994],[68.7483,39.8261],[68.6403,39.8481],[68.6058,39.6669],[68.5175,39.5484],[68.3376,39.5279],[68.1062,39.5541],[67.7645,39.6226],[67.5074,39.5529],[67.4365,39.4857],[67.3587,39.2904],[67.3501,39.2198],[67.6786,39.1059],[67.6733,39.003],[67.8452,38.9738],[68.1009,38.9793],[68.1534,38.8994],[68.5099,38.9511],[68.5834,39.0436],[68.7607,39.0755],[69.0655,39.0304],[69.2334,39.1007],[69.358,39.1084],[69.5004,39.1858],[69.559,39.0721],[69.6516,39.115],[69.7363,39.2934],[69.8892,39.3211],[70.1166,39.3115],[70.485,39.402],[70.6556,39.4946],[70.6221,39.5635],[70.46,39.5995],[70.206,39.5241],[70.0197,39.5686],[69.8304,39.5362],[69.6694,39.5778],[69.4961,39.5326],[69.2862,39.5397],[69.2912,39.6589],[69.2263,39.751],[69.314,39.9869],[69.4054,39.8961],[69.5016,39.9225],[69.4631,40.0254],[69.5755,40.1036],[69.9696,40.2116],[70.1472,40.137],[70.6274,39.9939],[70.6394,40.0849],[70.959,40.2384]]]}},{"type":"Feature","properties":{"sourceId":"1159308473","regionId":"region.ffc38a88-236b-4809-b66a-7bf02ae667bb","countryId":"country.1pajyhp"},"geometry":{"type":"Polygon","coordinates":[[[71.5097,39.585],[71.3616,39.5876],[71.2369,39.5145],[71.0629,39.4956],[71.0093,39.4076],[70.7397,39.3862],[70.6556,39.4946],[70.485,39.402],[70.1166,39.3115],[69.8892,39.3211],[69.7363,39.2934],[69.6516,39.115],[69.559,39.0721],[69.5004,39.1858],[69.358,39.1084],[69.2334,39.1007],[69.0655,39.0304],[68.7607,39.0755],[68.5834,39.0436],[68.5099,38.9511],[68.1534,38.8994],[68.0376,38.6916],[68.0552,38.5363],[68.1837,38.3355],[68.332,38.243],[68.3607,38.1741],[68.238,37.9427],[68.4659,37.9164],[68.5437,38.0194],[68.5207,38.1074],[68.6093,38.3282],[68.822,38.3268],[68.9943,38.4123],[69.1771,38.4358],[69.3813,38.328],[69.6063,38.4932],[69.7073,38.6119],[69.7794,38.5904],[69.9242,38.714],[70.033,38.7242],[70.1675,38.6164],[70.3533,38.6067],[70.4391,38.5157],[70.5935,38.6581],[70.5496,38.7114],[70.7327,38.804],[70.7814,38.7593],[71.0126,38.7966],[71.0717,38.5997],[71.1782,38.6083],[71.2843,38.4862],[71.4308,38.4774],[71.5976,38.6325],[71.9742,38.736],[72.0627,38.8081],[72.0074,38.8847],[72.1247,39.0781],[72.2287,39.1895],[72.0948,39.2751],[72.0498,39.3689],[71.8435,39.285],[71.7329,39.2851],[71.7403,39.4483],[71.5129,39.4588],[71.5097,39.585]],[[68.8008,38.592],[68.8429,38.5297],[68.7296,38.4796],[68.7095,38.5911],[68.8008,38.592]]]}},{"type":"Feature","properties":{"sourceId":"1159308469","regionId":"region.e0aba700-a813-4c36-99eb-9951cc964a4e","countryId":"country.1pajyhp"},"geometry":{"type":"Polygon","coordinates":[[[73.6326,39.4483],[73.3676,39.4438],[73.1679,39.3554],[72.8353,39.3562],[72.6505,39.3938],[72.3163,39.3288],[72.2287,39.1895],[72.1247,39.0781],[72.0074,38.8847],[72.0627,38.8081],[71.9742,38.736],[71.5976,38.6325],[71.4308,38.4774],[71.2843,38.4862],[71.1782,38.6083],[71.0717,38.5997],[71.0126,38.7966],[70.7814,38.7593],[70.7327,38.804],[70.5496,38.7114],[70.5935,38.6581],[70.4391,38.5157],[70.3556,38.442],[70.3413,38.156],[70.2986,37.9981],[70.4826,38.1374],[70.5958,38.3382],[70.7611,38.4435],[70.974,38.4737],[71.3344,38.2807],[71.3645,38.2068],[71.2558,37.9499],[71.3412,37.8933],[71.5012,37.9462],[71.5977,37.8984],[71.4972,37.5665],[71.487,37.2671],[71.4311,37.067],[71.4631,36.9481],[71.6111,36.7048],[71.8366,36.6992],[72.2598,36.9673],[72.4059,37.0077],[72.6577,37.0288],[72.761,37.1875],[72.9956,37.3093],[73.0675,37.3151],[73.2761,37.4595],[73.4853,37.481],[73.7535,37.4284],[73.7457,37.3529],[73.6177,37.2332],[73.7982,37.2285],[74.1633,37.3301],[74.2239,37.4034],[74.5298,37.3758],[74.6604,37.394],[74.8923,37.2311],[75.0684,37.3121],[75.1641,37.4006],[74.8919,37.5992],[74.9652,37.7675],[74.8832,37.8439],[74.8928,37.994],[74.7907,38.0814],[74.7711,38.2915],[74.8383,38.3794],[74.7763,38.5107],[74.3342,38.667],[74.1404,38.6692],[73.9329,38.5297],[73.7974,38.6028],[73.6837,38.8549],[73.816,38.9938],[73.6982,39.0784],[73.6023,39.2358],[73.6326,39.4483]]]}},{"type":"Feature","properties":{"sourceId":"1159308471","regionId":"region.7bef62f2-2876-4b5b-a0a5-5cfd77a3ecd1","countryId":"country.1pajyhp"},"geometry":{"type":"Polygon","coordinates":[[[67.7805,37.1889],[67.7853,37.0965],[67.8781,37.0644],[68.0248,36.9255],[68.3073,37.1142],[68.6269,37.2063],[68.6689,37.2783],[68.8246,37.2606],[68.8972,37.336],[69.0055,37.3055],[69.1236,37.1692],[69.3086,37.1169],[69.4452,37.2364],[69.3784,37.4374],[69.5287,37.586],[69.8022,37.5815],[69.8952,37.6182],[70.0042,37.5514],[70.1579,37.5414],[70.2831,37.7048],[70.1652,37.8899],[70.2986,37.9981],[70.3413,38.156],[70.3556,38.442],[70.4391,38.5157],[70.3533,38.6067],[70.1675,38.6164],[70.033,38.7242],[69.9242,38.714],[69.7794,38.5904],[69.7073,38.6119],[69.6063,38.4932],[69.3813,38.328],[69.1771,38.4358],[68.9943,38.4123],[68.822,38.3268],[68.6093,38.3282],[68.5207,38.1074],[68.5437,38.0194],[68.4659,37.9164],[68.238,37.9427],[68.1222,37.9083],[68.0796,37.8063],[67.8292,37.5279],[67.8206,37.3033],[67.7805,37.1889]]]}},{"type":"Feature","properties":{"sourceId":"1159317127","regionId":"region.53e84473-8399-4cda-a20d-da451b98b18e","countryId":"country.1pajyhp"},"geometry":{"type":"Polygon","coordinates":[[[68.8008,38.592],[68.7095,38.5911],[68.7296,38.4796],[68.8429,38.5297],[68.8008,38.592]]]}}]}