{"type":"FeatureCollection","features":[{"type":"Feature","properties":{"sourceId":"1159307717","regionId":"region.68e633fa-64ec-40c2-ac5f-9dae74488b73","countryId":"country.1aj872z"},"geometry":{"type":"MultiPolygon","coordinates":[[[[-117.0382,48.9925],[-116.0482,48.9925],[-115.1797,48.9925],[-114.0638,48.9925],[-114.2254,49.1859],[-114.3764,49.2046],[-114.5925,49.4178],[-114.5637,49.5389],[-114.7383,49.5809],[-114.6248,49.7802],[-114.6827,49.892],[-114.6438,49.9825],[-114.7194,50.1165],[-114.7751,50.3541],[-114.9997,50.5629],[-115.1881,50.5477],[-115.3125,50.636],[-115.3433,50.7305],[-115.528,50.7925],[-115.6204,50.9702],[-115.8158,51.0842],[-116.0181,51.1424],[-116.0275,51.2197],[-116.2339,51.3031],[-116.2958,51.4507],[-116.5764,51.6442],[-116.685,51.8094],[-116.8535,51.7064],[-116.9377,51.7199],[-117.0474,51.9152],[-117.3762,52.1341],[-117.5908,52.1304],[-117.8218,52.2795],[-117.7583,52.4051],[-117.992,52.4847],[-118.0636,52.3989],[-118.2113,52.3667],[-118.2438,52.4929],[-118.3524,52.6285],[-118.3062,52.6775],[-118.4172,52.8262],[-118.605,52.8775],[-118.6633,53.0156],[-118.8502,53.1833],[-119.0288,53.1346],[-119.2778,53.2082],[-119.3809,53.356],[-119.7567,53.4146],[-119.9054,53.6173],[-119.8077,53.7047],[-120.001,53.8228],[-120,54.9584],[-120,55.7117],[-120,56.8742],[-120,57.7082],[-120,58.5231],[-120,59.3381],[-120,60.0001],[-121.4322,60.0001],[-122.3869,60.0001],[-123.8191,60.0001],[-124.7712,60.0001],[-126.1992,60.0001],[-127.6272,60.0001],[-128.5793,60.0001],[-130.4833,60.0001],[-132.3874,60.0001],[-133.8154,60.0001],[-135.2434,60.0001],[-136.1955,60.0001],[-137.6235,60.0001],[-139.0602,60.0001],[-138.6921,59.8869],[-138.5992,59.7538],[-137.6114,59.2393],[-137.4231,58.9077],[-137.2819,58.9872],[-136.8408,59.1482],[-136.6135,59.1542],[-136.4665,59.2878],[-136.4676,59.4616],[-136.275,59.4864],[-136.2585,59.6216],[-135.9238,59.6667],[-135.4828,59.7925],[-135.2599,59.6982],[-135.0162,59.5434],[-135.0958,59.4189],[-134.9324,59.2706],[-134.7055,59.2401],[-134.398,59.052],[-134.3994,58.975],[-134.2222,58.8427],[-133.8712,58.7359],[-133.6263,58.5464],[-133.4631,58.4622],[-133.3746,58.291],[-133.1656,58.1473],[-133.0752,58.0079],[-132.9172,57.8805],[-132.5524,57.4991],[-132.231,57.1968],[-132.3412,57.0804],[-132.0319,57.0284],[-132.1074,56.8588],[-131.8716,56.7935],[-131.7991,56.5877],[-131.5859,56.595],[-131.1005,56.4077],[-130.8391,56.3725],[-130.6458,56.2619],[-130.4955,56.2324],[-130.404,56.1219],[-130.0715,56.0841],[-130.0196,55.908],[-130.1306,55.7363],[-130.0998,55.5872],[-129.9579,55.2735],[-130.1674,55.0854],[-130.0638,55.0029],[-129.828,55.2803],[-129.8384,55.3728],[-129.6753,55.3781],[-129.9567,55.1014],[-130.1343,54.8872],[-130.2015,54.7285],[-130.3724,54.6643],[-130.4312,54.5678],[-130.4582,54.3486],[-130.2722,54.3581],[-130.2773,54.2078],[-130.1122,54.1593],[-130.1047,53.9471],[-129.3349,53.3969],[-129.242,53.4474],[-129.2283,53.6327],[-129.1121,53.7219],[-128.8616,53.8302],[-128.7889,53.7809],[-128.7755,53.5556],[-128.8806,53.4477],[-128.8755,53.3062],[-128.5467,53.136],[-128.4779,52.8683],[-128.1256,52.7528],[-128.243,52.5588],[-128.2262,52.4605],[-128.3285,52.3864],[-128.2346,52.3264],[-128.0924,52.5133],[-128.0159,52.3467],[-127.8005,52.2563],[-127.4951,52.3588],[-127.4525,52.4118],[-127.225,52.4561],[-127.159,52.3555],[-127.2836,52.2377],[-127.6381,52.0837],[-127.6849,51.95],[-127.8496,51.9201],[-127.8737,51.6734],[-127.6643,51.3981],[-127.7895,51.2334],[-127.777,51.1672],[-127.429,50.9431],[-127.0218,50.8219],[-126.8586,50.9431],[-126.4887,50.8167],[-126.1789,50.8532],[-126.0187,50.666],[-126.2215,50.6426],[-126.2423,50.501],[-125.9546,50.4757],[-125.8363,50.5277],[-125.7033,50.4379],[-125.391,50.4973],[-125.1278,50.437],[-125.0617,50.3276],[-124.7054,50.3223],[-124.6052,50.2329],[-124.7322,49.9543],[-124.4037,49.7673],[-124.171,49.781],[-124.0201,49.7326],[-124.0611,49.6308],[-123.9638,49.5211],[-123.5546,49.39],[-123.4895,49.515],[-123.2486,49.5978],[-123.2469,49.2746],[-123.212,49.13],[-123.0905,48.9925],[-123.0353,48.9925],[-122.9513,49.083],[-122.753,48.9925],[-121.5542,48.9925],[-120.675,48.9925],[-119.5759,48.9925],[-118.2571,48.9925],[-117.0382,48.9925]]],[[[-127.9187,51.522],[-128.0099,51.7237],[-128.1566,51.6279],[-128.086,51.4869],[-127.9187,51.522]]],[[[-128.1383,51.864],[-128.036,51.8436],[-127.9534,51.9875],[-127.9988,52.0657],[-128.1592,52.0348],[-128.2222,51.9542],[-128.1383,51.864]]],[[[-128.2278,52.2128],[-128.4473,52.238],[-128.5224,52.1576],[-128.3035,52.1309],[-128.2278,52.2128]]],[[[-127.2408,52.4264],[-127.4145,52.3926],[-127.5116,52.3129],[-127.8202,52.1957],[-127.8883,51.9534],[-127.6981,52.0041],[-127.6422,52.1381],[-127.277,52.2894],[-127.2408,52.4264]]],[[[-128.563,52.6114],[-128.7247,52.5977],[-128.7349,52.5151],[-128.5341,52.4359],[-128.4721,52.4883],[-128.563,52.6114]]],[[[-128.3104,52.4294],[-128.3186,52.6876],[-128.4469,52.741],[-128.4359,52.5264],[-128.3104,52.4294]]],[[[-128.9301,52.6144],[-129.257,52.8281],[-129.292,52.7626],[-129.0602,52.5241],[-128.9301,52.6144]]],[[[-131.1127,52.1719],[-131.1426,52.3162],[-131.3322,52.2972],[-131.4144,52.4537],[-131.6608,52.5424],[-131.7296,52.7007],[-131.8336,52.7261],[-131.8524,52.8672],[-131.6189,52.9202],[-131.613,53.0563],[-131.904,53.2407],[-132.0655,53.1613],[-132.3731,53.1327],[-132.5044,53.0404],[-132.231,53.0264],[-132.3423,52.9425],[-132.1338,52.7547],[-131.9393,52.6512],[-131.8826,52.5762],[-131.6829,52.4897],[-131.38,52.2029],[-131.175,52.1245],[-131.1127,52.1719]]],[[[-128.8038,52.7007],[-128.7554,52.6039],[-128.6056,52.6112],[-128.5323,52.8466],[-128.5387,53.0197],[-128.6347,53.1632],[-128.905,53.2934],[-129.0781,53.3028],[-129.0906,53.0886],[-129.1898,53.0233],[-129.057,52.741],[-128.9273,52.6728],[-128.8038,52.7007]]],[[[-129.2935,53.1079],[-129.1342,53.1202],[-129.1839,53.3137],[-129.3239,53.2209],[-129.2935,53.1079]]],[[[-128.9136,53.4064],[-129.0217,53.5321],[-129.1482,53.3637],[-128.928,53.3282],[-128.9136,53.4064]]],[[[-129.7429,53.2353],[-129.974,53.458],[-130.2613,53.5806],[-130.4961,53.6392],[-130.5305,53.5598],[-130.3145,53.3928],[-130.0862,53.3123],[-129.9394,53.1689],[-129.7429,53.2353]]],[[[-129.1662,53.3854],[-129.0939,53.5089],[-128.9805,53.5847],[-128.8843,53.5762],[-128.8422,53.716],[-129.0607,53.6843],[-129.16,53.627],[-129.1662,53.3854]]],[[[-130.4064,53.687],[-130.3319,53.624],[-130.0917,53.5703],[-130.1383,53.7028],[-130.2909,53.7553],[-130.4064,53.687]]],[[[-130.2528,53.8925],[-130.2024,53.7303],[-130.0985,53.7081],[-130.0303,53.5816],[-129.9331,53.6003],[-129.7969,53.3785],[-129.5675,53.2153],[-129.3365,53.3606],[-129.6748,53.5927],[-129.831,53.7354],[-130.1962,53.9166],[-130.2528,53.8925]]],[[[-130.4474,53.9818],[-130.3518,53.8378],[-130.2315,53.9738],[-130.3925,54.0954],[-130.6739,53.9892],[-130.5443,53.9107],[-130.4474,53.9818]]],[[[-132.5794,53.2072],[-132.4005,53.1479],[-132.2244,53.2307],[-132.0079,53.2536],[-131.9078,53.3581],[-131.9426,53.5216],[-131.8705,53.7829],[-131.6933,53.9919],[-131.7092,54.1184],[-131.9164,54.0401],[-132.1304,54.0337],[-132.0785,53.8925],[-132.1938,53.774],[-132.1592,53.6999],[-132.3815,53.6479],[-132.5251,53.7038],[-132.2406,53.777],[-132.1142,53.8813],[-132.1485,53.9925],[-132.2967,54.1123],[-132.5447,54.0402],[-132.649,54.1413],[-132.8344,54.1282],[-133.0405,54.1645],[-133.0381,54.0439],[-133.1444,53.8969],[-132.8911,53.6197],[-132.9289,53.5225],[-132.5179,53.4127],[-132.7576,53.3171],[-132.5794,53.2072]]],[[[-126.6587,49.7878],[-126.7685,49.8835],[-126.9696,49.8335],[-126.9125,49.6916],[-126.6794,49.5918],[-126.6177,49.6308],[-126.6587,49.7878]]],[[[-125.336,50.3017],[-125.1673,50.3847],[-125.288,50.4374],[-125.336,50.3017]]],[[[-126.6177,50.6723],[-126.2881,50.6546],[-126.1859,50.7416],[-126.2723,50.83],[-126.3979,50.8083],[-126.6177,50.6723]]],[[[-123.3212,48.4958],[-123.39,48.6204],[-123.5409,48.6365],[-123.5938,48.837],[-123.7799,48.9859],[-123.8134,49.1186],[-123.9549,49.2292],[-124.1592,49.3105],[-124.5451,49.3772],[-124.7947,49.4726],[-124.9095,49.6213],[-124.8821,49.7249],[-125.1783,49.925],[-125.3501,50.1249],[-125.4362,50.3136],[-125.5892,50.3707],[-125.7403,50.3564],[-126.1173,50.4554],[-126.4598,50.4748],[-127.1986,50.6213],[-127.5052,50.7733],[-127.8825,50.8669],[-128.077,50.8703],[-128.4068,50.7805],[-128.3198,50.6098],[-128.0602,50.4526],[-127.5937,50.5587],[-127.5912,50.4857],[-127.9155,50.4663],[-127.878,50.3427],[-127.7753,50.2329],[-127.8968,50.143],[-127.7847,50.085],[-127.4879,50.1304],[-127.1419,49.8666],[-126.6497,49.898],[-126.6052,49.7321],[-126.4525,49.6363],[-126.5626,49.5874],[-126.5727,49.4143],[-126.405,49.4214],[-126.0765,49.3837],[-125.956,49.2329],[-125.8369,49.2731],[-125.6986,49.1811],[-125.7358,49.053],[-125.4894,48.9186],[-125.3663,48.9874],[-124.9676,48.9879],[-125.007,48.9002],[-125.1852,48.801],[-125.094,48.73],[-124.8162,48.6471],[-124.6654,48.5732],[-124.3891,48.518],[-123.8908,48.3669],[-123.6539,48.3143],[-123.5546,48.3279],[-123.3212,48.4958]]]]}},{"type":"Feature","properties":{"sourceId":"1159308775","regionId":"region.8aa2e03e-39eb-41d7-a14e-8a0f372480a1","countryId":"country.1aj872z"},"geometry":{"type":"Polygon","coordinates":[[[-109.9993,48.9926],[-110,49.6876],[-110,50.3751],[-110,51.4063],[-110,52.4376],[-110,53.1251],[-110,53.8126],[-110,54.5],[-110,55.1876],[-110,56.2188],[-110,56.9063],[-110,57.9376],[-110,58.6251],[-110,59.3126],[-110,60.0001],[-111.8749,60.0001],[-113.1249,60.0001],[-115,60.0001],[-116.25,60.0001],[-118.125,60.0001],[-120,60.0001],[-120,59.3381],[-120,58.5231],[-120,57.7082],[-120,56.8742],[-120,55.7117],[-120,54.9584],[-120.001,53.8228],[-119.8077,53.7047],[-119.9054,53.6173],[-119.7567,53.4146],[-119.3809,53.356],[-119.2778,53.2082],[-119.0288,53.1346],[-118.8502,53.1833],[-118.6633,53.0156],[-118.605,52.8775],[-118.4172,52.8262],[-118.3062,52.6775],[-118.3524,52.6285],[-118.2438,52.4929],[-118.2113,52.3667],[-118.0636,52.3989],[-117.992,52.4847],[-117.7583,52.4051],[-117.8218,52.2795],[-117.5908,52.1304],[-117.3762,52.1341],[-117.0474,51.9152],[-116.9377,51.7199],[-116.8535,51.7064],[-116.685,51.8094],[-116.5764,51.6442],[-116.2958,51.4507],[-116.2339,51.3031],[-116.0275,51.2197],[-116.0181,51.1424],[-115.8158,51.0842],[-115.6204,50.9702],[-115.528,50.7925],[-115.3433,50.7305],[-115.3125,50.636],[-115.1881,50.5477],[-114.9997,50.5629],[-114.7751,50.3541],[-114.7194,50.1165],[-114.6438,49.9825],[-114.6827,49.892],[-114.6248,49.7802],[-114.7383,49.5809],[-114.5637,49.5389],[-114.5925,49.4178],[-114.3764,49.2046],[-114.2254,49.1859],[-114.0638,48.9925],[-112.9816,48.9925],[-111.4429,48.9926],[-109.9993,48.9926]]]}},{"type":"Feature","properties":{"sourceId":"1159308773","regionId":"region.53763aae-1d6d-4321-8bf8-af7cca634163","countryId":"country.1aj872z"},"geometry":{"type":"Polygon","coordinates":[[[-104.0476,48.9926],[-102.8704,48.9926],[-101.3643,48.9927],[-101.4213,49.6027],[-101.5013,50.4598],[-101.5812,51.3169],[-101.6812,52.3882],[-101.7612,53.2453],[-101.8811,54.5309],[-102.0011,55.8165],[-102.0011,56.5456],[-102.0013,57.2747],[-102.0014,58.4102],[-102.0015,58.978],[-102.0016,60.0001],[-103.0014,60.0001],[-104.5011,60.0001],[-106.5007,60.0001],[-107.5005,60.0001],[-109.0001,60.0001],[-110,60.0001],[-110,59.3126],[-110,58.6251],[-110,57.9376],[-110,56.9063],[-110,56.2188],[-110,55.1876],[-110,54.5],[-110,53.8126],[-110,53.1251],[-110,52.4376],[-110,51.4063],[-110,50.3751],[-110,49.6876],[-109.9993,48.9926],[-109.025,48.9926],[-108.1458,48.9926],[-106.6072,48.9926],[-105.5082,48.9926],[-104.0476,48.9926]]]}},{"type":"Feature","properties":{"sourceId":"1159308777","regionId":"region.e74e1420-5a67-4d1c-93c1-d36e22314fbb","countryId":"country.1aj872z"},"geometry":{"type":"Polygon","coordinates":[[[-97.2261,48.9927],[-95.8365,48.9927],[-95.1771,48.9927],[-95.1606,49.3695],[-95.1541,50.2904],[-95.1539,51.5863],[-95.1538,52.8214],[-94.4461,53.2506],[-93.6202,53.7469],[-92.938,54.2404],[-91.6863,55.1106],[-90.3313,55.9923],[-88.947,56.8532],[-89.0561,56.8455],[-89.3938,56.9282],[-89.827,56.976],[-90.5855,57.2299],[-91.0311,57.2646],[-92.2235,57.0215],[-92.2787,57.0654],[-92.6658,57.0006],[-92.4568,57.223],[-92.4569,57.449],[-92.757,57.8659],[-92.8078,58.0758],[-92.963,58.2599],[-93.1285,58.5284],[-93.1895,58.7597],[-93.7174,58.7922],[-93.8819,58.7574],[-94.1456,58.7698],[-94.3995,58.7125],[-94.4853,58.8201],[-94.6941,58.9169],[-94.8074,59.0181],[-94.7722,59.298],[-94.7184,59.3667],[-94.8219,59.6503],[-94.7754,59.7778],[-94.8031,60.0001],[-96.6011,60.0001],[-98.4012,60.0001],[-99.3013,60.0001],[-100.6515,60.0001],[-102.0016,60.0001],[-102.0015,58.978],[-102.0014,58.4102],[-102.0013,57.2747],[-102.0011,56.5456],[-102.0011,55.8165],[-101.8811,54.5309],[-101.7612,53.2453],[-101.6812,52.3882],[-101.5812,51.3169],[-101.5013,50.4598],[-101.4213,49.6027],[-101.3643,48.9927],[-99.7931,48.9927],[-98.694,48.9927],[-97.2261,48.9927]]]}},{"type":"Feature","properties":{"sourceId":"1159309687","regionId":"region.90e731f6-4938-40e3-ad14-0874d3007974","countryId":"country.1aj872z"},"geometry":{"type":"MultiPolygon","coordinates":[[[[-89.499,47.9951],[-89.3404,47.9842],[-88.6427,48.2566],[-88.3473,48.2987],[-87.4093,47.93],[-86.6371,47.6241],[-85.5086,47.1632],[-84.8787,46.8979],[-84.7733,46.6334],[-84.5894,46.4751],[-84.4232,46.5116],[-84.1104,46.5265],[-84.1588,46.4333],[-84.0868,46.2012],[-83.9473,46.0606],[-83.8393,46.1192],[-83.6139,46.1156],[-83.4659,45.9931],[-83.6369,45.7739],[-83.484,45.7719],[-82.5888,45.3718],[-82.5321,45.2935],[-82.2918,44.2422],[-82.1476,43.6113],[-82.1536,43.5496],[-82.4111,43.0513],[-82.5113,42.6467],[-82.8001,42.418],[-83.0404,42.3319],[-83.1285,42.24],[-83.1595,42.0463],[-83.1309,41.938],[-83.0684,41.8477],[-82.7111,41.6802],[-82.4249,41.6768],[-81.2767,42.2087],[-80.5202,42.3238],[-80.2466,42.3655],[-79.763,42.5377],[-79.0194,42.8027],[-78.9153,42.9476],[-79.032,43.0134],[-79.0538,43.2604],[-79.1743,43.4645],[-78.6881,43.6318],[-77.534,43.6279],[-76.8415,43.6255],[-76.7972,43.6453],[-76.4546,44.0842],[-76.2066,44.2174],[-76.0673,44.348],[-75.8703,44.4086],[-75.6997,44.5817],[-75.2702,44.8638],[-74.8685,45.0101],[-74.713,44.9993],[-74.5263,45.0911],[-74.3462,45.2206],[-74.478,45.3169],[-74.3935,45.5727],[-74.6437,45.6561],[-74.9375,45.6377],[-75.053,45.596],[-75.2836,45.5767],[-75.882,45.3995],[-76.0488,45.5155],[-76.2232,45.52],[-76.3435,45.4736],[-76.6475,45.5808],[-76.7545,45.7411],[-76.7973,45.8755],[-76.9295,45.8684],[-76.9637,45.7884],[-77.1385,45.8398],[-77.2894,46.0003],[-77.469,46.1151],[-77.6584,46.1839],[-78.1108,46.2626],[-78.3207,46.266],[-78.694,46.3365],[-78.9641,46.533],[-79.1636,46.8239],[-79.4313,47.087],[-79.4454,47.2747],[-79.5803,47.4518],[-79.5165,47.5657],[-79.5208,48.4358],[-79.5208,49.337],[-79.5208,50.2382],[-79.5208,50.9429],[-79.7059,51.0645],[-79.7445,51.1235],[-80.1083,51.2961],[-80.4298,51.3572],[-80.4403,51.4773],[-80.5192,51.535],[-80.5949,51.7114],[-80.7778,51.8528],[-80.9209,51.9094],[-80.9791,52.0018],[-81.3906,52.1278],[-81.5815,52.3165],[-81.5638,52.4562],[-81.9182,52.6804],[-81.9881,52.7984],[-82.3012,52.9676],[-82.2381,53.2214],[-82.1185,53.2773],[-82.2192,53.6044],[-82.126,53.8122],[-82.2426,54.0651],[-82.4309,54.2282],[-82.421,54.3839],[-82.2014,54.8339],[-82.2786,55.0455],[-82.4585,55.1412],[-82.6717,55.1707],[-82.8151,55.1468],[-82.9203,55.2205],[-83.2395,55.2236],[-83.7676,55.2813],[-83.9291,55.3265],[-84.079,55.2775],[-84.2272,55.2971],[-84.6131,55.2452],[-85.1266,55.3026],[-85.152,55.3604],[-85.4392,55.4284],[-85.6826,55.5866],[-85.9043,55.662],[-86.2893,55.7257],[-86.8749,55.9113],[-87.3163,55.9623],[-87.6223,56.0956],[-87.9796,56.4429],[-88.3113,56.538],[-88.4955,56.6484],[-88.947,56.8532],[-90.3313,55.9923],[-91.6863,55.1106],[-92.938,54.2404],[-93.6202,53.7469],[-94.4461,53.2506],[-95.1538,52.8214],[-95.1539,51.5863],[-95.1541,50.2904],[-95.1606,49.3695],[-94.9825,49.3562],[-94.8273,49.2929],[-94.8112,49.1666],[-94.7112,48.9146],[-94.7109,48.8075],[-94.5929,48.7264],[-94.3116,48.7139],[-94.2321,48.652],[-93.8749,48.6362],[-93.7568,48.5165],[-93.4918,48.5423],[-93.4515,48.5974],[-93.2577,48.6303],[-92.9797,48.6177],[-92.6486,48.5363],[-92.5269,48.4456],[-92.3846,48.2324],[-92.3031,48.3109],[-92.0434,48.3346],[-91.9573,48.2283],[-91.765,48.1873],[-91.6925,48.0979],[-91.4279,48.0364],[-91.2764,48.0648],[-90.9232,48.2271],[-90.7865,48.1005],[-90.5316,48.0846],[-90.1786,48.1164],[-89.9803,48.0101],[-89.499,47.9951]]],[[[-79.5208,50.9655],[-79.5208,51.4667],[-79.7008,51.3854],[-79.7471,51.1955],[-79.6698,51.0584],[-79.5208,50.9655]]]]}},{"type":"Feature","properties":{"sourceId":"1159308703","regionId":"region.b42c1ae4-5376-4911-b131-cf542034e771","countryId":"country.1aj872z"},"geometry":{"type":"MultiPolygon","coordinates":[[[[-73.3513,45.0046],[-72.302,45.0098],[-71.5058,45.0137],[-71.3949,45.2415],[-71.2934,45.2923],[-71.1417,45.2523],[-71.085,45.3043],[-70.9516,45.332],[-70.7228,45.4709],[-70.6868,45.5727],[-70.4074,45.7315],[-70.4172,45.7938],[-70.2625,45.923],[-70.3114,46.0719],[-70.2809,46.2119],[-70.1884,46.3584],[-70.0743,46.4195],[-70.0078,46.7041],[-69.2676,47.4398],[-69.054,47.4184],[-69.0636,47.2908],[-68.5527,47.4369],[-68.3868,47.5583],[-68.3779,47.9283],[-68.1135,47.9283],[-68.1135,47.9975],[-67.6128,47.9975],[-67.606,47.9381],[-67.3509,47.8496],[-66.843,47.9968],[-66.5428,48.0587],[-66.5154,48.1081],[-66.0956,48.0972],[-65.953,48.1954],[-65.7838,48.1156],[-65.2856,48.0126],[-64.7794,48.204],[-64.7047,48.3237],[-64.5452,48.3875],[-64.3291,48.4196],[-64.1995,48.5207],[-64.1622,48.6296],[-64.2782,48.7258],[-64.3033,48.8303],[-64.2212,48.8944],[-64.6134,49.123],[-64.9635,49.2193],[-65.5658,49.2665],[-65.8828,49.2247],[-66.2193,49.2079],[-66.6221,49.1226],[-67.4252,48.8736],[-67.5468,48.8624],[-67.962,48.7016],[-68.2056,48.6419],[-68.7261,48.3764],[-68.8061,48.3724],[-69.0544,48.2324],[-69.324,48.0306],[-69.4455,47.9919],[-69.5502,47.8439],[-69.8022,47.6224],[-70.0311,47.4696],[-70.0761,47.369],[-70.1949,47.3153],[-70.3882,47.1159],[-70.5349,47.0106],[-71.1579,46.8408],[-71.3025,46.7452],[-71.7142,46.6322],[-71.8457,46.6683],[-72.0074,46.5714],[-72.1899,46.5262],[-72.2743,46.4206],[-72.496,46.3605],[-72.731,46.1766],[-72.9326,46.1444],[-73.1398,46.0583],[-73.2593,45.8541],[-73.4128,45.7515],[-73.5573,45.4143],[-73.6874,45.4312],[-74.0485,45.2325],[-74.1456,45.234],[-74.3996,45.1448],[-74.4735,45.0671],[-74.713,44.9993],[-73.3513,45.0046]]],[[[-79.5208,50.9429],[-79.5208,50.2382],[-79.5208,49.337],[-79.5208,48.4358],[-79.5165,47.5657],[-79.5803,47.4518],[-79.4454,47.2747],[-79.4313,47.087],[-79.1636,46.8239],[-78.9641,46.533],[-78.694,46.3365],[-78.3207,46.266],[-78.1108,46.2626],[-77.6584,46.1839],[-77.469,46.1151],[-77.2894,46.0003],[-77.1385,45.8398],[-76.9637,45.7884],[-76.9295,45.8684],[-76.7973,45.8755],[-76.7545,45.7411],[-76.6475,45.5808],[-76.3435,45.4736],[-76.2232,45.52],[-76.0488,45.5155],[-75.882,45.3995],[-75.2836,45.5767],[-75.053,45.596],[-74.9375,45.6377],[-74.6437,45.6561],[-74.3935,45.5727],[-74.478,45.3169],[-74.3462,45.2206],[-74.1533,45.3201],[-73.9615,45.3542],[-74.0777,45.4567],[-73.9095,45.5347],[-73.7554,45.6764],[-73.4954,45.7279],[-73.2899,45.8751],[-73.1586,46.0749],[-73.022,46.1096],[-72.9945,46.2108],[-72.8445,46.2648],[-72.6025,46.3013],[-72.4623,46.4023],[-72.258,46.4709],[-72.2279,46.5534],[-72.0554,46.5943],[-71.8805,46.6907],[-71.694,46.6744],[-71.354,46.739],[-70.9569,47.0207],[-70.715,47.1176],[-70.5977,47.2494],[-70.4971,47.4293],[-70.2369,47.4956],[-70.1996,47.5955],[-69.932,47.7731],[-69.736,48.1225],[-70.0277,48.2529],[-70.163,48.2451],[-70.4775,48.3564],[-70.7445,48.3553],[-70.7472,48.4276],[-70.3692,48.3741],[-70.1444,48.2734],[-69.9851,48.2784],[-69.7983,48.1567],[-69.6545,48.1629],[-69.4466,48.2962],[-69.2894,48.4646],[-69.2295,48.5921],[-69.1444,48.6005],[-69.0696,48.7562],[-68.7838,48.9108],[-68.6435,48.9177],[-68.6346,49.017],[-68.3719,49.1403],[-68.1811,49.1245],[-68.1224,49.2713],[-67.3763,49.3392],[-67.2451,49.4588],[-67.2309,49.6116],[-67.1315,49.8313],[-67.0449,49.8283],[-66.9509,49.9864],[-66.7459,50.0537],[-66.5431,50.2161],[-66.1619,50.1958],[-65.9292,50.2928],[-65.7372,50.2574],[-65.2583,50.3223],[-64.8883,50.2745],[-64.6294,50.284],[-64.47,50.3223],[-64.2475,50.2707],[-63.9892,50.307],[-63.7222,50.3043],[-63.4422,50.2229],[-63.1767,50.2901],[-62.8524,50.2943],[-61.8458,50.2198],[-61.7179,50.1],[-61.3113,50.1993],[-61.1659,50.1854],[-60.8356,50.2563],[-60.5404,50.226],[-60.0637,50.254],[-59.8507,50.3136],[-59.8031,50.4457],[-59.5815,50.4841],[-59.4099,50.6666],[-58.9933,50.7908],[-58.9477,51.0416],[-58.7164,51.1065],[-58.6565,51.2109],[-58.4537,51.3166],[-58.234,51.2769],[-57.9777,51.3297],[-57.7485,51.4631],[-57.6706,51.4349],[-57.25,51.5083],[-57.1003,51.419],[-57.101,52.0001],[-58.0566,52],[-59.2993,51.9999],[-60.4608,51.9999],[-61.678,51.9999],[-62.7944,51.9998],[-63.7387,51.9998],[-63.6704,52.0357],[-63.7734,52.3351],[-63.9727,52.3536],[-64.0812,52.4734],[-63.9541,52.5799],[-63.8126,52.6202],[-63.3791,52.6512],[-63.6052,52.7855],[-64.1073,52.7202],[-64.1899,52.5723],[-64.1279,52.3866],[-64.207,52.304],[-64.1555,52.1321],[-64.2518,52.1149],[-64.2346,51.9807],[-64.3618,51.967],[-64.2793,51.74],[-64.3446,51.6677],[-64.5304,51.5921],[-64.6886,51.7228],[-64.8571,51.7744],[-64.9568,51.7228],[-65.1838,51.7744],[-65.459,52.0254],[-65.6825,52.0254],[-65.8236,52.108],[-65.9921,52.0598],[-66.0781,52.1699],[-66.3739,52.1424],[-66.4805,52.335],[-66.3498,52.3591],[-66.4082,52.5895],[-66.2879,52.8474],[-66.3635,53.0022],[-66.6249,52.9369],[-66.6559,52.7959],[-66.8657,52.6617],[-67.0411,52.7752],[-67.3025,52.8681],[-67.385,53.1054],[-67.299,53.157],[-66.9826,53.1054],[-66.962,53.2946],[-66.8898,53.4149],[-67.0308,53.5147],[-67.3231,53.5663],[-67.4125,53.6935],[-67.5742,53.7658],[-67.5226,53.838],[-67.8081,54.034],[-67.7427,54.1544],[-67.6395,54.1888],[-67.7496,54.4261],[-67.5088,54.488],[-67.4985,54.5946],[-67.2612,54.5706],[-67.1546,54.6153],[-67.0858,54.7322],[-67.2646,54.8354],[-67.4229,54.9971],[-67.0159,54.8849],[-66.9362,54.7991],[-66.737,54.7339],[-66.6071,54.8039],[-66.7288,54.9387],[-66.6608,54.9842],[-66.7623,55.1042],[-66.7009,55.2206],[-66.588,55.2554],[-66.2543,54.9981],[-66.0593,54.9188],[-65.8487,54.897],[-65.698,54.7228],[-65.4453,54.7455],[-65.4817,54.8166],[-65.2212,54.8512],[-65.1028,54.9568],[-64.9406,54.9295],[-64.7585,54.8166],[-64.7676,54.7382],[-64.5763,54.7273],[-64.4579,54.7947],[-64.181,54.7109],[-64.1135,54.6308],[-63.8986,54.6016],[-63.7292,54.6471],[-63.904,54.782],[-63.8148,54.9405],[-63.6053,54.9022],[-63.5506,55.2265],[-63.6599,55.2702],[-63.3903,55.405],[-63.7383,55.4396],[-63.669,55.6236],[-63.6927,55.753],[-63.8403,55.9133],[-63.575,55.9917],[-63.7032,56.0473],[-64.0217,56.0898],[-63.9417,56.253],[-64.0911,56.2628],[-64.1081,56.3754],[-63.9426,56.5451],[-64.1241,56.6895],[-63.9154,56.9366],[-63.8717,57.0693],[-63.7433,57.2267],[-63.838,57.3253],[-63.7079,57.3852],[-63.7649,57.5644],[-63.6392,57.6391],[-64.0941,57.806],[-64.2214,58.0452],[-64.4043,58.0645],[-64.3896,58.1877],[-64.242,58.2198],[-64.1671,58.3388],[-63.8182,58.486],[-63.8904,58.5668],[-64.0992,58.5921],[-64.0286,58.6823],[-63.5336,58.7235],[-63.5934,58.8443],[-63.7263,58.8785],[-63.9822,58.8233],[-64.1263,58.7525],[-64.2615,58.7818],[-64.3104,58.8847],[-64.568,58.8873],[-64.8635,58.9937],[-64.7159,59.0657],[-64.414,58.982],[-64.5383,59.2856],[-64.4918,59.4364],[-64.672,59.4503],[-64.8934,59.5647],[-64.7745,59.6992],[-64.8141,59.819],[-64.6707,59.8834],[-64.8354,59.9639],[-64.8172,60.0393],[-64.5992,60.1178],[-64.8447,60.2641],[-64.5314,60.3039],[-64.8488,60.3657],[-65.1177,60.0084],[-65.1378,59.9002],[-65.4177,59.8153],[-65.5463,59.7313],[-65.4067,59.4174],[-65.5804,59.3647],[-65.5433,59.2646],[-65.7427,59.2679],[-65.6425,59.0733],[-65.9822,58.9172],[-66.1086,58.7791],[-66.3912,58.8513],[-66.4687,58.722],[-66.6288,58.5929],[-66.6151,58.498],[-66.9466,58.4984],[-67.0642,58.3929],[-67.649,58.2518],[-67.9241,58.4117],[-67.8898,58.4987],[-68.1369,58.5234],[-68.3502,58.6215],[-68.3616,58.7835],[-68.7869,58.9225],[-69.2563,58.8992],[-69.834,58.6041],[-70.0345,58.8126],[-69.7198,58.8673],[-69.5653,58.8065],[-69.4516,58.8952],[-69.5281,59.186],[-69.2434,59.2282],[-69.2548,59.3248],[-69.4455,59.3613],[-69.6271,59.3067],[-69.6715,59.457],[-69.568,59.6026],[-69.6577,59.7033],[-69.5898,59.8761],[-69.7698,59.9711],[-69.611,60.1011],[-69.6024,60.2247],[-69.7533,60.333],[-69.688,60.5565],[-69.7198,60.684],[-69.3813,60.7999],[-69.3876,60.8818],[-69.5366,61.0797],[-69.9159,60.81],[-70.0648,60.8581],[-70.1102,61.0601],[-70.3251,61.1004],[-70.6037,61.0328],[-70.9394,61.0738],[-71.2315,61.1675],[-71.395,61.1495],[-71.6964,61.2774],[-71.6719,61.3755],[-71.8553,61.4238],[-71.6915,61.5393],[-71.652,61.6498],[-71.9568,61.7112],[-72.2323,61.8813],[-72.6052,61.9437],[-72.6214,62.1019],[-73.0622,62.1876],[-73.2095,62.3128],[-73.5714,62.3948],[-73.6707,62.4821],[-73.8722,62.4648],[-73.982,62.3767],[-74.2784,62.3235],[-74.4169,62.2525],[-74.7049,62.2525],[-74.7897,62.1821],[-75.0061,62.269],[-75.3277,62.3175],[-75.8297,62.3133],[-75.9668,62.3544],[-76.5957,62.4581],[-76.7577,62.5108],[-77.4908,62.5883],[-78.1549,62.2973],[-78.165,62.1669],[-78.0848,61.888],[-77.9398,61.6936],[-77.7084,61.6163],[-77.6077,61.4647],[-77.7853,61.4547],[-77.7515,61.232],[-77.8124,61.0881],[-78.1655,60.8684],[-77.6068,60.7591],[-77.8293,60.6433],[-77.5917,60.5026],[-77.7423,60.4258],[-77.4697,60.2172],[-77.6007,60.1148],[-77.556,60.0528],[-77.2831,60.0266],[-77.4629,59.6766],[-77.7162,59.6214],[-77.8812,59.4849],[-77.7707,59.4085],[-77.8192,59.293],[-78.1066,59.2099],[-78.1314,59.1079],[-78.2853,59.0528],[-78.3047,58.9599],[-78.56,58.9446],[-78.4737,58.7202],[-78.5488,58.6089],[-78.3126,58.5731],[-78.0315,58.3881],[-77.6007,58.2713],[-77.0793,57.9615],[-76.8087,57.6755],[-76.8056,57.6135],[-76.5893,57.2713],[-76.5037,56.7838],[-76.5452,56.295],[-76.6587,56.073],[-77.0445,55.783],[-77.1129,55.6754],[-77.636,55.3768],[-77.7816,55.2735],[-78.1556,55.1401],[-78.3922,55.0275],[-78.8749,54.9077],[-78.9674,54.852],[-79.4845,54.7564],[-79.6763,54.6938],[-79.5294,54.5772],[-79.464,54.3102],[-79.3559,54.1986],[-79.1294,54.1075],[-79.0135,53.8459],[-79.0563,53.6203],[-78.9326,53.5551],[-78.9917,53.4536],[-78.9017,53.201],[-78.9774,53.07],[-78.89,52.9221],[-78.7831,52.8715],[-78.7856,52.6591],[-78.5215,52.4809],[-78.4996,52.3558],[-78.5913,52.1061],[-78.7472,51.9769],[-78.8926,51.9468],[-78.8406,51.8423],[-79.015,51.7961],[-78.9293,51.6605],[-78.7924,51.6108],[-78.7938,51.4745],[-78.8822,51.4033],[-79.346,51.6618],[-79.5602,51.5555],[-79.5208,51.4667],[-79.5208,50.9655],[-79.5208,50.9429]]],[[[-69.102,59.1313],[-69.3542,59.1406],[-69.2315,58.9807],[-69.102,59.1313]]],[[[-73.4993,45.7099],[-73.7948,45.4672],[-73.6192,45.4426],[-73.5414,45.4826],[-73.4993,45.7099]]],[[[-64.3192,49.7912],[-63.9252,49.6749],[-63.6414,49.5135],[-63.5868,49.39],[-63.2777,49.3149],[-63.0933,49.2329],[-62.6818,49.1485],[-62.5063,49.1386],[-62.2482,49.0679],[-61.8116,49.069],[-61.6608,49.151],[-61.8826,49.3545],[-62.2043,49.4142],[-62.3859,49.4904],[-62.5342,49.6047],[-62.893,49.6975],[-62.9621,49.7405],[-63.3747,49.8294],[-63.9447,49.8961],[-64.1328,49.9501],[-64.4513,49.9095],[-64.3192,49.7912]]]]}},{"type":"Feature","properties":{"sourceId":"1159308785","regionId":"region.0b12e189-f4ed-408f-9e41-dd868d7a5224","countryId":"country.1aj872z"},"geometry":{"type":"Polygon","coordinates":[[[-67.176,45.1787],[-67.0864,45.0976],[-66.7458,45.0645],[-66.491,45.1556],[-66.4288,45.0837],[-66.1894,45.1778],[-66.1285,45.2791],[-65.9094,45.2103],[-65.545,45.3296],[-65.3151,45.4592],[-64.9945,45.5591],[-64.8828,45.6336],[-64.7563,45.6278],[-64.5854,45.8259],[-64.4195,45.7912],[-64.2734,45.8357],[-64.1595,45.9638],[-64.0427,45.992],[-63.8131,46.1403],[-64.0226,46.1853],[-64.1513,46.1663],[-64.2533,46.2344],[-64.514,46.2394],[-64.6277,46.3336],[-64.6134,46.4193],[-64.7198,46.5763],[-64.7136,46.6872],[-64.8649,46.7832],[-64.9058,46.8869],[-64.8065,46.9854],[-64.8254,47.0891],[-65.3315,47.1006],[-64.9596,47.2943],[-64.8678,47.4857],[-64.8922,47.5615],[-64.6849,47.7227],[-64.8263,47.8155],[-65.0257,47.8496],[-65.2093,47.8197],[-65.4774,47.6837],[-65.6288,47.6706],[-65.8179,47.9074],[-65.9709,47.9239],[-66.262,48.0058],[-66.3859,48.0751],[-66.7315,47.9865],[-66.843,47.9968],[-67.3509,47.8496],[-67.606,47.9381],[-67.6128,47.9975],[-68.1135,47.9975],[-68.1135,47.9283],[-68.3779,47.9283],[-68.3868,47.5583],[-68.5527,47.4369],[-69.0636,47.2908],[-68.9062,47.1902],[-68.6442,47.2453],[-68.5397,47.2999],[-68.197,47.3414],[-67.9624,47.1977],[-67.8052,47.0356],[-67.7897,46.229],[-67.7728,45.8281],[-67.8001,45.6998],[-67.6603,45.6374],[-67.45,45.6108],[-67.4932,45.4931],[-67.4288,45.3871],[-67.475,45.2824],[-67.3563,45.1659],[-67.176,45.1787]]]}},{"type":"Feature","properties":{"sourceId":"1159309667","regionId":"region.85b5cbbd-1e76-4585-9e8f-0d9a2b14aa82","countryId":"country.1aj872z"},"geometry":{"type":"Polygon","coordinates":[[[-141.0056,69.6509],[-141.0051,68.6305],[-141.0047,67.7558],[-141.0042,66.5896],[-141.0036,65.5692],[-141.0031,64.5487],[-141.0026,63.3825],[-141.0023,62.6536],[-141.0018,61.6331],[-141.0012,60.3211],[-140.5337,60.2185],[-140.4241,60.2932],[-140.0158,60.1874],[-139.6283,60.3341],[-139.1016,60.3466],[-139.0732,60.2998],[-139.1832,60.1002],[-139.0602,60.0001],[-137.6235,60.0001],[-136.1955,60.0001],[-135.2434,60.0001],[-133.8154,60.0001],[-132.3874,60.0001],[-130.4833,60.0001],[-128.5793,60.0001],[-127.6272,60.0001],[-126.1992,60.0001],[-124.7712,60.0001],[-123.8191,60.0001],[-123.9808,60.0985],[-124.1957,60.3301],[-124.2162,60.4613],[-124.4164,60.4793],[-124.6027,60.7183],[-124.4787,60.7879],[-124.5665,60.939],[-124.8282,60.9612],[-124.869,60.8634],[-125.1583,60.8523],[-125.3218,60.7879],[-125.7154,60.834],[-125.826,60.8831],[-126.0938,60.8147],[-126.6596,60.7497],[-126.8845,60.7819],[-126.9346,61.0522],[-127.1457,61.4652],[-127.3127,61.5216],[-127.5348,61.5102],[-127.9728,61.6887],[-128.1061,61.8592],[-128.1988,61.8463],[-128.3968,62.0413],[-128.5466,62.1218],[-128.7625,62.0608],[-128.9966,62.1362],[-129.13,62.1161],[-129.3094,62.3212],[-129.1969,62.5072],[-129.4955,62.6077],[-129.523,62.6766],[-129.7645,62.8516],[-129.6138,63.0722],[-129.8447,63.0913],[-129.8919,63.1834],[-130.1294,63.3165],[-129.9189,63.3733],[-129.8228,63.4779],[-130.098,63.7823],[-130.3625,63.8415],[-130.7399,63.9734],[-130.9405,64.15],[-131.0035,64.3252],[-131.1456,64.4241],[-131.403,64.4631],[-131.6194,64.3687],[-131.8058,64.4266],[-131.8487,64.5558],[-132.0538,64.6964],[-132.3206,64.7686],[-132.5691,64.775],[-132.5134,64.9434],[-132.3539,65.069],[-132.7134,65.2286],[-132.3221,65.4398],[-132.1822,65.5835],[-132.3707,65.7715],[-132.5694,65.8441],[-132.3467,65.9409],[-132.5615,66.0293],[-132.8067,65.9281],[-132.9204,66.0255],[-133.1274,66.0233],[-133.4246,65.9443],[-133.6118,65.9619],[-133.5843,66.2928],[-133.8191,66.3102],[-133.7597,66.4371],[-133.6006,66.5593],[-133.8342,66.7258],[-133.7633,66.7986],[-134.0301,66.9866],[-134.6495,67.0035],[-136.1622,67.0037],[-136.2304,67.1875],[-136.0952,67.2972],[-136.2009,67.4081],[-136.1894,67.5642],[-136.4448,67.7256],[-136.4449,68.9099],[-136.663,68.8758],[-137.1912,68.9479],[-138.0955,69.1401],[-138.3124,69.2295],[-138.6367,69.2837],[-139.1438,69.5137],[-139.918,69.6213],[-140.2227,69.5991],[-141.0056,69.6509]]]}},{"type":"Feature","properties":{"sourceId":"1159307715","regionId":"region.dcf7409d-b2b1-4521-a5e2-66aa24acb6c1","countryId":"country.1aj872z"},"geometry":{"type":"MultiPolygon","coordinates":[[[[-94.8031,60.0001],[-94.7029,60.1057],[-94.7118,60.2657],[-94.6156,60.3923],[-94.6802,60.4746],[-94.52,60.5468],[-94.3516,60.8581],[-94.2423,60.9034],[-94.0068,61.2378],[-93.8336,61.3283],[-93.985,61.458],[-93.838,61.5617],[-93.3029,61.7519],[-93.5021,61.8558],[-92.9407,62.1016],[-93.0736,62.178],[-92.7813,62.2396],[-92.5934,62.2394],[-92.7183,62.4647],[-92.2609,62.5626],[-91.9835,62.5316],[-91.8975,62.6397],[-92.2036,62.6668],[-92.4539,62.7939],[-91.9794,62.8474],[-91.442,62.7869],[-91.0311,62.9514],[-90.8257,62.9383],[-90.6436,63.0689],[-90.6954,63.2748],[-91.0174,63.4711],[-91.3155,63.5015],[-91.5867,63.5823],[-91.7784,63.7144],[-92.1275,63.7112],[-92.6349,63.7839],[-93.2172,63.911],[-93.5331,63.8496],[-93.7659,63.9935],[-93.4789,64.0339],[-93.0684,63.9324],[-92.7862,63.901],[-92.3738,63.7791],[-91.7489,63.7482],[-91.371,63.7017],[-90.9745,63.5787],[-90.7432,63.5754],[-90.1684,63.6577],[-89.9691,63.8222],[-90.1157,63.964],[-89.8127,63.9602],[-89.9435,64.0687],[-89.8258,64.1096],[-89.5644,64.0256],[-89.1774,64.0385],[-88.7346,63.9724],[-88.0443,64.1843],[-87.7643,64.5224],[-87.6,64.5582],[-87.3101,64.7986],[-86.9382,65.142],[-87.0469,65.238],[-87.3728,65.2752],[-87.7509,65.2675],[-89.0399,65.3282],[-89.1842,65.439],[-89.3938,65.5012],[-89.4914,65.6158],[-89.7364,65.7277],[-89.8375,65.8309],[-89.688,65.9468],[-88.9701,65.6965],[-88.5846,65.6453],[-88.5503,65.5831],[-88.2055,65.4051],[-87.9275,65.3334],[-87.3808,65.3297],[-87.0786,65.4021],[-87.1044,65.4705],[-86.8259,65.5616],[-86.4747,65.734],[-86.4125,65.9045],[-85.9744,66.0356],[-85.8567,66.1628],[-86.3437,66.2894],[-86.6206,66.3144],[-86.791,66.4289],[-86.6205,66.5069],[-85.7516,66.5177],[-85.4161,66.567],[-85.3223,66.4795],[-85.2678,66.2869],[-84.3817,66.1901],[-84.3978,66.3043],[-84.2038,66.3242],[-83.9712,66.2041],[-83.6908,66.1992],[-83.9632,66.4779],[-84.211,66.5946],[-84.1379,66.7122],[-83.8478,66.5456],[-83.6781,66.5253],[-83.5686,66.3714],[-83.3694,66.3503],[-83.0274,66.4952],[-83.01,66.5505],[-82.6335,66.5633],[-82.3732,66.7276],[-82.1844,66.7686],[-81.9549,66.9768],[-81.5274,66.996],[-81.4184,67.0945],[-81.2379,67.4605],[-81.4572,67.6284],[-81.6426,67.6872],[-82.0882,67.8995],[-82.1685,67.9956],[-82.1094,68.1118],[-82.3148,68.1466],[-82.3697,68.3563],[-82.5892,68.4954],[-82.0166,68.4339],[-81.6295,68.5128],[-81.2665,68.6387],[-81.233,68.7739],[-81.3652,68.8617],[-81.7025,68.9075],[-81.3629,69.1013],[-81.3372,69.1876],[-81.753,69.2679],[-82.2373,69.2352],[-82.2816,69.4194],[-82.618,69.57],[-82.5755,69.6741],[-83.7541,69.7117],[-84.3398,69.8597],[-84.6947,69.8537],[-85.3332,69.7914],[-85.5441,69.6535],[-85.534,69.4633],[-85.3468,69.2009],[-85.22,69.1328],[-84.7672,69.088],[-84.9531,69.0185],[-84.921,68.9389],[-85.145,68.8348],[-85.2248,68.7213],[-85.6681,68.727],[-85.7342,68.6387],[-85.7172,68.3983],[-85.8905,68.1846],[-85.9017,68.0544],[-86.3907,67.8098],[-86.5293,67.6872],[-86.5019,67.3794],[-86.779,67.4186],[-86.9605,67.3674],[-86.9607,67.2552],[-87.3278,67.1733],[-87.4838,67.3631],[-88.153,67.6804],[-88.3736,67.9758],[-88.2833,68.126],[-88.4068,68.2769],[-87.9438,68.2009],[-87.7922,68.3312],[-88.0226,68.8087],[-88.2497,68.9316],[-88.7286,69.0839],[-88.942,69.2336],[-89.3317,69.2495],[-89.6722,69.0445],[-89.7469,68.9162],[-89.688,68.8175],[-89.9449,68.6158],[-89.8376,68.5363],[-90.0002,68.3793],[-90.2708,68.2421],[-90.3583,68.3724],[-90.6035,68.4408],[-90.4899,68.5915],[-90.4465,68.8863],[-90.6706,69.0882],[-91.0336,69.2196],[-90.8052,69.2563],[-90.7978,69.3662],[-90.4762,69.4481],[-90.6544,69.5369],[-91.11,69.5133],[-91.2508,69.6406],[-91.426,69.6684],[-91.8027,69.5133],[-92.1027,69.5581],[-92.4714,69.6976],[-92.8684,69.702],[-92.2647,69.8752],[-91.9429,70.0241],[-92.1117,70.0886],[-92.4739,70.0986],[-92.2662,70.2131],[-91.9955,70.123],[-91.5452,70.145],[-91.7232,70.3558],[-91.9907,70.3251],[-92.2499,70.6254],[-92.6145,70.6889],[-92.9077,70.902],[-92.8587,71.1498],[-92.9906,71.3571],[-93.2156,71.4691],[-93.8205,71.6553],[-94.0541,71.7892],[-94.5399,71.7713],[-94.4044,71.9459],[-94.5487,72.0021],[-95.2252,71.9495],[-95.302,71.7205],[-95.4921,71.723],[-95.8464,71.627],[-95.9445,71.5522],[-95.4647,71.484],[-95.4722,71.3605],[-95.6583,71.2915],[-95.9859,71.4151],[-96.2117,71.3868],[-96.5615,71.1271],[-96.4875,71.0285],[-96.6164,70.8258],[-96.1903,70.6247],[-96.5615,70.3153],[-96.4863,70.097],[-95.9759,69.7862],[-95.6503,69.7839],[-95.4105,69.6859],[-94.8751,69.5716],[-94.561,69.6406],[-94.3222,69.453],[-93.9304,69.4354],[-93.558,69.5307],[-93.4344,69.3568],[-93.7034,69.2254],[-94.0266,69.3662],[-94.2379,69.3365],[-94.324,69.1558],[-94.1352,69.1328],[-94.5505,68.8907],[-94.6361,68.756],[-94.4125,68.723],[-94.1099,68.7591],[-94.0446,68.9163],[-93.8967,69.0176],[-93.6349,68.9621],[-93.5772,68.8622],[-93.7305,68.6118],[-93.5462,68.5643],[-93.9498,68.4758],[-94.203,68.3738],[-94.3409,68.2443],[-94.861,68.0309],[-95.2335,68.0697],[-95.4217,68.02],[-95.582,67.8995],[-95.5455,67.8083],[-95.6957,67.7115],[-95.4632,67.6393],[-95.2556,67.2623],[-95.5219,67.2196],[-95.735,67.3765],[-96.0751,67.2258],[-96.4652,67.5495],[-96.1711,67.7003],[-96.2164,67.7803],[-96.0094,68.2523],[-96.3981,68.1714],[-96.5627,68.0405],[-96.795,68.072],[-96.4895,68.218],[-96.69,68.2864],[-96.9264,68.2427],[-97.0099,68.35],[-97.2604,68.4687],[-97.8563,68.5438],[-97.793,68.4095],[-98.1924,68.3077],[-98.5444,68.3397],[-98.4863,68.2156],[-98.3155,68.1671],[-98.449,68.0709],[-98.1715,67.8757],[-97.6409,68.0094],[-97.1201,67.7794],[-97.0611,67.6804],[-97.5903,67.603],[-98.0921,67.7603],[-98.2411,67.9138],[-98.5223,68.0456],[-98.727,67.9578],[-98.361,67.8113],[-98.9154,67.7116],[-99.2529,67.7235],[-99.4237,67.7941],[-100.1664,67.8449],[-100.717,67.847],[-100.9569,67.7492],[-101.2524,67.7697],[-101.5294,67.6804],[-101.8265,67.7173],[-101.9391,67.7858],[-102.2421,67.7251],[-102.7626,67.8151],[-102.9484,67.9268],[-103.3661,68.0185],[-103.5284,68.133],[-103.8786,68.0233],[-104.4839,68.0339],[-104.6757,68.1397],[-104.602,68.2353],[-105.0951,68.2695],[-105.536,68.4499],[-105.4092,68.5306],[-105.5392,68.6501],[-105.4696,68.722],[-105.7508,68.8659],[-106.1975,68.9444],[-107.2926,68.7014],[-108.2808,68.6216],[-108.8151,68.2742],[-108.4022,68.2689],[-108.3376,68.1551],[-107.7296,68.2072],[-107.8473,68.3332],[-107.1311,68.3007],[-107.009,68.3713],[-106.5731,68.4202],[-106.522,68.5267],[-105.8791,68.6393],[-105.6976,68.4888],[-106.276,68.3869],[-106.4944,68.2458],[-106.8134,68.208],[-106.9261,68.1265],[-107.4287,68.0427],[-107.8795,68.093],[-107.9186,68.0055],[-107.6593,67.9467],[-107.9416,67.8543],[-107.9896,67.6933],[-107.5858,67.5012],[-107.6567,67.3725],[-107.527,67.2123],[-107.2464,67.0842],[-107.4844,66.9194],[-107.7587,67.0089],[-107.6587,66.7077],[-107.5635,66.5946],[-107.2018,66.3785],[-107.2758,66.3608],[-107.7001,66.621],[-108.215,67.0274],[-107.8797,67.0534],[-107.9925,67.2825],[-108.444,67.434],[-108.5991,67.6253],[-108.9294,67.5318],[-109.0746,67.722],[-109.4519,67.7443],[-109.6984,67.8101],[-109.9712,67.9673],[-110.4208,67.9484],[-111.019,67.7681],[-111.292,67.8261],[-111.535,67.7692],[-111.8797,67.7641],[-112.421,67.6824],[-113.042,67.6736],[-113.3158,67.7109],[-113.8588,67.6962],[-114.3979,67.7419],[-114.7892,67.817],[-115.1182,67.8039],[-115.5338,67.9344],[-115.2491,68.0429],[-115.1795,68.1418],[-114.8961,68.1514],[-114.837,68.2626],[-114.0568,68.3042],[-114.0568,68.4408],[-114.201,68.5719],[-114.5226,68.7172],[-114.7421,68.7553],[-114.9878,68.8674],[-115.5878,68.9752],[-116.1605,68.9841],[-116.2081,68.8312],[-118.0409,69.0246],[-118.4769,69.1295],[-118.6664,69.2255],[-120.2786,69.4078],[-120.6808,69.5567],[-120.6808,68.9019],[-120.6808,68.0156],[-119.7591,67.723],[-118.7662,67.4189],[-117.7732,67.1149],[-116.5936,66.7536],[-115.414,66.3924],[-114.4137,66.086],[-112.5039,65.5013],[-110.7058,65.5009],[-110.6332,65.4827],[-109.5798,64.9327],[-109.2151,64.812],[-108.9729,64.7782],[-107.4451,64.6626],[-105.1905,64.4849],[-103.9741,64.389],[-101.9991,64.2274],[-102.0049,63.1807],[-102.0038,62.1442],[-102.0029,61.2201],[-102.0016,60.0001],[-100.6515,60.0001],[-99.3013,60.0001],[-98.4012,60.0001],[-96.6011,60.0001],[-94.8031,60.0001]]],[[[-104.4901,68.5159],[-104.6813,68.5786],[-105.0622,68.5495],[-104.6552,68.398],[-104.4901,68.5159]]],[[[-101.694,68.7703],[-101.9796,68.826],[-102.2904,68.6636],[-101.8292,68.5784],[-101.6797,68.6741],[-101.694,68.7703]]],[[[-100.2068,68.8039],[-100.2286,68.9289],[-100.4041,69.0297],[-100.6313,68.9957],[-100.6224,68.7724],[-100.3635,68.7221],[-100.2068,68.8039]]],[[[-96.5549,69.4792],[-96.1512,69.366],[-96.1483,69.5627],[-96.6369,69.5581],[-96.5549,69.4792]]],[[[-95.9445,69.4208],[-95.78,69.4687],[-95.413,69.3863],[-95.3808,69.5233],[-95.6295,69.6198],[-95.9232,69.5915],[-95.9445,69.4208]]],[[[-95.2149,68.8622],[-95.571,68.8351],[-95.8455,68.8906],[-95.9793,69.0503],[-95.952,69.1396],[-96.2198,69.314],[-96.5342,69.4283],[-96.8934,69.4977],[-97.2248,69.6823],[-97.9252,69.8959],[-98.2193,69.7976],[-98.3693,69.5683],[-98.5961,69.5581],[-98.6079,69.4427],[-98.4111,69.3525],[-98.7128,69.2021],[-99.0067,69.1391],[-99.3093,69.1588],[-99.5915,69.0411],[-99.4172,68.8904],[-99.1822,68.8314],[-98.8634,68.8344],[-98.5224,68.7503],[-98.2684,68.7403],[-97.7606,68.6521],[-97.562,68.5643],[-97.1592,68.5181],[-97.0368,68.5538],[-96.5205,68.4476],[-96.2959,68.4801],[-95.8074,68.7294],[-95.439,68.7396],[-95.2149,68.8622]]],[[[-110.0037,72.7104],[-110.0037,72.6273],[-110.0037,72.5238],[-110.0037,72.4966],[-110.0037,72.4581],[-110.0028,71.6464],[-110.0012,70.6953],[-110,70.0001],[-112.5,70.0001],[-112.6499,69.8334],[-112.8749,69.8323],[-112.8988,70.0001],[-114.8251,70.0001],[-117.1237,70.0012],[-117.1436,69.888],[-116.8558,69.6476],[-116.6196,69.5717],[-116.6327,69.4618],[-115.9748,69.3002],[-115.189,69.2427],[-114.3973,69.2882],[-113.584,69.2012],[-113.5692,69.057],[-113.6555,68.8005],[-113.3505,68.5915],[-113.1034,68.537],[-113.244,68.4544],[-112.749,68.4631],[-112.5833,68.5097],[-111.5312,68.5438],[-111.251,68.5197],[-110.6051,68.6169],[-109.6246,68.6417],[-108.9516,68.7424],[-108.5648,68.876],[-108.5395,68.947],[-107.9412,68.9411],[-107.3348,69.0256],[-106.9264,69.239],[-106.9634,69.3627],[-106.7671,69.3759],[-106.5839,69.5036],[-106.3198,69.4047],[-106.2742,69.2881],[-106.4121,69.1881],[-106.204,69.1499],[-105.8859,69.1765],[-105.4579,69.1011],[-104.9171,69.0479],[-105.2548,68.9511],[-105.123,68.8964],[-104.5936,68.8645],[-104.4468,68.9416],[-103.3832,68.7823],[-103.0146,68.8017],[-102.5231,68.8655],[-102.3861,68.9274],[-101.9645,68.9696],[-101.7684,69.123],[-101.9489,69.2612],[-102.2358,69.2631],[-101.9391,69.4206],[-102.0548,69.4844],[-102.4642,69.4807],[-102.5474,69.4135],[-103.0371,69.3662],[-103.0411,69.5153],[-102.5096,69.5642],[-102.5823,69.7435],[-102.0248,69.8086],[-101.7068,69.6912],[-101.4302,69.7668],[-101.3285,69.6794],[-100.9643,69.6645],[-100.8722,69.8078],[-100.9609,69.9385],[-100.9957,70.175],[-101.5823,70.1325],[-101.6928,70.3087],[-101.9528,70.2697],[-102.4093,70.4255],[-103.1252,70.5761],[-103.5377,70.5995],[-104.024,70.7845],[-104.1052,70.8981],[-104.5912,71.0732],[-104.4591,71.2128],[-104.497,71.3258],[-104.2824,71.364],[-104.3803,71.6],[-105.0389,72.114],[-104.9596,72.1784],[-105.2769,72.44],[-105.1959,72.484],[-105.4565,72.703],[-105.3325,72.7511],[-105.8293,73.0513],[-106.234,73.0872],[-106.8234,73.3096],[-107.1724,73.195],[-107.662,73.3284],[-108.0133,73.3549],[-108.0535,73.238],[-108.2983,73.1338],[-108.1566,73.0525],[-108.1425,72.8884],[-107.8754,72.5733],[-107.8933,72.4735],[-107.7178,72.3027],[-107.7792,72.1413],[-107.6183,72.019],[-107.2516,71.9017],[-107.6684,71.7082],[-107.9919,71.6834],[-108.2869,71.7987],[-108.1883,71.9495],[-108.4166,71.9905],[-108.4135,72.1271],[-108.6631,72.361],[-108.6334,72.5656],[-108.8678,72.6059],[-109.1833,72.767],[-109.3762,72.7713],[-110.0037,72.9851],[-110.0037,72.7554],[-110.0037,72.7104]]],[[[-72.949,66.7346],[-73.3321,66.6634],[-73.4556,66.5506],[-74.082,66.3002],[-74.3454,66.2258],[-74.4204,66.0834],[-74.0123,65.8551],[-73.7178,65.7746],[-73.6805,65.665],[-73.496,65.494],[-73.6737,65.4596],[-73.8804,65.5357],[-74.1793,65.5285],[-74.5029,65.3435],[-74.8722,65.3981],[-75.2154,65.2541],[-75.7154,65.3088],[-75.8002,65.2509],[-75.5621,65.1689],[-75.4072,65.0623],[-75.3731,64.8358],[-75.599,64.8706],[-75.4141,64.9804],[-75.4523,65.0786],[-75.7393,65.1592],[-75.7573,65.2138],[-76.6769,65.4111],[-77.0895,65.416],[-77.4357,65.4596],[-77.5141,65.3261],[-77.3128,65.2001],[-77.6295,65.1484],[-77.9636,65.0519],[-78.144,64.9573],[-78.0731,64.8159],[-78.1879,64.753],[-78.1848,64.5867],[-77.7578,64.343],[-77.6623,64.3773],[-77.1332,64.3011],[-76.689,64.1916],[-76.7279,64.2961],[-76.3176,64.2808],[-76.3562,64.3466],[-75.8621,64.3776],[-75.7069,64.5793],[-75.2382,64.4551],[-74.9261,64.4348],[-74.7131,64.382],[-74.5364,64.4317],[-74.6463,64.5347],[-74.5507,64.631],[-74.0839,64.6409],[-74.0026,64.5826],[-74.1144,64.341],[-73.9958,64.3293],[-73.8916,64.5542],[-73.4523,64.5915],[-73.3977,64.4911],[-73.4819,64.4051],[-73.3863,64.2815],[-73.1301,64.2917],[-73.0847,64.199],[-72.8753,64.0942],[-72.5981,63.8671],[-72.3199,63.7807],[-72.3176,63.6789],[-71.9315,63.6869],[-71.8276,63.7796],[-71.5656,63.6908],[-71.5832,63.5925],[-71.2772,63.5661],[-71.6862,63.4244],[-71.7665,63.2841],[-71.6885,63.1738],[-71.3726,63.0485],[-71.0289,63.0786],[-71.0098,62.9968],[-70.8297,62.8968],[-70.4932,62.8666],[-70.2403,62.7541],[-69.6269,62.791],[-69.5868,62.6577],[-69.4451,62.5535],[-69.0272,62.3798],[-68.5537,62.2497],[-67.9809,62.2119],[-67.6741,62.1575],[-67.4006,62.1498],[-66.7735,62.0172],[-66.5552,61.9074],[-66.2745,61.8581],[-65.9504,61.8969],[-66.1285,62.0886],[-65.93,62.1978],[-66.302,62.3511],[-66.5515,62.5607],[-66.982,62.7031],[-67.198,62.8769],[-67.5294,62.9995],[-67.6326,63.1032],[-67.7987,63.0889],[-68.1469,63.1606],[-68.4034,63.3759],[-68.7603,63.5548],[-68.9282,63.7607],[-68.4962,63.7403],[-68.4003,63.664],[-68.1204,63.6024],[-67.8689,63.4637],[-67.6897,63.6329],[-67.5007,63.4428],[-67.2398,63.3214],[-67.0124,63.2878],[-66.8113,63.1652],[-66.6979,63.0385],[-66.5192,63.0773],[-66.1907,62.9514],[-66.0535,62.9998],[-65.8856,62.9315],[-65.6659,62.9123],[-65.6038,62.8251],[-65.2724,62.7878],[-65.3502,62.7071],[-65.1696,62.5684],[-64.9625,62.6627],[-65.2037,62.8956],[-65.1007,62.9588],[-64.8871,62.8694],[-64.765,63.0551],[-64.8193,63.1419],[-65.0281,63.2497],[-64.9089,63.2878],[-65.0993,63.5495],[-64.9317,63.5714],[-64.7717,63.3288],[-64.631,63.242],[-64.4844,63.2878],[-64.5594,63.5622],[-64.5048,63.6441],[-64.6761,63.7403],[-64.9295,63.7777],[-64.8953,63.8974],[-64.663,64.0278],[-65.0767,64.0834],[-65.3074,64.1934],[-65.2689,64.2956],[-65.081,64.4792],[-65.7261,64.5152],[-65.5865,64.6491],[-65.5828,64.7568],[-65.824,64.8828],[-66.0126,64.7545],[-66.2086,64.897],[-66.6494,64.9699],[-66.9675,65.0866],[-66.9359,65.216],[-67.1688,65.2685],[-67.0603,65.4534],[-67.4331,65.5036],[-67.2731,65.6452],[-67.4549,65.6789],[-67.927,65.6201],[-67.9249,65.7568],[-68.0955,65.796],[-68.1368,65.9266],[-68.0257,65.9949],[-67.81,65.8784],[-67.1701,65.9326],[-67.3011,65.9962],[-67.2936,66.1113],[-67.7529,66.2547],[-67.8524,66.4134],[-67.5748,66.4192],[-67.3032,66.2807],[-67.1428,66.4403],[-67.3786,66.5492],[-66.9613,66.5408],[-66.7307,66.3736],[-66.4718,66.3441],[-66.1478,66.1407],[-65.9591,66.1147],[-65.8994,65.9537],[-65.3931,65.9822],[-64.9636,66.0759],[-64.9097,66.0053],[-65.3533,65.9141],[-65.5031,65.7668],[-65.2935,65.5605],[-65.1147,65.5043],[-65.0725,65.3883],[-64.9021,65.2821],[-64.1785,65.1767],[-63.8851,65.0861],[-63.6551,64.9184],[-63.4052,65.0328],[-63.4975,65.3708],[-63.3666,65.5383],[-63.1601,65.6492],[-62.5942,65.664],[-62.5103,65.7933],[-62.3064,65.8289],[-62.4289,65.9787],[-61.9542,66.0198],[-62.1704,66.1208],[-62.5385,66.2274],[-62.2196,66.3972],[-61.9346,66.2895],[-61.4923,66.3674],[-61.5763,66.5505],[-61.2705,66.6048],[-61.3011,66.6777],[-61.6056,66.8716],[-62.0041,67.0368],[-62.2983,67.0225],[-62.284,66.9461],[-62.905,66.973],[-63.3491,66.8907],[-63.2299,67.0368],[-63.2504,67.1323],[-62.9769,67.2219],[-63.1636,67.3376],[-63.4121,67.2177],[-63.8885,67.2416],[-63.9416,67.361],[-64.2278,67.6142],[-64.2897,67.7294],[-64.607,67.8318],[-64.8161,67.7829],[-65.0456,67.8518],[-64.7196,67.9852],[-64.9648,68.0524],[-65.1815,67.9672],[-65.4468,67.9939],[-65.7586,67.9684],[-65.8089,67.8653],[-66.2141,68.0051],[-66.3135,68.1291],[-66.5401,68.1528],[-66.766,68.2421],[-67.064,68.4749],[-67.6641,68.5647],[-67.9312,68.5282],[-68.3605,68.6299],[-68.1219,68.6887],[-68.5472,68.7531],[-68.4006,68.8454],[-68.1332,68.8372],[-68.043,68.9722],[-67.7355,69.0401],[-68.116,69.1328],[-68.0825,69.2197],[-67.678,69.1772],[-66.6688,69.1846],[-66.788,69.34],[-67.2276,69.4643],[-68.0051,69.462],[-68.5875,69.591],[-68.3492,69.6331],[-68.0131,69.7761],[-67.7472,69.7826],[-67.3469,69.7166],[-67.1155,69.7287],[-67.2495,69.9634],[-67.8085,70.2637],[-68.157,70.3183],[-68.3231,70.2234],[-68.3369,70.0688],[-68.5474,70.0576],[-68.6633,69.9419],[-68.9282,69.9553],[-68.6436,70.147],[-68.7065,70.2094],[-69.2089,70.1929],[-69.4702,70.2481],[-68.72,70.3223],[-68.4586,70.373],[-68.2978,70.4969],[-68.3623,70.5843],[-69.0978,70.7231],[-69.203,70.7794],[-69.5903,70.7734],[-69.915,70.8799],[-70.6174,70.7299],[-70.713,70.8397],[-70.5164,70.9371],[-70.7872,71.1146],[-71.1509,71.0377],[-71.3228,70.8872],[-71.5906,70.8732],[-71.9531,70.7913],[-72.3373,70.7578],[-72.1642,70.8304],[-72.3563,70.8787],[-72.0451,71.0848],[-71.861,71.1135],[-71.445,71.0735],[-71.1171,71.2705],[-71.5819,71.5151],[-72.4726,71.6473],[-72.639,71.5455],[-72.831,71.499],[-72.7551,71.4356],[-72.9946,71.4077],[-72.97,71.2873],[-73.2539,71.33],[-73.5638,71.5585],[-73.6879,71.5932],[-73.5964,71.7639],[-73.9059,71.7756],[-74.6346,71.6551],[-74.7424,71.7336],[-74.2627,71.8198],[-74.118,71.9672],[-74.2368,72.0761],[-75.0632,72.1282],[-74.9417,72.2574],[-75.1984,72.4976],[-75.7351,72.5826],[-76.652,72.6387],[-76.8891,72.7435],[-77.601,72.7558],[-77.9771,72.6984],[-78.5351,72.5146],[-78.5696,72.3557],[-78.9433,72.196],[-79.2834,72.3944],[-79.546,72.2921],[-79.753,72.4014],[-80.049,72.3979],[-80.4829,72.1807],[-80.3967,72.0501],[-80.7594,71.9836],[-80.8316,72.2607],[-80.5124,72.3815],[-80.5585,72.6276],[-80.2689,72.7252],[-80.6403,72.9279],[-80.5499,73.0948],[-80.6428,73.1698],[-81.1335,73.2471],[-81.2291,73.5397],[-81.5284,73.7162],[-82.8311,73.7367],[-83.6412,73.5951],[-84.0075,73.5049],[-84.8367,73.3891],[-85.1134,73.3218],[-85.193,73.2313],[-85.0304,73.1365],[-85.4636,73.1119],[-85.6523,72.8712],[-85.7025,72.6347],[-85.5145,72.4634],[-85.3443,72.4129],[-84.7822,72.3621],[-85.0358,72.2547],[-85.5009,72.2144],[-85.5718,72.0578],[-85.7473,71.9486],[-85.4378,71.8148],[-85.2579,71.6684],[-84.8916,71.633],[-84.7132,71.682],[-84.5283,71.4731],[-84.7005,71.4328],[-84.8568,71.1597],[-85.5432,71.1806],[-85.2025,71.2658],[-84.8581,71.2761],[-84.9597,71.4288],[-85.4969,71.5144],[-86.1276,71.7943],[-86.4082,72.0058],[-86.4604,72.2034],[-86.2534,72.3946],[-86.3261,72.5036],[-86.6802,72.6462],[-86.6986,72.8161],[-86.2829,73.0872],[-86.0303,73.3024],[-85.5772,73.5124],[-84.952,73.6677],[-84.8828,73.7482],[-85.1057,73.812],[-86.0186,73.8549],[-86.7142,73.8474],[-87.7645,73.7167],[-88.4138,73.5255],[-89.0512,73.2517],[-89.3119,73.0463],[-89.3209,72.8823],[-89.7532,72.6108],[-89.963,72.2574],[-89.7617,72.1256],[-89.9925,72.0716],[-90.1047,71.9163],[-89.7979,71.7646],[-89.9766,71.6579],[-89.963,71.4151],[-89.8134,71.329],[-88.6158,71.237],[-88.067,71.2128],[-87.2283,71.0111],[-87.3586,70.9496],[-87.893,70.9353],[-88.3249,70.9584],[-88.6424,71.0546],[-89.1263,71.0316],[-89.4491,70.908],[-89.2985,70.7774],[-89.076,70.6999],[-88.9072,70.5449],[-88.6941,70.465],[-88.1413,70.3959],[-87.8525,70.238],[-87.425,70.3153],[-87.0314,70.4685],[-86.8582,70.3251],[-86.6392,70.3251],[-86.2697,70.1135],[-85.7829,69.9952],[-84.952,70.0666],[-84.6948,70.0066],[-84.0769,69.9864],[-83.6728,69.9464],[-83.0516,70.0105],[-82.4415,69.8441],[-82.1258,69.8181],[-81.8575,69.8649],[-81.8762,69.9709],[-81.6,69.9774],[-80.9512,69.7362],[-80.7799,69.756],[-81.1932,70.0008],[-81.3997,70.0109],[-81.5654,70.1083],[-81.0715,70.0993],[-79.8352,69.9534],[-79.6809,69.8486],[-79.4324,69.8837],[-78.8881,69.8938],[-78.6651,70.0138],[-78.7669,70.1914],[-78.9707,70.3251],[-79.128,70.3092],[-79.5651,70.3902],[-79.1562,70.4971],[-78.7447,70.4561],[-78.6628,70.3531],[-78.3891,70.2164],[-78.1522,70.2023],[-77.8915,70.2637],[-77.6826,70.1837],[-77.6827,69.8249],[-77.4909,69.8627],[-76.8733,69.8187],[-76.8735,69.6872],[-77.0384,69.6058],[-76.6296,69.546],[-76.3913,69.4053],[-76.2172,69.4174],[-75.6874,69.2871],[-75.5717,69.1571],[-75.9899,69.0109],[-76.4225,69.0599],[-76.6381,69.0159],[-76.5338,68.8814],[-76.6732,68.7658],[-76.625,68.6824],[-76.3256,68.6985],[-75.4967,68.9342],[-75.202,68.8968],[-74.7032,68.9376],[-74.8789,68.8255],[-74.5375,68.6652],[-74.3725,68.5438],[-73.8852,68.5549],[-74.0982,68.694],[-73.8883,68.714],[-73.7215,68.6158],[-73.7623,68.5105],[-73.9474,68.4135],[-73.728,68.3137],[-73.2003,68.2753],[-72.9884,68.1733],[-72.8574,67.8605],[-72.6189,67.7955],[-72.6728,67.7026],[-72.4361,67.5315],[-72.3698,67.3308],[-72.1933,67.2757],[-72.3509,67.1195],[-72.8035,67.043],[-73.0055,66.7792],[-72.949,66.7346]]],[[[-64.5192,60.3193],[-64.4324,60.3727],[-64.6413,60.4923],[-64.8616,60.4655],[-64.7503,60.3738],[-64.5192,60.3193]]],[[[-67.8808,60.4968],[-67.9991,60.5859],[-68.2413,60.5856],[-68.439,60.2593],[-68.321,60.1971],[-67.9601,60.3326],[-67.847,60.4164],[-67.8808,60.4968]]],[[[-64.8406,61.3515],[-64.6966,61.458],[-64.717,61.6635],[-65.0466,61.6977],[-65.4292,61.6623],[-65.4858,61.5993],[-64.9772,61.3791],[-64.8406,61.3515]]],[[[-65.2412,61.9204],[-65.1473,61.7839],[-64.8279,61.7612],[-64.9604,61.8842],[-65.2412,61.9204]]],[[[-79.2825,62.2699],[-79.5586,62.4204],[-79.8308,62.4108],[-80.215,62.1377],[-80.2856,61.9304],[-80.1804,61.7743],[-79.7502,61.5859],[-79.5485,61.7595],[-79.2695,62.1452],[-79.2825,62.2699]]],[[[-64.3806,62.5275],[-64.8417,62.5561],[-64.923,62.4195],[-64.5941,62.3698],[-64.3806,62.5275]]],[[[-70.2406,62.6156],[-70.4925,62.767],[-70.7886,62.8415],[-70.9596,62.8032],[-70.6822,62.5473],[-70.362,62.5269],[-70.2406,62.6156]]],[[[-82.1913,62.9862],[-82.4205,62.928],[-82.7394,62.9384],[-83.1189,62.8472],[-83.2965,62.9309],[-83.5198,62.8264],[-83.5528,62.6997],[-83.7132,62.5684],[-83.907,62.4914],[-83.91,62.3953],[-83.7515,62.31],[-83.673,62.1451],[-83.2806,62.2525],[-83.1346,62.1766],[-82.7467,62.3105],[-82.4247,62.4722],[-82.296,62.5852],[-81.9569,62.6977],[-81.9648,62.8012],[-81.8624,62.9248],[-82.1913,62.9862]]],[[[-77.538,63.2878],[-77.7033,63.4382],[-78.1863,63.4932],[-78.5443,63.4492],[-78.5317,63.3902],[-77.9408,63.0871],[-77.6448,63.1432],[-77.538,63.2878]]],[[[-64.0864,63.335],[-64.2242,63.3948],[-64.3549,63.6689],[-64.4979,63.6168],[-64.4222,63.4728],[-64.2589,63.3272],[-64.0864,63.335]]],[[[-76.6889,63.4858],[-76.7093,63.5678],[-77.1203,63.685],[-77.397,63.6934],[-77.4183,63.5906],[-76.9821,63.4073],[-76.702,63.3697],[-76.6889,63.4858]]],[[[-64.8883,63.7949],[-64.5953,63.7877],[-64.6437,63.9154],[-64.8883,63.7949]]],[[[-80.1833,63.7676],[-80.8888,64.1226],[-81.0585,64.0265],[-81.3733,64.0744],[-81.4565,64.0378],[-81.9713,63.9938],[-81.9101,64.0687],[-81.6272,64.1236],[-81.7135,64.2542],[-81.7713,64.512],[-82.1225,64.692],[-82.366,64.768],[-82.7145,64.781],[-82.8838,64.8797],[-83.2084,64.9477],[-83.3977,65.1366],[-83.8429,65.1654],[-84.0985,65.2095],[-84.1523,65.3322],[-84.5774,65.4894],[-84.848,65.2135],[-85.0767,65.4564],[-85.3165,65.5415],[-85.0524,65.6142],[-85.201,65.8093],[-85.4883,65.7966],[-85.6098,65.9105],[-85.9389,65.7632],[-86.0284,65.665],[-86.1739,65.2865],[-86.1593,64.9394],[-86.3529,64.6508],[-86.4058,64.4385],[-86.3648,64.3088],[-86.1929,64.1034],[-86.8959,63.9302],[-87.2238,63.6601],[-87.0644,63.5548],[-86.8682,63.5618],[-86.6612,63.6577],[-86.2854,63.6461],[-85.7936,63.7134],[-85.617,63.6749],[-85.655,63.4177],[-85.6352,63.2431],[-85.5098,63.1292],[-85.2739,63.1234],[-84.9544,63.1938],[-84.5902,63.3151],[-84.4803,63.3934],[-84.4053,63.5548],[-84.2842,63.6268],[-84.0639,63.6207],[-83.7839,63.7685],[-83.6338,63.771],[-83.6046,63.9304],[-83.6853,64.0141],[-83.5394,64.1107],[-83.0137,64.1916],[-82.9796,64.1171],[-83.1383,64.0067],[-82.5339,63.973],[-82.3558,63.853],[-82.5177,63.7966],[-82.4818,63.6852],[-82.0746,63.6918],[-81.636,63.5752],[-81.0189,63.4503],[-80.5977,63.6369],[-80.4664,63.7273],[-80.1833,63.7676]]],[[[-85.0011,66.0076],[-85.1861,65.9468],[-85.1127,65.7621],[-84.7132,65.5552],[-84.5741,65.6356],[-84.715,65.8353],[-85.0011,66.0076]]],[[[-84.4735,66.0902],[-84.1246,65.9067],[-84.1427,65.7668],[-83.8697,65.7829],[-83.802,65.6862],[-83.4727,65.7277],[-83.802,65.8227],[-83.6927,65.9257],[-84.0688,66.0629],[-84.4735,66.0902]]],[[[-73.3583,67.8381],[-73.4129,67.9684],[-74.277,68.0776],[-74.756,68.0634],[-74.6402,67.8567],[-74.4023,67.7789],[-73.4095,67.776],[-73.3583,67.8381]]],[[[-86.5771,68.2906],[-86.7477,68.287],[-86.9857,68.0674],[-86.8366,67.7918],[-86.5975,67.7282],[-86.4127,67.8449],[-86.3738,67.9592],[-86.4078,68.2078],[-86.5771,68.2906]]],[[[-75.0335,68.1733],[-75.1376,68.2363],[-75.9112,68.3446],[-76.2991,68.3348],[-76.6889,68.2626],[-76.8772,68.1528],[-77.2122,67.8704],[-77.3227,67.708],[-77.178,67.4255],[-76.9816,67.2433],[-76.6337,67.228],[-76.2433,67.2695],[-75.8893,67.258],[-75.3905,67.3577],[-75.0651,67.5524],[-75.0441,67.817],[-75.1614,67.9531],[-75.0335,68.1733]]],[[[-78.909,68.324],[-79.1456,68.3476],[-79.1835,68.2217],[-79.0443,68.1662],[-78.8104,68.2845],[-78.909,68.324]]],[[[-74.838,68.4202],[-74.7738,68.4855],[-74.9894,68.6688],[-75.2604,68.7206],[-75.3921,68.626],[-75.379,68.4988],[-74.8841,68.344],[-74.838,68.4202]]],[[[-79.0798,68.879],[-78.83,68.9174],[-78.5516,69.1024],[-78.4567,69.2291],[-78.214,69.3029],[-78.3127,69.3871],[-78.7309,69.3253],[-78.8633,69.1484],[-79.2042,69.0849],[-79.423,68.9274],[-79.0798,68.879]]],[[[-76.6923,69.4109],[-77.1134,69.4481],[-77.3605,69.3898],[-77.3872,69.2665],[-77.265,69.1467],[-76.9915,69.1451],[-76.6752,69.311],[-76.6923,69.4109]]],[[[-67.9099,69.5338],[-67.7311,69.6588],[-67.8915,69.7121],[-68.219,69.6058],[-67.9099,69.5338]]],[[[-78.3945,69.6467],[-78.6897,69.5611],[-78.5172,69.4848],[-78.0923,69.5783],[-77.942,69.6467],[-78.1413,69.7498],[-78.3945,69.6467]]],[[[-79.9711,69.6331],[-79.6129,69.6198],[-79.3481,69.6945],[-79.4081,69.7789],[-79.6724,69.8204],[-79.9741,69.7306],[-80.5006,69.7874],[-80.8035,69.7047],[-80.2104,69.6187],[-79.9711,69.6331]]],[[[-87.0842,69.9894],[-86.5035,69.9859],[-86.803,70.0924],[-87.3158,70.1181],[-87.0842,69.9894]]],[[[-71.508,71.0173],[-72.0116,71.0522],[-72.0461,70.9459],[-72.228,70.9217],[-72.1182,70.8254],[-71.4387,70.9099],[-71.508,71.0173]]],[[[-72.9536,71.5175],[-73.3524,71.5336],[-73.2668,71.3644],[-72.817,71.4486],[-72.9536,71.5175]]],[[[-97.072,73.1381],[-97.1003,72.992],[-96.6551,72.9636],[-96.5683,73.0525],[-96.8092,73.1921],[-97.072,73.1381]]],[[[-104.6809,73.6298],[-105.1671,73.7567],[-106.5996,73.7106],[-107.0393,73.4844],[-106.5088,73.4141],[-106.1207,73.2927],[-105.9494,73.1623],[-105.4857,72.9558],[-105.2025,72.9445],[-104.7366,73.1896],[-104.5727,73.3322],[-104.5008,73.5672],[-104.6809,73.6298]]],[[[-80.9034,73.6074],[-80.795,73.2853],[-80.1638,73.2334],[-80.1761,73.0456],[-79.9486,72.8475],[-79.5684,72.7598],[-79.1754,72.7546],[-78.6417,72.8525],[-78.1709,72.8986],[-76.319,72.8167],[-76.1173,72.9417],[-76.3326,72.9705],[-76.2716,73.1021],[-76.5215,73.1292],[-76.7572,73.3206],[-77.0399,73.3588],[-77.2135,73.5108],[-78.1385,73.6689],[-79.4503,73.6353],[-80.5602,73.7725],[-80.8058,73.7204],[-80.9034,73.6074]]],[[[-96.3213,72.4669],[-96.4523,72.6422],[-96.7105,72.7148],[-96.932,72.6757],[-97.2911,72.875],[-97.256,72.9621],[-97.6607,73.0367],[-98.3486,73.0436],[-97.8283,73.2783],[-97.2951,73.3664],[-97.1648,73.4497],[-97.6683,73.4863],[-96.9947,73.6259],[-96.9564,73.7373],[-97.2604,73.8612],[-97.5705,73.8937],[-98.0965,73.8183],[-99.2184,73.7394],[-100.0013,73.95],[-100.303,73.8612],[-100.8858,73.8321],[-101.095,73.7425],[-100.8747,73.6186],[-101.2298,73.6061],[-101.5616,73.4686],[-101.289,73.3601],[-100.8579,73.2628],[-100.3887,73.3405],[-100.4674,73.2033],[-100.1112,73.0327],[-100.0644,72.901],[-100.3048,72.875],[-100.4312,72.7404],[-100.8746,72.6962],[-101.2962,72.7186],[-101.7628,73.019],[-102.1143,73.0888],[-102.4848,73.0412],[-102.756,72.8123],[-102.6142,72.6613],[-101.9665,72.4971],[-101.8401,72.3265],[-101.4032,72.2793],[-101.2008,72.3297],[-100.9267,72.2034],[-100.6365,72.1865],[-100.447,72.0588],[-100.0355,71.8676],[-99.8644,71.8594],[-99.4123,71.5455],[-99.2351,71.3496],[-98.9463,71.3739],[-98.8276,71.3005],[-98.5415,71.2922],[-98.2152,71.4094],[-98.0418,71.5312],[-98.3754,71.6524],[-97.9698,71.6615],[-97.4612,71.6174],[-97.0829,71.7031],[-96.9616,71.8068],[-96.5597,71.8398],[-96.4848,72.1285],[-96.5547,72.2642],[-96.7185,72.2995],[-96.3213,72.4669]]],[[[-99.2474,73.855],[-98.8262,73.8321],[-98.1434,73.8784],[-97.8085,73.9779],[-97.7252,74.1216],[-98.7525,74.0336],[-99.3897,73.9237],[-99.2474,73.855]]],[[[-90.291,73.9233],[-90.9939,74.0059],[-91.8145,74.0288],[-92.1138,73.9843],[-92.8,74.1318],[-93.2726,74.178],[-93.7659,74.1356],[-94.3739,74.1323],[-95.2486,74.0099],[-95.3176,73.892],[-94.8402,73.6916],[-95.0214,73.6706],[-95.4464,73.7741],[-95.7254,73.6415],[-95.6129,73.5964],[-95.582,73.1623],[-95.7192,73.0115],[-95.623,72.9296],[-95.5927,72.6994],[-95.3139,72.6075],[-95.1357,72.4634],[-95.2118,72.1967],[-95.0886,72.1003],[-95.1453,71.9659],[-94.0878,72.0635],[-93.811,72.3163],[-93.4642,72.4634],[-93.7932,72.6931],[-94.1557,72.7713],[-93.4032,72.7943],[-92.3849,72.7099],[-92.1689,72.7304],[-91.8577,72.848],[-91.1758,73.3542],[-90.5107,73.6979],[-90.1957,73.9022],[-90.291,73.9233]]],[[[-103.6384,75.1995],[-103.8205,75.3667],[-104.4032,75.4326],[-104.6769,75.346],[-104.9065,75.1241],[-104.2295,75.0189],[-103.8673,75.0644],[-103.6384,75.1995]]],[[[-93.4369,74.9443],[-93.4994,75.268],[-94.3939,75.6042],[-94.8995,75.6447],[-95.7915,75.501],[-96.1711,75.287],[-96.4693,75.1944],[-96.6046,75.0648],[-96.4038,74.9369],[-95.8976,74.8259],[-95.3054,74.8055],[-95.0886,74.6905],[-94.7242,74.6318],[-93.6077,74.6542],[-93.4574,74.7178],[-93.4369,74.9443]]],[[[-96.5751,75.4377],[-96.2357,75.4661],[-95.9104,75.5607],[-96.4169,75.5948],[-97.0549,75.4992],[-96.9596,75.3847],[-96.5751,75.4377]]],[[[-102.8733,75.7661],[-102.5045,75.7991],[-102.2147,75.9927],[-103.0449,75.9062],[-103.3275,75.7509],[-102.8733,75.7661]]],[[[-94.4853,75.9784],[-94.8524,75.9532],[-94.8234,75.8105],[-94.3165,75.7643],[-94.4853,75.9784]]],[[[-102.5716,75.9927],[-102.4438,76.0899],[-103.7255,75.9783],[-103.6916,75.889],[-102.5716,75.9927]]],[[[-78.8954,76.123],[-79.7176,75.8825],[-79.2792,75.8765],[-78.8607,76.0473],[-78.8954,76.123]]],[[[-103.8114,76.0336],[-102.8376,76.0806],[-102.5306,76.1572],[-102.7266,76.3156],[-104.312,76.2124],[-104.3677,76.0764],[-103.8114,76.0336]]],[[[-104.398,76.4687],[-104.3777,76.3249],[-103.3363,76.3317],[-103.0226,76.4156],[-103.883,76.5779],[-104.0246,76.6705],[-104.652,76.602],[-104.398,76.4687]]],[[[-97.4249,75.5197],[-97.4249,75.6985],[-97.8973,75.7371],[-97.5702,75.8652],[-97.6514,75.9517],[-97.5004,76.1573],[-97.7886,76.3223],[-97.6651,76.4862],[-98.0758,76.5334],[-98.508,76.6369],[-98.9047,76.6244],[-99.2573,76.4689],[-99.59,76.6286],[-100.2696,76.6496],[-100.963,76.4803],[-100.6753,76.381],[-100.3214,76.389],[-99.9966,76.2988],[-100.4787,76.2338],[-100.4556,76.1015],[-101.1277,76.2603],[-101.0862,76.342],[-101.4134,76.4377],[-102.0351,76.4128],[-102.1028,76.2208],[-101.7423,76.1845],[-101.9088,76.0872],[-101.5895,75.9245],[-102.2623,75.8698],[-102.6877,75.678],[-102.7761,75.545],[-102.0638,75.5477],[-101.4494,75.6077],[-100.2233,75.6667],[-99.7037,75.5952],[-100.2825,75.5272],[-100.6758,75.3365],[-100.2523,75.263],[-100.3985,75.1634],[-100.3302,75.0141],[-99.6454,74.976],[-98.9542,75.0089],[-98.7502,74.9884],[-98.035,75.0263],[-97.6849,75.1702],[-98.1167,75.298],[-97.9237,75.5196],[-97.4249,75.5197]]],[[[-101.1597,76.5817],[-100.3335,76.7145],[-100.9725,76.7355],[-101.1597,76.5817]]],[[[-89.675,76.7326],[-89.9822,76.8424],[-90.5295,76.7922],[-90.568,76.7156],[-90.0648,76.4862],[-89.675,76.7326]]],[[[-110.0037,75.9114],[-110.0037,75.8787],[-109.6915,75.8071],[-109.102,75.7501],[-108.8349,75.6227],[-108.8964,75.4924],[-110.0037,75.5447],[-110.0037,74.8526],[-109.5819,74.8581],[-108.8242,75.0715],[-108.4166,74.9171],[-107.6863,74.9822],[-107.0052,74.9238],[-106.7602,75.003],[-106.0089,75.0566],[-105.8958,75.2591],[-105.6614,75.3552],[-105.6893,75.5272],[-105.3905,75.6597],[-105.5118,75.8906],[-105.7599,75.9902],[-106.6068,76.0616],[-107.0461,75.889],[-107.6483,75.9728],[-107.8576,76.0659],[-108.4576,76.1025],[-108.0809,76.2869],[-108.3423,76.4021],[-108.6159,76.4235],[-108.6872,76.6022],[-108.4508,76.7326],[-108.7481,76.8587],[-109.1844,76.8219],[-109.5543,76.6301],[-110.0037,76.4862],[-110.0037,76.2264],[-109.5422,76.1894],[-109.4333,76.0036],[-110.0037,75.9114]]],[[[-79.5602,74.9915],[-79.7799,75.0325],[-80.197,74.958],[-80.4434,75.0399],[-79.9687,75.0975],[-79.6285,75.1802],[-79.501,75.3919],[-80.0786,75.5861],[-80.5034,75.6616],[-81.2863,75.6637],[-81.1131,75.7791],[-82.331,75.8436],[-83.089,75.7403],[-83.9181,75.8145],[-84.2896,75.7133],[-85.0449,75.6558],[-85.2991,75.5749],[-86.0104,75.5359],[-86.1964,75.4154],[-86.7778,75.476],[-87.1115,75.5948],[-87.7508,75.5809],[-88.2454,75.4784],[-88.5799,75.6585],[-88.9003,75.6091],[-89.2572,75.6358],[-89.1977,75.7963],[-89.688,75.9033],[-90.1882,76.0678],[-91.2436,76.164],[-89.3801,76.1845],[-89.2976,76.3005],[-90.4478,76.4113],[-90.5717,76.564],[-91.0106,76.6574],[-91.4411,76.6937],[-92.693,76.596],[-92.9503,76.6301],[-93.7009,76.921],[-94.1136,76.8878],[-94.508,76.9712],[-95.1916,77.0041],[-95.7707,77.0767],[-96.3219,77.0243],[-96.8511,76.9296],[-96.3144,76.8083],[-96.4996,76.6957],[-96.1422,76.5835],[-95.8233,76.3991],[-95.0313,76.3342],[-94.8481,76.2692],[-93.5911,76.2997],[-93.1283,76.3702],[-92.6467,76.1199],[-92.6298,76.0203],[-92.1846,75.8949],[-92.1757,75.7525],[-92.0044,75.6016],[-92.3,75.5125],[-92.504,75.218],[-92.0611,74.9628],[-92.0185,74.7775],[-91.6208,74.7116],[-90.8941,74.7609],[-90.7013,74.6461],[-89.9486,74.5328],[-89.4344,74.5533],[-89.1474,74.6079],[-89.0837,74.7197],[-88.4118,74.759],[-88.5178,74.5012],[-87.6436,74.4583],[-85.3328,74.496],[-84.6764,74.5237],[-84.2583,74.5065],[-83.4935,74.5778],[-83.3319,74.7819],[-82.92,74.5515],[-81.7887,74.4584],[-81.3202,74.5618],[-80.5419,74.5635],[-80.1617,74.6238],[-80.2454,74.7587],[-79.3952,74.8763],[-79.5602,74.9915]]],[[[-89.6613,77.3564],[-89.7757,77.4864],[-90.3041,77.6294],[-90.8817,77.6577],[-91.1687,77.6175],[-91.1996,77.4079],[-90.9245,77.307],[-90.0939,77.2041],[-89.6613,77.3564]]],[[[-104.3945,77.1925],[-104.4213,77.3079],[-104.7923,77.422],[-105.503,77.7211],[-105.9088,77.7679],[-105.765,77.4662],[-105.5363,77.3044],[-104.754,77.1112],[-104.3945,77.1925]]],[[[-93.252,77.6444],[-93.2079,77.723],[-93.608,77.7815],[-95.5065,77.8107],[-96.2355,77.7055],[-96.3025,77.5933],[-95.9876,77.4791],[-94.3308,77.4775],[-93.8077,77.4387],[-93.4784,77.4881],[-93.252,77.6444]]],[[[-102.4487,77.7399],[-101.7906,77.6794],[-100.9582,77.7603],[-101.6452,77.8903],[-102.3982,77.8889],[-102.4487,77.7399]]],[[[-110.0037,78.0993],[-110.0037,77.9314],[-109.5815,78.0541],[-110.0037,78.0993]]],[[[-110.0037,78.6869],[-110.0037,78.329],[-109.3389,78.3547],[-109.3467,78.5353],[-110.0037,78.6869]]],[[[-96.9103,77.7952],[-96.6322,77.8774],[-95.8085,77.903],[-95.0607,77.9726],[-94.8893,78.1093],[-95.3699,78.2468],[-94.8279,78.3637],[-95.1187,78.4547],[-95.6998,78.5261],[-96.2735,78.5351],[-96.5431,78.6856],[-97.451,78.7971],[-98.1491,78.8187],[-98.3559,78.7739],[-98.3597,78.4517],[-98.0693,78.4051],[-97.7668,78.247],[-96.8693,78.1372],[-96.9376,78.081],[-97.6569,78.0971],[-97.7423,78.0423],[-96.9935,77.9249],[-96.9103,77.7952]]],[[[-105.6068,79.1036],[-105.4025,79.0129],[-104.9534,79.0539],[-104.4563,78.957],[-104.0776,78.9863],[-103.8563,78.8826],[-104.2233,78.7883],[-103.384,78.7746],[-103.4972,78.5065],[-104.0377,78.5207],[-104.641,78.5834],[-105.0177,78.5245],[-104.8196,78.3616],[-104.4657,78.2746],[-103.9465,78.2428],[-103.6588,78.3211],[-102.7441,78.3806],[-102.765,78.2741],[-102.1608,78.2883],[-101.036,78.1992],[-100.61,77.864],[-99.9386,77.7829],[-99.1822,77.8437],[-99.0172,77.8938],[-99.0445,78.0819],[-99.8027,78.3085],[-99.5579,78.5987],[-100.0634,78.6381],[-99.9904,78.7361],[-100.5212,78.8239],[-101.2079,78.8225],[-100.9882,78.9316],[-101.6484,79.081],[-102.6649,78.986],[-102.6072,79.0765],[-103.1209,79.2907],[-103.7216,79.3633],[-105.449,79.2695],[-105.6068,79.1036]]],[[[-100.1522,79.998],[-100.0702,79.8782],[-99.5836,79.8987],[-99.3001,79.7594],[-98.6514,79.7922],[-98.8738,80.0838],[-99.7794,80.1508],[-100.1522,79.998]]],[[[-96.6231,80.0443],[-96.5427,79.8484],[-95.6115,79.559],[-95.646,79.3943],[-94.9607,79.2916],[-94.3884,79.371],[-93.786,79.2806],[-93.4951,79.3602],[-92.5804,79.3848],[-92.6273,79.2454],[-91.8812,79.1635],[-93.433,79.1565],[-93.594,79.0626],[-94.2716,78.9682],[-93.3468,78.6083],[-92.6559,78.6119],[-92.9527,78.4367],[-92.2949,78.3041],[-92.1163,78.227],[-90.8841,78.1446],[-90.3527,78.1446],[-90.332,78.3364],[-89.7135,78.2261],[-89.352,78.3391],[-89.05,78.1817],[-88.77,78.1855],[-88.5512,78.4328],[-88.0421,78.4793],[-87.8588,78.6927],[-87.5367,78.6716],[-87.3098,78.8093],[-86.6146,78.9742],[-86.5039,79.0687],[-85.5105,79.1662],[-84.9186,79.296],[-85.3944,79.4533],[-85.5638,79.5798],[-86.0421,79.5691],[-86.3091,79.6481],[-87.1887,79.6278],[-86.9713,79.8816],[-87.2394,80.0704],[-87.9354,80.0681],[-87.5756,80.1796],[-87.7006,80.4126],[-88.469,80.4399],[-88.7086,80.2897],[-89.2605,80.3037],[-89.058,80.4678],[-89.3249,80.5368],[-90.6392,80.5685],[-90.7098,80.7033],[-91.1471,80.8131],[-91.7081,81.038],[-91.8291,81.1619],[-92.2369,81.2563],[-93.0963,81.3475],[-94.1885,81.3666],[-94.3959,81.2617],[-93.7766,81.2071],[-93.2172,81.2145],[-93.3135,81.0867],[-94.1557,81.0978],[-95.2318,81.0153],[-95.4997,80.808],[-94.6952,80.7341],[-94.3754,80.6174],[-96.027,80.5839],[-96.3216,80.2616],[-95.4015,80.1267],[-94.5458,80.1577],[-94.8457,80.0454],[-96.0185,80.072],[-96.6231,80.0443]]],[[[-61.0855,82.3312],[-61.5789,82.4889],[-63.0655,82.5373],[-62.9627,82.5935],[-63.6515,82.7178],[-63.4471,82.8267],[-64.7513,82.8315],[-65.1324,82.8994],[-65.8516,82.8424],[-67.5968,82.9712],[-69.4834,83.0456],[-69.6875,83.1165],[-72.5916,83.1024],[-73.6531,82.9271],[-74.2,83.0021],[-76.1355,83.0537],[-77.3872,82.9897],[-78.4206,82.8723],[-78.9897,82.8779],[-79.3405,82.9755],[-80.1581,82.9393],[-80.3522,82.8644],[-81.5762,82.7912],[-80.6006,82.5588],[-82.07,82.6743],[-82.7116,82.3815],[-80.9337,82.1039],[-79.8637,82.0269],[-80.0213,81.9676],[-81.588,82.1196],[-82.4008,82.2472],[-83.6749,82.349],[-85.7619,82.4675],[-85.3506,82.2903],[-85.6725,82.245],[-86.848,82.2206],[-86.9648,82.0515],[-87.9991,82.1053],[-88.6807,82.0584],[-89.6448,81.864],[-90.2429,81.8998],[-91.0139,81.8423],[-91.7085,81.7344],[-91.9492,81.6323],[-91.0076,81.6084],[-90.6828,81.6771],[-89.9148,81.5964],[-90.8336,81.4643],[-90.3502,81.376],[-89.5143,81.4875],[-89.2434,81.411],[-89.9245,81.3422],[-90.3528,81.1737],[-89.8262,81.013],[-87.8596,81.0797],[-87.3885,81.0694],[-86.5219,81.1252],[-85.8752,81.2402],[-85.533,81.1892],[-86.0157,81.0838],[-86.6992,81.0054],[-87.6186,80.9814],[-88.4132,80.9988],[-89.2719,80.9532],[-89.3864,80.8789],[-88.1011,80.6808],[-87.276,80.6318],[-87.0639,80.7336],[-86.1116,80.9929],[-85.3931,81.0602],[-86.5517,80.7162],[-86.7491,80.6045],[-86.1178,80.5368],[-85.1214,80.5041],[-84.397,80.51],[-83.8017,80.5598],[-83.8099,80.7388],[-83.3018,80.6984],[-82.9131,80.5394],[-81.2171,80.6277],[-79.6145,80.8276],[-79.1532,81.103],[-78.1917,81.3052],[-77.8421,81.2844],[-78.8858,81.0118],[-78.8478,80.8577],[-77.9976,80.9061],[-77.5073,80.8338],[-78.5319,80.7807],[-79.9643,80.6113],[-80.3523,80.4726],[-83.1592,80.3354],[-82.1687,80.0183],[-81.6617,79.9076],[-81.629,79.7684],[-80.881,79.6539],[-81.587,79.6013],[-82.1709,79.8689],[-83.1133,80.0742],[-83.7879,80.2509],[-85.3157,80.2685],[-85.8933,80.3384],[-86.4377,80.32],[-86.6431,80.1532],[-86.4493,79.9372],[-86.4499,79.7542],[-85.3216,79.6797],[-85.021,79.6175],[-84.8793,79.4874],[-84.4866,79.4127],[-84.3296,79.1924],[-84.7521,79.0389],[-84.2793,78.9553],[-82.9678,78.9408],[-82.5346,78.8851],[-81.6986,78.9785],[-81.7717,78.8659],[-82.4014,78.8287],[-82.9837,78.8552],[-83.1617,78.7244],[-83.7456,78.8389],[-84.7061,78.8708],[-85.2461,78.9169],[-85.7573,78.8317],[-86.6099,78.8093],[-86.9405,78.7142],[-87.1573,78.5493],[-87.4825,78.452],[-87.4879,78.1272],[-86.7698,78.1204],[-86.2242,78.1664],[-86.2277,78.0621],[-85.4878,78.1167],[-85.0628,78.0627],[-85.6606,77.9501],[-85.1895,77.7983],[-85.2825,77.6597],[-84.8349,77.5909],[-84.761,77.5203],[-84.0841,77.5095],[-83.7998,77.429],[-84.617,77.3837],[-85.4023,77.4007],[-85.7818,77.5044],[-85.9744,77.7133],[-86.2156,77.7933],[-87.192,77.9045],[-88.181,77.8015],[-88.1883,77.6404],[-87.6466,77.4868],[-87.6812,77.3534],[-87.3487,77.334],[-87.1326,77.2136],[-87.4746,77.1114],[-88.2936,77.1363],[-88.7195,77.0141],[-89.5372,76.8568],[-89.419,76.6875],[-89.6567,76.5654],[-89.1702,76.4242],[-88.359,76.49],[-88.4036,76.3937],[-87.6299,76.3356],[-87.0924,76.3815],[-86.722,76.3484],[-86.5919,76.4808],[-86.2174,76.375],[-85.2491,76.3161],[-84.4102,76.3093],[-84.942,76.4223],[-84.235,76.4468],[-84.0506,76.5533],[-83.6946,76.4315],[-82.8009,76.39],[-82.282,76.4005],[-81.9353,76.495],[-81.4023,76.4831],[-81.2477,76.5506],[-80.7725,76.42],[-81.0952,76.2186],[-80.6672,76.164],[-79.5503,76.317],[-79.3477,76.2969],[-79.0091,76.4244],[-78.7742,76.5773],[-78.4998,76.4593],[-78.1413,76.5272],[-77.7708,76.6643],[-77.7162,76.822],[-78.0908,77.0228],[-78.8675,76.9244],[-79.3756,76.9256],[-79.0272,77.0906],[-79.0326,77.1572],[-79.4324,77.2386],[-80.1454,77.2111],[-81.103,77.2875],[-81.6204,77.2018],[-81.8489,77.29],[-81.1997,77.3234],[-81.7372,77.4348],[-81.3612,77.4765],[-80.7799,77.3359],[-79.9712,77.2806],[-79.6456,77.3216],[-79.1332,77.2913],[-78.8198,77.3837],[-78.2891,77.3776],[-77.7368,77.6008],[-78.052,77.7331],[-77.9807,77.8167],[-78.43,77.9113],[-77.1538,77.9487],[-76.8807,77.905],[-76.2324,78.0211],[-75.9014,77.9679],[-75.5819,78.113],[-76.8235,78.1858],[-76.6048,78.2552],[-75.6262,78.1998],[-75.1077,78.3755],[-76.0786,78.4662],[-75.0088,78.5378],[-74.7738,78.8348],[-75.7443,78.8972],[-75.7808,78.982],[-77.1591,79.0712],[-76.1335,79.1241],[-78.0594,79.1793],[-76.0888,79.2047],[-75.7572,79.0842],[-75.087,79.0318],[-74.4539,79.0768],[-74.7798,79.16],[-74.4687,79.2272],[-75.9481,79.2372],[-77.3651,79.2814],[-76.8865,79.3529],[-75.9141,79.347],[-76.0094,79.4358],[-75.028,79.3733],[-74.6961,79.45],[-74.0303,79.4501],[-73.1278,79.5592],[-73.3863,79.7547],[-74.8449,79.8503],[-74.2278,79.8957],[-73.0635,79.8093],[-72.9202,79.7096],[-72.2317,79.6626],[-71.1424,79.7895],[-70.2108,80.1882],[-69.3742,80.3974],[-69.133,80.5362],[-68.2794,80.7599],[-66.6721,81.0399],[-65.9889,81.2283],[-65.4001,81.2695],[-64.6921,81.3908],[-64.5461,81.5504],[-65.7357,81.4933],[-67.787,81.317],[-68.0448,81.3734],[-66.6541,81.4999],[-67.6731,81.5934],[-65.8581,81.6273],[-65.3612,81.7344],[-64.3726,81.725],[-62.2576,82.0235],[-61.3124,82.1972],[-61.0855,82.3312]]],[[[-79.9779,56.2021],[-79.7157,56.3091],[-79.7445,56.3659],[-80.0003,56.3259],[-79.9779,56.2021]]],[[[-79.3951,52.0837],[-79.6558,51.9875],[-79.414,51.9383],[-79.3205,52.0335],[-79.3951,52.0837]]],[[[-80.7593,52.9192],[-81.1228,53.2022],[-81.4244,53.2288],[-81.8828,53.1799],[-82.0627,53.0228],[-81.9517,52.9744],[-81.4688,52.8613],[-81.2863,52.8441],[-81.0268,52.7526],[-80.6696,52.742],[-80.7593,52.9192]]],[[[-78.7576,56.1679],[-78.6813,56.1972],[-78.6627,56.4211],[-78.825,56.3583],[-78.8405,56.2485],[-78.7576,56.1679]]],[[[-79.5459,56.0438],[-79.6453,55.8967],[-79.4693,55.8794],[-79.3548,55.9779],[-79.1898,56.2132],[-79.0426,56.3659],[-79.131,56.5442],[-79.235,56.5515],[-79.4093,56.2329],[-79.551,56.2663],[-79.7372,56.1614],[-80.0257,55.9003],[-79.8671,55.8435],[-79.5841,56.1107],[-79.5459,56.0438]]]]}},{"type":"Feature","properties":{"sourceId":"1159308713","regionId":"region.43dba302-af28-4caf-bb05-a949bb509756","countryId":"country.1aj872z"},"geometry":{"type":"MultiPolygon","coordinates":[[[[-64.5314,60.3039],[-64.8447,60.2641],[-64.5992,60.1178],[-64.8172,60.0393],[-64.8354,59.9639],[-64.6707,59.8834],[-64.8141,59.819],[-64.7745,59.6992],[-64.8934,59.5647],[-64.672,59.4503],[-64.4918,59.4364],[-64.5383,59.2856],[-64.414,58.982],[-64.7159,59.0657],[-64.8635,58.9937],[-64.568,58.8873],[-64.3104,58.8847],[-64.2615,58.7818],[-64.1263,58.7525],[-63.9822,58.8233],[-63.7263,58.8785],[-63.5934,58.8443],[-63.5336,58.7235],[-64.0286,58.6823],[-64.0992,58.5921],[-63.8904,58.5668],[-63.8182,58.486],[-64.1671,58.3388],[-64.242,58.2198],[-64.3896,58.1877],[-64.4043,58.0645],[-64.2214,58.0452],[-64.0941,57.806],[-63.6392,57.6391],[-63.7649,57.5644],[-63.7079,57.3852],[-63.838,57.3253],[-63.7433,57.2267],[-63.8717,57.0693],[-63.9154,56.9366],[-64.1241,56.6895],[-63.9426,56.5451],[-64.1081,56.3754],[-64.0911,56.2628],[-63.9417,56.253],[-64.0217,56.0898],[-63.7032,56.0473],[-63.575,55.9917],[-63.8403,55.9133],[-63.6927,55.753],[-63.669,55.6236],[-63.7383,55.4396],[-63.3903,55.405],[-63.6599,55.2702],[-63.5506,55.2265],[-63.6053,54.9022],[-63.8148,54.9405],[-63.904,54.782],[-63.7292,54.6471],[-63.8986,54.6016],[-64.1135,54.6308],[-64.181,54.7109],[-64.4579,54.7947],[-64.5763,54.7273],[-64.7676,54.7382],[-64.7585,54.8166],[-64.9406,54.9295],[-65.1028,54.9568],[-65.2212,54.8512],[-65.4817,54.8166],[-65.4453,54.7455],[-65.698,54.7228],[-65.8487,54.897],[-66.0593,54.9188],[-66.2543,54.9981],[-66.588,55.2554],[-66.7009,55.2206],[-66.7623,55.1042],[-66.6608,54.9842],[-66.7288,54.9387],[-66.6071,54.8039],[-66.737,54.7339],[-66.9362,54.7991],[-67.0159,54.8849],[-67.4229,54.9971],[-67.2646,54.8354],[-67.0858,54.7322],[-67.1546,54.6153],[-67.2612,54.5706],[-67.4985,54.5946],[-67.5088,54.488],[-67.7496,54.4261],[-67.6395,54.1888],[-67.7427,54.1544],[-67.8081,54.034],[-67.5226,53.838],[-67.5742,53.7658],[-67.4125,53.6935],[-67.3231,53.5663],[-67.0308,53.5147],[-66.8898,53.4149],[-66.962,53.2946],[-66.9826,53.1054],[-67.299,53.157],[-67.385,53.1054],[-67.3025,52.8681],[-67.0411,52.7752],[-66.8657,52.6617],[-66.6559,52.7959],[-66.6249,52.9369],[-66.3635,53.0022],[-66.2879,52.8474],[-66.4082,52.5895],[-66.3498,52.3591],[-66.4805,52.335],[-66.3739,52.1424],[-66.0781,52.1699],[-65.9921,52.0598],[-65.8236,52.108],[-65.6825,52.0254],[-65.459,52.0254],[-65.1838,51.7744],[-64.9568,51.7228],[-64.8571,51.7744],[-64.6886,51.7228],[-64.5304,51.5921],[-64.3446,51.6677],[-64.2793,51.74],[-64.3618,51.967],[-64.2346,51.9807],[-64.2518,52.1149],[-64.1555,52.1321],[-64.207,52.304],[-64.1279,52.3866],[-64.1899,52.5723],[-64.1073,52.7202],[-63.6052,52.7855],[-63.3791,52.6512],[-63.8126,52.6202],[-63.9541,52.5799],[-64.0812,52.4734],[-63.9727,52.3536],[-63.7734,52.3351],[-63.6704,52.0357],[-63.7387,51.9998],[-62.7944,51.9998],[-61.678,51.9999],[-60.4608,51.9999],[-59.2993,51.9999],[-58.0566,52],[-57.101,52.0001],[-57.1003,51.419],[-56.9665,51.4252],[-56.3379,51.7821],[-56.2109,51.7972],[-55.9342,51.9252],[-55.8874,52.0069],[-55.6848,52.1117],[-55.7059,52.2203],[-55.8201,52.3082],[-55.6476,52.4432],[-55.7406,52.4929],[-56.0004,52.5151],[-55.9333,52.6379],[-56.0594,52.7657],[-55.8116,52.8304],[-55.8348,52.9236],[-55.9557,53.0222],[-55.7469,53.1457],[-55.8245,53.1932],[-55.8121,53.3301],[-56.0349,53.4337],[-56.0362,53.5804],[-56.4311,53.6174],[-56.6327,53.6603],[-56.6313,53.7416],[-56.9835,53.7275],[-57.1331,53.621],[-57.3297,53.5846],[-57.4571,53.6486],[-57.1527,53.7399],[-57.3569,54.1395],[-58.0116,54.2397],[-58.2285,54.2357],[-58.4155,54.1404],[-58.2203,54.0638],[-58.8531,53.942],[-59.0707,53.7963],[-59.0768,53.687],[-59.3678,53.6524],[-59.5111,53.5554],[-59.8607,53.4997],[-60.1047,53.3376],[-60.3452,53.3824],[-60.0417,53.4802],[-60.1116,53.5466],[-60.1083,53.7577],[-59.7913,53.848],[-59.5316,53.8216],[-59.2165,53.9307],[-58.9745,53.9715],[-58.4681,54.2336],[-58.251,54.2543],[-58.1861,54.3586],[-57.9042,54.388],[-57.6783,54.3774],[-57.391,54.5019],[-57.3535,54.5914],[-57.4498,54.6494],[-57.6676,54.6335],[-57.847,54.7387],[-58.1385,54.7394],[-58.2035,54.7974],[-58.6815,54.8185],[-58.8841,54.8978],[-59.0259,55.0199],[-59.008,55.1537],[-59.2523,55.2159],[-59.43,55.142],[-59.862,55.1409],[-59.9392,55.2354],[-60.2871,55.2334],[-60.4189,55.4277],[-60.3548,55.5751],[-60.4896,55.8105],[-60.6066,55.733],[-60.7611,55.7809],[-60.7816,55.8597],[-61.0659,55.8496],[-61.0712,55.9283],[-61.3454,55.9693],[-61.3728,56.2288],[-61.547,56.2004],[-61.6267,56.2837],[-61.8302,56.3769],[-61.7566,56.4858],[-61.8689,56.6373],[-61.6949,56.7296],[-61.8092,56.7885],[-61.5018,56.9789],[-61.3448,56.9897],[-61.3819,57.1211],[-61.5267,57.1612],[-61.8651,57.1706],[-61.894,57.2705],[-61.817,57.3774],[-62.0313,57.4564],[-62.3771,57.4285],[-62.2892,57.5236],[-62.0723,57.5521],[-61.8899,57.625],[-62.0072,57.7814],[-62.1405,57.8332],[-62.305,58.0312],[-62.6614,58.1758],[-62.5786,58.5042],[-62.7842,58.498],[-63.0097,58.4287],[-63.1756,58.5035],[-62.8465,58.6693],[-62.9269,58.8232],[-63.2225,59.0051],[-63.191,59.0596],[-63.4422,59.1206],[-63.3733,59.2167],[-63.5316,59.3477],[-63.8059,59.3749],[-63.7281,59.5091],[-64.1479,59.6828],[-64.1925,59.7785],[-64.1264,59.9075],[-64.2205,60.0466],[-64.4515,60.0661],[-64.4166,60.2597],[-64.5314,60.3039]]],[[[-53.5677,48.1908],[-53.6494,48.1569],[-53.7044,48.1516],[-53.7699,48.1772],[-53.9284,48.1833],[-53.8752,48.1065],[-53.5655,48.0822],[-53.5677,48.1908]]],[[[-54.2768,49.5756],[-54.0165,49.6678],[-54.092,49.7505],[-54.3075,49.6718],[-54.2768,49.5756]]],[[[-52.6288,47.5267],[-52.7042,47.756],[-52.7984,47.7882],[-52.8612,47.6084],[-53.1138,47.4306],[-53.2436,47.5926],[-53.0536,47.9326],[-52.8658,48.124],[-53.2765,48.0164],[-53.4987,47.7464],[-53.4803,47.6926],[-53.6051,47.5394],[-53.8468,47.7068],[-53.6216,48.005],[-53.684,48.0804],[-53.9052,48.0851],[-53.9413,48.1767],[-53.9039,48.2368],[-53.8451,48.1908],[-53.7546,48.1933],[-53.6395,48.1693],[-53.5409,48.2398],[-53.3884,48.2861],[-53.3555,48.3605],[-53.1874,48.3553],[-53.0585,48.4359],[-52.9829,48.6042],[-53.1431,48.6365],[-53.2591,48.5266],[-53.4142,48.6238],[-53.5215,48.4622],[-53.7745,48.5508],[-53.7042,48.661],[-53.8779,48.748],[-53.9239,48.9177],[-53.609,49.0437],[-53.4537,49.2422],[-53.6791,49.3668],[-54.0411,49.4809],[-54.4794,49.4005],[-54.5447,49.5291],[-54.7429,49.3198],[-55.2229,49.2646],[-55.2132,49.3905],[-55.1282,49.4664],[-55.1557,49.5493],[-55.5824,49.4724],[-55.6448,49.3903],[-55.9386,49.6097],[-55.7226,49.9312],[-56.1488,50.1557],[-56.317,50.0393],[-56.7253,49.6903],[-56.8021,49.8015],[-56.7195,49.9486],[-56.7388,50.0268],[-56.5234,50.1964],[-56.4278,50.3757],[-55.8731,50.9173],[-55.7433,51.0701],[-55.7191,51.1843],[-55.8485,51.231],[-56.0184,51.2182],[-55.9669,51.3466],[-55.8052,51.3527],[-55.6174,51.3044],[-55.4919,51.3884],[-55.4085,51.5794],[-55.5141,51.6039],[-55.8431,51.5556],[-55.8928,51.6278],[-56.1062,51.529],[-56.4935,51.4122],[-56.7202,51.3193],[-56.7952,51.1378],[-56.9799,50.9878],[-56.9772,50.8815],[-57.2996,50.6495],[-57.4569,50.4831],[-57.6102,50.1657],[-57.9398,49.7053],[-57.9261,49.5893],[-58.1859,49.4427],[-58.2295,49.2685],[-58.1007,49.1828],[-58.1362,49.0949],[-58.4433,49.0568],[-58.5445,48.8718],[-58.6666,48.7258],[-58.6854,48.6018],[-58.7945,48.5649],[-58.9508,48.6075],[-59.0782,48.515],[-58.7032,48.5545],[-58.5362,48.4536],[-59.0018,48.1225],[-59.2417,48.0155],[-59.3988,47.8803],[-59.2829,47.7594],[-59.3011,47.6142],[-59.1116,47.5608],[-58.7672,47.596],[-58.5704,47.6427],[-58.0978,47.6952],[-57.8473,47.6524],[-57.3297,47.6328],[-57.1207,47.5676],[-56.9839,47.587],[-56.7775,47.5334],[-56.672,47.6267],[-56.3898,47.6064],[-56.235,47.632],[-55.9685,47.7598],[-55.8631,47.5986],[-56.0455,47.5358],[-55.7742,47.4578],[-55.4378,47.4714],[-55.3759,47.6865],[-55.0722,47.5974],[-54.9479,47.5104],[-55.184,47.4604],[-55.2553,47.4114],[-55.3013,47.2676],[-55.4872,47.1403],[-55.8699,47.0751],[-55.98,46.9704],[-55.8513,46.871],[-55.5892,46.9029],[-55.4178,46.8666],[-55.2509,46.9189],[-55.0951,47.0599],[-54.9892,47.2803],[-54.8661,47.3796],[-54.6029,47.41],[-54.4584,47.4994],[-54.141,47.8358],[-54.0133,47.8072],[-53.8859,47.5275],[-53.9106,47.3727],[-54.1505,47.0053],[-54.1885,46.8284],[-54.0504,46.8081],[-53.8185,46.9626],[-53.5726,47.1621],[-53.5118,47.123],[-53.6434,46.9854],[-53.5987,46.906],[-53.6229,46.6558],[-53.5547,46.6184],[-53.3738,46.7348],[-53.2113,46.6353],[-53.0669,46.6656],[-52.9413,46.7913],[-52.8545,47.0264],[-52.8688,47.1015],[-52.7856,47.3115],[-52.7304,47.3325],[-52.6288,47.5267]]],[[[-57.8714,54.8179],[-57.9413,54.9256],[-58.2252,54.853],[-58.1571,54.7639],[-57.8714,54.8179]]],[[[-61.6297,56.8463],[-61.6471,56.7438],[-61.4535,56.626],[-61.3728,56.6921],[-61.3523,56.8599],[-61.4621,56.9555],[-61.6297,56.8463]]],[[[-61.6129,57.4155],[-61.7228,57.5384],[-61.8489,57.4151],[-61.6129,57.4155]]],[[[-61.9004,57.7643],[-61.7452,57.713],[-61.6541,57.79],[-61.8004,57.8449],[-61.9004,57.7643]]]]}},{"type":"Feature","properties":{"sourceId":"1159309585","regionId":"region.cca677f0-b01a-4992-b5b2-b2aa5abce766","countryId":"country.1aj872z"},"geometry":{"type":"MultiPolygon","coordinates":[[[[-64.0427,45.992],[-64.1595,45.9638],[-64.2734,45.8357],[-64.6488,45.5591],[-64.8331,45.484],[-64.9357,45.3512],[-64.7174,45.3246],[-64.5762,45.4156],[-64.3881,45.3673],[-64.3124,45.402],[-64.066,45.413],[-63.593,45.3952],[-63.8253,45.2796],[-64.1151,45.2161],[-64.2235,45.1084],[-64.3675,45.1966],[-64.5106,45.2286],[-64.8632,45.1396],[-65.2317,44.9552],[-65.7859,44.6964],[-65.8479,44.5565],[-66.0325,44.4368],[-66.1137,44.3434],[-66.2103,44.1057],[-66.1488,44.0026],[-66.1701,43.8944],[-66.1217,43.7436],[-65.9634,43.7373],[-65.9094,43.8192],[-65.7716,43.6688],[-65.7781,43.5682],[-65.6677,43.5001],[-65.4626,43.5276],[-65.2504,43.6734],[-65.0344,43.7123],[-64.8857,43.8389],[-64.8157,43.9541],[-64.667,43.9979],[-64.5609,44.08],[-64.3397,44.3326],[-64.3539,44.4561],[-64.128,44.5549],[-64.057,44.6388],[-63.943,44.6205],[-63.9294,44.5113],[-63.7159,44.4561],[-63.5233,44.5181],[-63.5876,44.6642],[-63.2813,44.6435],[-63.1207,44.7516],[-63.0243,44.6968],[-62.5515,44.8676],[-61.8824,45.0342],[-61.8097,45.1009],[-61.6396,45.0873],[-61.5679,45.1471],[-61.3891,45.1636],[-61.3318,45.2307],[-61.0712,45.2239],[-60.9712,45.3139],[-61.1369,45.3542],[-61.4508,45.3494],[-61.2673,45.4434],[-61.4705,45.6831],[-61.6198,45.6143],[-61.8942,45.7037],[-61.9243,45.8891],[-62.4704,45.6145],[-62.7386,45.7625],[-63.0705,45.7784],[-63.1898,45.7364],[-63.4476,45.8214],[-63.8059,45.8887],[-63.9049,45.9803],[-64.0427,45.992]]],[[[-60.0809,45.7924],[-59.862,45.9357],[-59.8321,46.0031],[-59.8822,46.1767],[-60.0832,46.2462],[-60.1739,46.2307],[-60.351,46.3121],[-60.6213,46.101],[-60.6225,46.0244],[-60.7816,45.9543],[-60.7223,45.8955],[-60.7301,45.7139],[-60.9819,45.8207],[-60.9617,45.9152],[-60.8151,45.937],[-60.7008,46.088],[-60.4269,46.284],[-60.5094,46.3685],[-60.3505,46.6159],[-60.3108,46.8544],[-60.4904,46.9052],[-60.4616,47.0034],[-60.6033,47.0336],[-60.7696,46.8437],[-60.8692,46.8],[-61.0948,46.4539],[-61.2888,46.2426],[-61.459,46.1453],[-61.5411,46.0405],[-61.4553,45.7099],[-61.3349,45.5662],[-61.1314,45.5599],[-61.0097,45.6081],[-60.7269,45.5656],[-60.3954,45.6425],[-60.0809,45.7924]]]]}},{"type":"Feature","properties":{"sourceId":"1159308771","regionId":"region.faf4b85d-1f0c-48de-847a-a316d7c8c9d1","countryId":"country.1aj872z"},"geometry":{"type":"MultiPolygon","coordinates":[[[[-136.4449,68.9099],[-136.4448,67.7256],[-136.1894,67.5642],[-136.2009,67.4081],[-136.0952,67.2972],[-136.2304,67.1875],[-136.1622,67.0037],[-134.6495,67.0035],[-134.0301,66.9866],[-133.7633,66.7986],[-133.8342,66.7258],[-133.6006,66.5593],[-133.7597,66.4371],[-133.8191,66.3102],[-133.5843,66.2928],[-133.6118,65.9619],[-133.4246,65.9443],[-133.1274,66.0233],[-132.9204,66.0255],[-132.8067,65.9281],[-132.5615,66.0293],[-132.3467,65.9409],[-132.5694,65.8441],[-132.3707,65.7715],[-132.1822,65.5835],[-132.3221,65.4398],[-132.7134,65.2286],[-132.3539,65.069],[-132.5134,64.9434],[-132.5691,64.775],[-132.3206,64.7686],[-132.0538,64.6964],[-131.8487,64.5558],[-131.8058,64.4266],[-131.6194,64.3687],[-131.403,64.4631],[-131.1456,64.4241],[-131.0035,64.3252],[-130.9405,64.15],[-130.7399,63.9734],[-130.3625,63.8415],[-130.098,63.7823],[-129.8228,63.4779],[-129.9189,63.3733],[-130.1294,63.3165],[-129.8919,63.1834],[-129.8447,63.0913],[-129.6138,63.0722],[-129.7645,62.8516],[-129.523,62.6766],[-129.4955,62.6077],[-129.1969,62.5072],[-129.3094,62.3212],[-129.13,62.1161],[-128.9966,62.1362],[-128.7625,62.0608],[-128.5466,62.1218],[-128.3968,62.0413],[-128.1988,61.8463],[-128.1061,61.8592],[-127.9728,61.6887],[-127.5348,61.5102],[-127.3127,61.5216],[-127.1457,61.4652],[-126.9346,61.0522],[-126.8845,60.7819],[-126.6596,60.7497],[-126.0938,60.8147],[-125.826,60.8831],[-125.7154,60.834],[-125.3218,60.7879],[-125.1583,60.8523],[-124.869,60.8634],[-124.8282,60.9612],[-124.5665,60.939],[-124.4787,60.7879],[-124.6027,60.7183],[-124.4164,60.4793],[-124.2162,60.4613],[-124.1957,60.3301],[-123.9808,60.0985],[-123.8191,60.0001],[-122.3869,60.0001],[-121.4322,60.0001],[-120,60.0001],[-118.125,60.0001],[-116.25,60.0001],[-115,60.0001],[-113.1249,60.0001],[-111.8749,60.0001],[-110,60.0001],[-109.0001,60.0001],[-107.5005,60.0001],[-106.5007,60.0001],[-104.5011,60.0001],[-103.0014,60.0001],[-102.0016,60.0001],[-102.0029,61.2201],[-102.0038,62.1442],[-102.0049,63.1807],[-101.9991,64.2274],[-103.9741,64.389],[-105.1905,64.4849],[-107.4451,64.6626],[-108.9729,64.7782],[-109.2151,64.812],[-109.5798,64.9327],[-110.6332,65.4827],[-110.7058,65.5009],[-112.5039,65.5013],[-114.4137,66.086],[-115.414,66.3924],[-116.5936,66.7536],[-117.7732,67.1149],[-118.7662,67.4189],[-119.7591,67.723],[-120.6808,68.0156],[-120.6808,68.9019],[-120.6808,69.5567],[-120.8074,69.6235],[-121.4278,69.7668],[-122.036,69.8187],[-122.4811,69.8021],[-122.951,69.8386],[-123.1573,69.7703],[-123.1005,69.6754],[-123.1776,69.4959],[-123.3553,69.5028],[-123.5447,69.377],[-124.4385,69.3696],[-124.4291,69.4735],[-124.0718,69.6658],[-124.5067,69.7362],[-124.4037,69.8597],[-124.5069,69.9163],[-124.3839,70.1402],[-124.9877,70.0456],[-124.8971,69.9422],[-125.0323,69.7473],[-125.3701,69.6945],[-125.4159,69.6032],[-125.151,69.4543],[-125.1612,69.3861],[-125.4488,69.3192],[-125.9386,69.414],[-126.2452,69.5253],[-126.7018,69.7674],[-126.8668,70.0017],[-127.1365,70.2529],[-127.4452,70.4059],[-127.9283,70.5671],[-128.1959,70.447],[-128.0324,70.2937],[-128.1111,70.1887],[-128.3702,70.0974],[-128.3104,69.9894],[-128.9941,69.6794],[-129.1586,69.7148],[-129.1737,69.8323],[-129.702,69.789],[-130.3382,69.7023],[-130.4574,69.5792],[-130.7502,69.4543],[-131.1611,69.4959],[-131.4276,69.4351],[-131.5952,69.4743],[-131.8804,69.2847],[-132.3728,69.1493],[-132.8622,69.0733],[-132.8326,68.9211],[-132.5502,68.9201],[-132.5142,68.8053],[-132.9403,68.8633],[-133.451,68.7912],[-133.2094,68.9479],[-133.2027,69.0379],[-132.9079,69.1308],[-132.7712,69.2563],[-132.1143,69.3615],[-131.9836,69.5369],[-131.5032,69.5717],[-131.0858,69.6331],[-130.9412,69.5659],[-130.5712,69.7596],[-129.5998,69.9912],[-129.4065,70.1212],[-129.6535,70.2221],[-129.9317,70.0761],[-130.3245,70.1402],[-130.9429,70.0788],[-131.0848,69.8926],[-131.2567,69.9422],[-131.6201,69.8764],[-132.1389,69.6879],[-132.5484,69.743],[-132.8873,69.6611],[-132.9698,69.517],[-133.1958,69.414],[-133.6319,69.3992],[-133.704,69.3393],[-134.0922,69.3448],[-133.7884,69.4914],[-134.1209,69.5443],[-134.2242,69.6815],[-134.4101,69.6569],[-134.6413,69.4822],[-135.1554,69.4797],[-135.2843,69.4145],[-135.8379,69.3091],[-135.9678,69.2222],[-135.9906,69.0159],[-135.8685,68.9069],[-135.6282,68.8933],[-135.6356,68.7629],[-136.0676,68.8853],[-136.4449,68.9099]]],[[[-110.0037,72.7554],[-110.0037,72.9851],[-110.7037,73.0091],[-110.4835,72.8392],[-110.0037,72.7554]]],[[[-116.8558,69.6476],[-117.1436,69.888],[-117.1237,70.0012],[-114.8251,70.0001],[-112.8988,70.0001],[-112.8749,69.8323],[-112.6499,69.8334],[-112.5,70.0001],[-110,70.0001],[-110.0012,70.6953],[-110.0028,71.6464],[-110.0037,72.4581],[-110.2399,72.5278],[-110.7291,72.5713],[-111.0863,72.4083],[-111.4071,72.4262],[-111.6647,72.2921],[-111.9043,72.3467],[-111.5644,72.4411],[-111.2893,72.566],[-111.2196,72.7241],[-112.0773,72.898],[-113.015,73.016],[-113.1925,72.9933],[-113.604,72.7775],[-113.4433,72.7519],[-114.3218,72.5918],[-114.3561,72.7463],[-114.0231,72.7978],[-114.0494,72.9705],[-113.962,73.1229],[-114.2651,73.3357],[-114.5843,73.3846],[-115.5704,73.2018],[-116.644,73.035],[-116.8948,72.9674],[-117.3693,72.9178],[-117.8673,72.7015],[-118.1898,72.6354],[-118.5934,72.4287],[-118.4289,72.3467],[-118.1249,72.3095],[-118.1278,72.2272],[-118.6782,72.1423],[-118.7475,72.0532],[-119.0543,71.9353],[-119.1376,71.7744],[-119.0509,71.6268],[-118.0763,71.665],[-117.7729,71.5859],[-118.1273,71.5386],[-118.3088,71.4322],[-118.162,71.379],[-117.5513,71.3742],[-117.0482,71.4374],[-116.821,71.4326],[-116.1849,71.5003],[-115.9039,71.3935],[-116.8063,71.2909],[-117.4749,71.1855],[-117.798,71.1704],[-118.3865,71.0222],[-118.1868,70.8394],[-117.709,70.6951],[-117.5854,70.6064],[-116.9886,70.6025],[-116.2334,70.6397],[-116.0386,70.5792],[-115.5809,70.5801],[-114.1831,70.6678],[-113.9884,70.7162],[-113.5613,70.6431],[-113.2071,70.6479],[-112.9259,70.5654],[-112.144,70.4939],[-111.8088,70.3521],[-111.9374,70.2637],[-112.2609,70.3093],[-112.5863,70.2],[-113.4769,70.2836],[-113.6427,70.2624],[-114.1847,70.3157],[-116.0327,70.2203],[-116.9651,70.1291],[-117.442,69.9894],[-117.2521,69.7641],[-116.8558,69.6476]]],[[[-115.3236,73.5087],[-115.6464,73.6765],[-115.923,73.73],[-116.867,74.0876],[-117.4165,74.2325],[-118.066,74.2807],[-118.7254,74.2208],[-119.6622,74.225],[-120.1566,74.279],[-120.9347,74.4236],[-121.1324,74.51],[-121.5808,74.5559],[-122.6232,74.4631],[-123.3035,74.4494],[-124.7557,74.3486],[-124.5456,74.2651],[-124.4658,74.0742],[-124.1453,73.8511],[-123.7738,73.7656],[-124.0561,73.6619],[-124.0679,73.5397],[-124.4453,73.4193],[-124.6719,73.1828],[-124.8599,73.0903],[-124.4904,72.9251],[-125.0384,72.8325],[-124.9455,72.703],[-125.0607,72.5656],[-125.2992,72.4891],[-125.7521,72.1477],[-125.7904,71.9492],[-125.2323,71.9413],[-124.6617,71.8046],[-124.0646,71.7004],[-123.6235,71.4622],[-123.4357,71.2486],[-123.0999,71.0846],[-122.7978,71.0878],[-122.6295,71.175],[-122.1561,71.2612],[-121.7006,71.4681],[-121.4232,71.3803],[-120.6352,71.4914],[-120.3834,71.7015],[-120.434,71.9643],[-120.1977,72.085],[-120.1967,72.217],[-119.7728,72.2296],[-119.3402,72.3467],[-119.1639,72.6298],[-118.7176,72.7488],[-118.0421,72.8859],[-117.3902,73.0555],[-117.2155,73.0661],[-116.4591,73.2612],[-115.7538,73.3575],[-115.3236,73.5087]]],[[[-117.7847,75.8965],[-117.4625,76.0883],[-117.6597,76.1259],[-118.1408,75.9882],[-118.6212,75.9221],[-119.409,75.6016],[-118.6139,75.5037],[-117.9325,75.7398],[-117.7847,75.8965]]],[[[-110.0037,76.2264],[-110.0037,76.4862],[-110.3972,76.3967],[-110.3836,76.3005],[-110.0037,76.2264]]],[[[-110.0037,74.8526],[-110.0037,75.5447],[-110.5136,75.5733],[-111.2743,75.5272],[-111.3614,75.7152],[-111.8555,75.9535],[-112.3646,76.0336],[-112.4325,76.1708],[-112.9942,76.2733],[-113.3544,76.2661],[-113.963,76.1906],[-114.2059,76.471],[-114.4508,76.5009],[-115.5123,76.4562],[-115.8749,76.3636],[-115.8411,76.185],[-116.5262,76.1601],[-116.7059,76.0578],[-116.7081,75.8996],[-116.2025,75.8681],[-114.8577,75.9108],[-114.875,75.8674],[-116.8854,75.789],[-117.228,75.6335],[-117.1983,75.5755],[-115.5897,75.588],[-116.0419,75.4848],[-117.2022,75.4808],[-117.6749,75.2932],[-117.5101,75.2011],[-116.7672,75.1222],[-116.5455,75.1852],[-116.1664,75.0402],[-115.7154,74.9704],[-115.4058,75.1029],[-114.9585,74.9705],[-114.4408,75.0679],[-114.0465,75.3664],[-113.7843,75.3397],[-113.9395,75.1833],[-113.8866,75.0582],[-111.0279,75.1772],[-111.5555,75.0126],[-112.7978,74.9851],[-113.4956,74.8392],[-114.2344,74.7587],[-114.4398,74.6837],[-114.1735,74.567],[-113.693,74.4445],[-113.0238,74.3959],[-112.4374,74.4135],[-111.6575,74.5012],[-111.001,74.6164],[-110.344,74.7966],[-110.0037,74.8526]]],[[[-114.837,76.7598],[-113.8306,76.7255],[-113.4535,76.7735],[-113.8461,76.8989],[-114.4346,76.8824],[-114.837,76.7598]]],[[[-119.3175,76.1999],[-118.6516,76.2911],[-118.6464,76.4324],[-118.9463,76.5229],[-118.3021,76.5677],[-118.3398,76.7713],[-117.9281,76.6779],[-118.007,76.4025],[-117.8186,76.3251],[-117.3524,76.2596],[-116.9343,76.3558],[-117.0748,76.5261],[-116.3248,76.5817],[-115.8928,76.6984],[-116.0402,76.8283],[-115.8314,76.9728],[-116.2217,77.0417],[-116.2472,77.196],[-115.9278,77.2123],[-115.4042,77.3184],[-116.4067,77.5624],[-116.9136,77.4743],[-116.8602,77.3183],[-117.2311,77.2857],[-117.8524,77.3904],[-118.8205,77.361],[-119.2897,77.2888],[-119.3873,77.1925],[-120.0911,77.0056],[-120.368,76.8145],[-120.9195,76.6955],[-121.2043,76.6782],[-121.5536,76.437],[-122.3806,76.4085],[-122.8617,76.1824],[-122.4926,76.1435],[-122.7316,75.9784],[-122.4259,75.9328],[-121.8471,76.0452],[-121.4368,75.9443],[-120.9637,76.0133],[-120.9888,76.164],[-120.6916,76.1598],[-120.7174,76.0268],[-120.3885,75.9722],[-120.489,75.8471],[-119.8629,75.8591],[-119.4917,76.0369],[-119.6842,76.0936],[-119.3175,76.1999]]],[[[-113.6863,77.8666],[-114.1146,78.0004],[-114.6797,78.0345],[-115.1182,77.9597],[-114.3007,77.7133],[-113.7225,77.7692],[-113.6863,77.8666]]],[[[-110.0037,77.9314],[-110.0037,78.0993],[-110.7117,78.1038],[-112.2709,78.0153],[-113.2413,77.905],[-113.3231,77.8082],[-113.1996,77.5277],[-112.6006,77.4537],[-112.1092,77.3258],[-111.2811,77.4315],[-110.8807,77.4124],[-110.2354,77.5042],[-110.0559,77.632],[-110.1295,77.7815],[-110.72,77.7662],[-110.8415,77.8698],[-110.0037,77.9314]]],[[[-110.0037,78.329],[-110.0037,78.6869],[-110.4269,78.7663],[-111.2756,78.6702],[-111.816,78.5489],[-112.1501,78.557],[-113.2142,78.4066],[-113.0615,78.2744],[-112.1755,78.3774],[-111.7785,78.2702],[-110.8403,78.3152],[-110.3324,78.286],[-110.0037,78.329]]]]}},{"type":"Feature","properties":{"sourceId":"1159310911","regionId":"region.31abc183-95e7-4afa-aaa5-7d193b256803","countryId":"country.1aj872z"},"geometry":{"type":"Polygon","coordinates":[[[-62.004,46.4641],[-62.1852,46.487],[-62.5169,46.4758],[-62.9532,46.4241],[-63.1947,46.4311],[-63.3323,46.4988],[-63.6389,46.567],[-63.7296,46.4433],[-63.881,46.5224],[-63.8336,46.6124],[-64.0933,46.78],[-63.9748,46.894],[-64.0527,47.0215],[-64.2313,46.9033],[-64.4168,46.6828],[-64.2305,46.6353],[-64.108,46.5444],[-64.1343,46.4156],[-63.9345,46.423],[-63.6278,46.2238],[-63.2334,46.1455],[-63.1063,46.2102],[-62.9974,46.1793],[-62.9316,46.0426],[-62.7774,45.9643],[-62.5452,45.9718],[-62.5275,46.0573],[-62.5764,46.239],[-62.4373,46.2163],[-62.3069,46.3446],[-62.1656,46.3584],[-62.004,46.4641]]]}}]}